{
  "type": "FeatureCollection",
  "features": [
    {
      "type": "Feature",
      "id": "us-county:09:110",
      "properties": {
        "boundary_id": "us-county:09:110",
        "boundary_type": "county",
        "name": "Capitol Planning Region",
        "stateFips": "09",
        "countyFips": "110",
        "bbox": [
          -72.95364700042913,
          41.54472499975392,
          -72.15632099967668,
          42.037528000300526
        ]
      },
      "geometry": {
        "type": "Polygon",
        "coordinates": [
          [
            [
              -72.33422599959063,
              41.64359799967854
            ],
            [
              -72.26841800004091,
              41.67113700016541
            ],
            [
              -72.27430700020905,
              41.69260699992086
            ],
            [
              -72.25016700027868,
              41.69932899993563
            ],
            [
              -72.2395589999044,
              41.71419100030054
            ],
            [
              -72.25264299974684,
              41.72820199997445
            ],
            [
              -72.19812599956337,
              41.72817600032326
            ],
            [
              -72.18765600017967,
              41.7551809997028
            ],
            [
              -72.15632099967668,
              41.75349100000866
            ],
            [
              -72.16449799989033,
              41.83491300015942
            ],
            [
              -72.21771899971507,
              41.835184000188505
            ],
            [
              -72.21697999974826,
              41.958161000208676
            ],
            [
              -72.23489800032289,
              41.95758299979103
            ],
            [
              -72.20508099993647,
              42.03106899983333
            ],
            [
              -72.53154899975411,
              42.034578000228784
            ],
            [
              -72.58216299969114,
              42.02474099975854
            ],
            [
              -72.75589400009532,
              42.03634900028546
            ],
            [
              -72.7667330004483,
              42.003266000225935
            ],
            [
              -72.81705299975913,
              41.997685000102855
            ],
            [
              -72.8137839998975,
              42.03674400029586
            ],
            [
              -72.86363999960116,
              42.037528000300526
            ],
            [
              -72.91534599968237,
              41.8967969999008
            ],
            [
              -72.94064700025226,
              41.89519599990143
            ],
            [
              -72.95364700042913,
              41.85388499974979
            ],
            [
              -72.9517719999372,
              41.842852000054876
            ],
            [
              -72.9363480001707,
              41.839798000219155
            ],
            [
              -72.94902399958413,
              41.80643099992675
            ],
            [
              -72.921182999972,
              41.80711700016174
            ],
            [
              -72.92494599957804,
              41.78778500011702
            ],
            [
              -72.90847999989607,
              41.776043000071475
            ],
            [
              -72.88338799956355,
              41.64946800018622
            ],
            [
              -72.93850099959869,
              41.64431100025262
            ],
            [
              -72.9336440001986,
              41.607793999952435
            ],
            [
              -72.94634999974927,
              41.55679699992589
            ],
            [
              -72.883884999681,
              41.56381200013889
            ],
            [
              -72.86780999981127,
              41.54902800019635
            ],
            [
              -72.84427999997627,
              41.54472499975392
            ],
            [
              -72.848541000423,
              41.567329000103
            ],
            [
              -72.82764400041496,
              41.570999000237585
            ],
            [
              -72.81914499998605,
              41.554298000297955
            ],
            [
              -72.80124300020329,
              41.57309799982123
            ],
            [
              -72.75214099963672,
              41.57889800013223
            ],
            [
              -72.75294099970287,
              41.59249700026374
            ],
            [
              -72.7145379997472,
              41.604310000274545
            ],
            [
              -72.7138969996897,
              41.62770500025258
            ],
            [
              -72.62783599966417,
              41.640198999705994
            ],
            [
              -72.63052399974276,
              41.633282000107094
            ],
            [
              -72.50543100029796,
              41.646998999970826
            ],
            [
              -72.46673000041645,
              41.58389899989528
            ],
            [
              -72.41722899964172,
              41.590598000120956
            ],
            [
              -72.41036700005337,
              41.60258099976948
            ],
            [
              -72.38414999996466,
              41.588652000115516
            ],
            [
              -72.375211000218,
              41.601400000194545
            ],
            [
              -72.32809499957315,
              41.60547099974562
            ],
            [
              -72.3339340004109,
              41.64277300018781
            ],
            [
              -72.33422599959063,
              41.64359799967854
            ]
          ]
        ]
      }
    },
    {
      "type": "Feature",
      "id": "us-county:09:120",
      "properties": {
        "boundary_id": "us-county:09:120",
        "boundary_type": "county",
        "name": "Greater Bridgeport Planning Region",
        "stateFips": "09",
        "countyFips": "120",
        "bbox": [
          -73.36881099974912,
          41.0178800000813,
          -72.99954700018289,
          41.3917109998531
        ]
      },
      "geometry": {
        "type": "Polygon",
        "coordinates": [
          [
            [
              -73.14688200039825,
              41.25536700001957
            ],
            [
              -73.2047999997895,
              41.299359999741895
            ],
            [
              -73.15705499968102,
              41.37669600006134
            ],
            [
              -73.18326900029498,
              41.3917109998531
            ],
            [
              -73.2048280002769,
              41.37047499979992
            ],
            [
              -73.22115800041476,
              41.364001999840454
            ],
            [
              -73.22907600016232,
              41.37032399984441
            ],
            [
              -73.32528699990439,
              41.32247400028581
            ],
            [
              -73.30479800032538,
              41.29776400012601
            ],
            [
              -73.36881099974912,
              41.27497499997731
            ],
            [
              -73.32580999996112,
              41.227227999926626
            ],
            [
              -73.33845699996056,
              41.19453900033273
            ],
            [
              -73.29810900009106,
              41.1436600002667
            ],
            [
              -73.29140599961305,
              41.0178800000813
            ],
            [
              -72.99954700018289,
              41.087107999956814
            ],
            [
              -73.12145299978184,
              41.177597000314144
            ],
            [
              -73.10965299970422,
              41.201996999796876
            ],
            [
              -73.1099530001782,
              41.229395999906615
            ],
            [
              -73.08675200023116,
              41.254596000069306
            ],
            [
              -73.10829500031956,
              41.268582000310936
            ],
            [
              -73.14600899963882,
              41.25580700005742
            ],
            [
              -73.14688200039825,
              41.25536700001957
            ]
          ]
        ]
      }
    },
    {
      "type": "Feature",
      "id": "us-county:09:130",
      "properties": {
        "boundary_id": "us-county:09:130",
        "boundary_type": "county",
        "name": "Lower Connecticut River Valley Planning Region",
        "stateFips": "09",
        "countyFips": "130",
        "bbox": [
          -72.75294099970287,
          41.17777399992736,
          -72.24852299976541,
          41.646998999970826
        ]
      },
      "geometry": {
        "type": "Polygon",
        "coordinates": [
          [
            [
              -72.24852299976541,
              41.27589700021819
            ],
            [
              -72.25640200005323,
              41.325899999847934
            ],
            [
              -72.27672499995091,
              41.366296999676074
            ],
            [
              -72.27663600026244,
              41.440449000267044
            ],
            [
              -72.30486799968685,
              41.43272799995872
            ],
            [
              -72.32339399980869,
              41.534249999933564
            ],
            [
              -72.43076699994391,
              41.52456699998354
            ],
            [
              -72.50543100029796,
              41.646998999970826
            ],
            [
              -72.7138969996897,
              41.62770500025258
            ],
            [
              -72.7145379997472,
              41.604310000274545
            ],
            [
              -72.75294099970287,
              41.59249700026374
            ],
            [
              -72.74332999993656,
              41.4831140001624
            ],
            [
              -72.73388599967652,
              41.4853679997859
            ],
            [
              -72.74614100003879,
              41.42329700011763
            ],
            [
              -72.65419300039326,
              41.43825599998364
            ],
            [
              -72.64225699987323,
              41.429236000287254
            ],
            [
              -72.6504159996452,
              41.41896399986965
            ],
            [
              -72.6320329996385,
              41.412138000326415
            ],
            [
              -72.61232800023213,
              41.386178999669845
            ],
            [
              -72.61426899994798,
              41.329619999968216
            ],
            [
              -72.58594299991395,
              41.324013999761895
            ],
            [
              -72.58559899995736,
              41.30734800012226
            ],
            [
              -72.54598599985668,
              41.28033500025887
            ],
            [
              -72.54723500035975,
              41.26249900033022
            ],
            [
              -72.52790199960072,
              41.25011500028699
            ],
            [
              -72.52790099977581,
              41.17777399992736
            ],
            [
              -72.24852899961319,
              41.23071100031115
            ],
            [
              -72.24853000033643,
              41.270327000165075
            ],
            [
              -72.24852299976541,
              41.27589700021819
            ]
          ]
        ]
      }
    },
    {
      "type": "Feature",
      "id": "us-county:09:140",
      "properties": {
        "boundary_id": "us-county:09:140",
        "boundary_type": "county",
        "name": "Naugatuck Valley Planning Region",
        "stateFips": "09",
        "countyFips": "140",
        "bbox": [
          -73.32711399981746,
          41.254596000069306,
          -72.84629699986012,
          41.72317699997577
        ]
      },
      "geometry": {
        "type": "Polygon",
        "coordinates": [
          [
            [
              -73.06785100019059,
              41.300995999862614
            ],
            [
              -73.0407069998141,
              41.31389100001721
            ],
            [
              -73.04820299978729,
              41.39149899976514
            ],
            [
              -73.04165099982032,
              41.4208959997474
            ],
            [
              -73.02945900010555,
              41.419491999790516
            ],
            [
              -73.02575099985278,
              41.45959600032394
            ],
            [
              -73.00334699959886,
              41.462717999710115
            ],
            [
              -73.00129999957777,
              41.47106200024748
            ],
            [
              -72.88666700036923,
              41.447957000254
            ],
            [
              -72.84629699986012,
              41.50282900027262
            ],
            [
              -72.8612350002781,
              41.5281019997005
            ],
            [
              -72.85314699975292,
              41.54641199970708
            ],
            [
              -72.87925599988657,
              41.563151999838766
            ],
            [
              -72.94634999974927,
              41.55679699992589
            ],
            [
              -72.9336440001986,
              41.607793999952435
            ],
            [
              -72.93850099959869,
              41.64431100025262
            ],
            [
              -72.88338799956355,
              41.64946800018622
            ],
            [
              -72.89826999990504,
              41.72317699997577
            ],
            [
              -73.0684019998364,
              41.70709300002984
            ],
            [
              -73.14203099994764,
              41.672294000316164
            ],
            [
              -73.26144600000981,
              41.664641000144506
            ],
            [
              -73.25349599957687,
              41.60444700014558
            ],
            [
              -73.26733600000286,
              41.60319899994585
            ],
            [
              -73.2522650004138,
              41.51213400016623
            ],
            [
              -73.31938500021576,
              41.50513799979518
            ],
            [
              -73.32711399981746,
              41.48452700018787
            ],
            [
              -73.31277700017232,
              41.469935000063415
            ],
            [
              -73.29959299987244,
              41.470111000078056
            ],
            [
              -73.29776000011161,
              41.448275999769486
            ],
            [
              -73.2736960003492,
              41.451645000102666
            ],
            [
              -73.26367799997881,
              41.434532000028334
            ],
            [
              -73.24525899998709,
              41.43989500022366
            ],
            [
              -73.23841099974412,
              41.42625300017223
            ],
            [
              -73.21823500015954,
              41.42906999977988
            ],
            [
              -73.18655700042318,
              41.40859600016886
            ],
            [
              -73.18795699964065,
              41.39729599979874
            ],
            [
              -73.17415399992291,
              41.38417499986758
            ],
            [
              -73.15797699994593,
              41.382959000305156
            ],
            [
              -73.2047999997895,
              41.299359999741895
            ],
            [
              -73.17390899970052,
              41.2686159998501
            ],
            [
              -73.15526600030114,
              41.26908699984661
            ],
            [
              -73.14688200039825,
              41.25536700001957
            ],
            [
              -73.10829500031956,
              41.268582000310936
            ],
            [
              -73.08675200023116,
              41.254596000069306
            ],
            [
              -73.08685199979026,
              41.27659600030393
            ],
            [
              -73.06709600033024,
              41.30032999969897
            ],
            [
              -73.06785100019059,
              41.300995999862614
            ]
          ]
        ]
      }
    },
    {
      "type": "Feature",
      "id": "us-county:09:150",
      "properties": {
        "boundary_id": "us-county:09:150",
        "boundary_type": "county",
        "name": "Northeastern Connecticut Planning Region",
        "stateFips": "09",
        "countyFips": "150",
        "bbox": [
          -72.2347860001699,
          41.5057039998821,
          -71.78723899968534,
          42.03106899983333
        ]
      },
      "geometry": {
        "type": "Polygon",
        "coordinates": [
          [
            [
              -72.2347860001699,
              41.9578020001223
            ],
            [
              -72.21697999974826,
              41.958161000208676
            ],
            [
              -72.21771899971507,
              41.835184000188505
            ],
            [
              -72.16449799989033,
              41.83491300015942
            ],
            [
              -72.15671900005992,
              41.75371900018884
            ],
            [
              -72.11204500034468,
              41.74589699992705
            ],
            [
              -72.12248899978913,
              41.712754000284725
            ],
            [
              -72.11977300012146,
              41.66183399981866
            ],
            [
              -71.9519359999083,
              41.63432800032498
            ],
            [
              -71.88442199992102,
              41.641203999695456
            ],
            [
              -71.86340799973715,
              41.51492600018252
            ],
            [
              -71.79315999964052,
              41.5057039998821
            ],
            [
              -71.78723899968534,
              41.65611099995739
            ],
            [
              -71.80067099968231,
              42.02351400030542
            ],
            [
              -72.20508099993647,
              42.03106899983333
            ],
            [
              -72.23444999971092,
              41.9584630000083
            ],
            [
              -72.2347860001699,
              41.9578020001223
            ]
          ]
        ]
      }
    },
    {
      "type": "Feature",
      "id": "us-county:09:160",
      "properties": {
        "boundary_id": "us-county:09:160",
        "boundary_type": "county",
        "name": "Northwest Hills Planning Region",
        "stateFips": "09",
        "countyFips": "160",
        "bbox": [
          -73.51808000000763,
          41.504408999801704,
          -72.86363999960116,
          42.04952500007871
        ]
      },
      "geometry": {
        "type": "Polygon",
        "coordinates": [
          [
            [
              -72.99894999960799,
              41.71439799975691
            ],
            [
              -72.89826999990504,
              41.72317699997577
            ],
            [
              -72.90847999989607,
              41.776043000071475
            ],
            [
              -72.92498999995897,
              41.78790500005452
            ],
            [
              -72.921182999972,
              41.80711700016174
            ],
            [
              -72.94902399958413,
              41.80643099992675
            ],
            [
              -72.9363480001707,
              41.839798000219155
            ],
            [
              -72.9517719999372,
              41.842852000054876
            ],
            [
              -72.95364700042913,
              41.85388499974979
            ],
            [
              -72.94064700025226,
              41.89519599990143
            ],
            [
              -72.91534599968237,
              41.8967969999008
            ],
            [
              -72.86363999960116,
              42.037528000300526
            ],
            [
              -73.487318999615,
              42.04952500007871
            ],
            [
              -73.51808000000763,
              41.666723000114025
            ],
            [
              -73.3821239999204,
              41.68332700001384
            ],
            [
              -73.37785800034912,
              41.65898399975733
            ],
            [
              -73.35907899960897,
              41.64652100029938
            ],
            [
              -73.33031099970906,
              41.504408999801704
            ],
            [
              -73.2522650004138,
              41.51213400016623
            ],
            [
              -73.26733600000286,
              41.60319899994585
            ],
            [
              -73.25349599957687,
              41.60444700014558
            ],
            [
              -73.26144600000981,
              41.664641000144506
            ],
            [
              -73.14203099994764,
              41.672294000316164
            ],
            [
              -73.0684019998364,
              41.70709300002984
            ],
            [
              -73.00043699976243,
              41.71416699998031
            ],
            [
              -72.99894999960799,
              41.71439799975691
            ]
          ]
        ]
      }
    },
    {
      "type": "Feature",
      "id": "us-county:09:170",
      "properties": {
        "boundary_id": "us-county:09:170",
        "boundary_type": "county",
        "name": "South Central Connecticut Planning Region",
        "stateFips": "09",
        "countyFips": "170",
        "bbox": [
          -73.1198529996495,
          41.087107999956814,
          -72.52790099977581,
          41.57889399984668
        ]
      },
      "geometry": {
        "type": "Polygon",
        "coordinates": [
          [
            [
              -72.88666700036923,
              41.447957000254
            ],
            [
              -73.00129999957777,
              41.47106200024748
            ],
            [
              -73.00334699959886,
              41.462717999710115
            ],
            [
              -73.02575099985278,
              41.45959600032394
            ],
            [
              -73.02945900010555,
              41.419491999790516
            ],
            [
              -73.04165099982032,
              41.4208959997474
            ],
            [
              -73.04820299978729,
              41.39149899976514
            ],
            [
              -73.0407069998141,
              41.31389100001721
            ],
            [
              -73.06174600011235,
              41.31007900028695
            ],
            [
              -73.06875099981586,
              41.28919600001702
            ],
            [
              -73.08685199979026,
              41.27659600030393
            ],
            [
              -73.08734999973262,
              41.251792000264935
            ],
            [
              -73.1099530001782,
              41.229395999906615
            ],
            [
              -73.1198529996495,
              41.175696999719094
            ],
            [
              -72.99954700018289,
              41.087107999956814
            ],
            [
              -72.52790099977581,
              41.17777399992736
            ],
            [
              -72.52790199960072,
              41.25011500028699
            ],
            [
              -72.54723500035975,
              41.26249900033022
            ],
            [
              -72.54598599985668,
              41.28033500025887
            ],
            [
              -72.58559899995736,
              41.30734800012226
            ],
            [
              -72.58594299991395,
              41.324013999761895
            ],
            [
              -72.61426899994798,
              41.329619999968216
            ],
            [
              -72.61232800023213,
              41.386178999669845
            ],
            [
              -72.6320329996385,
              41.412138000326415
            ],
            [
              -72.6504159996452,
              41.41896399986965
            ],
            [
              -72.64225699987323,
              41.429236000287254
            ],
            [
              -72.65419300039326,
              41.43825599998364
            ],
            [
              -72.74614100003879,
              41.42329700011763
            ],
            [
              -72.73388599967652,
              41.4853679997859
            ],
            [
              -72.74332999993656,
              41.4831140001624
            ],
            [
              -72.75218099981969,
              41.57889399984668
            ],
            [
              -72.80124300020329,
              41.57309799982123
            ],
            [
              -72.81914499998605,
              41.554298000297955
            ],
            [
              -72.82764400041496,
              41.570999000237585
            ],
            [
              -72.848541000423,
              41.567329000103
            ],
            [
              -72.84427999997627,
              41.54472499975392
            ],
            [
              -72.85314699975292,
              41.54641199970708
            ],
            [
              -72.8612350002781,
              41.5281019997005
            ],
            [
              -72.84629699986012,
              41.50282900027262
            ],
            [
              -72.88644499971308,
              41.448272000156784
            ],
            [
              -72.88666700036923,
              41.447957000254
            ]
          ]
        ]
      }
    },
    {
      "type": "Feature",
      "id": "us-county:09:180",
      "properties": {
        "boundary_id": "us-county:09:180",
        "boundary_type": "county",
        "name": "Southeastern Connecticut Planning Region",
        "stateFips": "09",
        "countyFips": "180",
        "bbox": [
          -72.46673000041645,
          41.23071100031115,
          -71.79315999964052,
          41.75621100029775
        ]
      },
      "geometry": {
        "type": "Polygon",
        "coordinates": [
          [
            [
              -72.05005800012734,
              41.27661400019567
            ],
            [
              -71.92945100036182,
              41.31038699999655
            ],
            [
              -71.9072579999951,
              41.30448300028953
            ],
            [
              -71.89206699985712,
              41.330075000201894
            ],
            [
              -71.85745800036793,
              41.32078899970279
            ],
            [
              -71.82936499996238,
              41.342432000211026
            ],
            [
              -71.84262700008006,
              41.40975700023751
            ],
            [
              -71.81808799994151,
              41.41985200030671
            ],
            [
              -71.79774499995236,
              41.416726999672186
            ],
            [
              -71.79315999964052,
              41.5057039998821
            ],
            [
              -71.86340799973715,
              41.51492600018252
            ],
            [
              -71.88442199992102,
              41.641203999695456
            ],
            [
              -71.9519359999083,
              41.63432800032498
            ],
            [
              -72.11977300012146,
              41.66183399981866
            ],
            [
              -72.12248899978913,
              41.712754000284725
            ],
            [
              -72.11204500034468,
              41.74589699992705
            ],
            [
              -72.1716480002571,
              41.74846699994474
            ],
            [
              -72.18227400017471,
              41.75621100029775
            ],
            [
              -72.19564400024744,
              41.73961099982095
            ],
            [
              -72.19210400022415,
              41.730412999813204
            ],
            [
              -72.25264299974684,
              41.72820199997445
            ],
            [
              -72.2395589999044,
              41.71419100030054
            ],
            [
              -72.25016700027868,
              41.69932899993563
            ],
            [
              -72.27430700020905,
              41.69260699992086
            ],
            [
              -72.26841800004091,
              41.67113700016541
            ],
            [
              -72.33422599959063,
              41.64359799967854
            ],
            [
              -72.32809499957315,
              41.60547099974562
            ],
            [
              -72.375211000218,
              41.601400000194545
            ],
            [
              -72.38414999996466,
              41.588652000115516
            ],
            [
              -72.41036700005337,
              41.60258099976948
            ],
            [
              -72.41722899964172,
              41.590598000120956
            ],
            [
              -72.46673000041645,
              41.58389899989528
            ],
            [
              -72.43076699994391,
              41.52456699998354
            ],
            [
              -72.32339399980869,
              41.534249999933564
            ],
            [
              -72.30486799968685,
              41.43272799995872
            ],
            [
              -72.27663600026244,
              41.440449000267044
            ],
            [
              -72.28215399981151,
              41.40589899988848
            ],
            [
              -72.27450399985256,
              41.35609199981459
            ],
            [
              -72.2486779995761,
              41.29957199971073
            ],
            [
              -72.24852899961319,
              41.23071100031115
            ],
            [
              -72.08179199994017,
              41.26223600022484
            ],
            [
              -72.05047800025187,
              41.27642300004095
            ],
            [
              -72.05005800012734,
              41.27661400019567
            ]
          ]
        ]
      }
    },
    {
      "type": "Feature",
      "id": "us-county:09:190",
      "properties": {
        "boundary_id": "us-county:09:190",
        "boundary_type": "county",
        "name": "Western Connecticut Planning Region",
        "stateFips": "09",
        "countyFips": "190",
        "bbox": [
          -73.72777499981095,
          40.95094299982573,
          -73.18326900029498,
          41.68332700001384
        ]
      },
      "geometry": {
        "type": "Polygon",
        "coordinates": [
          [
            [
              -73.29555900010473,
              41.07959699974357
            ],
            [
              -73.29810900009106,
              41.1436600002667
            ],
            [
              -73.33845699996056,
              41.19453900033273
            ],
            [
              -73.32363800026658,
              41.22222099998575
            ],
            [
              -73.36881099974912,
              41.27497499997731
            ],
            [
              -73.30479800032538,
              41.29776400012601
            ],
            [
              -73.32528699990439,
              41.32247400028581
            ],
            [
              -73.22907600016232,
              41.37032399984441
            ],
            [
              -73.22115800041476,
              41.364001999840454
            ],
            [
              -73.2048280002769,
              41.37047499979992
            ],
            [
              -73.18326900029498,
              41.3917109998531
            ],
            [
              -73.18485699983344,
              41.40629599974968
            ],
            [
              -73.21823500015954,
              41.42906999977988
            ],
            [
              -73.23841099974412,
              41.42625300017223
            ],
            [
              -73.24525899998709,
              41.43989500022366
            ],
            [
              -73.26367799997881,
              41.434532000028334
            ],
            [
              -73.2736960003492,
              41.451645000102666
            ],
            [
              -73.29776000011161,
              41.448275999769486
            ],
            [
              -73.29959299987244,
              41.470111000078056
            ],
            [
              -73.31277700017232,
              41.469935000063415
            ],
            [
              -73.32711399981746,
              41.48452700018787
            ],
            [
              -73.31888899992322,
              41.50518899990004
            ],
            [
              -73.33031099970906,
              41.504408999801704
            ],
            [
              -73.35907899960897,
              41.64652100029938
            ],
            [
              -73.37785800034912,
              41.65898399975733
            ],
            [
              -73.3821239999204,
              41.68332700001384
            ],
            [
              -73.51808000000763,
              41.666723000114025
            ],
            [
              -73.5509620000412,
              41.295420999998456
            ],
            [
              -73.48269499984343,
              41.21277200025087
            ],
            [
              -73.72777499981095,
              41.10069600029421
            ],
            [
              -73.65525499956236,
              41.012246000096084
            ],
            [
              -73.6596709998198,
              40.98790900031883
            ],
            [
              -73.61288499978615,
              40.95094299982573
            ],
            [
              -73.29140599961305,
              41.0178800000813
            ],
            [
              -73.29467799984772,
              41.067247000091406
            ],
            [
              -73.29555900010473,
              41.07959699974357
            ]
          ]
        ]
      }
    },
    {
      "type": "Feature",
      "id": "us-state:09",
      "properties": {
        "boundary_id": "us-state:09",
        "boundary_type": "state",
        "name": "Connecticut",
        "stateFips": "09",
        "bbox": [
          -73.72777499981095,
          40.95094299982573,
          -71.78821299982876,
          42.04952500007871
        ]
      },
      "geometry": {
        "type": "Polygon",
        "coordinates": [
          [
            [
              -72.52790099977581,
              41.17777399992736
            ],
            [
              -72.08177500022174,
              41.26223999980564
            ],
            [
              -71.99948600002308,
              41.29579399990656
            ],
            [
              -71.92945100036182,
              41.31038699999655
            ],
            [
              -71.9072579999951,
              41.30448300028953
            ],
            [
              -71.89206699985712,
              41.330075000201894
            ],
            [
              -71.85745800036793,
              41.32078899970279
            ],
            [
              -71.82936499996238,
              41.342432000211026
            ],
            [
              -71.83787299971384,
              41.36014500017307
            ],
            [
              -71.83063700003166,
              41.37877199985332
            ],
            [
              -71.84359100017777,
              41.40533100030391
            ],
            [
              -71.82032999995627,
              41.419381999964514
            ],
            [
              -71.79774499995236,
              41.416726999672186
            ],
            [
              -71.78821299982876,
              41.62101699970599
            ],
            [
              -71.80067099968231,
              42.02351400030542
            ],
            [
              -72.53154899975411,
              42.034578000228784
            ],
            [
              -72.58216299969114,
              42.02474099975854
            ],
            [
              -72.75589400009532,
              42.03634900028546
            ],
            [
              -72.7667330004483,
              42.003266000225935
            ],
            [
              -72.81705299975913,
              41.997685000102855
            ],
            [
              -72.8137839998975,
              42.03674400029586
            ],
            [
              -73.487318999615,
              42.04952500007871
            ],
            [
              -73.5509620000412,
              41.295420999998456
            ],
            [
              -73.48269499984343,
              41.21277200025087
            ],
            [
              -73.72777499981095,
              41.10069600029421
            ],
            [
              -73.65525499956236,
              41.012246000096084
            ],
            [
              -73.65677100002911,
              40.98450899983635
            ],
            [
              -73.61288499978615,
              40.95094299982573
            ],
            [
              -72.99954700018289,
              41.087107999956814
            ],
            [
              -72.5515629998553,
              41.17323800005744
            ],
            [
              -72.52790099977581,
              41.17777399992736
            ]
          ]
        ]
      }
    }
  ]
}
