{
  "type": "FeatureCollection",
  "features": [
    {
      "type": "Feature",
      "id": "us-cd:118:18:01",
      "properties": {
        "boundary_id": "us-cd:118:18:01",
        "boundary_type": "congressional_district",
        "name": "Congressional District 1",
        "stateFips": "18",
        "congress": 118,
        "district": "01",
        "bbox": [
          -87.526729,
          41.162806,
          -86.699026,
          41.76024
        ]
      },
      "geometry": {
        "type": "Polygon",
        "coordinates": [
          [
            [
              -87.526729,
              41.298175
            ],
            [
              -87.521308,
              41.710031
            ],
            [
              -87.470742,
              41.672835
            ],
            [
              -87.446803,
              41.683212
            ],
            [
              -87.438033,
              41.664563
            ],
            [
              -87.439336,
              41.680131
            ],
            [
              -87.415816,
              41.688183
            ],
            [
              -87.408736,
              41.670285
            ],
            [
              -87.437033,
              41.655159
            ],
            [
              -87.420765,
              41.641011
            ],
            [
              -87.318574,
              41.621175
            ],
            [
              -87.261634,
              41.620523
            ],
            [
              -87.158673,
              41.631399
            ],
            [
              -87.146956,
              41.646168
            ],
            [
              -87.027888,
              41.674661
            ],
            [
              -86.824828,
              41.76024
            ],
            [
              -86.6996808813612,
              41.7598268075055
            ],
            [
              -86.699026,
              41.621158
            ],
            [
              -86.714786,
              41.614557
            ],
            [
              -86.714419,
              41.605496
            ],
            [
              -86.699471,
              41.600916
            ],
            [
              -86.700818,
              41.546857
            ],
            [
              -86.725513,
              41.54693
            ],
            [
              -86.726256,
              41.517473
            ],
            [
              -86.929774,
              41.519019
            ],
            [
              -86.929568,
              41.248849
            ],
            [
              -86.937691,
              41.230209
            ],
            [
              -86.977017,
              41.221549
            ],
            [
              -87.059724,
              41.26952
            ],
            [
              -87.131339,
              41.286245
            ],
            [
              -87.192521,
              41.265213
            ],
            [
              -87.226372,
              41.235507
            ],
            [
              -87.28573,
              41.215202
            ],
            [
              -87.324599,
              41.186203
            ],
            [
              -87.393796,
              41.162806
            ],
            [
              -87.445904,
              41.17429
            ],
            [
              -87.5265867699935,
              41.1660900920026
            ],
            [
              -87.5267288667182,
              41.2980520023116
            ],
            [
              -87.526729,
              41.298175
            ]
          ]
        ]
      }
    },
    {
      "type": "Feature",
      "id": "us-cd:118:18:02",
      "properties": {
        "boundary_id": "us-cd:118:18:02",
        "boundary_type": "congressional_district",
        "name": "Congressional District 2",
        "stateFips": "18",
        "congress": 118,
        "district": "02",
        "bbox": [
          -86.930935,
          40.561331,
          -85.638587,
          41.7598268075055
        ]
      },
      "geometry": {
        "type": "Polygon",
        "coordinates": [
          [
            [
              -86.930925,
              40.984583
            ],
            [
              -86.929774,
              41.519019
            ],
            [
              -86.726256,
              41.517473
            ],
            [
              -86.725513,
              41.54693
            ],
            [
              -86.700818,
              41.546857
            ],
            [
              -86.699471,
              41.600916
            ],
            [
              -86.714419,
              41.605496
            ],
            [
              -86.714786,
              41.614557
            ],
            [
              -86.699026,
              41.621158
            ],
            [
              -86.6996808813612,
              41.7598268075055
            ],
            [
              -85.6597500080009,
              41.7591008018301
            ],
            [
              -85.653507,
              41.436856
            ],
            [
              -85.768708,
              41.435745
            ],
            [
              -85.765346,
              41.207133
            ],
            [
              -85.772522,
              41.191994
            ],
            [
              -85.765197,
              41.177456
            ],
            [
              -85.686574,
              41.178376
            ],
            [
              -85.683198,
              41.001909
            ],
            [
              -85.643841,
              41.002305
            ],
            [
              -85.638587,
              40.653129
            ],
            [
              -85.864791,
              40.651693
            ],
            [
              -85.863641,
              40.565525
            ],
            [
              -86.346732,
              40.561331
            ],
            [
              -86.34637,
              40.583111
            ],
            [
              -86.336813,
              40.583167
            ],
            [
              -86.33603,
              40.626733
            ],
            [
              -86.350329,
              40.626528
            ],
            [
              -86.350151,
              40.633774
            ],
            [
              -86.335837,
              40.633983
            ],
            [
              -86.33544,
              40.649094
            ],
            [
              -86.278549,
              40.663898
            ],
            [
              -86.27887,
              40.75477
            ],
            [
              -86.29996,
              40.749125
            ],
            [
              -86.299934,
              40.764491
            ],
            [
              -86.309437,
              40.769587
            ],
            [
              -86.354149,
              40.761092
            ],
            [
              -86.354572,
              40.815508
            ],
            [
              -86.364575,
              40.822872
            ],
            [
              -86.467988,
              40.822601
            ],
            [
              -86.468233,
              40.909884
            ],
            [
              -86.930759,
              40.912418
            ],
            [
              -86.930935,
              40.977276
            ],
            [
              -86.930925,
              40.984583
            ]
          ]
        ]
      }
    },
    {
      "type": "Feature",
      "id": "us-cd:118:18:03",
      "properties": {
        "boundary_id": "us-cd:118:18:03",
        "boundary_type": "congressional_district",
        "name": "Congressional District 3",
        "stateFips": "18",
        "congress": 118,
        "district": "03",
        "bbox": [
          -85.772537,
          40.150069,
          -84.805883,
          41.760216
        ]
      },
      "geometry": {
        "type": "Polygon",
        "coordinates": [
          [
            [
              -85.772537,
              41.194354
            ],
            [
              -85.765346,
              41.207133
            ],
            [
              -85.768708,
              41.435745
            ],
            [
              -85.653507,
              41.436856
            ],
            [
              -85.6597500080009,
              41.7591008018301
            ],
            [
              -84.805883,
              41.760216
            ],
            [
              -84.806499062602,
              40.1801669741777
            ],
            [
              -84.952408,
              40.172094
            ],
            [
              -84.962079,
              40.168311
            ],
            [
              -84.952995,
              40.150255
            ],
            [
              -84.98464,
              40.150069
            ],
            [
              -84.998205,
              40.176488
            ],
            [
              -85.106153,
              40.171241
            ],
            [
              -85.111018,
              40.178591
            ],
            [
              -85.216391,
              40.17855
            ],
            [
              -85.219901,
              40.379034
            ],
            [
              -85.444323,
              40.378746
            ],
            [
              -85.448825,
              40.653607
            ],
            [
              -85.638587,
              40.653129
            ],
            [
              -85.643841,
              41.002305
            ],
            [
              -85.683198,
              41.001909
            ],
            [
              -85.686574,
              41.178376
            ],
            [
              -85.765197,
              41.177456
            ],
            [
              -85.772522,
              41.191994
            ],
            [
              -85.772537,
              41.194354
            ]
          ]
        ]
      }
    },
    {
      "type": "Feature",
      "id": "us-cd:118:18:04",
      "properties": {
        "boundary_id": "us-cd:118:18:04",
        "boundary_type": "congressional_district",
        "name": "Congressional District 4",
        "stateFips": "18",
        "congress": 118,
        "district": "04",
        "bbox": [
          -87.5314569182137,
          39.340755,
          -86.236458,
          41.286245
        ]
      },
      "geometry": {
        "type": "Polygon",
        "coordinates": [
          [
            [
              -87.5314544432537,
              40.1482925113968
            ],
            [
              -87.5265867699935,
              41.1660900920026
            ],
            [
              -87.445904,
              41.17429
            ],
            [
              -87.393796,
              41.162806
            ],
            [
              -87.324599,
              41.186203
            ],
            [
              -87.28573,
              41.215202
            ],
            [
              -87.226372,
              41.235507
            ],
            [
              -87.192521,
              41.265213
            ],
            [
              -87.131339,
              41.286245
            ],
            [
              -87.059724,
              41.26952
            ],
            [
              -86.977017,
              41.221549
            ],
            [
              -86.930079,
              41.236798
            ],
            [
              -86.930759,
              40.912418
            ],
            [
              -86.468233,
              40.909884
            ],
            [
              -86.467988,
              40.822601
            ],
            [
              -86.364575,
              40.822872
            ],
            [
              -86.354572,
              40.815508
            ],
            [
              -86.354149,
              40.761092
            ],
            [
              -86.309437,
              40.769587
            ],
            [
              -86.299934,
              40.764491
            ],
            [
              -86.29996,
              40.749125
            ],
            [
              -86.27887,
              40.75477
            ],
            [
              -86.278549,
              40.663898
            ],
            [
              -86.33544,
              40.649094
            ],
            [
              -86.335837,
              40.633983
            ],
            [
              -86.350151,
              40.633774
            ],
            [
              -86.350329,
              40.626528
            ],
            [
              -86.33603,
              40.626733
            ],
            [
              -86.336813,
              40.583167
            ],
            [
              -86.34637,
              40.583111
            ],
            [
              -86.346732,
              40.561331
            ],
            [
              -86.374417,
              40.561361
            ],
            [
              -86.375762,
              40.431851
            ],
            [
              -86.271309,
              40.431822
            ],
            [
              -86.271363,
              40.416572
            ],
            [
              -86.236458,
              40.416756
            ],
            [
              -86.242812,
              40.402914
            ],
            [
              -86.240736,
              39.926062
            ],
            [
              -86.326293,
              39.924029
            ],
            [
              -86.328121,
              39.866125
            ],
            [
              -86.326341,
              39.632177
            ],
            [
              -86.249885,
              39.633645
            ],
            [
              -86.251684,
              39.341672
            ],
            [
              -86.630844,
              39.340755
            ],
            [
              -86.632206,
              39.470214
            ],
            [
              -87.014533,
              39.473572
            ],
            [
              -87.009477,
              39.866705
            ],
            [
              -87.091542,
              39.867265
            ],
            [
              -87.091488,
              40.039011
            ],
            [
              -87.158153,
              40.039451
            ],
            [
              -87.158098,
              40.053962
            ],
            [
              -87.205441,
              40.053794
            ],
            [
              -87.211269,
              40.090143
            ],
            [
              -87.224001,
              40.089908
            ],
            [
              -87.223904,
              40.112094
            ],
            [
              -87.204806,
              40.122452
            ],
            [
              -87.205092,
              40.185718
            ],
            [
              -87.30053,
              40.186056
            ],
            [
              -87.310052,
              40.178804
            ],
            [
              -87.310106,
              40.186077
            ],
            [
              -87.338891,
              40.186415
            ],
            [
              -87.338993,
              40.19367
            ],
            [
              -87.386137,
              40.185811
            ],
            [
              -87.408849,
              40.163988
            ],
            [
              -87.423982,
              40.163788
            ],
            [
              -87.404447,
              40.139355
            ],
            [
              -87.406667,
              40.127508
            ],
            [
              -87.49041,
              40.127406
            ],
            [
              -87.490455,
              40.148422
            ],
            [
              -87.5314569182137,
              40.1481271184891
            ],
            [
              -87.5314544432537,
              40.1482925113968
            ]
          ]
        ]
      }
    },
    {
      "type": "Feature",
      "id": "us-cd:118:18:05",
      "properties": {
        "boundary_id": "us-cd:118:18:05",
        "boundary_type": "congressional_district",
        "name": "Congressional District 5",
        "stateFips": "18",
        "congress": 118,
        "district": "05",
        "bbox": [
          -86.375762,
          39.926062,
          -85.214386,
          40.653607
        ]
      },
      "geometry": {
        "type": "Polygon",
        "coordinates": [
          [
            [
              -86.375501,
              40.489007
            ],
            [
              -86.374417,
              40.561361
            ],
            [
              -85.863641,
              40.565525
            ],
            [
              -85.864791,
              40.651693
            ],
            [
              -85.448825,
              40.653607
            ],
            [
              -85.444323,
              40.378746
            ],
            [
              -85.219901,
              40.379034
            ],
            [
              -85.214386,
              40.076889
            ],
            [
              -85.576197,
              40.077143
            ],
            [
              -85.576192,
              39.945756
            ],
            [
              -85.862489,
              39.943618
            ],
            [
              -85.862395,
              39.928943
            ],
            [
              -86.240736,
              39.926062
            ],
            [
              -86.242812,
              40.402914
            ],
            [
              -86.236624,
              40.417478
            ],
            [
              -86.271363,
              40.416572
            ],
            [
              -86.271309,
              40.431822
            ],
            [
              -86.375762,
              40.431851
            ],
            [
              -86.375501,
              40.489007
            ]
          ]
        ]
      }
    },
    {
      "type": "Feature",
      "id": "us-cd:118:18:06",
      "properties": {
        "boundary_id": "us-cd:118:18:06",
        "boundary_type": "congressional_district",
        "name": "Congressional District 6",
        "stateFips": "18",
        "congress": 118,
        "district": "06",
        "bbox": [
          -86.326605,
          39.127453,
          -84.806499062602,
          40.1801669741777
        ]
      },
      "geometry": {
        "type": "Polygon",
        "coordinates": [
          [
            [
              -86.326574,
              39.686552
            ],
            [
              -86.326588,
              39.719838
            ],
            [
              -86.111265,
              39.723281
            ],
            [
              -86.111204,
              39.715947
            ],
            [
              -86.100425,
              39.715838
            ],
            [
              -86.0898,
              39.723539
            ],
            [
              -85.951699,
              39.726419
            ],
            [
              -85.954013,
              39.869646
            ],
            [
              -85.938067,
              39.869812
            ],
            [
              -85.937587,
              39.927137
            ],
            [
              -85.862395,
              39.928943
            ],
            [
              -85.862489,
              39.943618
            ],
            [
              -85.576192,
              39.945756
            ],
            [
              -85.576197,
              40.077143
            ],
            [
              -85.214386,
              40.076889
            ],
            [
              -85.216391,
              40.17855
            ],
            [
              -85.111018,
              40.178591
            ],
            [
              -85.106153,
              40.171241
            ],
            [
              -84.998205,
              40.176488
            ],
            [
              -84.98464,
              40.150069
            ],
            [
              -84.952995,
              40.150255
            ],
            [
              -84.962079,
              40.168311
            ],
            [
              -84.952408,
              40.172094
            ],
            [
              -84.806499062602,
              40.1801669741777
            ],
            [
              -84.8153652290776,
              39.5219502743529
            ],
            [
              -85.298609,
              39.525473
            ],
            [
              -85.297575,
              39.453275
            ],
            [
              -85.629327,
              39.45275
            ],
            [
              -85.63063,
              39.350205
            ],
            [
              -85.684515,
              39.350049
            ],
            [
              -85.686783,
              39.130859
            ],
            [
              -85.799712,
              39.127453
            ],
            [
              -85.831805,
              39.132814
            ],
            [
              -85.831367,
              39.143811
            ],
            [
              -85.883413,
              39.142996
            ],
            [
              -85.88307,
              39.157545
            ],
            [
              -86.080294,
              39.152543
            ],
            [
              -86.085601,
              39.344189
            ],
            [
              -86.251684,
              39.341672
            ],
            [
              -86.249885,
              39.633645
            ],
            [
              -86.326341,
              39.632177
            ],
            [
              -86.326605,
              39.685893
            ],
            [
              -86.326574,
              39.686552
            ]
          ]
        ]
      }
    },
    {
      "type": "Feature",
      "id": "us-cd:118:18:07",
      "properties": {
        "boundary_id": "us-cd:118:18:07",
        "boundary_type": "congressional_district",
        "name": "Congressional District 7",
        "stateFips": "18",
        "congress": 118,
        "district": "07",
        "bbox": [
          -86.328121,
          39.715838,
          -85.937587,
          39.927137
        ]
      },
      "geometry": {
        "type": "Polygon",
        "coordinates": [
          [
            [
              -86.328121,
              39.866125
            ],
            [
              -86.326293,
              39.924029
            ],
            [
              -85.937587,
              39.927137
            ],
            [
              -85.938067,
              39.869812
            ],
            [
              -85.954013,
              39.869646
            ],
            [
              -85.951699,
              39.726419
            ],
            [
              -86.0898,
              39.723539
            ],
            [
              -86.100425,
              39.715838
            ],
            [
              -86.111204,
              39.715947
            ],
            [
              -86.111265,
              39.723281
            ],
            [
              -86.326588,
              39.719838
            ],
            [
              -86.328012,
              39.859269
            ],
            [
              -86.328121,
              39.866125
            ]
          ]
        ]
      }
    },
    {
      "type": "Feature",
      "id": "us-cd:118:18:08",
      "properties": {
        "boundary_id": "us-cd:118:18:08",
        "boundary_type": "congressional_district",
        "name": "Congressional District 8",
        "stateFips": "18",
        "congress": 118,
        "district": "08",
        "bbox": [
          -88.097892,
          37.771742,
          -86.245581,
          40.19367
        ]
      },
      "geometry": {
        "type": "Polygon",
        "coordinates": [
          [
            [
              -88.09776,
              37.904026
            ],
            [
              -88.015155,
              37.890792
            ],
            [
              -88.022513,
              37.914756
            ],
            [
              -88.063023,
              37.918196
            ],
            [
              -88.069613,
              37.926848
            ],
            [
              -88.059767,
              37.933856
            ],
            [
              -88.035345,
              37.925528
            ],
            [
              -88.036793,
              37.956793
            ],
            [
              -88.012929,
              37.966544
            ],
            [
              -88.025831,
              38.007245
            ],
            [
              -88.007631,
              38.029145
            ],
            [
              -88.034132,
              38.032045
            ],
            [
              -88.042132,
              38.046345
            ],
            [
              -87.967226,
              38.067105
            ],
            [
              -87.956664,
              38.086202
            ],
            [
              -87.960463,
              38.099086
            ],
            [
              -88.004697,
              38.083965
            ],
            [
              -88.014633,
              38.090398
            ],
            [
              -88.013118,
              38.103527
            ],
            [
              -87.975299,
              38.110053
            ],
            [
              -87.965755,
              38.132621
            ],
            [
              -87.945472,
              38.126616
            ],
            [
              -87.911428,
              38.16174
            ],
            [
              -87.922901,
              38.173291
            ],
            [
              -87.934299,
              38.156459
            ],
            [
              -87.936443,
              38.171355
            ],
            [
              -87.975819,
              38.197834
            ],
            [
              -87.987618,
              38.257381
            ],
            [
              -87.960225,
              38.237118
            ],
            [
              -87.942067,
              38.260301
            ],
            [
              -87.952198,
              38.273102
            ],
            [
              -87.933556,
              38.295896
            ],
            [
              -87.909536,
              38.296061
            ],
            [
              -87.91947,
              38.274547
            ],
            [
              -87.91111,
              38.268031
            ],
            [
              -87.870537,
              38.31222
            ],
            [
              -87.86112,
              38.307826
            ],
            [
              -87.859651,
              38.276711
            ],
            [
              -87.838979,
              38.282327
            ],
            [
              -87.823411,
              38.345968
            ],
            [
              -87.806075,
              38.363143
            ],
            [
              -87.783079,
              38.368862
            ],
            [
              -87.745254,
              38.408996
            ],
            [
              -87.730369,
              38.447884
            ],
            [
              -87.755931,
              38.455876
            ],
            [
              -87.755355,
              38.46396
            ],
            [
              -87.744644,
              38.477266
            ],
            [
              -87.685921,
              38.491843
            ],
            [
              -87.672382,
              38.507396
            ],
            [
              -87.650092,
              38.504606
            ],
            [
              -87.646226,
              38.51509
            ],
            [
              -87.670071,
              38.545237
            ],
            [
              -87.650704,
              38.55624
            ],
            [
              -87.637627,
              38.592654
            ],
            [
              -87.61196,
              38.589248
            ],
            [
              -87.627348,
              38.60544
            ],
            [
              -87.616152,
              38.623215
            ],
            [
              -87.62012,
              38.639489
            ],
            [
              -87.605817,
              38.646518
            ],
            [
              -87.597247,
              38.665314
            ],
            [
              -87.531231,
              38.684036
            ],
            [
              -87.49652,
              38.739336
            ],
            [
              -87.504006,
              38.74971
            ],
            [
              -87.498216,
              38.768307
            ],
            [
              -87.514548,
              38.771821
            ],
            [
              -87.495905,
              38.785434
            ],
            [
              -87.527342,
              38.818121
            ],
            [
              -87.525893,
              38.848795
            ],
            [
              -87.553394,
              38.86241
            ],
            [
              -87.534919,
              38.878874
            ],
            [
              -87.544089,
              38.895093
            ],
            [
              -87.535703,
              38.887207
            ],
            [
              -87.533695,
              38.900957
            ],
            [
              -87.516728,
              38.904123
            ],
            [
              -87.527295,
              38.907215
            ],
            [
              -87.527702,
              38.918449
            ],
            [
              -87.518826,
              38.923205
            ],
            [
              -87.521851,
              38.940069
            ],
            [
              -87.512187,
              38.954417
            ],
            [
              -87.529496,
              38.971925
            ],
            [
              -87.576531,
              38.986711
            ],
            [
              -87.560427,
              38.992425
            ],
            [
              -87.578654,
              38.999502
            ],
            [
              -87.569696,
              39.019413
            ],
            [
              -87.580252,
              39.039377
            ],
            [
              -87.572588,
              39.057286
            ],
            [
              -87.595559,
              39.078978
            ],
            [
              -87.615964,
              39.082566
            ],
            [
              -87.614881,
              39.102655
            ],
            [
              -87.652796,
              39.106839
            ],
            [
              -87.651022,
              39.116439
            ],
            [
              -87.6351,
              39.122298
            ],
            [
              -87.658745,
              39.135997
            ],
            [
              -87.642175,
              39.157097
            ],
            [
              -87.628743,
              39.153917
            ],
            [
              -87.640434,
              39.166727
            ],
            [
              -87.620521,
              39.17033
            ],
            [
              -87.6204,
              39.185195
            ],
            [
              -87.605173,
              39.185897
            ],
            [
              -87.574558,
              39.218404
            ],
            [
              -87.579319,
              39.243552
            ],
            [
              -87.571333,
              39.251381
            ],
            [
              -87.593486,
              39.247452
            ],
            [
              -87.604947,
              39.260212
            ],
            [
              -87.601948,
              39.275165
            ],
            [
              -87.609915,
              39.281415
            ],
            [
              -87.597323,
              39.296957
            ],
            [
              -87.620485,
              39.307133
            ],
            [
              -87.60592,
              39.311076
            ],
            [
              -87.584852,
              39.337329
            ],
            [
              -87.5544,
              39.340488
            ],
            [
              -87.544013,
              39.352907
            ],
            [
              -87.531646,
              39.348062
            ],
            [
              -87.5314569182137,
              40.1481271184891
            ],
            [
              -87.490455,
              40.148422
            ],
            [
              -87.49041,
              40.127406
            ],
            [
              -87.406667,
              40.127508
            ],
            [
              -87.404447,
              40.139355
            ],
            [
              -87.423982,
              40.163788
            ],
            [
              -87.408849,
              40.163988
            ],
            [
              -87.386137,
              40.185811
            ],
            [
              -87.338993,
              40.19367
            ],
            [
              -87.338891,
              40.186415
            ],
            [
              -87.310106,
              40.186077
            ],
            [
              -87.310052,
              40.178804
            ],
            [
              -87.30053,
              40.186056
            ],
            [
              -87.205092,
              40.185718
            ],
            [
              -87.204806,
              40.122452
            ],
            [
              -87.223904,
              40.112094
            ],
            [
              -87.224001,
              40.089908
            ],
            [
              -87.211269,
              40.090143
            ],
            [
              -87.205441,
              40.053794
            ],
            [
              -87.158098,
              40.053962
            ],
            [
              -87.158153,
              40.039451
            ],
            [
              -87.091488,
              40.039011
            ],
            [
              -87.091542,
              39.867265
            ],
            [
              -87.009477,
              39.866705
            ],
            [
              -87.014533,
              39.473572
            ],
            [
              -86.632206,
              39.470214
            ],
            [
              -86.630818,
              39.346948
            ],
            [
              -86.651551,
              39.355593
            ],
            [
              -86.65638,
              39.330646
            ],
            [
              -86.68561,
              39.336043
            ],
            [
              -86.683102,
              38.686561
            ],
            [
              -86.308701,
              38.688101
            ],
            [
              -86.308674,
              38.422875
            ],
            [
              -86.255045,
              38.422685
            ],
            [
              -86.264841,
              38.411114
            ],
            [
              -86.250703,
              38.397891
            ],
            [
              -86.261602,
              38.394841
            ],
            [
              -86.245581,
              38.387424
            ],
            [
              -86.258976,
              38.389375
            ],
            [
              -86.261179,
              38.380438
            ],
            [
              -86.247158,
              38.34946
            ],
            [
              -86.270757,
              38.361277
            ],
            [
              -86.281773,
              38.349383
            ],
            [
              -86.271629,
              38.342445
            ],
            [
              -86.273474,
              38.321105
            ],
            [
              -86.287425,
              38.328872
            ],
            [
              -86.289724,
              38.31652
            ],
            [
              -86.277701,
              38.301363
            ],
            [
              -86.263639,
              38.30805
            ],
            [
              -86.26439,
              38.294662
            ],
            [
              -86.252753,
              38.293828
            ],
            [
              -86.269792,
              38.278391
            ],
            [
              -86.280424,
              38.284824
            ],
            [
              -86.276956,
              38.227126
            ],
            [
              -86.298119,
              38.220921
            ],
            [
              -86.289721,
              38.202027
            ],
            [
              -86.306511,
              38.202519
            ],
            [
              -86.318196,
              38.188104
            ],
            [
              -86.312786,
              38.178126
            ],
            [
              -86.357717,
              38.198807
            ],
            [
              -86.378151,
              38.185845
            ],
            [
              -86.37174,
              38.164183
            ],
            [
              -86.323933,
              38.152374
            ],
            [
              -86.333665,
              38.129235
            ],
            [
              -86.379775,
              38.129274
            ],
            [
              -86.401879,
              38.104329
            ],
            [
              -86.429541,
              38.125281
            ],
            [
              -86.463248,
              38.119278
            ],
            [
              -86.463858,
              38.101177
            ],
            [
              -86.430091,
              38.078638
            ],
            [
              -86.452192,
              38.05049
            ],
            [
              -86.521825,
              38.038327
            ],
            [
              -86.525174,
              37.968228
            ],
            [
              -86.50662,
              37.930719
            ],
            [
              -86.534156,
              37.917007
            ],
            [
              -86.588581,
              37.921159
            ],
            [
              -86.599848,
              37.906754
            ],
            [
              -86.598108,
              37.867382
            ],
            [
              -86.638265,
              37.842718
            ],
            [
              -86.661637,
              37.849714
            ],
            [
              -86.647081,
              37.908621
            ],
            [
              -86.680929,
              37.91501
            ],
            [
              -86.716138,
              37.894073
            ],
            [
              -86.73146,
              37.89434
            ],
            [
              -86.764734,
              37.93241
            ],
            [
              -86.79551,
              37.989453
            ],
            [
              -86.820071,
              37.999392
            ],
            [
              -86.85595,
              37.987292
            ],
            [
              -86.917949,
              37.93724
            ],
            [
              -86.978957,
              37.9302
            ],
            [
              -87.034166,
              37.906265
            ],
            [
              -87.045205,
              37.894332
            ],
            [
              -87.043285,
              37.868552
            ],
            [
              -87.069675,
              37.801513
            ],
            [
              -87.111008,
              37.782354
            ],
            [
              -87.129629,
              37.786608
            ],
            [
              -87.162319,
              37.840159
            ],
            [
              -87.220342,
              37.849081
            ],
            [
              -87.385434,
              37.93767
            ],
            [
              -87.447786,
              37.942427
            ],
            [
              -87.511499,
              37.906426
            ],
            [
              -87.56207,
              37.933291
            ],
            [
              -87.576988,
              37.952287
            ],
            [
              -87.575729,
              37.967778
            ],
            [
              -87.590023,
              37.975472
            ],
            [
              -87.601573,
              37.971304
            ],
            [
              -87.60559,
              37.950144
            ],
            [
              -87.627892,
              37.922253
            ],
            [
              -87.583737,
              37.87808
            ],
            [
              -87.615399,
              37.831974
            ],
            [
              -87.675538,
              37.831732
            ],
            [
              -87.681633,
              37.855917
            ],
            [
              -87.664331,
              37.88907
            ],
            [
              -87.679131,
              37.902951
            ],
            [
              -87.762591,
              37.890739
            ],
            [
              -87.786407,
              37.876556
            ],
            [
              -87.829773,
              37.876425
            ],
            [
              -87.87254,
              37.920999
            ],
            [
              -87.898062,
              37.927514
            ],
            [
              -87.940839,
              37.883338
            ],
            [
              -87.910276,
              37.843416
            ],
            [
              -87.904595,
              37.812526
            ],
            [
              -87.932554,
              37.797672
            ],
            [
              -87.95259,
              37.771742
            ],
            [
              -87.997102,
              37.797672
            ],
            [
              -88.02803,
              37.799224
            ],
            [
              -88.037623,
              37.809864
            ],
            [
              -88.067716,
              37.80057
            ],
            [
              -88.090039,
              37.816771
            ],
            [
              -88.080854,
              37.830902
            ],
            [
              -88.043831,
              37.821525
            ],
            [
              -88.025921,
              37.832694
            ],
            [
              -88.065036,
              37.853172
            ],
            [
              -88.097892,
              37.901517
            ],
            [
              -88.09776,
              37.904026
            ]
          ]
        ]
      }
    },
    {
      "type": "Feature",
      "id": "us-cd:118:18:09",
      "properties": {
        "boundary_id": "us-cd:118:18:09",
        "boundary_type": "congressional_district",
        "name": "Congressional District 9",
        "stateFips": "18",
        "congress": 118,
        "district": "09",
        "bbox": [
          -86.68561,
          37.958995,
          -84.785799,
          39.525473
        ]
      },
      "geometry": {
        "type": "Polygon",
        "coordinates": [
          [
            [
              -86.68561,
              39.336043
            ],
            [
              -86.65638,
              39.330646
            ],
            [
              -86.651551,
              39.355593
            ],
            [
              -86.630844,
              39.340755
            ],
            [
              -86.607185,
              39.340134
            ],
            [
              -86.085601,
              39.344189
            ],
            [
              -86.080294,
              39.152543
            ],
            [
              -85.88307,
              39.157545
            ],
            [
              -85.883413,
              39.142996
            ],
            [
              -85.831367,
              39.143811
            ],
            [
              -85.831805,
              39.132814
            ],
            [
              -85.799712,
              39.127453
            ],
            [
              -85.686783,
              39.130859
            ],
            [
              -85.684515,
              39.350049
            ],
            [
              -85.63063,
              39.350205
            ],
            [
              -85.629327,
              39.45275
            ],
            [
              -85.297575,
              39.453275
            ],
            [
              -85.298609,
              39.525473
            ],
            [
              -84.8153652290776,
              39.5219502743529
            ],
            [
              -84.820157,
              39.10548
            ],
            [
              -84.888873,
              39.066376
            ],
            [
              -84.896726,
              39.053304
            ],
            [
              -84.829857,
              38.969385
            ],
            [
              -84.877762,
              38.920357
            ],
            [
              -84.877029,
              38.909016
            ],
            [
              -84.867778,
              38.899133
            ],
            [
              -84.800247,
              38.89107
            ],
            [
              -84.786406,
              38.88222
            ],
            [
              -84.785799,
              38.869496
            ],
            [
              -84.829958,
              38.830632
            ],
            [
              -84.814641,
              38.784488
            ],
            [
              -84.887285,
              38.794776
            ],
            [
              -84.943641,
              38.775427
            ],
            [
              -84.991927,
              38.778537
            ],
            [
              -85.173048,
              38.688022
            ],
            [
              -85.213257,
              38.695446
            ],
            [
              -85.246505,
              38.731821
            ],
            [
              -85.268495,
              38.740165
            ],
            [
              -85.365216,
              38.730468
            ],
            [
              -85.410238,
              38.737135
            ],
            [
              -85.436299,
              38.728484
            ],
            [
              -85.452361,
              38.708194
            ],
            [
              -85.456481,
              38.685069
            ],
            [
              -85.438742,
              38.659319
            ],
            [
              -85.439284,
              38.607406
            ],
            [
              -85.415821,
              38.563558
            ],
            [
              -85.422441,
              38.532931
            ],
            [
              -85.466864,
              38.51084
            ],
            [
              -85.498866,
              38.468242
            ],
            [
              -85.604457,
              38.44082
            ],
            [
              -85.632937,
              38.395666
            ],
            [
              -85.651364,
              38.330742
            ],
            [
              -85.683561,
              38.295469
            ],
            [
              -85.745077,
              38.26719
            ],
            [
              -85.781027,
              38.288476
            ],
            [
              -85.829216,
              38.276508
            ],
            [
              -85.844381,
              38.231048
            ],
            [
              -85.903873,
              38.174142
            ],
            [
              -85.905266,
              38.088933
            ],
            [
              -85.925654,
              38.021784
            ],
            [
              -85.947114,
              38.005085
            ],
            [
              -86.029509,
              37.99264
            ],
            [
              -86.034355,
              37.964621
            ],
            [
              -86.046736,
              37.958995
            ],
            [
              -86.086341,
              38.004931
            ],
            [
              -86.1283,
              38.016192
            ],
            [
              -86.176557,
              38.01023
            ],
            [
              -86.267203,
              38.056798
            ],
            [
              -86.2791,
              38.100754
            ],
            [
              -86.272847,
              38.140835
            ],
            [
              -86.329672384455,
              38.1817018461543
            ],
            [
              -86.309819,
              38.180451
            ],
            [
              -86.318196,
              38.188104
            ],
            [
              -86.306511,
              38.202519
            ],
            [
              -86.289721,
              38.202027
            ],
            [
              -86.298119,
              38.220921
            ],
            [
              -86.276956,
              38.227126
            ],
            [
              -86.280424,
              38.284824
            ],
            [
              -86.269792,
              38.278391
            ],
            [
              -86.252753,
              38.293828
            ],
            [
              -86.26439,
              38.294662
            ],
            [
              -86.263639,
              38.30805
            ],
            [
              -86.277701,
              38.301363
            ],
            [
              -86.289724,
              38.31652
            ],
            [
              -86.287425,
              38.328872
            ],
            [
              -86.273474,
              38.321105
            ],
            [
              -86.271629,
              38.342445
            ],
            [
              -86.281773,
              38.349383
            ],
            [
              -86.270757,
              38.361277
            ],
            [
              -86.247158,
              38.34946
            ],
            [
              -86.261179,
              38.380438
            ],
            [
              -86.258976,
              38.389375
            ],
            [
              -86.245581,
              38.387424
            ],
            [
              -86.261602,
              38.394841
            ],
            [
              -86.250703,
              38.397891
            ],
            [
              -86.264841,
              38.411114
            ],
            [
              -86.255045,
              38.422685
            ],
            [
              -86.308674,
              38.422875
            ],
            [
              -86.308701,
              38.688101
            ],
            [
              -86.683102,
              38.686561
            ],
            [
              -86.68477,
              39.281489
            ],
            [
              -86.68561,
              39.336043
            ]
          ]
        ]
      }
    }
  ]
}
