{
  "type": "FeatureCollection",
  "features": [
    {
      "type": "Feature",
      "id": "us-cd:119:69:98",
      "properties": {
        "boundary_id": "us-cd:119:69:98",
        "boundary_type": "congressional_district",
        "name": "Delegate District (at Large)",
        "stateFips": "69",
        "congress": 119,
        "district": "98",
        "bbox": [
          144.81544300033838,
          14.036564999654818,
          146.151920000366,
          20.612994999617825
        ]
      },
      "geometry": {
        "type": "MultiPolygon",
        "coordinates": [
          [
            [
              [
                145.46822199961483,
                14.853344999983651
              ],
              [
                145.48268100035702,
                14.799206999910666
              ],
              [
                145.50772599993556,
                14.779374999976024
              ],
              [
                145.56206300019397,
                14.773797000327303
              ],
              [
                145.59171700037376,
                14.781431000109645
              ],
              [
                145.61646900004936,
                14.800842000048602
              ],
              [
                145.65312600028287,
                14.857366000307454
              ],
              [
                145.69467400025155,
                14.87313000038691
              ],
              [
                145.7307640000474,
                14.917296000288141
              ],
              [
                145.74774699993833,
                14.971214999884157
              ],
              [
                145.74268700014866,
                15.014214999991433
              ],
              [
                145.7500700001439,
                15.06660400000594
              ],
              [
                145.8026809998733,
                15.075619000180104
              ],
              [
                145.83389099980454,
                15.101936999607052
              ],
              [
                145.83741300028444,
                15.120071000226227
              ],
              [
                145.8759839995713,
                15.135437999975142
              ],
              [
                145.87985000000785,
                15.193258000085383
              ],
              [
                145.90936500027044,
                15.27408399974115
              ],
              [
                145.87597799972352,
                15.334499000186218
              ],
              [
                145.85281500030965,
                15.35188999966976
              ],
              [
                145.80285400012568,
                15.357833999674307
              ],
              [
                145.75206199991342,
                15.327015999962171
              ],
              [
                145.6917019995926,
                15.247015000186936
              ],
              [
                145.68696999986597,
                15.197365000002465
              ],
              [
                145.6483140001903,
                15.138667999674361
              ],
              [
                145.57260299989787,
                15.125017999776453
              ],
              [
                145.53502199974963,
                15.08921400034243
              ],
              [
                145.5183169996931,
                15.056278999576069
              ],
              [
                145.5132190002686,
                14.999999999931513
              ],
              [
                145.54101399985,
                14.94958500037435
              ],
              [
                145.56289099984923,
                14.934283999731171
              ],
              [
                145.48935200014967,
                14.898699999867295
              ],
              [
                145.47019599984097,
                14.864876999902854
              ],
              [
                145.46822199961483,
                14.853344999983651
              ]
            ]
          ],
          [
            [
              [
                146.0019940001565,
                16.02878399998417
              ],
              [
                146.01071399962,
                15.970669999822807
              ],
              [
                146.04444199975043,
                15.947892999905196
              ],
              [
                146.08815999976392,
                15.95295500011224
              ],
              [
                146.13315900006754,
                15.981020999629964
              ],
              [
                146.15067000003808,
                16.00631699982895
              ],
              [
                146.151920000366,
                16.05187299971133
              ],
              [
                146.13818000039745,
                16.074652000372815
              ],
              [
                146.0940339998635,
                16.097283000078278
              ],
              [
                146.0507750003326,
                16.093367999757234
              ],
              [
                146.01425399964333,
                16.057442000049775
              ],
              [
                146.0019940001565,
                16.02878399998417
              ]
            ]
          ],
          [
            [
              [
                145.76436900015426,
                17.344388999662495
              ],
              [
                145.76337800029233,
                17.305854999876978
              ],
              [
                145.7742100000743,
                17.273078000125114
              ],
              [
                145.80547799973186,
                17.241103000362717
              ],
              [
                145.8468159996383,
                17.2252650001859
              ],
              [
                145.89071799977478,
                17.243312000003602
              ],
              [
                145.91214200003748,
                17.27075800006608
              ],
              [
                145.92581599988378,
                17.297128999910868
              ],
              [
                145.92601199970235,
                17.333293999734284
              ],
              [
                145.93655499977933,
                17.340370999977996
              ],
              [
                145.89640899957627,
                17.388388000154663
              ],
              [
                145.8505409996095,
                17.401189000322436
              ],
              [
                145.80157200001068,
                17.38698699971494
              ],
              [
                145.76905999987298,
                17.35272099962908
              ],
              [
                145.76436900015426,
                17.344388999662495
              ]
            ]
          ],
          [
            [
              [
                145.74665899999204,
                17.599368999871018
              ],
              [
                145.74999999982373,
                17.564259000099945
              ],
              [
                145.7767259997254,
                17.53596699985373
              ],
              [
                145.81779099982046,
                17.514456000301976
              ],
              [
                145.8676559997449,
                17.517715999995577
              ],
              [
                145.8966620001945,
                17.533538000378524
              ],
              [
                145.91833300032945,
                17.567239999747798
              ],
              [
                145.9244479995551,
                17.599122000422316
              ],
              [
                145.91770099959447,
                17.654632000169183
              ],
              [
                145.89393499975787,
                17.680302999708417
              ],
              [
                145.85687300036676,
                17.690546000198406
              ],
              [
                145.80010800032073,
                17.684087999932167
              ],
              [
                145.74742100042343,
                17.601467000219966
              ],
              [
                145.74665899999204,
                17.599368999871018
              ]
            ]
          ],
          [
            [
              [
                145.70116599994412,
                16.72411200014776
              ],
              [
                145.71174599983092,
                16.665675000317
              ],
              [
                145.73830699987627,
                16.640950000109243
              ],
              [
                145.76295700034288,
                16.632236999770974
              ],
              [
                145.8026759998504,
                16.63236499993823
              ],
              [
                145.8420760004141,
                16.64792299985227
              ],
              [
                145.86763200035375,
                16.69052100014922
              ],
              [
                145.86789799959422,
                16.741754999875862
              ],
              [
                145.82318899971892,
                16.782120000252572
              ],
              [
                145.7923860003918,
                16.791971000187225
              ],
              [
                145.73073899993304,
                16.76988199980174
              ],
              [
                145.70216699985173,
                16.735708000305692
              ],
              [
                145.70116599994412,
                16.72411200014776
              ]
            ]
          ],
          [
            [
              [
                145.643752000343,
                18.05794800008829
              ],
              [
                145.66402199963892,
                18.00925200020178
              ],
              [
                145.69538599955587,
                17.989835999795428
              ],
              [
                145.74409999978488,
                17.986040000106705
              ],
              [
                145.7778630000755,
                18.003431999849326
              ],
              [
                145.84423700023797,
                18.0455350003893
              ],
              [
                145.8750000002804,
                18.086594999788865
              ],
              [
                145.89065199965256,
                18.155065999619946
              ],
              [
                145.88028699985085,
                18.186369999909303
              ],
              [
                145.8400240003701,
                18.233831000352183
              ],
              [
                145.7595229997265,
                18.241086999862073
              ],
              [
                145.69130800030555,
                18.189047999965666
              ],
              [
                145.68548600008455,
                18.153617999967924
              ],
              [
                145.66032099995715,
                18.119199000005246
              ],
              [
                145.64681699999014,
                18.06734000014469
              ],
              [
                145.643752000343,
                18.05794800008829
              ]
            ]
          ],
          [
            [
              [
                145.56314299974431,
                18.778822999870556
              ],
              [
                145.57689299975863,
                18.72965099978003
              ],
              [
                145.608609999853,
                18.682278000272213
              ],
              [
                145.6611980000162,
                18.659173000268282
              ],
              [
                145.6846240000941,
                18.657840000335934
              ],
              [
                145.73661700023055,
                18.68790499976429
              ],
              [
                145.76980499968752,
                18.749999999860428
              ],
              [
                145.76492200034818,
                18.795566000090773
              ],
              [
                145.74999999982373,
                18.82709499994424
              ],
              [
                145.70419200013148,
                18.874999999628862
              ],
              [
                145.646753000416,
                18.879610999764612
              ],
              [
                145.60784499994693,
                18.86585800010013
              ],
              [
                145.56407500005494,
                18.792401000026608
              ],
              [
                145.56314299974431,
                18.778822999870556
              ]
            ]
          ],
          [
            [
              [
                145.55883600016514,
                16.374152000182033
              ],
              [
                145.5600839999449,
                16.341249000244805
              ],
              [
                145.57507199969334,
                16.305815000022793
              ],
              [
                145.64990900029977,
                16.273765000335683
              ],
              [
                145.69319499959477,
                16.273994999885527
              ],
              [
                145.7329059996047,
                16.29330999959939
              ],
              [
                145.76763700019094,
                16.3239649996877
              ],
              [
                145.7828219995828,
                16.359916999786154
              ],
              [
                145.76478500008085,
                16.422374000232555
              ],
              [
                145.72075400007293,
                16.448283999682086
              ],
              [
                145.65461000006422,
                16.4510960000578
              ],
              [
                145.62500000026535,
                16.44249900033156
              ],
              [
                145.57132599980577,
                16.40199299973435
              ],
              [
                145.55883600016514,
                16.374152000182033
              ]
            ]
          ],
          [
            [
              [
                145.30633300001935,
                19.698404999656816
              ],
              [
                145.33032700035986,
                19.615000999699404
              ],
              [
                145.40001600041475,
                19.58842799984107
              ],
              [
                145.4549779999388,
                19.60487899977368
              ],
              [
                145.49562299990924,
                19.67991800010089
              ],
              [
                145.4727099998423,
                19.726729999798266
              ],
              [
                145.43527799965702,
                19.755614999591902
              ],
              [
                145.41014900041287,
                19.76318499985782
              ],
              [
                145.3596869999135,
                19.7564130002973
              ],
              [
                145.3159029997778,
                19.71403699980744
              ],
              [
                145.30633300001935,
                19.698404999656816
              ]
            ]
          ],
          [
            [
              [
                145.131885000288,
                20.03956100016182
              ],
              [
                145.142600999719,
                19.986254999858712
              ],
              [
                145.18312100001592,
                19.9519110001658
              ],
              [
                145.21214300035913,
                19.94733699979372
              ],
              [
                145.2499999997935,
                19.94854600015018
              ],
              [
                145.28223800029485,
                19.968779999820875
              ],
              [
                145.30216299980924,
                19.992812000416542
              ],
              [
                145.31496499961935,
                20.032962000268803
              ],
              [
                145.2855680002558,
                20.081934999728066
              ],
              [
                145.23360899955625,
                20.102666000067227
              ],
              [
                145.17865200005505,
                20.096512999624426
              ],
              [
                145.1461659998567,
                20.076388999871398
              ],
              [
                145.1362350004232,
                20.055988000110418
              ],
              [
                145.131885000288,
                20.03956100016182
              ]
            ]
          ],
          [
            [
              [
                145.05896599983123,
                14.125000000164256
              ],
              [
                145.0644650000121,
                14.081712000252335
              ],
              [
                145.0777460003963,
                14.060408999919447
              ],
              [
                145.0969090003777,
                14.047052000218404
              ],
              [
                145.17798800043136,
                14.036564999654818
              ],
              [
                145.21956099961616,
                14.055982999849965
              ],
              [
                145.27392499963872,
                14.063994999626996
              ],
              [
                145.29914300036796,
                14.09194300038042
              ],
              [
                145.33964100002527,
                14.108276000309063
              ],
              [
                145.37141300037126,
                14.170126000379145
              ],
              [
                145.3744799996682,
                14.200824999803505
              ],
              [
                145.35170300004373,
                14.244410000021043
              ],
              [
                145.23562499961523,
                14.266597000344055
              ],
              [
                145.17832800019,
                14.235020999855513
              ],
              [
                145.14309000033887,
                14.231324000430543
              ],
              [
                145.11430900002017,
                14.216907000072302
              ],
              [
                145.09194199957614,
                14.193625999753985
              ],
              [
                145.09145600022765,
                14.168738000397207
              ],
              [
                145.06302200023856,
                14.137901000006126
              ],
              [
                145.05896599983123,
                14.125000000164256
              ]
            ]
          ],
          [
            [
              [
                144.81544300033838,
                20.562823000166063
              ],
              [
                144.82676100036713,
                20.49176600035249
              ],
              [
                144.8624739996961,
                20.467094999808875
              ],
              [
                144.92643099994166,
                20.470093000237252
              ],
              [
                144.96384899988317,
                20.499999999837357
              ],
              [
                144.97914600032644,
                20.52586300032817
              ],
              [
                144.9710920001364,
                20.581185000303382
              ],
              [
                144.9414139996671,
                20.608322000113237
              ],
              [
                144.86328999965576,
                20.612994999617825
              ],
              [
                144.82106700019267,
                20.57810200001391
              ],
              [
                144.81544300033838,
                20.562823000166063
              ]
            ]
          ]
        ]
      }
    }
  ]
}
