{"type":"FeatureCollection","features":[{"type":"Feature","id":1,"geometry":{"type":"Point","coordinates":[-77.04098788140097,38.995964317643214]},"properties":{"CREATION_DT":1297918800000,"NARRATIVE":" ","LOCATION_DESCRIPTION":"150 feet west of the exit from Chevy Chase Crest Apts and 20 feet south of the 1880 block of East-West Highway (MD410) in Silver Spring, MD.\r\n","STONE_NUM":"NORTH","PIC_LINK":"http://octo.dc.gov/sites/default/files/dc/sites/octo/featured_content/images/NORTH_2.jpg","Z":79.041,"Z_FT":259.32,"GIS_ID":"BoundaryStonesPt_1","XCOORD":396449.535,"YCOORD":147558.137,"LATITUDE":38.99595651,"LONGITUDE":-77.04098558,"OBJECTID":1,"GLOBALID":"{33BFADE0-B15B-4EFA-A172-C1EF50877210}","CREATOR":null,"CREATED":null,"EDITOR":"DCGIS","EDITED":1514588688000}},{"type":"Feature","id":2,"geometry":{"type":"Point","coordinates":[-77.0541311611376,38.98570634971451]},"properties":{"CREATION_DT":1298005200000,"NARRATIVE":" ","LOCATION_DESCRIPTION":"5 feet East of a driveway at 2701 Daniel P1., 165 ft. NE from the midline of the intersection of Oregon Ave. and Daniel Pl., NW.","STONE_NUM":"NW9","PIC_LINK":"http://octo.dc.gov/sites/default/files/dc/sites/octo/featured_content/images/NW9_2.jpg","Z":75.173,"Z_FT":246.63,"GIS_ID":"BoundaryStonesPt_2","XCOORD":395310.295,"YCOORD":146419.994,"LATITUDE":38.98569855,"LONGITUDE":-77.05412886,"OBJECTID":2,"GLOBALID":"{0FC0F58B-3453-4231-B438-82909EB229D5}","CREATOR":null,"CREATED":null,"EDITOR":"DCGIS","EDITED":1514588688000}},{"type":"Feature","id":3,"geometry":{"type":"Point","coordinates":[-77.02774566095205,38.985628142432816]},"properties":{"CREATION_DT":1297918800000,"NARRATIVE":"SURVEYED CENTER OF THE PLAQUE","LOCATION_DESCRIPTION":"A bronze plaque exists on the sidewalk in front of convenience store at 7847 Eastern Ave in Silver Spring, MD.","STONE_NUM":"NE1","PIC_LINK":"http://octo.dc.gov/sites/default/files/dc/sites/octo/featured_content/images/NE1_3.jpg","Z":108.32900000000001,"Z_FT":355.41,"GIS_ID":"BoundaryStonesPt_3","XCOORD":397596.322,"YCOORD":146410.287,"LATITUDE":38.98562034,"LONGITUDE":-77.02774336,"OBJECTID":3,"GLOBALID":"{49011B83-3FAD-46D4-A525-5910EBD60AD6}","CREATOR":null,"CREATED":null,"EDITOR":"DCGIS","EDITED":1514588688000}},{"type":"Feature","id":4,"geometry":{"type":"Point","coordinates":[-77.06726924011944,38.97545014552221]},"properties":{"CREATION_DT":1298005200000,"NARRATIVE":" ","LOCATION_DESCRIPTION":"Center of a front lawn at 6422 Western Ave., NW.","STONE_NUM":"NW8","PIC_LINK":"http://octo.dc.gov/sites/default/files/dc/sites/octo/featured_content/images/NW8_2.jpg","Z":100.078,"Z_FT":328.34000000000003,"GIS_ID":"BoundaryStonesPt_4","XCOORD":394171.1779,"YCOORD":145282.2134,"LATITUDE":38.97544235,"LONGITUDE":-77.06726693,"OBJECTID":4,"GLOBALID":"{6972EA74-9EC3-4394-9848-6246FB6136C1}","CREATOR":null,"CREATED":null,"EDITOR":"DCGIS","EDITED":1514588688000}},{"type":"Feature","id":5,"geometry":{"type":"Point","coordinates":[-77.01459660744523,38.97535906912009]},"properties":{"CREATION_DT":1297918800000,"NARRATIVE":" ","LOCATION_DESCRIPTION":"South corner of a front lawn at 6890 Maple Ave, NE","STONE_NUM":"NE2","PIC_LINK":"http://octo.dc.gov/sites/default/files/dc/sites/octo/featured_content/images/NE2_2.jpg","Z":85.408,"Z_FT":280.21,"GIS_ID":"BoundaryStonesPt_5","XCOORD":398735.3701,"YCOORD":145270.0561,"LATITUDE":38.97535127,"LONGITUDE":-77.01459431,"OBJECTID":5,"GLOBALID":"{2CF112A4-EB02-4A63-8B66-E978DF2EF213}","CREATOR":null,"CREATED":null,"EDITOR":"DCGIS","EDITED":1514588688000}},{"type":"Feature","id":6,"geometry":{"type":"Point","coordinates":[-77.00169311894567,38.96528040500714]},"properties":{"CREATION_DT":1297918800000,"NARRATIVE":" ","LOCATION_DESCRIPTION":"About 140 feet northwest of intersection of Chillum Rd and Eastern Ave, NE","STONE_NUM":"NE3","PIC_LINK":"http://octo.dc.gov/sites/default/files/dc/sites/octo/featured_content/images/NE3_2.jpg","Z":56.4,"Z_FT":185.04,"GIS_ID":"BoundaryStonesPt_6","XCOORD":399853.465,"YCOORD":144151.1289,"LATITUDE":38.9652726,"LONGITUDE":-77.00169083,"OBJECTID":6,"GLOBALID":"{D8179C55-2BB1-4EFF-BD1E-053E7356D093}","CREATOR":null,"CREATED":null,"EDITOR":"DCGIS","EDITED":1514588688000}},{"type":"Feature","id":7,"geometry":{"type":"Point","coordinates":[-77.08040578491928,38.965190163927105]},"properties":{"CREATION_DT":1298005200000,"NARRATIVE":" ","LOCATION_DESCRIPTION":"Under a tree on the South corner of the front lawn of 5600 Western Ave., NW.","STONE_NUM":"NW7","PIC_LINK":"http://octo.dc.gov/sites/default/files/dc/sites/octo/featured_content/images/NW7_2.jpg","Z":104.242,"Z_FT":342,"GIS_ID":"BoundaryStonesPt_7","XCOORD":393031.8656,"YCOORD":144144.1793,"LATITUDE":38.96518237,"LONGITUDE":-77.08040347,"OBJECTID":7,"GLOBALID":"{FF800E4A-AC90-4934-94CD-B5821CB9EAB1}","CREATOR":null,"CREATED":null,"EDITOR":"DCGIS","EDITED":1514588688000}},{"type":"Feature","id":8,"geometry":{"type":"Point","coordinates":[-77.09354993016942,38.9549163986232]},"properties":{"CREATION_DT":1298005200000,"NARRATIVE":" ","LOCATION_DESCRIPTION":"Just West of a bus stop opposite Fesseden St., in between Park Place and Western Avenue, NW.","STONE_NUM":"NW6","PIC_LINK":"http://octo.dc.gov/sites/default/files/dc/sites/octo/featured_content/images/NW6_2.jpg","Z":84.994,"Z_FT":278.85,"GIS_ID":"BoundaryStonesPt_8","XCOORD":391891.5661,"YCOORD":143004.7817,"LATITUDE":38.9549086,"LONGITUDE":-77.09354761,"OBJECTID":8,"GLOBALID":"{8A6443B6-4F50-4D54-B207-21F97F868C1C}","CREATOR":null,"CREATED":null,"EDITOR":"DCGIS","EDITED":1514588688000}},{"type":"Feature","id":9,"geometry":{"type":"Point","coordinates":[-76.98820955429748,38.95474060193709]},"properties":{"CREATION_DT":1297918800000,"NARRATIVE":" ","LOCATION_DESCRIPTION":"About 75 feet northwest of the intersection of Eastern Ave and Sargent Rd, NE","STONE_NUM":"NE4","PIC_LINK":"http://octo.dc.gov/sites/default/files/dc/sites/octo/featured_content/images/NE4_2.jpg","Z":36.905,"Z_FT":121.08,"GIS_ID":"BoundaryStonesPt_9","XCOORD":401022.1615,"YCOORD":142981.1776,"LATITUDE":38.9547328,"LONGITUDE":-76.98820727,"OBJECTID":9,"GLOBALID":"{10BA6E3A-4DD6-4198-8409-37BB1C12E6BE}","CREATOR":null,"CREATED":null,"EDITOR":"DCGIS","EDITED":1514588688000}},{"type":"Feature","id":10,"geometry":{"type":"Point","coordinates":[-77.10668385845668,38.94464687048468]},"properties":{"CREATION_DT":1299560400000,"NARRATIVE":" ","LOCATION_DESCRIPTION":"About 300 ft. SE of a concrete culvert, 600 feet West of the Daleclaria Parkway, NW. It is atop small ridge about 100 ft. SE of a small gully.","STONE_NUM":"NW5","PIC_LINK":"http://octo.dc.gov/sites/default/files/dc/sites/octo/featured_content/images/NW5_1.jpg","Z":62.02,"Z_FT":203.48000000000002,"GIS_ID":"BoundaryStonesPt_10","XCOORD":390751.824,"YCOORD":141866.021,"LATITUDE":38.94463908,"LONGITUDE":-77.10668154,"OBJECTID":10,"GLOBALID":"{19F8959B-D728-4D43-8F9E-A1E1350B0A69}","CREATOR":null,"CREATED":null,"EDITOR":"DCGIS","EDITED":1514588688000}},{"type":"Feature","id":11,"geometry":{"type":"Point","coordinates":[-76.97501113059688,38.944421643516414]},"properties":{"CREATION_DT":1297918800000,"NARRATIVE":" ","LOCATION_DESCRIPTION":"Center of a front lawn at 4609 Eastern Ave., NE.","STONE_NUM":"NE5","PIC_LINK":"http://octo.dc.gov/sites/default/files/dc/sites/octo/featured_content/images/NE5_2.jpg","Z":18.526,"Z_FT":60.78,"GIS_ID":"BoundaryStonesPt_11","XCOORD":402166.4792,"YCOORD":141835.9109,"LATITUDE":38.94441385,"LONGITUDE":-76.97500885,"OBJECTID":11,"GLOBALID":"{92AB4003-7246-4306-A927-EBCF7A1D10D2}","CREATOR":null,"CREATED":null,"EDITOR":"DCGIS","EDITED":1514588688000}},{"type":"Feature","id":12,"geometry":{"type":"Point","coordinates":[-77.11567394111647,38.93761378375727]},"properties":{"CREATION_DT":1299214800000,"NARRATIVE":" ","LOCATION_DESCRIPTION":"The back yard of 5609 Daleclaria Place, NW. About 900 ft. N of the SW corner fence of the Daleclaria Reservoir, about 100 East of the fence. ","STONE_NUM":"NW4","PIC_LINK":"http://octo.dc.gov/sites/default/files/dc/sites/octo/featured_content/images/NW4_2.jpg","Z":44.65,"Z_FT":146.48,"GIS_ID":"BoundaryStonesPt_12","XCOORD":389971.489,"YCOORD":141086.236,"LATITUDE":38.93760599,"LONGITUDE":-77.11567162,"OBJECTID":12,"GLOBALID":"{FD22F65E-2844-4D17-B166-0D36CE147D4B}","CREATOR":null,"CREATED":null,"EDITOR":"DCGIS","EDITED":1514588688000}},{"type":"Feature","id":13,"geometry":{"type":"Point","coordinates":[-76.96133223617024,38.93372272087303]},"properties":{"CREATION_DT":1297918800000,"NARRATIVE":" ","LOCATION_DESCRIPTION":"South corner of a front lawn at 3601 Eastern Ave., NE.","STONE_NUM":"NE6","PIC_LINK":"http://octo.dc.gov/sites/default/files/dc/sites/octo/featured_content/images/NE6_2.jpg","Z":17.206,"Z_FT":56.45,"GIS_ID":"BoundaryStonesPt_13","XCOORD":403352.8032,"YCOORD":140648.6499,"LATITUDE":38.93371493,"LONGITUDE":-76.96132996,"OBJECTID":13,"GLOBALID":"{D0D37F5C-F112-4B51-A5FB-1A5F3B2B5313}","CREATOR":null,"CREATED":null,"EDITOR":"DCGIS","EDITED":1514588688000}},{"type":"Feature","id":14,"geometry":{"type":"Point","coordinates":[-77.13223874553475,38.924640993988824]},"properties":{"CREATION_DT":1298005200000,"NARRATIVE":" ","LOCATION_DESCRIPTION":"Center of a back yard at 4013 Tazwell St., Arl. VA.","STONE_NUM":"NW3","PIC_LINK":"http://octo.dc.gov/sites/default/files/dc/sites/octo/featured_content/images/NW3_2.jpg","Z":69.559,"Z_FT":228.21,"GIS_ID":"BoundaryStonesPt_14","XCOORD":388533.267,"YCOORD":139648.0958,"LATITUDE":38.92463321,"LONGITUDE":-77.13223642,"OBJECTID":14,"GLOBALID":"{AFB77496-3F7D-4B32-A308-A982E85F2D67}","CREATOR":null,"CREATED":null,"EDITOR":"DCGIS","EDITED":1514588688000}},{"type":"Feature","id":15,"geometry":{"type":"Point","coordinates":[-76.94865175958137,38.92379599079567]},"properties":{"CREATION_DT":1297918800000,"NARRATIVE":" ","LOCATION_DESCRIPTION":"About 100 ft. SE of the South corner of a series of raised monuments on the 18th block of Fort Lincoln Cemetery, Cottage City, MD. West of the Garden of the Crucifixion, along the boundary fence.","STONE_NUM":"NE7","PIC_LINK":"http://octo.dc.gov/sites/default/files/dc/sites/octo/featured_content/images/NE7_1.jpg","Z":25.262,"Z_FT":82.88,"GIS_ID":"BoundaryStonesPt_15","XCOORD":404452.856,"YCOORD":139547.2399,"LATITUDE":38.9237882,"LONGITUDE":-76.94864949,"OBJECTID":15,"GLOBALID":"{74C2D185-9ED1-45FA-8D7D-814C88B905A7}","CREATOR":null,"CREATED":null,"EDITOR":"DCGIS","EDITED":1514588688000}},{"type":"Feature","id":16,"geometry":{"type":"Point","coordinates":[-77.14598971066769,38.913888917300135]},"properties":{"CREATION_DT":1299128400000,"NARRATIVE":" ","LOCATION_DESCRIPTION":"On the NE corner of 5298 Old Dominion Drive, Arl. VA.","STONE_NUM":"NW2","PIC_LINK":"http://octo.dc.gov/sites/default/files/dc/sites/octo/featured_content/images/NW2_1.jpg","Z":93.162,"Z_FT":305.65000000000003,"GIS_ID":"BoundaryStonesPt_16","XCOORD":387338.96,"YCOORD":138456.344,"LATITUDE":38.91388113,"LONGITUDE":-77.14598738,"OBJECTID":16,"GLOBALID":"{3BAEA793-41A7-48B9-B4DE-F5D784DF72A8}","CREATOR":null,"CREATED":null,"EDITOR":"DCGIS","EDITED":1514588688000}},{"type":"Feature","id":17,"geometry":{"type":"Point","coordinates":[-76.9354855718971,38.91349058967939]},"properties":{"CREATION_DT":1297918800000,"NARRATIVE":" ","LOCATION_DESCRIPTION":"About 500 ft. NE of intersection of Kenilworth and Eastern Ayes, behind a D.C. Public Housing Project, NE. ","STONE_NUM":"NE8","PIC_LINK":"http://octo.dc.gov/sites/default/files/dc/sites/octo/featured_content/images/NE8_2.jpg","Z":4.938000000000001,"Z_FT":16.2,"GIS_ID":"BoundaryStonesPt_17","XCOORD":405595.369,"YCOORD":138403.979,"LATITUDE":38.9134828,"LONGITUDE":-76.93548331,"OBJECTID":17,"GLOBALID":"{F0768BAC-3CA5-4B10-9A11-10EA6661729A}","CREATOR":null,"CREATED":null,"EDITOR":"DCGIS","EDITED":1514588688000}},{"type":"Feature","id":18,"geometry":{"type":"Point","coordinates":[-77.15914668628133,38.9035693181707]},"properties":{"CREATION_DT":1298005200000,"NARRATIVE":" ","LOCATION_DESCRIPTION":"N corner of a back yard at 3607 Powhatan St., Arl., VA.","STONE_NUM":"NW1","PIC_LINK":"http://octo.dc.gov/sites/default/files/dc/sites/octo/featured_content/images/NW1_2.jpg","Z":130.595,"Z_FT":428.46000000000004,"GIS_ID":"BoundaryStonesPt_18","XCOORD":386195.9,"YCOORD":137312.693,"LATITUDE":38.90356154,"LONGITUDE":-77.15914435,"OBJECTID":18,"GLOBALID":"{627EC3CB-C071-45ED-ABB4-2A4F30545275}","CREATOR":null,"CREATED":null,"EDITOR":"DCGIS","EDITED":1514588688000}},{"type":"Feature","id":19,"geometry":{"type":"Point","coordinates":[-76.92232181295836,38.903176694569986]},"properties":{"CREATION_DT":1297918800000,"NARRATIVE":" ","LOCATION_DESCRIPTION":"West corner of the front lawn at 919 Eastern Ave., NE.","STONE_NUM":"NE9","PIC_LINK":"http://octo.dc.gov/sites/default/files/dc/sites/octo/featured_content/images/NE9_2.jpg","Z":37.862,"Z_FT":124.22,"GIS_ID":"BoundaryStonesPt_19","XCOORD":406738.0024,"YCOORD":137259.942,"LATITUDE":38.9031689,"LONGITUDE":-76.92231955,"OBJECTID":19,"GLOBALID":"{7DDA3F37-EABF-449B-BB05-657821BC23A2}","CREATOR":null,"CREATED":null,"EDITOR":"DCGIS","EDITED":1514588688000}},{"type":"Feature","id":20,"geometry":{"type":"Point","coordinates":[-77.17230347459162,38.89325290661569]},"properties":{"CREATION_DT":1299128400000,"NARRATIVE":" ","LOCATION_DESCRIPTION":"Andrew Ellicott Park, 2848 N. Arizona Street, Arl., VA","STONE_NUM":"WEST","PIC_LINK":"http://octo.dc.gov/sites/default/files/dc/sites/octo/featured_content/images/WEST_2.jpg","Z":104.48100000000001,"Z_FT":342.785,"GIS_ID":"BoundaryStonesPt_20","XCOORD":385052.527,"YCOORD":136169.563,"LATITUDE":38.89324513,"LONGITUDE":-77.17230114,"OBJECTID":20,"GLOBALID":"{4E9D300D-3B50-4339-8105-756C709EFFEA}","CREATOR":null,"CREATED":null,"EDITOR":"DCGIS","EDITED":1514588688000}},{"type":"Feature","id":21,"geometry":{"type":"Point","coordinates":[-76.90916778799588,38.89286829261014]},"properties":{"CREATION_DT":1299042000000,"NARRATIVE":" ","LOCATION_DESCRIPTION":"About 100 ft. East of the intersection of Eastern and Southern Aves.","STONE_NUM":"EAST","PIC_LINK":"http://octo.dc.gov/sites/default/files/dc/sites/octo/featured_content/images/EAST_2.jpg","Z":28.624000000000002,"Z_FT":93.91,"GIS_ID":"BoundaryStonesPt_21","XCOORD":407880.12,"YCOORD":136116.681,"LATITUDE":38.8928605,"LONGITUDE":-76.90916553,"OBJECTID":21,"GLOBALID":"{B33BEB30-CA66-4CA5-9647-05765D78507F}","CREATOR":null,"CREATED":null,"EDITOR":"DCGIS","EDITED":1514588688000}},{"type":"Feature","id":22,"geometry":{"type":"Point","coordinates":[-77.15909238694952,38.88295069485983]},"properties":{"CREATION_DT":1299128400000,"NARRATIVE":" ","LOCATION_DESCRIPTION":"A park along Van Buren Street, N of Columbia St., F.C., VA.","STONE_NUM":"SW9","PIC_LINK":"http://octo.dc.gov/sites/default/files/dc/sites/octo/featured_content/images/SW9_2.jpg","Z":85.009,"Z_FT":278.90000000000003,"GIS_ID":"BoundaryStonesPt_22","XCOORD":386196.6208,"YCOORD":135023.8586,"LATITUDE":38.88294292,"LONGITUDE":-77.15909005,"OBJECTID":22,"GLOBALID":"{2C78C78B-6C2C-4BC3-B6B8-F89FB7475CCC}","CREATOR":null,"CREATED":null,"EDITOR":"DCGIS","EDITED":1514588688000}},{"type":"Feature","id":23,"geometry":{"type":"Point","coordinates":[-76.92229572008263,38.882647834033556]},"properties":{"CREATION_DT":1299042000000,"NARRATIVE":" ","LOCATION_DESCRIPTION":"Opposite the end of D St., along Southern Ave., SE.","STONE_NUM":"SE1","PIC_LINK":"http://octo.dc.gov/sites/default/files/dc/sites/octo/featured_content/images/SE1_2.jpg","Z":61.92,"Z_FT":203.15,"GIS_ID":"BoundaryStonesPt_23","XCOORD":406742.205,"YCOORD":134981.08000000002,"LATITUDE":38.88264005,"LONGITUDE":-76.92229346,"OBJECTID":23,"GLOBALID":"{0BF12036-1018-4E19-83B0-1AABDB606A0D}","CREATOR":null,"CREATED":null,"EDITOR":"DCGIS","EDITED":1514588688000}},{"type":"Feature","id":24,"geometry":{"type":"Point","coordinates":[-77.14594760385089,38.872678971613354]},"properties":{"CREATION_DT":1299128400000,"NARRATIVE":" ","LOCATION_DESCRIPTION":"About 120 ft. SE of a water tower in an apartment complex parking lot on the SE corner of John Marshall Dr. and Wilson Blvd., Falls Church, VA. ","STONE_NUM":"SW8","PIC_LINK":"http://octo.dc.gov/sites/default/files/dc/sites/octo/featured_content/images/SW8_2.jpg","Z":124.414,"Z_FT":408.18,"GIS_ID":"BoundaryStonesPt_24","XCOORD":387335.2983,"YCOORD":133881.7158,"LATITUDE":38.8726712,"LONGITUDE":-77.14594528,"OBJECTID":24,"GLOBALID":"{66DD3803-57D5-4ACB-B182-11FDB6216659}","CREATOR":null,"CREATED":null,"EDITOR":"DCGIS","EDITED":1514588688000}},{"type":"Feature","id":25,"geometry":{"type":"Point","coordinates":[-76.93542659376803,38.87241823769313]},"properties":{"CREATION_DT":1299042000000,"NARRATIVE":" ","LOCATION_DESCRIPTION":"N corner of a front lawn at 4345 Southern Ave., SE.","STONE_NUM":"SE2","PIC_LINK":"http://octo.dc.gov/sites/default/files/dc/sites/octo/featured_content/images/SE2_2.jpg","Z":88.27600000000001,"Z_FT":289.62,"GIS_ID":"BoundaryStonesPt_25","XCOORD":405603.709,"YCOORD":133844.6301,"LATITUDE":38.87241045,"LONGITUDE":-76.93542433,"OBJECTID":25,"GLOBALID":"{B726377D-7511-471F-8A3C-E30F7C7D6767}","CREATOR":null,"CREATED":null,"EDITOR":"DCGIS","EDITED":1514588688000}},{"type":"Feature","id":26,"geometry":{"type":"Point","coordinates":[-77.13272826341706,38.862379823914274]},"properties":{"CREATION_DT":1299128400000,"NARRATIVE":" ","LOCATION_DESCRIPTION":"Along the SW fence on the grounds of Carlin Springs Elementary School, Arl., VA.","STONE_NUM":"SW7","PIC_LINK":"http://octo.dc.gov/sites/default/files/dc/sites/octo/featured_content/images/SW7_1.jpg","Z":81.778,"Z_FT":268.3,"GIS_ID":"BoundaryStonesPt_26","XCOORD":388480.7701,"YCOORD":132736.6848,"LATITUDE":38.86237205,"LONGITUDE":-77.13272594,"OBJECTID":26,"GLOBALID":"{90011988-0A74-4F39-92A8-821DA748C5D5}","CREATOR":null,"CREATED":null,"EDITOR":"DCGIS","EDITED":1514588688000}},{"type":"Feature","id":27,"geometry":{"type":"Point","coordinates":[-76.94857309685602,38.86216838243233]},"properties":{"CREATION_DT":1299042000000,"NARRATIVE":" ","LOCATION_DESCRIPTION":"Opposite 3908 Southern Ave., surrounded by ivy.","STONE_NUM":"SE3","PIC_LINK":"http://octo.dc.gov/sites/default/files/dc/sites/octo/featured_content/images/SE3_2.jpg","Z":74.23100000000001,"Z_FT":243.54,"GIS_ID":"BoundaryStonesPt_27","XCOORD":404463.5306,"YCOORD":132706.0963,"LATITUDE":38.8621606,"LONGITUDE":-76.94857083,"OBJECTID":27,"GLOBALID":"{C00B57F3-A64B-41E7-9518-0FE65083F9FC}","CREATOR":null,"CREATED":null,"EDITOR":"DCGIS","EDITED":1514588688000}},{"type":"Feature","id":28,"geometry":{"type":"Point","coordinates":[-77.11926590167795,38.8518731123099]},"properties":{"CREATION_DT":1298005200000,"NARRATIVE":" ","LOCATION_DESCRIPTION":"In the median strip of S. Jefferson Street between Columbia and Leesburg Pikes, Fairfax Co./Arlington, VA.","STONE_NUM":"SW6","PIC_LINK":"http://octo.dc.gov/sites/default/files/dc/sites/octo/featured_content/images/SW6_2.jpg","Z":64.974,"Z_FT":213.17000000000002,"GIS_ID":"BoundaryStonesPt_28","XCOORD":389647.6382,"YCOORD":131568.7526,"LATITUDE":38.85186534,"LONGITUDE":-77.11926358,"OBJECTID":28,"GLOBALID":"{3F997A8A-DF42-4955-BF4E-F87235D17398}","CREATOR":null,"CREATED":null,"EDITOR":"DCGIS","EDITED":1514588688000}},{"type":"Feature","id":29,"geometry":{"type":"Point","coordinates":[-77.10674239761522,38.842088952891736]},"properties":{"CREATION_DT":1299128400000,"NARRATIVE":" ","LOCATION_DESCRIPTION":"About 100 ft. NE of the intersection of King St. and Walter Reed Dr., on The N side of Walter Reed Dr., An., VA.","STONE_NUM":"SW5","PIC_LINK":"http://octo.dc.gov/sites/default/files/dc/sites/octo/featured_content/images/SW5_1.jpg","Z":37.401,"Z_FT":122.70700000000001,"GIS_ID":"BoundaryStonesPt_29","XCOORD":390733.437,"YCOORD":130481.298,"LATITUDE":38.84208118,"LONGITUDE":-77.10674008,"OBJECTID":29,"GLOBALID":"{30A0D82D-6A45-435C-931C-AAA768E4B381}","CREATOR":null,"CREATED":null,"EDITOR":"DCGIS","EDITED":1514588688000}},{"type":"Feature","id":30,"geometry":{"type":"Point","coordinates":[-76.9748416940991,38.8416903023925]},"properties":{"CREATION_DT":1299042000000,"NARRATIVE":" ","LOCATION_DESCRIPTION":"Opposite the NE end of Valley Terrace, along Southern Ave., Next to a parking lot for the Southern Ave. Metro stop, SE.","STONE_NUM":"SE5","PIC_LINK":"http://octo.dc.gov/sites/default/files/dc/sites/octo/featured_content/images/SE5_2.jpg","Z":34.659,"Z_FT":113.71000000000001,"GIS_ID":"BoundaryStonesPt_30","XCOORD":402184.31,"YCOORD":130431.9279,"LATITUDE":38.84168253,"LONGITUDE":-76.97483942,"OBJECTID":30,"GLOBALID":"{2B4DF732-3FA3-4B95-9EA5-E8B18D53B97E}","CREATOR":null,"CREATED":null,"EDITOR":"DCGIS","EDITED":1514588688000}},{"type":"Feature","id":31,"geometry":{"type":"Point","coordinates":[-77.09318923480265,38.83155075989516]},"properties":{"CREATION_DT":1298005200000,"NARRATIVE":" ","LOCATION_DESCRIPTION":"Just off the sidewalk on King St., about 150 ft. NW of Wakefield St., Alex., VA.","STONE_NUM":"SW4","PIC_LINK":"http://octo.dc.gov/sites/default/files/dc/sites/octo/featured_content/images/SW4_1.jpg","Z":60.012,"Z_FT":196.89000000000001,"GIS_ID":"BoundaryStonesPt_31","XCOORD":391908.8495,"YCOORD":129310.199,"LATITUDE":38.83154299,"LONGITUDE":-77.09318693,"OBJECTID":31,"GLOBALID":"{AD66CE91-AD96-48B6-9059-3B448DC7E976}","CREATOR":null,"CREATED":null,"EDITOR":"DCGIS","EDITED":1514588688000}},{"type":"Feature","id":32,"geometry":{"type":"Point","coordinates":[-76.98797557716786,38.83144494967126]},"properties":{"CREATION_DT":1299042000000,"NARRATIVE":" ","LOCATION_DESCRIPTION":"About 20 ft. West of the entrance to the Tribles Co., 901 Southern Ave., SE.","STONE_NUM":"SE6","PIC_LINK":"http://octo.dc.gov/sites/default/files/dc/sites/octo/featured_content/images/SE6_2.jpg","Z":58.51,"Z_FT":191.96,"GIS_ID":"BoundaryStonesPt_32","XCOORD":401044.2453,"YCOORD":129294.3916,"LATITUDE":38.83143718,"LONGITUDE":-76.9879733,"OBJECTID":32,"GLOBALID":"{15EA3B4F-7DE4-4F7B-9829-57330A9A739C}","CREATOR":null,"CREATED":null,"EDITOR":"DCGIS","EDITED":1514588688000}},{"type":"Feature","id":33,"geometry":{"type":"Point","coordinates":[-77.0010987247258,38.82120428263898]},"properties":{"CREATION_DT":1299042000000,"NARRATIVE":" ","LOCATION_DESCRIPTION":"About 25 ft. East of the intersection of Indian Head Hwy. and Southern Ave., SE. Just SE of the bridge going over Oxon Run on Indian Head Hwy.","STONE_NUM":"SE7","PIC_LINK":"http://octo.dc.gov/sites/default/files/dc/sites/octo/featured_content/images/SE7_2.jpg","Z":12.527000000000001,"Z_FT":41.1,"GIS_ID":"BoundaryStonesPt_33","XCOORD":399904.7845,"YCOORD":128157.5424,"LATITUDE":38.82119651,"LONGITUDE":-77.00109645,"OBJECTID":33,"GLOBALID":"{C446EA3F-2426-4829-BF45-3302E2A5D590}","CREATOR":null,"CREATED":null,"EDITOR":"DCGIS","EDITED":1514588688000}},{"type":"Feature","id":34,"geometry":{"type":"Point","coordinates":[-77.0793225012967,38.82066041090277]},"properties":{"CREATION_DT":1298005200000,"NARRATIVE":" ","LOCATION_DESCRIPTION":"North end of a parking lot of the First Baptist Church of Alexandria at 2932 King St., Alex., VA","STONE_NUM":"SW3","PIC_LINK":"http://octo.dc.gov/sites/default/files/dc/sites/octo/featured_content/images/SW3_2.jpg","Z":52.971000000000004,"Z_FT":173.79,"GIS_ID":"BoundaryStonesPt_34","XCOORD":393111.8066,"YCOORD":128100.1608,"LATITUDE":38.82065264,"LONGITUDE":-77.0793202,"OBJECTID":34,"GLOBALID":"{D9F77609-02E0-48EF-AEF1-6FB5B780E1C8}","CREATOR":null,"CREATED":null,"EDITOR":"DCGIS","EDITED":1514588688000}},{"type":"Feature","id":35,"geometry":{"type":"Point","coordinates":[-77.0142527355468,38.81092742802307]},"properties":{"CREATION_DT":1299042000000,"NARRATIVE":"STONE UNDER 4' OF WATER, COORDINATES APPROX.","LOCATION_DESCRIPTION":"SE corner of the D.C. Village Impound Lot, SW.","STONE_NUM":"SE8","PIC_LINK":"http://octo.dc.gov/sites/default/files/dc/sites/octo/featured_content/images/SE8_1.jpg","Z":5.29,"Z_FT":17.36,"GIS_ID":"BoundaryStonesPt_35","XCOORD":398762.3166,"YCOORD":127016.8414,"LATITUDE":38.81091966,"LONGITUDE":-77.01425045,"OBJECTID":35,"GLOBALID":"{32D89A1B-9504-4431-9FE4-E233A27DFA55}","CREATOR":null,"CREATED":null,"EDITOR":"DCGIS","EDITED":1514588688000}},{"type":"Feature","id":36,"geometry":{"type":"Point","coordinates":[-77.06264022516531,38.807600193367904]},"properties":{"CREATION_DT":1298005200000,"NARRATIVE":" ","LOCATION_DESCRIPTION":"On the sidewalk just West of 7 Russell Rd., Alex. VA.","STONE_NUM":"SW2","PIC_LINK":"http://octo.dc.gov/sites/default/files/dc/sites/octo/featured_content/images/SW2_2.jpg","Z":8.662,"Z_FT":28.42,"GIS_ID":"BoundaryStonesPt_36","XCOORD":394559.5063,"YCOORD":126649.2671,"LATITUDE":38.80759243,"LONGITUDE":-77.06263793,"OBJECTID":36,"GLOBALID":"{D528ADD1-9D81-4FFB-AC21-B880BEA15CC9}","CREATOR":null,"CREATED":null,"EDITOR":"DCGIS","EDITED":1514588688000}},{"type":"Feature","id":37,"geometry":{"type":"Point","coordinates":[-77.02373948878733,38.80351442046185]},"properties":{"CREATION_DT":1299128400000,"NARRATIVE":" ","LOCATION_DESCRIPTION":"About 1000 ft. SW of the South end of Oxon Cove Bridge along Interstate 295, about 120 ft. East of the Potomac river bed.","STONE_NUM":"SE9","PIC_LINK":"http://octo.dc.gov/sites/default/files/dc/sites/octo/featured_content/images/SE9_1.jpg","Z":2.041,"Z_FT":6.696000000000001,"GIS_ID":"BoundaryStonesPt_37","XCOORD":397938.158,"YCOORD":126194.122,"LATITUDE":38.80350665,"LONGITUDE":-77.0237372,"OBJECTID":37,"GLOBALID":"{91D9434F-7C0D-4593-B8F5-2E49D562CE07}","CREATOR":null,"CREATED":null,"EDITOR":"DCGIS","EDITED":1514588688000}},{"type":"Feature","id":38,"geometry":{"type":"Point","coordinates":[-77.05439532083857,38.801251315937634]},"properties":{"CREATION_DT":1298005200000,"NARRATIVE":" ","LOCATION_DESCRIPTION":"On the NW corner of a lot at 1220 Wilkes Street, Alex. VA.","STONE_NUM":"SW1","PIC_LINK":"http://octo.dc.gov/sites/default/files/dc/sites/octo/featured_content/images/SW1_1.jpg","Z":8.909,"Z_FT":29.23,"GIS_ID":"BoundaryStonesPt_38","XCOORD":395275.2067,"YCOORD":125944.0426,"LATITUDE":38.80124355,"LONGITUDE":-77.05439303,"OBJECTID":38,"GLOBALID":"{5262CCC2-91C5-4A13-A81B-36A88F08AF83}","CREATOR":null,"CREATED":null,"EDITOR":"DCGIS","EDITED":1514588688000}},{"type":"Feature","id":39,"geometry":{"type":"Point","coordinates":[-77.04058831906278,38.790346914335274]},"properties":{"CREATION_DT":1306900800000,"NARRATIVE":"Could not survey due to site being under construction. Stone wrapped in burlap & packed in sand.  Approximate coordinates (+/-0.4') obtained from AMT surveyor working for PCC at Woodrow Wilson Bridge ","LOCATION_DESCRIPTION":"Currently in seawall on the side of the Joint Point Lighthouse on Jones Point Park, Alexandria VA,  Site currently under construction (May, 2011) and stone may be moved.","STONE_NUM":"SOUTH","PIC_LINK":null,"Z":null,"Z_FT":null,"GIS_ID":"BoundaryStonesPt_39","XCOORD":396473.9993,"YCOORD":124732.9642,"LATITUDE":38.79033915,"LONGITUDE":-77.04058603,"OBJECTID":39,"GLOBALID":"{86EE8AA1-8C81-48B5-A032-2D974F7FF2B9}","CREATOR":null,"CREATED":null,"EDITOR":"DCGIS","EDITED":1514588688000}}]}
