{"type":"FeatureCollection","features":[{"type":"Feature","id":25,"geometry":{"type":"Point","coordinates":[-77.0239518290737,38.933118754412156]},"properties":{"NAME":"12","HARDWARE_TYPE":"0","SIGN_NUMBER":"18","URL":"https://www.culturaltourismdc.org/portal/dc-neighborhood-heritage-trails","LATITUDE":38.93311096,"LONGITUDE":-77.02394954,"XCOORD":397923.48925,"YCOORD":140581.166875,"GIS_ID":"HeritageTrailPt_148","GLOBALID":"{A81CE97D-E57A-4A25-BE2C-268D5B1F5486}","CREATED":null,"EDITED":null,"OBJECTID":25}},{"type":"Feature","id":27,"geometry":{"type":"Point","coordinates":[-77.03964159514155,38.93261494813003]},"properties":{"NAME":"9","HARDWARE_TYPE":"3","SIGN_NUMBER":"12","URL":"https://www.culturaltourismdc.org/portal/dc-neighborhood-heritage-trails","LATITUDE":38.93260716,"LONGITUDE":-77.0396393,"XCOORD":396563.1063125,"YCOORD":140525.7141875,"GIS_ID":"HeritageTrailPt_150","GLOBALID":"{FD4A2706-8CEF-46A3-BC0F-A485A616AB3B}","CREATED":null,"EDITED":null,"OBJECTID":27}},{"type":"Feature","id":28,"geometry":{"type":"Point","coordinates":[-77.0298552763683,38.9324014963115]},"properties":{"NAME":"3","HARDWARE_TYPE":"0","SIGN_NUMBER":"5","URL":"https://www.culturaltourismdc.org/portal/dc-neighborhood-heritage-trails","LATITUDE":38.9323937,"LONGITUDE":-77.02985298,"XCOORD":397411.6131875,"YCOORD":140501.6963125,"GIS_ID":"HeritageTrailPt_151","GLOBALID":"{9BCB53AB-91DB-47EF-A541-D3F762971282}","CREATED":null,"EDITED":null,"OBJECTID":28}},{"type":"Feature","id":29,"geometry":{"type":"Point","coordinates":[-77.04279532845021,38.93232392151299]},"properties":{"NAME":"9","HARDWARE_TYPE":"0","SIGN_NUMBER":"10","URL":"https://www.culturaltourismdc.org/portal/dc-neighborhood-heritage-trails","LATITUDE":38.93231613,"LONGITUDE":-77.04279303,"XCOORD":396289.648875,"YCOORD":140493.5305,"GIS_ID":"HeritageTrailPt_152","GLOBALID":"{A4DF5DF4-BA38-4638-8305-7CE7D0E1E6ED}","CREATED":null,"EDITED":null,"OBJECTID":29}},{"type":"Feature","id":30,"geometry":{"type":"Point","coordinates":[-77.04100179393818,38.93231249336338]},"properties":{"NAME":"9","HARDWARE_TYPE":"0","SIGN_NUMBER":"11","URL":"https://www.culturaltourismdc.org/portal/dc-neighborhood-heritage-trails","LATITUDE":38.9323047,"LONGITUDE":-77.0409995,"XCOORD":396445.156,"YCOORD":140492.1911875,"GIS_ID":"HeritageTrailPt_153","GLOBALID":"{2C357E1D-B5F8-4EBB-BE0A-AA8A43CEDD43}","CREATED":null,"EDITED":null,"OBJECTID":30}},{"type":"Feature","id":31,"geometry":{"type":"Point","coordinates":[-77.02379262574092,38.931961066386876]},"properties":{"NAME":"12","HARDWARE_TYPE":"0","SIGN_NUMBER":"17","URL":"https://www.culturaltourismdc.org/portal/dc-neighborhood-heritage-trails","LATITUDE":38.93195327,"LONGITUDE":-77.02379033,"XCOORD":397937.2589375,"YCOORD":140452.6495,"GIS_ID":"HeritageTrailPt_154","GLOBALID":"{06422C53-21FD-49E0-AFBE-D01762EDF75D}","CREATED":null,"EDITED":null,"OBJECTID":31}},{"type":"Feature","id":32,"geometry":{"type":"Point","coordinates":[-77.0386489661504,38.931719602577154]},"properties":{"NAME":"9","HARDWARE_TYPE":"0","SIGN_NUMBER":"13","URL":"https://www.culturaltourismdc.org/portal/dc-neighborhood-heritage-trails","LATITUDE":38.93171181,"LONGITUDE":-77.03864667,"XCOORD":396649.1293125,"YCOORD":140426.2858125,"GIS_ID":"HeritageTrailPt_155","GLOBALID":"{EABE9BB8-B33B-4331-A0FA-65B6EA92ED6E}","CREATED":null,"EDITED":null,"OBJECTID":32}},{"type":"Feature","id":33,"geometry":{"type":"Point","coordinates":[-77.03252222735554,38.93147850501533]},"properties":{"NAME":"3","HARDWARE_TYPE":"0","SIGN_NUMBER":"3","URL":"https://www.culturaltourismdc.org/portal/dc-neighborhood-heritage-trails","LATITUDE":38.93147071,"LONGITUDE":-77.03251993,"XCOORD":397180.34,"YCOORD":140399.314625,"GIS_ID":"HeritageTrailPt_156","GLOBALID":"{9393D5DE-684F-4CE6-A3C7-43114548262A}","CREATED":null,"EDITED":null,"OBJECTID":33}},{"type":"Feature","id":34,"geometry":{"type":"Point","coordinates":[-77.03848780064286,38.93135855770352]},"properties":{"NAME":"9","HARDWARE_TYPE":"0","SIGN_NUMBER":"14","URL":"https://www.culturaltourismdc.org/portal/dc-neighborhood-heritage-trails","LATITUDE":38.93135077,"LONGITUDE":-77.0384855,"XCOORD":396663.0863125,"YCOORD":140386.2005,"GIS_ID":"HeritageTrailPt_157","GLOBALID":"{91422699-B5C6-475C-8C1F-599D229BFF89}","CREATED":null,"EDITED":null,"OBJECTID":34}},{"type":"Feature","id":36,"geometry":{"type":"Point","coordinates":[-77.03822886504742,38.930601530286175]},"properties":{"NAME":"9","HARDWARE_TYPE":"0","SIGN_NUMBER":"15","URL":"https://www.culturaltourismdc.org/portal/dc-neighborhood-heritage-trails","LATITUDE":38.93059374,"LONGITUDE":-77.03822657,"XCOORD":396685.5015,"YCOORD":140302.155375,"GIS_ID":"HeritageTrailPt_159","GLOBALID":"{473B8A33-451A-406A-A353-E7889F04803C}","CREATED":null,"EDITED":null,"OBJECTID":36}},{"type":"Feature","id":37,"geometry":{"type":"Point","coordinates":[-77.03658940310874,38.93059666810295]},"properties":{"NAME":"9","HARDWARE_TYPE":"0","SIGN_NUMBER":"2","URL":"https://www.culturaltourismdc.org/portal/dc-neighborhood-heritage-trails","LATITUDE":38.93058888,"LONGITUDE":-77.03658711,"XCOORD":396827.6535,"YCOORD":140301.556625,"GIS_ID":"HeritageTrailPt_160","GLOBALID":"{E54576E8-C1FA-489F-A4F9-CFB62090604F}","CREATED":null,"EDITED":null,"OBJECTID":37}},{"type":"Feature","id":38,"geometry":{"type":"Point","coordinates":[-77.03238925267168,38.93049738389319]},"properties":{"NAME":"3","HARDWARE_TYPE":"0","SIGN_NUMBER":"2","URL":"https://www.culturaltourismdc.org/portal/dc-neighborhood-heritage-trails","LATITUDE":38.93048959,"LONGITUDE":-77.03238696,"XCOORD":397191.831125,"YCOORD":140290.3975,"GIS_ID":"HeritageTrailPt_161","GLOBALID":"{88EDBD77-42B2-4708-A98C-DFCF2DE22E37}","CREATED":null,"EDITED":null,"OBJECTID":38}},{"type":"Feature","id":39,"geometry":{"type":"Point","coordinates":[-77.02358021832451,38.92998102900197]},"properties":{"NAME":"12","HARDWARE_TYPE":"0","SIGN_NUMBER":"16","URL":"https://www.culturaltourismdc.org/portal/dc-neighborhood-heritage-trails","LATITUDE":38.92997324,"LONGITUDE":-77.02357793,"XCOORD":397955.61856251,"YCOORD":140232.844,"GIS_ID":"HeritageTrailPt_162","GLOBALID":"{77C3E3E4-2FF0-4727-B5C3-CDDD86AD4C7F}","CREATED":null,"EDITED":null,"OBJECTID":39}},{"type":"Feature","id":40,"geometry":{"type":"Point","coordinates":[-77.0325770121315,38.929942410748595]},"properties":{"NAME":"3","HARDWARE_TYPE":"0","SIGN_NUMBER":"1","URL":"https://www.culturaltourismdc.org/portal/dc-neighborhood-heritage-trails","LATITUDE":38.92993462,"LONGITUDE":-77.03257472,"XCOORD":397175.528625,"YCOORD":140228.7968125,"GIS_ID":"HeritageTrailPt_163","GLOBALID":"{BC2D69A7-8A16-4854-B02D-01751004053E}","CREATED":null,"EDITED":null,"OBJECTID":40}},{"type":"Feature","id":41,"geometry":{"type":"Point","coordinates":[-77.02793473820662,38.92974664588098]},"properties":{"NAME":"3","HARDWARE_TYPE":"0","SIGN_NUMBER":"6","URL":"https://www.culturaltourismdc.org/portal/dc-neighborhood-heritage-trails","LATITUDE":38.92973885,"LONGITUDE":-77.02793244,"XCOORD":397578.042,"YCOORD":140206.9316875,"GIS_ID":"HeritageTrailPt_164","GLOBALID":"{FC925E0E-DFB4-41B7-821E-661DE72AC172}","CREATED":null,"EDITED":null,"OBJECTID":41}},{"type":"Feature","id":42,"geometry":{"type":"Point","coordinates":[-77.0378114092346,38.92968408852583]},"properties":{"NAME":"9","HARDWARE_TYPE":"0","SIGN_NUMBER":"16","URL":"https://www.culturaltourismdc.org/portal/dc-neighborhood-heritage-trails","LATITUDE":38.9296763,"LONGITUDE":-77.03780911,"XCOORD":396721.656,"YCOORD":140200.295625,"GIS_ID":"HeritageTrailPt_165","GLOBALID":"{4FCFFEE1-7164-40BA-806B-B5FEB9B30F28}","CREATED":null,"EDITED":null,"OBJECTID":42}},{"type":"Feature","id":43,"geometry":{"type":"Point","coordinates":[-77.03658172045901,38.92937974672966]},"properties":{"NAME":"9","HARDWARE_TYPE":"0","SIGN_NUMBER":"1","URL":"https://www.culturaltourismdc.org/portal/dc-neighborhood-heritage-trails","LATITUDE":38.92937195,"LONGITUDE":-77.03657942,"XCOORD":396828.2655,"YCOORD":140166.468125,"GIS_ID":"HeritageTrailPt_166","GLOBALID":"{89B6411E-A854-4E2E-9CA6-EAA36A85CC16}","CREATED":null,"EDITED":null,"OBJECTID":43}},{"type":"Feature","id":45,"geometry":{"type":"Point","coordinates":[-77.02598511603574,38.927968287146854]},"properties":{"NAME":"12","HARDWARE_TYPE":"0","SIGN_NUMBER":"15","URL":"https://www.culturaltourismdc.org/portal/dc-neighborhood-heritage-trails","LATITUDE":38.9279605,"LONGITUDE":-77.02598282,"XCOORD":397747.032875,"YCOORD":140009.4685625,"GIS_ID":"HeritageTrailPt_168","GLOBALID":"{E97DE2FF-CDE1-44EF-B468-5D2D35758BBF}","CREATED":null,"EDITED":null,"OBJECTID":45}},{"type":"Feature","id":46,"geometry":{"type":"Point","coordinates":[-77.03658157002526,38.927535501678626]},"properties":{"NAME":"9","HARDWARE_TYPE":"0","SIGN_NUMBER":"0","URL":"https://www.culturaltourismdc.org/portal/dc-neighborhood-heritage-trails","LATITUDE":38.92752771,"LONGITUDE":-77.03657927,"XCOORD":396828.1965,"YCOORD":139961.7408125,"GIS_ID":"HeritageTrailPt_169","GLOBALID":"{E714E1B2-F27B-4575-A978-E87952DF2A46}","CREATED":null,"EDITED":null,"OBJECTID":46}},{"type":"Feature","id":47,"geometry":{"type":"Point","coordinates":[-77.03285156695567,38.92746293975274]},"properties":{"NAME":"3","HARDWARE_TYPE":"0","SIGN_NUMBER":"18","URL":"https://www.culturaltourismdc.org/portal/dc-neighborhood-heritage-trails","LATITUDE":38.92745515,"LONGITUDE":-77.03284927,"XCOORD":397151.623875,"YCOORD":139953.563,"GIS_ID":"HeritageTrailPt_170","GLOBALID":"{B8E2115A-7B4F-42A9-AAB6-4548FCB95AFA}","CREATED":null,"EDITED":null,"OBJECTID":47}},{"type":"Feature","id":48,"geometry":{"type":"Point","coordinates":[-77.02565556143104,38.92743543706052]},"properties":{"NAME":"12","HARDWARE_TYPE":"0","SIGN_NUMBER":"14","URL":"https://www.culturaltourismdc.org/portal/dc-neighborhood-heritage-trails","LATITUDE":38.92742765,"LONGITUDE":-77.02565327,"XCOORD":397775.59225,"YCOORD":139950.3098125,"GIS_ID":"HeritageTrailPt_171","GLOBALID":"{429A0FA5-4EFB-4DCF-96A8-B7DCF1284DEE}","CREATED":null,"EDITED":null,"OBJECTID":48}},{"type":"Feature","id":49,"geometry":{"type":"Point","coordinates":[-77.03337280959909,38.92650646919731]},"properties":{"NAME":"3","HARDWARE_TYPE":"0","SIGN_NUMBER":"17","URL":"https://www.culturaltourismdc.org/portal/dc-neighborhood-heritage-trails","LATITUDE":38.92649868,"LONGITUDE":-77.03337051,"XCOORD":397106.387625,"YCOORD":139847.402625,"GIS_ID":"HeritageTrailPt_172","GLOBALID":"{705BC398-FB32-4FC3-B120-EDEDD9472425}","CREATED":null,"EDITED":null,"OBJECTID":49}},{"type":"Feature","id":50,"geometry":{"type":"Point","coordinates":[-77.02295550193776,38.92605775325373]},"properties":{"NAME":"12","HARDWARE_TYPE":"0","SIGN_NUMBER":"13","URL":"https://www.culturaltourismdc.org/portal/dc-neighborhood-heritage-trails","LATITUDE":38.92604996,"LONGITUDE":-77.02295321,"XCOORD":398009.6774375,"YCOORD":139797.3129375,"GIS_ID":"HeritageTrailPt_173","GLOBALID":"{CCDB7F8A-AF8B-49AE-8E08-F15CD5F07423}","CREATED":null,"EDITED":null,"OBJECTID":50}},{"type":"Feature","id":51,"geometry":{"type":"Point","coordinates":[-77.03656363385812,38.925820621010445]},"properties":{"NAME":"0","HARDWARE_TYPE":"2","SIGN_NUMBER":"4","URL":"https://www.culturaltourismdc.org/portal/dc-neighborhood-heritage-trails","LATITUDE":38.92581283,"LONGITUDE":-77.03656134,"XCOORD":396829.676125,"YCOORD":139771.373625,"GIS_ID":"HeritageTrailPt_174","GLOBALID":"{B41A7238-5E62-4754-A582-49D1CC5490F1}","CREATED":null,"EDITED":null,"OBJECTID":51}},{"type":"Feature","id":53,"geometry":{"type":"Point","coordinates":[-77.02720608856264,38.92571125485839]},"properties":{"NAME":"3","HARDWARE_TYPE":"0","SIGN_NUMBER":"7","URL":"https://www.culturaltourismdc.org/portal/dc-neighborhood-heritage-trails","LATITUDE":38.92570346,"LONGITUDE":-77.02720379,"XCOORD":397641.088125,"YCOORD":139758.950125,"GIS_ID":"HeritageTrailPt_176","GLOBALID":"{C1EB0438-41E3-4CAD-806B-B002D1F0DCC4}","CREATED":null,"EDITED":null,"OBJECTID":53}},{"type":"Feature","id":54,"geometry":{"type":"Point","coordinates":[-77.03879438044052,38.92525853934878]},"properties":{"NAME":"0","HARDWARE_TYPE":"2","SIGN_NUMBER":"5","URL":"https://www.culturaltourismdc.org/portal/dc-neighborhood-heritage-trails","LATITUDE":38.925250750000004,"LONGITUDE":-77.03879208,"XCOORD":396636.2158125,"YCOORD":139709.0575,"GIS_ID":"HeritageTrailPt_177","GLOBALID":"{086A8876-67BF-4F86-BD3E-C2AC13409D71}","CREATED":null,"EDITED":null,"OBJECTID":54}},{"type":"Feature","id":55,"geometry":{"type":"Point","coordinates":[-77.04083433409171,38.92509248761581]},"properties":{"NAME":"0","HARDWARE_TYPE":"0","SIGN_NUMBER":"6","URL":"https://www.culturaltourismdc.org/portal/dc-neighborhood-heritage-trails","LATITUDE":38.9250847,"LONGITUDE":-77.04083204,"XCOORD":396459.3165,"YCOORD":139690.7016875,"GIS_ID":"HeritageTrailPt_178","GLOBALID":"{0C6355B5-5676-41E9-876E-22B82D4DAC61}","CREATED":null,"EDITED":null,"OBJECTID":55}},{"type":"Feature","id":56,"geometry":{"type":"Point","coordinates":[-77.02150826587638,38.92472113103782]},"properties":{"NAME":"12","HARDWARE_TYPE":"0","SIGN_NUMBER":"11","URL":"https://www.culturaltourismdc.org/portal/dc-neighborhood-heritage-trails","LATITUDE":38.92471334,"LONGITUDE":-77.02150597,"XCOORD":398135.134875,"YCOORD":139648.906,"GIS_ID":"HeritageTrailPt_179","GLOBALID":"{4E8619E9-B3D9-4C80-A4C8-53759D06E01C}","CREATED":null,"EDITED":null,"OBJECTID":56}},{"type":"Feature","id":57,"geometry":{"type":"Point","coordinates":[-77.02277846903384,38.92422012682391]},"properties":{"NAME":"12","HARDWARE_TYPE":"0","SIGN_NUMBER":"12","URL":"https://www.culturaltourismdc.org/portal/dc-neighborhood-heritage-trails","LATITUDE":38.92421234,"LONGITUDE":-77.02277618,"XCOORD":398024.9771875,"YCOORD":139593.317125,"GIS_ID":"HeritageTrailPt_180","GLOBALID":"{4D589AF5-06C6-412D-977F-5D7FFD32B270}","CREATED":null,"EDITED":null,"OBJECTID":57}},{"type":"Feature","id":58,"geometry":{"type":"Point","coordinates":[-77.04448072273048,38.92391823714157]},"properties":{"NAME":"0","HARDWARE_TYPE":"5","SIGN_NUMBER":"10","URL":"https://www.culturaltourismdc.org/portal/dc-neighborhood-heritage-trails","LATITUDE":38.92391045,"LONGITUDE":-77.04447842,"XCOORD":396143.063125,"YCOORD":139560.497875,"GIS_ID":"HeritageTrailPt_181","GLOBALID":"{4F39B20A-6006-4D12-9232-8B08A45B6BB6}","CREATED":null,"EDITED":null,"OBJECTID":58}},{"type":"Feature","id":59,"geometry":{"type":"Point","coordinates":[-77.02954310449292,38.923837353218026]},"properties":{"NAME":"3","HARDWARE_TYPE":"0","SIGN_NUMBER":"8","URL":"https://www.culturaltourismdc.org/portal/dc-neighborhood-heritage-trails","LATITUDE":38.92382956,"LONGITUDE":-77.02954081,"XCOORD":397438.3716875,"YCOORD":139550.9936875,"GIS_ID":"HeritageTrailPt_182","GLOBALID":"{33F7EB48-CA1A-466E-AF0A-DA0DF4E8E4F8}","CREATED":null,"EDITED":null,"OBJECTID":59}},{"type":"Feature","id":60,"geometry":{"type":"Point","coordinates":[-77.04170599187927,38.92346279066612]},"properties":{"NAME":"0","HARDWARE_TYPE":"0","SIGN_NUMBER":"7","URL":"https://www.culturaltourismdc.org/portal/dc-neighborhood-heritage-trails","LATITUDE":38.923455,"LONGITUDE":-77.04170369,"XCOORD":396383.649875,"YCOORD":139509.826,"GIS_ID":"HeritageTrailPt_183","GLOBALID":"{CE252032-77B7-4341-B4C8-9A9BE06B0E4A}","CREATED":null,"EDITED":null,"OBJECTID":60}},{"type":"Feature","id":62,"geometry":{"type":"Point","coordinates":[-77.04262821322614,38.92309062134119]},"properties":{"NAME":"0","HARDWARE_TYPE":"0","SIGN_NUMBER":"8","URL":"https://www.culturaltourismdc.org/portal/dc-neighborhood-heritage-trails","LATITUDE":38.92308283,"LONGITUDE":-77.04262592,"XCOORD":396303.660375,"YCOORD":139468.549375,"GIS_ID":"HeritageTrailPt_185","GLOBALID":"{A90D475C-B7E3-4D1D-AC65-D5FE93BD995B}","CREATED":null,"EDITED":null,"OBJECTID":62}},{"type":"Feature","id":63,"geometry":{"type":"Point","coordinates":[-77.03660488410782,38.92303300124605]},"properties":{"NAME":"0","HARDWARE_TYPE":"6","SIGN_NUMBER":"3","URL":"https://www.culturaltourismdc.org/portal/dc-neighborhood-heritage-trails","LATITUDE":38.92302521,"LONGITUDE":-77.03660259,"XCOORD":396825.9751875,"YCOORD":139461.9258125,"GIS_ID":"HeritageTrailPt_186","GLOBALID":"{A8CCC65A-C9A7-4A71-AE2F-F22082E794D7}","CREATED":null,"EDITED":null,"OBJECTID":63}},{"type":"Feature","id":64,"geometry":{"type":"Point","coordinates":[-77.035202406493,38.92256550380126]},"properties":{"NAME":"3","HARDWARE_TYPE":"0","SIGN_NUMBER":"15","URL":"https://www.culturaltourismdc.org/portal/dc-neighborhood-heritage-trails","LATITUDE":38.92255771,"LONGITUDE":-77.03520011,"XCOORD":396947.5718125,"YCOORD":139409.9818125,"GIS_ID":"HeritageTrailPt_187","GLOBALID":"{1728C8BF-B62B-47A1-ACA6-705822391EF2}","CREATED":null,"EDITED":null,"OBJECTID":64}},{"type":"Feature","id":65,"geometry":{"type":"Point","coordinates":[-77.03043416762647,38.92249751489546]},"properties":{"NAME":"3","HARDWARE_TYPE":"0","SIGN_NUMBER":"10","URL":"https://www.culturaltourismdc.org/portal/dc-neighborhood-heritage-trails","LATITUDE":38.92248972,"LONGITUDE":-77.03043187,"XCOORD":397361.053625,"YCOORD":139402.2858125,"GIS_ID":"HeritageTrailPt_188","GLOBALID":"{346BD130-BC71-4C9E-A219-DE7D5B75D766}","CREATED":null,"EDITED":null,"OBJECTID":65}},{"type":"Feature","id":66,"geometry":{"type":"Point","coordinates":[-77.03180043874912,38.92240000530126]},"properties":{"NAME":"3","HARDWARE_TYPE":"0","SIGN_NUMBER":"11","URL":"https://www.culturaltourismdc.org/portal/dc-neighborhood-heritage-trails","LATITUDE":38.92239221,"LONGITUDE":-77.03179814,"XCOORD":397242.5721875,"YCOORD":139391.5023125,"GIS_ID":"HeritageTrailPt_189","GLOBALID":"{CE0B8EFD-5DC5-4298-8F75-E66DC304C787}","CREATED":null,"EDITED":null,"OBJECTID":66}},{"type":"Feature","id":67,"geometry":{"type":"Point","coordinates":[-77.02934086014248,38.922391514325795]},"properties":{"NAME":"3","HARDWARE_TYPE":"0","SIGN_NUMBER":"9","URL":"https://www.culturaltourismdc.org/portal/dc-neighborhood-heritage-trails","LATITUDE":38.92238372,"LONGITUDE":-77.02933857,"XCOORD":397455.8578125,"YCOORD":139390.4875,"GIS_ID":"HeritageTrailPt_190","GLOBALID":"{491E0318-384E-41F9-A413-05322CA99D2B}","CREATED":null,"EDITED":null,"OBJECTID":67}},{"type":"Feature","id":68,"geometry":{"type":"Point","coordinates":[-77.0212076213922,38.92235519530969]},"properties":{"NAME":"12","HARDWARE_TYPE":"0","SIGN_NUMBER":"10","URL":"https://www.culturaltourismdc.org/portal/dc-neighborhood-heritage-trails","LATITUDE":38.9223474,"LONGITUDE":-77.02120533,"XCOORD":398161.144375,"YCOORD":139386.261375,"GIS_ID":"HeritageTrailPt_191","GLOBALID":"{00E103DB-9EBA-45A0-85C4-BABF7EFE0FF2}","CREATED":null,"EDITED":null,"OBJECTID":68}},{"type":"Feature","id":69,"geometry":{"type":"Point","coordinates":[-77.02237792411138,38.922235535678844]},"properties":{"NAME":"12","HARDWARE_TYPE":"0","SIGN_NUMBER":"9","URL":"https://www.culturaltourismdc.org/portal/dc-neighborhood-heritage-trails","LATITUDE":38.92222774,"LONGITUDE":-77.02237563,"XCOORD":398059.6564375,"YCOORD":139373.001625,"GIS_ID":"HeritageTrailPt_192","GLOBALID":"{22ABF6B0-090F-42BB-AE45-E739127F7C39}","CREATED":null,"EDITED":null,"OBJECTID":69}},{"type":"Feature","id":71,"geometry":{"type":"Point","coordinates":[-77.03859488890285,38.92164639419772]},"properties":{"NAME":"0","HARDWARE_TYPE":"0","SIGN_NUMBER":"2","URL":"https://www.culturaltourismdc.org/portal/dc-neighborhood-heritage-trails","LATITUDE":38.9216386,"LONGITUDE":-77.03859259,"XCOORD":396653.345375,"YCOORD":139308.0715,"GIS_ID":"HeritageTrailPt_194","GLOBALID":"{23A433F6-D910-499B-A5DB-A357566AAE27}","CREATED":null,"EDITED":null,"OBJECTID":71}},{"type":"Feature","id":72,"geometry":{"type":"Point","coordinates":[-77.03512183207702,38.92160268227372]},"properties":{"NAME":"3","HARDWARE_TYPE":"0","SIGN_NUMBER":"14","URL":"https://www.culturaltourismdc.org/portal/dc-neighborhood-heritage-trails","LATITUDE":38.92159489,"LONGITUDE":-77.03511954,"XCOORD":396954.518,"YCOORD":139303.097625,"GIS_ID":"HeritageTrailPt_195","GLOBALID":"{6D2DA141-39CA-4E0C-8156-0D2823A8467D}","CREATED":null,"EDITED":null,"OBJECTID":72}},{"type":"Feature","id":73,"geometry":{"type":"Point","coordinates":[-77.04370876236274,38.921371785128]},"properties":{"NAME":"0","HARDWARE_TYPE":"0","SIGN_NUMBER":"11","URL":"https://www.culturaltourismdc.org/portal/dc-neighborhood-heritage-trails","LATITUDE":38.921364,"LONGITUDE":-77.04370646,"XCOORD":396209.8683125,"YCOORD":139277.788,"GIS_ID":"HeritageTrailPt_196","GLOBALID":"{9CC43AF5-EFEB-415B-A93C-E147ED748D27}","CREATED":null,"EDITED":null,"OBJECTID":73}},{"type":"Feature","id":74,"geometry":{"type":"Point","coordinates":[-77.02219524472433,38.92107324436576]},"properties":{"NAME":"12","HARDWARE_TYPE":"0","SIGN_NUMBER":"8","URL":"https://www.culturaltourismdc.org/portal/dc-neighborhood-heritage-trails","LATITUDE":38.92106545,"LONGITUDE":-77.02219295,"XCOORD":398075.466125,"YCOORD":139243.9743125,"GIS_ID":"HeritageTrailPt_197","GLOBALID":"{F86839B7-D6F9-4ECE-BC1C-C37D73711804}","CREATED":null,"EDITED":null,"OBJECTID":74}},{"type":"Feature","id":75,"geometry":{"type":"Point","coordinates":[-77.03658045289745,38.920682259438365]},"properties":{"NAME":"0","HARDWARE_TYPE":"0","SIGN_NUMBER":"1","URL":"https://www.culturaltourismdc.org/portal/dc-neighborhood-heritage-trails","LATITUDE":38.92067447,"LONGITUDE":-77.03657816,"XCOORD":396827.9891875,"YCOORD":139200.973375,"GIS_ID":"HeritageTrailPt_198","GLOBALID":"{7CAF86FB-C088-4651-9675-305AB90DC999}","CREATED":null,"EDITED":null,"OBJECTID":75}},{"type":"Feature","id":76,"geometry":{"type":"Point","coordinates":[-77.03475310767097,38.92046965315659]},"properties":{"NAME":"3","HARDWARE_TYPE":"0","SIGN_NUMBER":"13","URL":"https://www.culturaltourismdc.org/portal/dc-neighborhood-heritage-trails","LATITUDE":38.92046186,"LONGITUDE":-77.03475081,"XCOORD":396986.445,"YCOORD":139177.3096875,"GIS_ID":"HeritageTrailPt_1","GLOBALID":"{F3704A45-EDD2-4BA7-8702-0E82AEBF5F1C}","CREATED":null,"EDITED":null,"OBJECTID":76}},{"type":"Feature","id":78,"geometry":{"type":"Point","coordinates":[-77.02207917736636,38.9200991869742]},"properties":{"NAME":"12","HARDWARE_TYPE":"0","SIGN_NUMBER":"7","URL":"https://www.culturaltourismdc.org/portal/dc-neighborhood-heritage-trails","LATITUDE":38.9200914,"LONGITUDE":-77.02207689,"XCOORD":398085.504875,"YCOORD":139135.843125,"GIS_ID":"HeritageTrailPt_3","GLOBALID":"{C5BADC59-3B7B-420A-9322-9F30B65A045E}","CREATED":null,"EDITED":null,"OBJECTID":78}},{"type":"Feature","id":79,"geometry":{"type":"Point","coordinates":[-77.03181846195233,38.919916720184226]},"properties":{"NAME":"3","HARDWARE_TYPE":"0","SIGN_NUMBER":"12","URL":"https://www.culturaltourismdc.org/portal/dc-neighborhood-heritage-trails","LATITUDE":38.91990893,"LONGITUDE":-77.03181617,"XCOORD":397240.9125,"YCOORD":139115.837,"GIS_ID":"HeritageTrailPt_4","GLOBALID":"{EA53CD12-2483-451B-BBCD-EA55249068D6}","CREATED":null,"EDITED":null,"OBJECTID":79}},{"type":"Feature","id":80,"geometry":{"type":"Point","coordinates":[-77.0417587605205,38.919580480644285]},"properties":{"NAME":"0","HARDWARE_TYPE":"6","SIGN_NUMBER":"16","URL":"https://www.culturaltourismdc.org/portal/dc-neighborhood-heritage-trails","LATITUDE":38.91957269,"LONGITUDE":-77.04175646,"XCOORD":396378.8773125,"YCOORD":139078.858875,"GIS_ID":"HeritageTrailPt_5","GLOBALID":"{AEF41D55-79DF-40CE-9E26-B217297E5079}","CREATED":null,"EDITED":null,"OBJECTID":80}},{"type":"Feature","id":81,"geometry":{"type":"Point","coordinates":[-77.03659217546296,38.91878482249767]},"properties":{"NAME":"0","HARDWARE_TYPE":"0","SIGN_NUMBER":"0","URL":"https://www.culturaltourismdc.org/portal/dc-neighborhood-heritage-trails","LATITUDE":38.91877703,"LONGITUDE":-77.03658988,"XCOORD":396826.887625,"YCOORD":138990.342125,"GIS_ID":"HeritageTrailPt_6","GLOBALID":"{728EC505-1A2A-4BAD-84F3-3FEE3EEBCDB6}","CREATED":null,"EDITED":null,"OBJECTID":81}},{"type":"Feature","id":82,"geometry":{"type":"Point","coordinates":[-77.03476228197103,38.918709368927765]},"properties":{"NAME":"8","HARDWARE_TYPE":"0","SIGN_NUMBER":"12","URL":"https://www.culturaltourismdc.org/portal/dc-neighborhood-heritage-trails","LATITUDE":38.91870158,"LONGITUDE":-77.03475999,"XCOORD":396985.574625,"YCOORD":138981.903625,"GIS_ID":"HeritageTrailPt_7","GLOBALID":"{3A462002-1603-497D-B7BB-7BA237FA0D84}","CREATED":null,"EDITED":null,"OBJECTID":82}},{"type":"Feature","id":83,"geometry":{"type":"Point","coordinates":[-77.04546564236657,38.91813163858123]},"properties":{"NAME":"0","HARDWARE_TYPE":"0","SIGN_NUMBER":"12","URL":"https://www.culturaltourismdc.org/portal/dc-neighborhood-heritage-trails","LATITUDE":38.91812385,"LONGITUDE":-77.04546334,"XCOORD":396057.336,"YCOORD":138918.1793125,"GIS_ID":"HeritageTrailPt_8","GLOBALID":"{097E5C61-0A98-495C-8C7B-A7F535F12D66}","CREATED":null,"EDITED":null,"OBJECTID":83}},{"type":"Feature","id":84,"geometry":{"type":"Point","coordinates":[-77.0417570185253,38.918023445404756]},"properties":{"NAME":"0","HARDWARE_TYPE":"2","SIGN_NUMBER":"15","URL":"https://www.culturaltourismdc.org/portal/dc-neighborhood-heritage-trails","LATITUDE":38.91801566,"LONGITUDE":-77.04175472,"XCOORD":396378.9491875,"YCOORD":138906.0145,"GIS_ID":"HeritageTrailPt_9","GLOBALID":"{39BBB491-19F0-47CE-A5AA-F9C09D56DC66}","CREATED":null,"EDITED":null,"OBJECTID":84}},{"type":"Feature","id":86,"geometry":{"type":"Point","coordinates":[-77.03637387130058,38.91737063667922]},"properties":{"NAME":"8","HARDWARE_TYPE":"0","SIGN_NUMBER":"11","URL":"https://www.culturaltourismdc.org/portal/dc-neighborhood-heritage-trails","LATITUDE":38.91736285,"LONGITUDE":-77.03637158,"XCOORD":396845.757125,"YCOORD":138833.3478125,"GIS_ID":"HeritageTrailPt_11","GLOBALID":"{46697ADE-A70E-4383-AA43-D9B422C30F5F}","CREATED":null,"EDITED":null,"OBJECTID":86}},{"type":"Feature","id":87,"geometry":{"type":"Point","coordinates":[-77.03228076716368,38.91713841525073]},"properties":{"NAME":"8","HARDWARE_TYPE":"0","SIGN_NUMBER":"13","URL":"https://www.culturaltourismdc.org/portal/dc-neighborhood-heritage-trails","LATITUDE":38.91713063,"LONGITUDE":-77.03227847,"XCOORD":397200.7128125,"YCOORD":138807.4355,"GIS_ID":"HeritageTrailPt_12","GLOBALID":"{62EAB894-B4EE-45FB-ABF7-2ACE1F28CA08}","CREATED":null,"EDITED":null,"OBJECTID":87}},{"type":"Feature","id":88,"geometry":{"type":"Point","coordinates":[-77.02826463087999,38.917126943200124]},"properties":{"NAME":"8","HARDWARE_TYPE":"2","SIGN_NUMBER":"1","URL":"https://www.culturaltourismdc.org/portal/dc-neighborhood-heritage-trails","LATITUDE":38.91711915,"LONGITUDE":-77.02826234,"XCOORD":397549.0041875,"YCOORD":138806.0465,"GIS_ID":"HeritageTrailPt_13","GLOBALID":"{357105F2-1498-4FB7-B50B-B3D01129D7BD}","CREATED":null,"EDITED":null,"OBJECTID":88}},{"type":"Feature","id":89,"geometry":{"type":"Point","coordinates":[-77.03474295486329,38.91709831564107]},"properties":{"NAME":"8","HARDWARE_TYPE":"1","SIGN_NUMBER":"10","URL":"https://www.culturaltourismdc.org/portal/dc-neighborhood-heritage-trails","LATITUDE":38.91709053,"LONGITUDE":-77.03474066,"XCOORD":396987.183375,"YCOORD":138803.0625,"GIS_ID":"HeritageTrailPt_14","GLOBALID":"{4B6FD9C4-DE17-4B7D-93C7-4007C329C402}","CREATED":null,"EDITED":null,"OBJECTID":89}},{"type":"Feature","id":90,"geometry":{"type":"Point","coordinates":[-77.02711593027979,38.91701227810842]},"properties":{"NAME":"8","HARDWARE_TYPE":"0","SIGN_NUMBER":"2","URL":"https://www.culturaltourismdc.org/portal/dc-neighborhood-heritage-trails","LATITUDE":38.91700449,"LONGITUDE":-77.02711364,"XCOORD":397648.618875,"YCOORD":138793.2883125,"GIS_ID":"HeritageTrailPt_15","GLOBALID":"{4D171C2C-8B86-423C-B726-2007246E4CA7}","CREATED":null,"EDITED":null,"OBJECTID":90}},{"type":"Feature","id":91,"geometry":{"type":"Point","coordinates":[-77.04395919105863,38.916969005073824]},"properties":{"NAME":"0","HARDWARE_TYPE":"0","SIGN_NUMBER":"14","URL":"https://www.culturaltourismdc.org/portal/dc-neighborhood-heritage-trails","LATITUDE":38.91696122,"LONGITUDE":-77.04395689,"XCOORD":396187.9161875,"YCOORD":138789.0533125,"GIS_ID":"HeritageTrailPt_16","GLOBALID":"{1E2470AD-3A85-495F-958C-CE4149B78970}","CREATED":null,"EDITED":null,"OBJECTID":91}},{"type":"Feature","id":93,"geometry":{"type":"Point","coordinates":[-77.04506967516215,38.915905976897754]},"properties":{"NAME":"0","HARDWARE_TYPE":"0","SIGN_NUMBER":"13","URL":"https://www.culturaltourismdc.org/portal/dc-neighborhood-heritage-trails","LATITUDE":38.91589819,"LONGITUDE":-77.04506738,"XCOORD":396091.5531875,"YCOORD":138671.0946875,"GIS_ID":"HeritageTrailPt_18","GLOBALID":"{80C1796D-432A-4BAB-84FE-1274DBD47A0A}","CREATED":null,"EDITED":null,"OBJECTID":93}},{"type":"Feature","id":94,"geometry":{"type":"Point","coordinates":[-77.02180112686382,38.91570988475515]},"properties":{"NAME":"12","HARDWARE_TYPE":"0","SIGN_NUMBER":"4","URL":"https://www.culturaltourismdc.org/portal/dc-neighborhood-heritage-trails","LATITUDE":38.9157021,"LONGITUDE":-77.02179884,"XCOORD":398109.5011875,"YCOORD":138648.588375,"GIS_ID":"HeritageTrailPt_19","GLOBALID":"{8F1B8991-FF95-4191-80A4-5831C3C1F300}","CREATED":null,"EDITED":null,"OBJECTID":94}},{"type":"Feature","id":95,"geometry":{"type":"Point","coordinates":[-77.03176194840364,38.915701025514096]},"properties":{"NAME":"8","HARDWARE_TYPE":"0","SIGN_NUMBER":"8","URL":"https://www.culturaltourismdc.org/portal/dc-neighborhood-heritage-trails","LATITUDE":38.91569324,"LONGITUDE":-77.03175965,"XCOORD":397245.6506875,"YCOORD":138647.8581875,"GIS_ID":"HeritageTrailPt_20","GLOBALID":"{66EF2C65-4048-45DA-89E4-6D34464615D6}","CREATED":null,"EDITED":null,"OBJECTID":95}},{"type":"Feature","id":96,"geometry":{"type":"Point","coordinates":[-77.034768424633,38.91565125430757]},"properties":{"NAME":"8","HARDWARE_TYPE":"0","SIGN_NUMBER":"9","URL":"https://www.culturaltourismdc.org/portal/dc-neighborhood-heritage-trails","LATITUDE":38.91564347,"LONGITUDE":-77.03476613,"XCOORD":396984.9131875,"YCOORD":138642.4283125,"GIS_ID":"HeritageTrailPt_21","GLOBALID":"{FC37996F-A57D-4E38-8555-BE91DBFF710C}","CREATED":null,"EDITED":null,"OBJECTID":96}},{"type":"Feature","id":97,"geometry":{"type":"Point","coordinates":[-77.02596212174736,38.91552626415206]},"properties":{"NAME":"8","HARDWARE_TYPE":"0","SIGN_NUMBER":"4","URL":"https://www.culturaltourismdc.org/portal/dc-neighborhood-heritage-trails","LATITUDE":38.91551847,"LONGITUDE":-77.02595983,"XCOORD":397748.6336875,"YCOORD":138628.2988125,"GIS_ID":"HeritageTrailPt_22","GLOBALID":"{FA761374-6A6F-442C-A297-CCC3AAC33D5E}","CREATED":null,"EDITED":null,"OBJECTID":97}},{"type":"Feature","id":98,"geometry":{"type":"Point","coordinates":[-77.02165869446661,38.91550438608126]},"properties":{"NAME":"12","HARDWARE_TYPE":"0","SIGN_NUMBER":"3","URL":"https://www.culturaltourismdc.org/portal/dc-neighborhood-heritage-trails","LATITUDE":38.9154966,"LONGITUDE":-77.0216564,"XCOORD":398121.84831251,"YCOORD":138625.773,"GIS_ID":"HeritageTrailPt_23","GLOBALID":"{EB678F53-C743-4E5F-9703-21EAE125BFC1}","CREATED":null,"EDITED":null,"OBJECTID":98}},{"type":"Feature","id":99,"geometry":{"type":"Point","coordinates":[-77.02982389282174,38.9154974073979]},"properties":{"NAME":"8","HARDWARE_TYPE":"0","SIGN_NUMBER":"7","URL":"https://www.culturaltourismdc.org/portal/dc-neighborhood-heritage-trails","LATITUDE":38.91548962,"LONGITUDE":-77.0298216,"XCOORD":397413.7211875,"YCOORD":138625.1983125,"GIS_ID":"HeritageTrailPt_24","GLOBALID":"{811B2D06-F7B2-4DB2-8E7C-D531E21FFA60}","CREATED":null,"EDITED":null,"OBJECTID":99}},{"type":"Feature","id":100,"geometry":{"type":"Point","coordinates":[-77.02181032406187,38.915431822759324]},"properties":{"NAME":"12","HARDWARE_TYPE":"0","SIGN_NUMBER":"2","URL":"https://www.culturaltourismdc.org/portal/dc-neighborhood-heritage-trails","LATITUDE":38.91542403,"LONGITUDE":-77.02180803,"XCOORD":398108.6959375,"YCOORD":138617.7205625,"GIS_ID":"HeritageTrailPt_25","GLOBALID":"{AD1B38AA-A46A-4B36-A9B1-12243CE8815A}","CREATED":null,"EDITED":null,"OBJECTID":100}},{"type":"Feature","id":101,"geometry":{"type":"Point","coordinates":[-77.02816016418552,38.91506342025543]},"properties":{"NAME":"8","HARDWARE_TYPE":"0","SIGN_NUMBER":"5","URL":"https://www.culturaltourismdc.org/portal/dc-neighborhood-heritage-trails","LATITUDE":38.91505563,"LONGITUDE":-77.02815787,"XCOORD":397557.9928125,"YCOORD":138576.9763125,"GIS_ID":"HeritageTrailPt_26","GLOBALID":"{020D499F-F73E-489F-8CC7-6C56335A95DD}","CREATED":null,"EDITED":null,"OBJECTID":101}},{"type":"Feature","id":102,"geometry":{"type":"Point","coordinates":[-77.02178497946147,38.914185758369655]},"properties":{"NAME":"12","HARDWARE_TYPE":"0","SIGN_NUMBER":"1","URL":"https://www.culturaltourismdc.org/portal/dc-neighborhood-heritage-trails","LATITUDE":38.91417797,"LONGITUDE":-77.02178269,"XCOORD":398110.8611875,"YCOORD":138479.3970625,"GIS_ID":"HeritageTrailPt_27","GLOBALID":"{B18E32B0-96E6-416C-A0B0-2E383F065544}","CREATED":null,"EDITED":null,"OBJECTID":102}},{"type":"Feature","id":103,"geometry":{"type":"Point","coordinates":[-77.02693256914988,38.9127483596215]},"properties":{"NAME":"8","HARDWARE_TYPE":"1","SIGN_NUMBER":"6","URL":"https://www.culturaltourismdc.org/portal/dc-neighborhood-heritage-trails","LATITUDE":38.91274057,"LONGITUDE":-77.02693028,"XCOORD":397664.3813125,"YCOORD":138319.953,"GIS_ID":"HeritageTrailPt_28","GLOBALID":"{D5575F10-0EEE-427A-90FC-4B136FA28381}","CREATED":null,"EDITED":null,"OBJECTID":103}},{"type":"Feature","id":105,"geometry":{"type":"Point","coordinates":[-77.02387011506913,38.911902178367136]},"properties":{"NAME":"10","HARDWARE_TYPE":"2","SIGN_NUMBER":"6","URL":"https://www.culturaltourismdc.org/portal/dc-neighborhood-heritage-trails","LATITUDE":38.91189439,"LONGITUDE":-77.02386782,"XCOORD":397929.958125,"YCOORD":138225.946375,"GIS_ID":"HeritageTrailPt_30","GLOBALID":"{9D7270D1-6026-4516-8423-1CC52DBC8929}","CREATED":null,"EDITED":null,"OBJECTID":105}},{"type":"Feature","id":106,"geometry":{"type":"Point","coordinates":[-77.02388161188527,38.91094193180291]},"properties":{"NAME":"10","HARDWARE_TYPE":"6","SIGN_NUMBER":"5","URL":"https://www.culturaltourismdc.org/portal/dc-neighborhood-heritage-trails","LATITUDE":38.91093414,"LONGITUDE":-77.02387932,"XCOORD":397928.933125,"YCOORD":138119.351,"GIS_ID":"HeritageTrailPt_77","GLOBALID":"{D65BBC9B-7472-438A-9943-11B2F7998059}","CREATED":null,"EDITED":null,"OBJECTID":106}},{"type":"Feature","id":107,"geometry":{"type":"Point","coordinates":[-77.02386461737632,38.909875752761884]},"properties":{"NAME":"10","HARDWARE_TYPE":"0","SIGN_NUMBER":"4","URL":"https://www.culturaltourismdc.org/portal/dc-neighborhood-heritage-trails","LATITUDE":38.90986796,"LONGITUDE":-77.02386233,"XCOORD":397930.3756875,"YCOORD":138000.9956875,"GIS_ID":"HeritageTrailPt_78","GLOBALID":"{3DC41FF7-7389-4D50-BBC6-C83C57C27857}","CREATED":null,"EDITED":null,"OBJECTID":107}},{"type":"Feature","id":108,"geometry":{"type":"Point","coordinates":[-77.02181143473061,38.909789070454025]},"properties":{"NAME":"10","HARDWARE_TYPE":"0","SIGN_NUMBER":"8","URL":"https://www.culturaltourismdc.org/portal/dc-neighborhood-heritage-trails","LATITUDE":38.90978128,"LONGITUDE":-77.02180914,"XCOORD":398108.4498125,"YCOORD":137991.3285,"GIS_ID":"HeritageTrailPt_79","GLOBALID":"{33ED54C3-6EB3-4F2A-955C-CFF0B805F4FF}","CREATED":null,"EDITED":null,"OBJECTID":108}},{"type":"Feature","id":109,"geometry":{"type":"Point","coordinates":[-77.02420848199013,38.90855134710813]},"properties":{"NAME":"10","HARDWARE_TYPE":"5","SIGN_NUMBER":"3","URL":"https://www.culturaltourismdc.org/portal/dc-neighborhood-heritage-trails","LATITUDE":38.90854356,"LONGITUDE":-77.02420619,"XCOORD":397900.512625,"YCOORD":137853.9835,"GIS_ID":"HeritageTrailPt_80","GLOBALID":"{6FE794E5-0736-482F-A0EF-DAF68EE4E73F}","CREATED":null,"EDITED":null,"OBJECTID":109}},{"type":"Feature","id":110,"geometry":{"type":"Point","coordinates":[-77.02180427371864,38.90835268204433]},"properties":{"NAME":"10","HARDWARE_TYPE":"0","SIGN_NUMBER":"9","URL":"https://www.culturaltourismdc.org/portal/dc-neighborhood-heritage-trails","LATITUDE":38.90834489,"LONGITUDE":-77.02180198,"XCOORD":398109.0331875,"YCOORD":137831.877625,"GIS_ID":"HeritageTrailPt_81","GLOBALID":"{252C98A9-CCBB-4F53-B274-9D18C00722DA}","CREATED":null,"EDITED":null,"OBJECTID":110}},{"type":"Feature","id":111,"geometry":{"type":"Point","coordinates":[-77.02184755521104,38.90710927870964]},"properties":{"NAME":"10","HARDWARE_TYPE":"0","SIGN_NUMBER":"10","URL":"https://www.culturaltourismdc.org/portal/dc-neighborhood-heritage-trails","LATITUDE":38.90710149,"LONGITUDE":-77.02184526,"XCOORD":398105.2456875,"YCOORD":137693.8511875,"GIS_ID":"HeritageTrailPt_82","GLOBALID":"{3CD4F219-EB60-42F2-8E93-31CD2D31CC9A}","CREATED":null,"EDITED":null,"OBJECTID":111}},{"type":"Feature","id":112,"geometry":{"type":"Point","coordinates":[-76.99969264108664,38.90694280219434]},"properties":{"NAME":"13","HARDWARE_TYPE":"0","SIGN_NUMBER":"7","URL":"https://www.culturaltourismdc.org/portal/dc-neighborhood-heritage-trails","LATITUDE":38.90693501,"LONGITUDE":-76.99969036,"XCOORD":400026.856625,"YCOORD":137675.144125,"GIS_ID":"HeritageTrailPt_83","GLOBALID":"{EE55CF89-8417-4343-98A4-B201912DEFDD}","CREATED":null,"EDITED":null,"OBJECTID":112}},{"type":"Feature","id":114,"geometry":{"type":"Point","coordinates":[-77.02423815648318,38.905761698497805]},"properties":{"NAME":"10","HARDWARE_TYPE":"0","SIGN_NUMBER":"2","URL":"https://www.culturaltourismdc.org/portal/dc-neighborhood-heritage-trails","LATITUDE":38.90575391,"LONGITUDE":-77.02423587,"XCOORD":397897.856625,"YCOORD":137544.310875,"GIS_ID":"HeritageTrailPt_85","GLOBALID":"{AFEE3143-D48E-4714-8CBB-3D22B02EAE37}","CREATED":null,"EDITED":null,"OBJECTID":114}},{"type":"Feature","id":115,"geometry":{"type":"Point","coordinates":[-77.02058350072235,38.90571034033172]},"properties":{"NAME":"10","HARDWARE_TYPE":"0","SIGN_NUMBER":"12","URL":"https://www.culturaltourismdc.org/portal/dc-neighborhood-heritage-trails","LATITUDE":38.90570255,"LONGITUDE":-77.02058121,"XCOORD":398214.849375,"YCOORD":137538.531625,"GIS_ID":"HeritageTrailPt_86","GLOBALID":"{3DC02145-26BC-4C09-BAE1-BC3484917FE5}","CREATED":null,"EDITED":null,"OBJECTID":115}},{"type":"Feature","id":116,"geometry":{"type":"Point","coordinates":[-77.00178520428324,38.905707645041325]},"properties":{"NAME":"13","HARDWARE_TYPE":"0","SIGN_NUMBER":"6","URL":"https://www.culturaltourismdc.org/portal/dc-neighborhood-heritage-trails","LATITUDE":38.90569986,"LONGITUDE":-77.00178292,"XCOORD":399845.354875,"YCOORD":137538.0325625,"GIS_ID":"HeritageTrailPt_87","GLOBALID":"{C9E4DE49-F41F-4A78-8A0F-3B8BF0F5864F}","CREATED":null,"EDITED":null,"OBJECTID":116}},{"type":"Feature","id":117,"geometry":{"type":"Point","coordinates":[-77.01623471819221,38.90551168883586]},"properties":{"NAME":"10","HARDWARE_TYPE":"0","SIGN_NUMBER":"13","URL":"https://www.culturaltourismdc.org/portal/dc-neighborhood-heritage-trails","LATITUDE":38.9055039,"LONGITUDE":-77.01623243,"XCOORD":398592.044625,"YCOORD":137516.404125,"GIS_ID":"HeritageTrailPt_88","GLOBALID":"{E2491477-4A00-4485-960B-7BA68D5A360F}","CREATED":null,"EDITED":null,"OBJECTID":117}},{"type":"Feature","id":118,"geometry":{"type":"Point","coordinates":[-77.01649796748936,38.9049381352261]},"properties":{"NAME":"10","HARDWARE_TYPE":"4","SIGN_NUMBER":"14","URL":"https://www.culturaltourismdc.org/portal/dc-neighborhood-heritage-trails","LATITUDE":38.90493035,"LONGITUDE":-77.01649568,"XCOORD":398569.1996875,"YCOORD":137452.7391875,"GIS_ID":"HeritageTrailPt_89","GLOBALID":"{77F966BD-FF98-47F4-A8D8-CD71141E4274}","CREATED":null,"EDITED":null,"OBJECTID":118}},{"type":"Feature","id":119,"geometry":{"type":"Point","coordinates":[-76.99468705020543,38.90476728227431]},"properties":{"NAME":"13","HARDWARE_TYPE":"0","SIGN_NUMBER":"8","URL":"https://www.culturaltourismdc.org/portal/dc-neighborhood-heritage-trails","LATITUDE":38.90475949,"LONGITUDE":-76.99468477,"XCOORD":400461.0325625,"YCOORD":137433.6573125,"GIS_ID":"HeritageTrailPt_90","GLOBALID":"{BB541EA7-E9FB-41F9-9DA7-90C124F7F2E5}","CREATED":null,"EDITED":null,"OBJECTID":119}},{"type":"Feature","id":120,"geometry":{"type":"Point","coordinates":[-77.0188063398223,38.90411753081724]},"properties":{"NAME":"10","HARDWARE_TYPE":"0","SIGN_NUMBER":"15","URL":"https://www.culturaltourismdc.org/portal/dc-neighborhood-heritage-trails","LATITUDE":38.90410974,"LONGITUDE":-77.01880405,"XCOORD":398368.9578125,"YCOORD":137361.684125,"GIS_ID":"HeritageTrailPt_91","GLOBALID":"{FE531F4C-3345-487A-9DB4-FD9C81B527CD}","CREATED":null,"EDITED":null,"OBJECTID":120}},{"type":"Feature","id":121,"geometry":{"type":"Point","coordinates":[-77.02166705052885,38.90410700895409]},"properties":{"NAME":"10","HARDWARE_TYPE":"0","SIGN_NUMBER":"16","URL":"https://www.culturaltourismdc.org/portal/dc-neighborhood-heritage-trails","LATITUDE":38.90409922,"LONGITUDE":-77.02166476,"XCOORD":398120.8231875,"YCOORD":137360.5711875,"GIS_ID":"HeritageTrailPt_92","GLOBALID":"{F614E4A6-B54E-4BAC-B4DC-FAD9A4633436}","CREATED":null,"EDITED":null,"OBJECTID":121}},{"type":"Feature","id":122,"geometry":{"type":"Point","coordinates":[-76.93751622071346,38.90369921307053]},"properties":{"NAME":"7","HARDWARE_TYPE":"0","SIGN_NUMBER":"10","URL":"https://www.culturaltourismdc.org/portal/dc-neighborhood-heritage-trails","LATITUDE":38.90369142,"LONGITUDE":-76.93751396,"XCOORD":405420.0001875,"YCOORD":137316.933625,"GIS_ID":"HeritageTrailPt_93","GLOBALID":"{4F92437A-0231-48F6-A36C-1EA4B1B16246}","CREATED":null,"EDITED":null,"OBJECTID":122}},{"type":"Feature","id":124,"geometry":{"type":"Point","coordinates":[-76.93157098262854,38.903217862767015]},"properties":{"NAME":"7","HARDWARE_TYPE":"0","SIGN_NUMBER":"6","URL":"https://www.culturaltourismdc.org/portal/dc-neighborhood-heritage-trails","LATITUDE":38.90321007,"LONGITUDE":-76.93156872,"XCOORD":405935.725875,"YCOORD":137263.869625,"GIS_ID":"HeritageTrailPt_95","GLOBALID":"{3EDDC5D4-32A8-481E-9FD5-F33B1C7B0B80}","CREATED":null,"EDITED":null,"OBJECTID":124}},{"type":"Feature","id":125,"geometry":{"type":"Point","coordinates":[-77.02215598665087,38.90313305104435]},"properties":{"NAME":"10","HARDWARE_TYPE":"5","SIGN_NUMBER":"0","URL":"https://www.culturaltourismdc.org/portal/dc-neighborhood-heritage-trails","LATITUDE":38.90312526,"LONGITUDE":-77.0221537,"XCOORD":398078.3866875,"YCOORD":137252.463875,"GIS_ID":"HeritageTrailPt_96","GLOBALID":"{FDDA6A12-48E4-450B-9D0F-9EA0250D4E37}","CREATED":null,"EDITED":null,"OBJECTID":125}},{"type":"Feature","id":126,"geometry":{"type":"Point","coordinates":[-77.02376834126778,38.903053316452755]},"properties":{"NAME":"10","HARDWARE_TYPE":"1","SIGN_NUMBER":"1","URL":"https://www.culturaltourismdc.org/portal/dc-neighborhood-heritage-trails","LATITUDE":38.90304553,"LONGITUDE":-77.02376605,"XCOORD":397938.5291875,"YCOORD":137243.6478125,"GIS_ID":"HeritageTrailPt_97","GLOBALID":"{1D9E9D8B-89E4-4726-84A1-6148F7837614}","CREATED":null,"EDITED":null,"OBJECTID":126}},{"type":"Feature","id":128,"geometry":{"type":"Point","coordinates":[-76.93648298750799,38.902857032134136]},"properties":{"NAME":"7","HARDWARE_TYPE":"0","SIGN_NUMBER":"8","URL":"https://www.culturaltourismdc.org/portal/dc-neighborhood-heritage-trails","LATITUDE":38.90284924,"LONGITUDE":-76.93648072,"XCOORD":405509.6866875,"YCOORD":137223.507125,"GIS_ID":"HeritageTrailPt_99","GLOBALID":"{970EF22E-1678-4989-B3C8-54A0F5886815}","CREATED":null,"EDITED":null,"OBJECTID":128}},{"type":"Feature","id":129,"geometry":{"type":"Point","coordinates":[-76.93755284316605,38.90283521409483]},"properties":{"NAME":"7","HARDWARE_TYPE":"0","SIGN_NUMBER":"9","URL":"https://www.culturaltourismdc.org/portal/dc-neighborhood-heritage-trails","LATITUDE":38.90282742,"LONGITUDE":-76.93755058,"XCOORD":405416.889375,"YCOORD":137221.021125,"GIS_ID":"HeritageTrailPt_100","GLOBALID":"{85DB34C0-F8F1-4219-902B-F6F0688521C5}","CREATED":null,"EDITED":null,"OBJECTID":129}},{"type":"Feature","id":130,"geometry":{"type":"Point","coordinates":[-76.94006909043449,38.902804417140885]},"properties":{"NAME":"7","HARDWARE_TYPE":"0","SIGN_NUMBER":"11","URL":"https://www.culturaltourismdc.org/portal/dc-neighborhood-heritage-trails","LATITUDE":38.90279663,"LONGITUDE":-76.94006683,"XCOORD":405198.631125,"YCOORD":137217.455625,"GIS_ID":"HeritageTrailPt_101","GLOBALID":"{17E55BEB-83DC-4884-8772-92BB331D43BB}","CREATED":null,"EDITED":null,"OBJECTID":130}},{"type":"Feature","id":131,"geometry":{"type":"Point","coordinates":[-77.02720490939994,38.90245996999496]},"properties":{"NAME":"6","HARDWARE_TYPE":"0","SIGN_NUMBER":"2","URL":"https://www.culturaltourismdc.org/portal/dc-neighborhood-heritage-trails","LATITUDE":38.90245218,"LONGITUDE":-77.02720262,"XCOORD":397640.4213125,"YCOORD":137177.8645,"GIS_ID":"HeritageTrailPt_102","GLOBALID":"{0AE226D0-F0ED-45B1-B82F-02C7E4A3FF38}","CREATED":null,"EDITED":null,"OBJECTID":131}},{"type":"Feature","id":132,"geometry":{"type":"Point","coordinates":[-77.02943915924335,38.90245254593258]},"properties":{"NAME":"6","HARDWARE_TYPE":"1","SIGN_NUMBER":"1","URL":"https://www.culturaltourismdc.org/portal/dc-neighborhood-heritage-trails","LATITUDE":38.90244476,"LONGITUDE":-77.02943687,"XCOORD":397446.620125,"YCOORD":137177.1006875,"GIS_ID":"HeritageTrailPt_103","GLOBALID":"{22C951A4-3761-4F37-9892-677DDBADBBF0}","CREATED":null,"EDITED":null,"OBJECTID":132}},{"type":"Feature","id":133,"geometry":{"type":"Point","coordinates":[-76.94237593086959,38.9017439516618]},"properties":{"NAME":"7","HARDWARE_TYPE":"0","SIGN_NUMBER":"12","URL":"https://www.culturaltourismdc.org/portal/dc-neighborhood-heritage-trails","LATITUDE":38.90173616,"LONGITUDE":-76.94237367,"XCOORD":404998.6085,"YCOORD":137099.606875,"GIS_ID":"HeritageTrailPt_104","GLOBALID":"{85C519A0-5DBE-413D-802E-D42AFBA15A53}","CREATED":null,"EDITED":null,"OBJECTID":133}},{"type":"Feature","id":134,"geometry":{"type":"Point","coordinates":[-76.93154677244408,38.901439688589534]},"properties":{"NAME":"7","HARDWARE_TYPE":"0","SIGN_NUMBER":"5","URL":"https://www.culturaltourismdc.org/portal/dc-neighborhood-heritage-trails","LATITUDE":38.9014319,"LONGITUDE":-76.93154451,"XCOORD":405937.9735,"YCOORD":137066.4795,"GIS_ID":"HeritageTrailPt_105","GLOBALID":"{116749A8-E494-4952-AA61-8C882BB8A972}","CREATED":null,"EDITED":null,"OBJECTID":134}},{"type":"Feature","id":135,"geometry":{"type":"Point","coordinates":[-76.99507857980852,38.90033493594224]},"properties":{"NAME":"13","HARDWARE_TYPE":"0","SIGN_NUMBER":"15","URL":"https://www.culturaltourismdc.org/portal/dc-neighborhood-heritage-trails","LATITUDE":38.90032715,"LONGITUDE":-76.9950763,"XCOORD":400427.0985625,"YCOORD":136941.62875,"GIS_ID":"HeritageTrailPt_106","GLOBALID":"{9C59F297-6C80-4D05-B535-8ADEFDA1623A}","CREATED":null,"EDITED":null,"OBJECTID":135}},{"type":"Feature","id":137,"geometry":{"type":"Point","coordinates":[-76.99595956958187,38.90031796193467]},"properties":{"NAME":"13","HARDWARE_TYPE":"0","SIGN_NUMBER":"16","URL":"https://www.culturaltourismdc.org/portal/dc-neighborhood-heritage-trails","LATITUDE":38.90031017,"LONGITUDE":-76.99595729,"XCOORD":400350.6788125,"YCOORD":136939.7405625,"GIS_ID":"HeritageTrailPt_108","GLOBALID":"{E40A00C0-9499-4DFC-92C4-DB5513D8E296}","CREATED":null,"EDITED":null,"OBJECTID":137}},{"type":"Feature","id":138,"geometry":{"type":"Point","coordinates":[-76.98800843428438,38.90031713724311]},"properties":{"NAME":"13","HARDWARE_TYPE":"0","SIGN_NUMBER":"10","URL":"https://www.culturaltourismdc.org/portal/dc-neighborhood-heritage-trails","LATITUDE":38.90030935,"LONGITUDE":-76.98800615,"XCOORD":401040.3883125,"YCOORD":136939.70975,"GIS_ID":"HeritageTrailPt_109","GLOBALID":"{17E6B952-5500-4BF0-9501-47850E697552}","CREATED":null,"EDITED":null,"OBJECTID":138}},{"type":"Feature","id":139,"geometry":{"type":"Point","coordinates":[-76.99180867574826,38.900307376082516]},"properties":{"NAME":"13","HARDWARE_TYPE":"0","SIGN_NUMBER":"14","URL":"https://www.culturaltourismdc.org/portal/dc-neighborhood-heritage-trails","LATITUDE":38.90029959,"LONGITUDE":-76.99180639,"XCOORD":400710.74175,"YCOORD":136938.59025,"GIS_ID":"HeritageTrailPt_110","GLOBALID":"{29C05BD9-63ED-4D1C-89F1-3E73A659C0F5}","CREATED":null,"EDITED":null,"OBJECTID":139}},{"type":"Feature","id":140,"geometry":{"type":"Point","coordinates":[-76.99679836265047,38.90010890388409]},"properties":{"NAME":"13","HARDWARE_TYPE":"0","SIGN_NUMBER":"17","URL":"https://www.culturaltourismdc.org/portal/dc-neighborhood-heritage-trails","LATITUDE":38.90010112,"LONGITUDE":-76.99679608,"XCOORD":400277.92,"YCOORD":136916.53075,"GIS_ID":"HeritageTrailPt_111","GLOBALID":"{6FB4E718-7C57-4034-9E12-0C8A80E347D5}","CREATED":null,"EDITED":null,"OBJECTID":140}},{"type":"Feature","id":141,"geometry":{"type":"Point","coordinates":[-76.99830455828906,38.90010658424408]},"properties":{"NAME":"13","HARDWARE_TYPE":"0","SIGN_NUMBER":"18","URL":"https://www.culturaltourismdc.org/portal/dc-neighborhood-heritage-trails","LATITUDE":38.9000988,"LONGITUDE":-76.99830228,"XCOORD":400147.267125,"YCOORD":136916.27,"GIS_ID":"HeritageTrailPt_112","GLOBALID":"{697978D0-6895-468F-9EA3-BDC37591D763}","CREATED":null,"EDITED":null,"OBJECTID":141}},{"type":"Feature","id":142,"geometry":{"type":"Point","coordinates":[-76.98394324085453,38.90005824449953]},"properties":{"NAME":"13","HARDWARE_TYPE":"0","SIGN_NUMBER":"11","URL":"https://www.culturaltourismdc.org/portal/dc-neighborhood-heritage-trails","LATITUDE":38.90005046,"LONGITUDE":-76.98394096,"XCOORD":401327.2194375,"YCOORD":136940.2703125,"GIS_ID":"HeritageTrailPt_113","GLOBALID":"{F3F36C77-2760-4654-A8DC-3DF709CC9584}","CREATED":null,"EDITED":null,"OBJECTID":142}},{"type":"Feature","id":144,"geometry":{"type":"Point","coordinates":[-77.00194587589495,38.89986424637572]},"properties":{"NAME":"13","HARDWARE_TYPE":"0","SIGN_NUMBER":"5","URL":"https://www.culturaltourismdc.org/portal/dc-neighborhood-heritage-trails","LATITUDE":38.89985646,"LONGITUDE":-77.00194359,"XCOORD":399831.4051875,"YCOORD":136889.3688125,"GIS_ID":"HeritageTrailPt_115","GLOBALID":"{AC807431-9D61-4277-8800-2D4842A16017}","CREATED":null,"EDITED":null,"OBJECTID":144}},{"type":"Feature","id":145,"geometry":{"type":"Point","coordinates":[-76.94507163296632,38.899815407062924]},"properties":{"NAME":"7","HARDWARE_TYPE":"0","SIGN_NUMBER":"13","URL":"https://www.culturaltourismdc.org/portal/dc-neighborhood-heritage-trails","LATITUDE":38.89980762,"LONGITUDE":-76.94506937,"XCOORD":404764.9078125,"YCOORD":136885.379375,"GIS_ID":"HeritageTrailPt_116","GLOBALID":"{C9CF5E84-DA7E-4D01-AA3C-68210B166202}","CREATED":null,"EDITED":null,"OBJECTID":145}},{"type":"Feature","id":146,"geometry":{"type":"Point","coordinates":[-77.02043020833578,38.899709090468924]},"properties":{"NAME":"5","HARDWARE_TYPE":"0","SIGN_NUMBER":"4","URL":"https://www.culturaltourismdc.org/portal/dc-neighborhood-heritage-trails","LATITUDE":38.8997013,"LONGITUDE":-77.02042792,"XCOORD":398227.9961875,"YCOORD":136872.341625,"GIS_ID":"HeritageTrailPt_117","GLOBALID":"{36598637-43E7-4FFE-A0F7-A6402F441843}","CREATED":null,"EDITED":null,"OBJECTID":146}},{"type":"Feature","id":147,"geometry":{"type":"Point","coordinates":[-76.9315537617088,38.89965829811939]},"properties":{"NAME":"7","HARDWARE_TYPE":"0","SIGN_NUMBER":"4","URL":"https://www.culturaltourismdc.org/portal/dc-neighborhood-heritage-trails","LATITUDE":38.89965051,"LONGITUDE":-76.9315515,"XCOORD":405937.515625,"YCOORD":136868.7306875,"GIS_ID":"HeritageTrailPt_118","GLOBALID":"{36FF13FC-F9A1-4FD1-9E5F-02C7890010AC}","CREATED":null,"EDITED":null,"OBJECTID":147}},{"type":"Feature","id":148,"geometry":{"type":"Point","coordinates":[-77.0219183218877,38.8996047020841]},"properties":{"NAME":"5","HARDWARE_TYPE":"0","SIGN_NUMBER":"5","URL":"https://www.culturaltourismdc.org/portal/dc-neighborhood-heritage-trails","LATITUDE":38.89959692,"LONGITUDE":-77.02191603,"XCOORD":398098.9081875,"YCOORD":136860.784125,"GIS_ID":"HeritageTrailPt_119","GLOBALID":"{744C6349-94F8-413C-875D-A9AAA23CFBE0}","CREATED":null,"EDITED":null,"OBJECTID":148}},{"type":"Feature","id":149,"geometry":{"type":"Point","coordinates":[-76.98682137589883,38.89885375427508]},"properties":{"NAME":"13","HARDWARE_TYPE":"0","SIGN_NUMBER":"12","URL":"https://www.culturaltourismdc.org/portal/dc-neighborhood-heritage-trails","LATITUDE":38.898845969999996,"LONGITUDE":-76.9868191,"XCOORD":401143.381375,"YCOORD":136777.27725,"GIS_ID":"HeritageTrailPt_120","GLOBALID":"{EC2BB679-17A0-4018-8D59-160F19BE145F}","CREATED":null,"EDITED":null,"OBJECTID":149}},{"type":"Feature","id":150,"geometry":{"type":"Point","coordinates":[-76.94637183863121,38.898602197265745]},"properties":{"NAME":"7","HARDWARE_TYPE":"0","SIGN_NUMBER":"14","URL":"https://www.culturaltourismdc.org/portal/dc-neighborhood-heritage-trails","LATITUDE":38.89859441,"LONGITUDE":-76.94636957,"XCOORD":404652.201625,"YCOORD":136750.6363125,"GIS_ID":"HeritageTrailPt_121","GLOBALID":"{29F1A5C7-B7B3-40BD-ACAD-7AB375FB18A5}","CREATED":null,"EDITED":null,"OBJECTID":150}},{"type":"Feature","id":151,"geometry":{"type":"Point","coordinates":[-77.03033968168027,38.89841662425694]},"properties":{"NAME":"6","HARDWARE_TYPE":"0","SIGN_NUMBER":"0","URL":"https://www.culturaltourismdc.org/portal/dc-neighborhood-heritage-trails","LATITUDE":38.89840884,"LONGITUDE":-77.03033739,"XCOORD":397368.359375,"YCOORD":136729.1066875,"GIS_ID":"HeritageTrailPt_122","GLOBALID":"{AAF1ECE2-D72A-48C4-9173-6ACDE22C758A}","CREATED":null,"EDITED":null,"OBJECTID":151}},{"type":"Feature","id":152,"geometry":{"type":"Point","coordinates":[-77.01503391487324,38.89838795955099]},"properties":{"NAME":"5","HARDWARE_TYPE":"0","SIGN_NUMBER":"3","URL":"https://www.culturaltourismdc.org/portal/dc-neighborhood-heritage-trails","LATITUDE":38.89838017,"LONGITUDE":-77.01503163,"XCOORD":398696.0693125,"YCOORD":136725.5951875,"GIS_ID":"HeritageTrailPt_123","GLOBALID":"{8D61D43E-CD8F-409A-906C-9DED45D3BE94}","CREATED":null,"EDITED":null,"OBJECTID":152}},{"type":"Feature","id":154,"geometry":{"type":"Point","coordinates":[-76.92583524562575,38.89822021667629]},"properties":{"NAME":"7","HARDWARE_TYPE":"0","SIGN_NUMBER":"1","URL":"https://www.culturaltourismdc.org/portal/dc-neighborhood-heritage-trails","LATITUDE":38.89821243,"LONGITUDE":-76.92583299,"XCOORD":406433.694,"YCOORD":136709.4796875,"GIS_ID":"HeritageTrailPt_32","GLOBALID":"{60EFE091-657C-431E-A6A9-D44AD6F58CEA}","CREATED":null,"EDITED":null,"OBJECTID":154}},{"type":"Feature","id":155,"geometry":{"type":"Point","coordinates":[-76.92958920612455,38.89820855854403]},"properties":{"NAME":"7","HARDWARE_TYPE":"0","SIGN_NUMBER":"2","URL":"https://www.culturaltourismdc.org/portal/dc-neighborhood-heritage-trails","LATITUDE":38.89820077,"LONGITUDE":-76.92958694,"XCOORD":406108.054125,"YCOORD":136707.928,"GIS_ID":"HeritageTrailPt_33","GLOBALID":"{482343C3-A48C-4871-8E1F-35139176B3A0}","CREATED":null,"EDITED":null,"OBJECTID":155}},{"type":"Feature","id":156,"geometry":{"type":"Point","coordinates":[-77.02621460919336,38.89745731320576]},"properties":{"NAME":"4","HARDWARE_TYPE":"6","SIGN_NUMBER":"6","URL":"https://www.culturaltourismdc.org/portal/dc-neighborhood-heritage-trails","LATITUDE":38.89744953,"LONGITUDE":-77.02621232,"XCOORD":397726.1613125,"YCOORD":136622.505,"GIS_ID":"HeritageTrailPt_34","GLOBALID":"{B9BBB6CB-3729-46BA-803B-523EB7B67B66}","CREATED":null,"EDITED":null,"OBJECTID":156}},{"type":"Feature","id":157,"geometry":{"type":"Point","coordinates":[-77.00780548829725,38.89736682055955]},"properties":{"NAME":"13","HARDWARE_TYPE":"0","SIGN_NUMBER":"1","URL":"https://www.culturaltourismdc.org/portal/dc-neighborhood-heritage-trails","LATITUDE":38.89735903,"LONGITUDE":-77.0078032,"XCOORD":399323.0946875,"YCOORD":136612.161875,"GIS_ID":"HeritageTrailPt_35","GLOBALID":"{75EDA16D-559A-47D8-BFD3-FE0B8CA8D5CD}","CREATED":null,"EDITED":null,"OBJECTID":157}},{"type":"Feature","id":158,"geometry":{"type":"Point","coordinates":[-77.02296087385388,38.897329421706246]},"properties":{"NAME":"4","HARDWARE_TYPE":"0","SIGN_NUMBER":"4","URL":"https://www.culturaltourismdc.org/portal/dc-neighborhood-heritage-trails","LATITUDE":38.89732164,"LONGITUDE":-77.02295858,"XCOORD":398008.4088125,"YCOORD":136608.2316875,"GIS_ID":"HeritageTrailPt_36","GLOBALID":"{44A2731E-21ED-433F-813E-E1AF82C0CFC5}","CREATED":null,"EDITED":null,"OBJECTID":158}},{"type":"Feature","id":159,"geometry":{"type":"Point","coordinates":[-76.9259628123371,38.8972882829462]},"properties":{"NAME":"7","HARDWARE_TYPE":"0","SIGN_NUMBER":"0","URL":"https://www.culturaltourismdc.org/portal/dc-neighborhood-heritage-trails","LATITUDE":38.89728049,"LONGITUDE":-76.92596055,"XCOORD":406422.7115,"YCOORD":136606.0191875,"GIS_ID":"HeritageTrailPt_37","GLOBALID":"{0BBE7BE4-42AE-4A98-80F3-7901550CA309}","CREATED":null,"EDITED":null,"OBJECTID":159}},{"type":"Feature","id":160,"geometry":{"type":"Point","coordinates":[-77.02479934056184,38.897284328332674]},"properties":{"NAME":"4","HARDWARE_TYPE":"0","SIGN_NUMBER":"5","URL":"https://www.culturaltourismdc.org/portal/dc-neighborhood-heritage-trails","LATITUDE":38.89727654,"LONGITUDE":-77.02479705,"XCOORD":397848.9261875,"YCOORD":136603.268,"GIS_ID":"HeritageTrailPt_38","GLOBALID":"{5F81A6AE-2CA0-40CD-B3B1-65586F6437B3}","CREATED":null,"EDITED":null,"OBJECTID":160}},{"type":"Feature","id":161,"geometry":{"type":"Point","coordinates":[-77.01808959716267,38.897279902902056]},"properties":{"NAME":"5","HARDWARE_TYPE":"0","SIGN_NUMBER":"2","URL":"https://www.culturaltourismdc.org/portal/dc-neighborhood-heritage-trails","LATITUDE":38.89727212,"LONGITUDE":-77.01808731,"XCOORD":398430.9771875,"YCOORD":136602.640125,"GIS_ID":"HeritageTrailPt_39","GLOBALID":"{6C86D500-F0DC-483F-AC21-9E60180BF433}","CREATED":null,"EDITED":null,"OBJECTID":161}},{"type":"Feature","id":163,"geometry":{"type":"Point","coordinates":[-77.00332206892423,38.89726787009362]},"properties":{"NAME":"13","HARDWARE_TYPE":"0","SIGN_NUMBER":"3","URL":"https://www.culturaltourismdc.org/portal/dc-neighborhood-heritage-trails","LATITUDE":38.89726008,"LONGITUDE":-77.00331978,"XCOORD":399712.0175625,"YCOORD":136601.1540625,"GIS_ID":"HeritageTrailPt_41","GLOBALID":"{4645FDA2-F1E8-490E-9D9C-25B5A26E66EA}","CREATED":null,"EDITED":null,"OBJECTID":163}},{"type":"Feature","id":164,"geometry":{"type":"Point","coordinates":[-77.02180130822363,38.897180573460965]},"properties":{"NAME":"4","HARDWARE_TYPE":"0","SIGN_NUMBER":"3","URL":"https://www.culturaltourismdc.org/portal/dc-neighborhood-heritage-trails","LATITUDE":38.89717279,"LONGITUDE":-77.02179902,"XCOORD":398108.993625,"YCOORD":136591.6843125,"GIS_ID":"HeritageTrailPt_42","GLOBALID":"{183A6A26-121A-4725-9C22-579F419B414B}","CREATED":null,"EDITED":null,"OBJECTID":164}},{"type":"Feature","id":165,"geometry":{"type":"Point","coordinates":[-77.0048407676525,38.89689697865303]},"properties":{"NAME":"13","HARDWARE_TYPE":"0","SIGN_NUMBER":"2","URL":"https://www.culturaltourismdc.org/portal/dc-neighborhood-heritage-trails","LATITUDE":38.89688919,"LONGITUDE":-77.00483848,"XCOORD":399580.27325,"YCOORD":136559.988375,"GIS_ID":"HeritageTrailPt_43","GLOBALID":"{8F1B737C-5337-4156-B019-64A0C6C5A4C7}","CREATED":null,"EDITED":null,"OBJECTID":165}},{"type":"Feature","id":166,"geometry":{"type":"Point","coordinates":[-77.03378831813666,38.89682534994374]},"properties":{"NAME":"6","HARDWARE_TYPE":"0","SIGN_NUMBER":"4","URL":"https://www.culturaltourismdc.org/portal/dc-neighborhood-heritage-trails","LATITUDE":38.89681756,"LONGITUDE":-77.03378602,"XCOORD":397069.139375,"YCOORD":136552.568,"GIS_ID":"HeritageTrailPt_44","GLOBALID":"{9921206E-5F56-4AD1-ACD9-867CC37C94CD}","CREATED":null,"EDITED":null,"OBJECTID":166}},{"type":"Feature","id":167,"geometry":{"type":"Point","coordinates":[-77.0320795600149,38.89647057778227]},"properties":{"NAME":"6","HARDWARE_TYPE":"0","SIGN_NUMBER":"5","URL":"https://www.culturaltourismdc.org/portal/dc-neighborhood-heritage-trails","LATITUDE":38.89646279,"LONGITUDE":-77.03207727,"XCOORD":397217.3561875,"YCOORD":136513.131875,"GIS_ID":"HeritageTrailPt_45","GLOBALID":"{A9AE027A-3C87-4593-BE1A-5E5EC9CEE300}","CREATED":null,"EDITED":null,"OBJECTID":167}},{"type":"Feature","id":168,"geometry":{"type":"Point","coordinates":[-77.02977007530359,38.896346576470194]},"properties":{"NAME":"6","HARDWARE_TYPE":"4","SIGN_NUMBER":"6","URL":"https://www.culturaltourismdc.org/portal/dc-neighborhood-heritage-trails","LATITUDE":38.89633879,"LONGITUDE":-77.02976778,"XCOORD":397417.6951875,"YCOORD":136499.2985,"GIS_ID":"HeritageTrailPt_46","GLOBALID":"{4E20633A-0E90-42B7-B076-3D8A44CB353A}","CREATED":null,"EDITED":null,"OBJECTID":168}},{"type":"Feature","id":170,"geometry":{"type":"Point","coordinates":[-77.01760291763641,38.89494135121056]},"properties":{"NAME":"5","HARDWARE_TYPE":"1","SIGN_NUMBER":"1","URL":"https://www.culturaltourismdc.org/portal/dc-neighborhood-heritage-trails","LATITUDE":38.89493357,"LONGITUDE":-77.01760063,"XCOORD":398473.144625,"YCOORD":136343.034375,"GIS_ID":"HeritageTrailPt_48","GLOBALID":"{5397B284-F9E9-42CB-9BD9-0A4B99DDF475}","CREATED":null,"EDITED":null,"OBJECTID":170}},{"type":"Feature","id":171,"geometry":{"type":"Point","coordinates":[-77.01921842089962,38.89485162545326]},"properties":{"NAME":"5","HARDWARE_TYPE":"0","SIGN_NUMBER":"0","URL":"https://www.culturaltourismdc.org/portal/dc-neighborhood-heritage-trails","LATITUDE":38.89484384,"LONGITUDE":-77.01921613,"XCOORD":398332.997875,"YCOORD":136333.1023125,"GIS_ID":"HeritageTrailPt_49","GLOBALID":"{FF52C22F-9D12-4CB2-8A11-BF53C1C8E342}","CREATED":null,"EDITED":null,"OBJECTID":171}},{"type":"Feature","id":172,"geometry":{"type":"Point","coordinates":[-77.02609997423431,38.894740541526005]},"properties":{"NAME":"4","HARDWARE_TYPE":"0","SIGN_NUMBER":"7","URL":"https://www.culturaltourismdc.org/portal/dc-neighborhood-heritage-trails","LATITUDE":38.89473276,"LONGITUDE":-77.02609768,"XCOORD":397736.018875,"YCOORD":136320.919375,"GIS_ID":"HeritageTrailPt_50","GLOBALID":"{B5E7EA37-DC2A-4FD0-9022-4D7EF7802963}","CREATED":null,"EDITED":null,"OBJECTID":172}},{"type":"Feature","id":173,"geometry":{"type":"Point","coordinates":[-77.02180151746086,38.8940557688884]},"properties":{"NAME":"4","HARDWARE_TYPE":"0","SIGN_NUMBER":"1","URL":"https://www.culturaltourismdc.org/portal/dc-neighborhood-heritage-trails","LATITUDE":38.89404798,"LONGITUDE":-77.02179923,"XCOORD":398108.8928125,"YCOORD":136244.806375,"GIS_ID":"HeritageTrailPt_51","GLOBALID":"{152851CD-9F53-472E-B011-39A7823CCE06}","CREATED":null,"EDITED":null,"OBJECTID":173}},{"type":"Feature","id":174,"geometry":{"type":"Point","coordinates":[-77.02175023831096,38.89282627993113]},"properties":{"NAME":"4","HARDWARE_TYPE":"0","SIGN_NUMBER":"0","URL":"https://www.culturaltourismdc.org/portal/dc-neighborhood-heritage-trails","LATITUDE":38.89281849,"LONGITUDE":-77.02174795,"XCOORD":398113.308625,"YCOORD":136108.321625,"GIS_ID":"HeritageTrailPt_52","GLOBALID":"{4A17D6A9-46A9-4B3B-9166-1A53331970D9}","CREATED":null,"EDITED":null,"OBJECTID":174}},{"type":"Feature","id":175,"geometry":{"type":"Point","coordinates":[-76.99613015465997,38.886042762174405]},"properties":{"NAME":"1","HARDWARE_TYPE":"6","SIGN_NUMBER":"15","URL":"https://www.culturaltourismdc.org/portal/dc-neighborhood-heritage-trails","LATITUDE":38.88603498,"LONGITUDE":-76.99612787,"XCOORD":400335.9491875,"YCOORD":135355.081375,"GIS_ID":"HeritageTrailPt_53","GLOBALID":"{CAE931D8-B118-4674-BC05-72264541B5FA}","CREATED":null,"EDITED":null,"OBJECTID":175}},{"type":"Feature","id":176,"geometry":{"type":"Point","coordinates":[-76.99556646508873,38.88403281850468]},"properties":{"NAME":"1","HARDWARE_TYPE":"5","SIGN_NUMBER":"0","URL":"https://www.culturaltourismdc.org/portal/dc-neighborhood-heritage-trails","LATITUDE":38.88402503,"LONGITUDE":-76.99556418,"XCOORD":400384.865875,"YCOORD":135131.9636875,"GIS_ID":"HeritageTrailPt_54","GLOBALID":"{492FFEC5-87B0-4883-9A49-9D94405852A0}","CREATED":null,"EDITED":null,"OBJECTID":176}},{"type":"Feature","id":177,"geometry":{"type":"Point","coordinates":[-76.99481934888206,38.883912156474004]},"properties":{"NAME":"1","HARDWARE_TYPE":"0","SIGN_NUMBER":"1","URL":"https://www.culturaltourismdc.org/portal/dc-neighborhood-heritage-trails","LATITUDE":38.88390437,"LONGITUDE":-76.99481707,"XCOORD":400449.68887501,"YCOORD":135118.572875,"GIS_ID":"HeritageTrailPt_55","GLOBALID":"{27D78B15-CB51-40ED-9301-82E7CB36398B}","CREATED":null,"EDITED":null,"OBJECTID":177}},{"type":"Feature","id":178,"geometry":{"type":"Point","coordinates":[-76.99804578843876,38.88311242735037]},"properties":{"NAME":"1","HARDWARE_TYPE":"0","SIGN_NUMBER":"14","URL":"https://www.culturaltourismdc.org/portal/dc-neighborhood-heritage-trails","LATITUDE":38.88310464,"LONGITUDE":-76.99804351,"XCOORD":400169.754125,"YCOORD":135029.786,"GIS_ID":"HeritageTrailPt_56","GLOBALID":"{37FE2A04-435A-42BD-91B1-15F4CE2A51DE}","CREATED":null,"EDITED":null,"OBJECTID":178}},{"type":"Feature","id":179,"geometry":{"type":"Point","coordinates":[-76.99837386627695,38.88287389027647]},"properties":{"NAME":"1","HARDWARE_TYPE":"0","SIGN_NUMBER":"13","URL":"https://www.culturaltourismdc.org/portal/dc-neighborhood-heritage-trails","LATITUDE":38.88286611,"LONGITUDE":-76.99837158,"XCOORD":400141.2893125,"YCOORD":135003.306,"GIS_ID":"HeritageTrailPt_57","GLOBALID":"{6CA09870-B69F-47AE-BE2E-3B3D1D1855B8}","CREATED":null,"EDITED":null,"OBJECTID":179}},{"type":"Feature","id":181,"geometry":{"type":"Point","coordinates":[-76.99487139855927,38.88246724051396]},"properties":{"NAME":"1","HARDWARE_TYPE":"0","SIGN_NUMBER":"2","URL":"https://www.culturaltourismdc.org/portal/dc-neighborhood-heritage-trails","LATITUDE":38.88245946,"LONGITUDE":-76.99486912,"XCOORD":400445.1816875,"YCOORD":134958.1758125,"GIS_ID":"HeritageTrailPt_59","GLOBALID":"{2024849B-3447-4E1B-8872-3475538F4F41}","CREATED":null,"EDITED":null,"OBJECTID":181}},{"type":"Feature","id":182,"geometry":{"type":"Point","coordinates":[-77.02607052844773,38.88192127305746]},"properties":{"NAME":"11","HARDWARE_TYPE":"0","SIGN_NUMBER":"7","URL":"https://www.culturaltourismdc.org/portal/dc-neighborhood-heritage-trails","LATITUDE":38.88191349,"LONGITUDE":-77.02606824,"XCOORD":397738.167,"YCOORD":134897.88,"GIS_ID":"HeritageTrailPt_60","GLOBALID":"{FD3F2F25-203E-4AB6-BB64-021FF1DFB338}","CREATED":null,"EDITED":null,"OBJECTID":182}},{"type":"Feature","id":183,"geometry":{"type":"Point","coordinates":[-76.99736322535671,38.88160311253246]},"properties":{"NAME":"1","HARDWARE_TYPE":"0","SIGN_NUMBER":"12","URL":"https://www.culturaltourismdc.org/portal/dc-neighborhood-heritage-trails","LATITUDE":38.88159533,"LONGITUDE":-76.99736094,"XCOORD":400228.98112501,"YCOORD":134862.242,"GIS_ID":"HeritageTrailPt_61","GLOBALID":"{6B81B3D5-DFBD-4118-913E-DB05819CDFD6}","CREATED":null,"EDITED":null,"OBJECTID":183}},{"type":"Feature","id":184,"geometry":{"type":"Point","coordinates":[-76.99488091174516,38.88143657313126]},"properties":{"NAME":"1","HARDWARE_TYPE":"0","SIGN_NUMBER":"5","URL":"https://www.culturaltourismdc.org/portal/dc-neighborhood-heritage-trails","LATITUDE":38.88142879,"LONGITUDE":-76.99487863,"XCOORD":400444.362625,"YCOORD":134843.7635,"GIS_ID":"HeritageTrailPt_62","GLOBALID":"{5CFA1C57-FDEF-4EF1-861D-D565494E4AC9}","CREATED":null,"EDITED":null,"OBJECTID":184}},{"type":"Feature","id":185,"geometry":{"type":"Point","coordinates":[-76.9939361989885,38.88134759709538]},"properties":{"NAME":"1","HARDWARE_TYPE":"0","SIGN_NUMBER":"4","URL":"https://www.culturaltourismdc.org/portal/dc-neighborhood-heritage-trails","LATITUDE":38.88133981,"LONGITUDE":-76.99393392,"XCOORD":400526.3331875,"YCOORD":134833.892,"GIS_ID":"HeritageTrailPt_63","GLOBALID":"{049EC83F-854D-41A3-9F70-DD899C65554C}","CREATED":null,"EDITED":null,"OBJECTID":185}},{"type":"Feature","id":186,"geometry":{"type":"Point","coordinates":[-76.99728429046657,38.88126426915199]},"properties":{"NAME":"1","HARDWARE_TYPE":"0","SIGN_NUMBER":"11","URL":"https://www.culturaltourismdc.org/portal/dc-neighborhood-heritage-trails","LATITUDE":38.88125649,"LONGITUDE":-76.99728201,"XCOORD":400235.8305,"YCOORD":134824.6281875,"GIS_ID":"HeritageTrailPt_64","GLOBALID":"{29003A39-7729-423E-8D19-09E30B915128}","CREATED":null,"EDITED":null,"OBJECTID":186}},{"type":"Feature","id":187,"geometry":{"type":"Point","coordinates":[-77.02207028921978,38.88117354539407]},"properties":{"NAME":"11","HARDWARE_TYPE":"0","SIGN_NUMBER":"6","URL":"https://www.culturaltourismdc.org/portal/dc-neighborhood-heritage-trails","LATITUDE":38.88116576,"LONGITUDE":-77.02206799999999,"XCOORD":398085.230875,"YCOORD":134814.785375,"GIS_ID":"HeritageTrailPt_65","GLOBALID":"{DA790CA3-141E-41AD-A9EA-0107646C5328}","CREATED":null,"EDITED":null,"OBJECTID":187}},{"type":"Feature","id":188,"geometry":{"type":"Point","coordinates":[-77.01773151481503,38.88115948399136]},"properties":{"NAME":"11","HARDWARE_TYPE":"0","SIGN_NUMBER":"4","URL":"https://www.culturaltourismdc.org/portal/dc-neighborhood-heritage-trails","LATITUDE":38.8811517,"LONGITUDE":-77.01772923,"XCOORD":398461.6921875,"YCOORD":134813.1423125,"GIS_ID":"HeritageTrailPt_66","GLOBALID":"{1582E4FC-EC4B-4598-9437-1827A286536E}","CREATED":null,"EDITED":null,"OBJECTID":188}},{"type":"Feature","id":190,"geometry":{"type":"Point","coordinates":[-77.02523051769454,38.879893173295024]},"properties":{"NAME":"11","HARDWARE_TYPE":"0","SIGN_NUMBER":"8","URL":"https://www.culturaltourismdc.org/portal/dc-neighborhood-heritage-trails","LATITUDE":38.87988539,"LONGITUDE":-77.02522823,"XCOORD":397810.9893125,"YCOORD":134672.7246875,"GIS_ID":"HeritageTrailPt_68","GLOBALID":"{FF92EB2B-7BD7-4AC5-957B-CA7199D3F703}","CREATED":null,"EDITED":null,"OBJECTID":190}},{"type":"Feature","id":191,"geometry":{"type":"Point","coordinates":[-76.99602749085896,38.87924825423605]},"properties":{"NAME":"1","HARDWARE_TYPE":"0","SIGN_NUMBER":"10","URL":"https://www.culturaltourismdc.org/portal/dc-neighborhood-heritage-trails","LATITUDE":38.87924047,"LONGITUDE":-76.99602521,"XCOORD":400344.8893125,"YCOORD":134600.838875,"GIS_ID":"HeritageTrailPt_69","GLOBALID":"{DC1101AE-6F69-486B-879B-F58AC78AC468}","CREATED":null,"EDITED":null,"OBJECTID":191}},{"type":"Feature","id":192,"geometry":{"type":"Point","coordinates":[-76.99514553111618,38.87922058317189]},"properties":{"NAME":"1","HARDWARE_TYPE":"0","SIGN_NUMBER":"6","URL":"https://www.culturaltourismdc.org/portal/dc-neighborhood-heritage-trails","LATITUDE":38.8792128,"LONGITUDE":-76.99514325,"XCOORD":400421.416375,"YCOORD":134597.7711875,"GIS_ID":"HeritageTrailPt_70","GLOBALID":"{AA1624DC-2896-4A25-9E38-CC00A4E333B4}","CREATED":null,"EDITED":null,"OBJECTID":192}},{"type":"Feature","id":193,"geometry":{"type":"Point","coordinates":[-77.01776410858348,38.87921795438455]},"properties":{"NAME":"11","HARDWARE_TYPE":"6","SIGN_NUMBER":"2","URL":"https://www.culturaltourismdc.org/portal/dc-neighborhood-heritage-trails","LATITUDE":38.87921017,"LONGITUDE":-77.01776182,"XCOORD":398458.8218125,"YCOORD":134597.617625,"GIS_ID":"HeritageTrailPt_71","GLOBALID":"{1BBD6B07-7BBF-450F-9224-720D928E3279}","CREATED":null,"EDITED":null,"OBJECTID":193}},{"type":"Feature","id":194,"geometry":{"type":"Point","coordinates":[-77.02328006226627,38.8783499541145]},"properties":{"NAME":"11","HARDWARE_TYPE":"0","SIGN_NUMBER":"9","URL":"https://www.culturaltourismdc.org/portal/dc-neighborhood-heritage-trails","LATITUDE":38.87834217,"LONGITUDE":-77.02327777,"XCOORD":397980.182625,"YCOORD":134501.370625,"GIS_ID":"HeritageTrailPt_72","GLOBALID":"{0C2D7892-B974-4C57-99F9-7541606E2D87}","CREATED":null,"EDITED":null,"OBJECTID":194}},{"type":"Feature","id":195,"geometry":{"type":"Point","coordinates":[-76.99507806808448,38.87699873179822]},"properties":{"NAME":"1","HARDWARE_TYPE":"0","SIGN_NUMBER":"8","URL":"https://www.culturaltourismdc.org/portal/dc-neighborhood-heritage-trails","LATITUDE":38.87699095,"LONGITUDE":-76.99507579,"XCOORD":400427.2833125,"YCOORD":134351.129125,"GIS_ID":"HeritageTrailPt_73","GLOBALID":"{98FD6A72-20E8-47C1-8774-1F3880B38EC6}","CREATED":null,"EDITED":null,"OBJECTID":195}},{"type":"Feature","id":196,"geometry":{"type":"Point","coordinates":[-76.9950848032129,38.87676116263936]},"properties":{"NAME":"1","HARDWARE_TYPE":"0","SIGN_NUMBER":"9","URL":"https://www.culturaltourismdc.org/portal/dc-neighborhood-heritage-trails","LATITUDE":38.87675338,"LONGITUDE":-76.99508252,"XCOORD":400426.6996875,"YCOORD":134324.7565,"GIS_ID":"HeritageTrailPt_74","GLOBALID":"{AD97E46A-1619-4F63-B51A-94F376C00D2E}","CREATED":null,"EDITED":null,"OBJECTID":196}},{"type":"Feature","id":197,"geometry":{"type":"Point","coordinates":[-77.01975929242897,38.876693589540764]},"properties":{"NAME":"11","HARDWARE_TYPE":"0","SIGN_NUMBER":"1","URL":"https://www.culturaltourismdc.org/portal/dc-neighborhood-heritage-trails","LATITUDE":38.87668581,"LONGITUDE":-77.019757,"XCOORD":398285.640875,"YCOORD":134317.4303125,"GIS_ID":"HeritageTrailPt_75","GLOBALID":"{1094B576-EEF6-400D-B998-6FD77F828C02}","CREATED":null,"EDITED":null,"OBJECTID":197}},{"type":"Feature","id":199,"geometry":{"type":"Point","coordinates":[-77.01744474456335,38.87483747140386]},"properties":{"NAME":"11","HARDWARE_TYPE":"0","SIGN_NUMBER":"16","URL":"https://www.culturaltourismdc.org/portal/dc-neighborhood-heritage-trails","LATITUDE":38.87482969,"LONGITUDE":-77.01744246,"XCOORD":398486.4401875,"YCOORD":134111.3456875,"GIS_ID":"HeritageTrailPt_199","GLOBALID":"{94CF6D4C-A3C5-4B6C-8C7B-1BE2689CE081}","CREATED":null,"EDITED":null,"OBJECTID":199}},{"type":"Feature","id":200,"geometry":{"type":"Point","coordinates":[-77.02085978777635,38.87473786391507]},"properties":{"NAME":"11","HARDWARE_TYPE":"0","SIGN_NUMBER":"11","URL":"https://www.culturaltourismdc.org/portal/dc-neighborhood-heritage-trails","LATITUDE":38.87473008,"LONGITUDE":-77.0208575,"XCOORD":398190.0986875,"YCOORD":134100.3506875,"GIS_ID":"HeritageTrailPt_200","GLOBALID":"{185D385F-CD0B-4E0F-924A-14C4D4669EF7}","CREATED":null,"EDITED":null,"OBJECTID":200}},{"type":"Feature","id":201,"geometry":{"type":"Point","coordinates":[-77.01588923603177,38.87471392702029]},"properties":{"NAME":"11","HARDWARE_TYPE":"0","SIGN_NUMBER":"15","URL":"https://www.culturaltourismdc.org/portal/dc-neighborhood-heritage-trails","LATITUDE":38.87470615,"LONGITUDE":-77.01588695,"XCOORD":398621.416375,"YCOORD":134097.6071875,"GIS_ID":"HeritageTrailPt_201","GLOBALID":"{720E3546-84DF-416C-9017-947D492DA353}","CREATED":null,"EDITED":null,"OBJECTID":201}},{"type":"Feature","id":202,"geometry":{"type":"Point","coordinates":[-77.01744234997105,38.87310314727498]},"properties":{"NAME":"11","HARDWARE_TYPE":"0","SIGN_NUMBER":"14","URL":"https://www.culturaltourismdc.org/portal/dc-neighborhood-heritage-trails","LATITUDE":38.87309537,"LONGITUDE":-77.01744006,"XCOORD":398486.6113125,"YCOORD":133918.823375,"GIS_ID":"HeritageTrailPt_202","GLOBALID":"{C11DE7BA-F127-4078-85D9-F160BFBA910D}","CREATED":null,"EDITED":null,"OBJECTID":202}},{"type":"Feature","id":203,"geometry":{"type":"Point","coordinates":[-77.0170023209654,38.87212623278959]},"properties":{"NAME":"11","HARDWARE_TYPE":"0","SIGN_NUMBER":"12","URL":"https://www.culturaltourismdc.org/portal/dc-neighborhood-heritage-trails","LATITUDE":38.87211845,"LONGITUDE":-77.01700003,"XCOORD":398524.7751875,"YCOORD":133810.371,"GIS_ID":"HeritageTrailPt_203","GLOBALID":"{BFB1569F-AA11-4BFD-96A8-D81A42FFFBE8}","CREATED":null,"EDITED":null,"OBJECTID":203}},{"type":"Feature","id":204,"geometry":{"type":"Point","coordinates":[-77.01543553598755,38.87212301822162]},"properties":{"NAME":"11","HARDWARE_TYPE":"0","SIGN_NUMBER":"13","URL":"https://www.culturaltourismdc.org/portal/dc-neighborhood-heritage-trails","LATITUDE":38.87211524,"LONGITUDE":-77.01543325,"XCOORD":398660.737,"YCOORD":133809.989625,"GIS_ID":"HeritageTrailPt_204","GLOBALID":"{742F3E2E-4CA9-407F-9BD2-2905A092D6C5}","CREATED":null,"EDITED":null,"OBJECTID":204}},{"type":"Feature","id":26,"geometry":{"type":"Point","coordinates":[-77.04653899132467,38.93289873413586]},"properties":{"NAME":"9","HARDWARE_TYPE":"0","SIGN_NUMBER":"9","URL":"https://www.culturaltourismdc.org/portal/dc-neighborhood-heritage-trails","LATITUDE":38.93289094,"LONGITUDE":-77.04653669,"XCOORD":395965.0885,"YCOORD":140557.499375,"GIS_ID":"HeritageTrailPt_149","GLOBALID":"{E3C5AB84-20AC-42E3-823B-5C9EA5586325}","CREATED":null,"EDITED":null,"OBJECTID":26}},{"type":"Feature","id":13,"geometry":{"type":"Point","coordinates":[-77.02819286384577,38.96143545760835]},"properties":{"NAME":"2","HARDWARE_TYPE":"0","SIGN_NUMBER":"4","URL":"https://www.culturaltourismdc.org/portal/dc-neighborhood-heritage-trails","LATITUDE":38.96142766,"LONGITUDE":-77.02819057,"XCOORD":397556.7466875,"YCOORD":143724.68,"GIS_ID":"HeritageTrailPt_136","GLOBALID":"{F03114E3-C352-49BA-AED5-C9BDB175024C}","CREATED":null,"EDITED":null,"OBJECTID":13}},{"type":"Feature","id":22,"geometry":{"type":"Point","coordinates":[-77.04256081475144,38.934248280412966]},"properties":{"NAME":"9","HARDWARE_TYPE":"0","SIGN_NUMBER":"7","URL":"https://www.culturaltourismdc.org/portal/dc-neighborhood-heritage-trails","LATITUDE":38.93424049,"LONGITUDE":-77.04255852,"XCOORD":396310.0816875,"YCOORD":140707.1418125,"GIS_ID":"HeritageTrailPt_145","GLOBALID":"{9F19871D-B22E-4498-ABB7-17EDE355814C}","CREATED":null,"EDITED":null,"OBJECTID":22}},{"type":"Feature","id":35,"geometry":{"type":"Point","coordinates":[-77.03658250966946,38.93125512365797]},"properties":{"NAME":"9","HARDWARE_TYPE":"0","SIGN_NUMBER":"3","URL":"https://www.culturaltourismdc.org/portal/dc-neighborhood-heritage-trails","LATITUDE":38.93124733,"LONGITUDE":-77.03658021,"XCOORD":396828.281125,"YCOORD":140374.6508125,"GIS_ID":"HeritageTrailPt_158","GLOBALID":"{8CAF11D2-D6B0-4328-9D6B-89F714433B04}","CREATED":null,"EDITED":null,"OBJECTID":35}},{"type":"Feature","id":44,"geometry":{"type":"Point","coordinates":[-77.03238325837638,38.92865015912387]},"properties":{"NAME":"3","HARDWARE_TYPE":"1","SIGN_NUMBER":"0","URL":"https://www.culturaltourismdc.org/portal/dc-neighborhood-heritage-trails","LATITUDE":38.92864237,"LONGITUDE":-77.03238096,"XCOORD":397192.278375,"YCOORD":140085.3396875,"GIS_ID":"HeritageTrailPt_167","GLOBALID":"{F714AF09-8146-4770-931B-73DEEF6392FA}","CREATED":null,"EDITED":null,"OBJECTID":44}},{"type":"Feature","id":52,"geometry":{"type":"Point","coordinates":[-77.03636203792055,38.92575558079494]},"properties":{"NAME":"3","HARDWARE_TYPE":"0","SIGN_NUMBER":"16","URL":"https://www.culturaltourismdc.org/portal/dc-neighborhood-heritage-trails","LATITUDE":38.92574779,"LONGITUDE":-77.03635974,"XCOORD":396847.153875,"YCOORD":139764.1468125,"GIS_ID":"HeritageTrailPt_175","GLOBALID":"{56727E07-DDBB-4147-9F97-2B0AD7C94936}","CREATED":null,"EDITED":null,"OBJECTID":52}},{"type":"Feature","id":61,"geometry":{"type":"Point","coordinates":[-77.04329293543809,38.92339246207171]},"properties":{"NAME":"0","HARDWARE_TYPE":"0","SIGN_NUMBER":"9","URL":"https://www.culturaltourismdc.org/portal/dc-neighborhood-heritage-trails","LATITUDE":38.92338467,"LONGITUDE":-77.04329064,"XCOORD":396246.034125,"YCOORD":139502.082875,"GIS_ID":"HeritageTrailPt_184","GLOBALID":"{24823A91-CD0E-4DC3-949B-99945FA8EE6C}","CREATED":null,"EDITED":null,"OBJECTID":61}},{"type":"Feature","id":70,"geometry":{"type":"Point","coordinates":[-77.04245697631912,38.921755406780825]},"properties":{"NAME":"0","HARDWARE_TYPE":"6","SIGN_NUMBER":"17","URL":"https://www.culturaltourismdc.org/portal/dc-neighborhood-heritage-trails","LATITUDE":38.92174762,"LONGITUDE":-77.04245468,"XCOORD":396318.4398125,"YCOORD":139320.322375,"GIS_ID":"HeritageTrailPt_193","GLOBALID":"{48A3C17C-B08B-486E-81A0-6F2F680FF1DE}","CREATED":null,"EDITED":null,"OBJECTID":70}},{"type":"Feature","id":77,"geometry":{"type":"Point","coordinates":[-77.01926135137288,38.920304489776626]},"properties":{"NAME":"12","HARDWARE_TYPE":"0","SIGN_NUMBER":"6","URL":"https://www.culturaltourismdc.org/portal/dc-neighborhood-heritage-trails","LATITUDE":38.9202967,"LONGITUDE":-77.01925906,"XCOORD":398329.870375,"YCOORD":139158.577875,"GIS_ID":"HeritageTrailPt_2","GLOBALID":"{BC0FD615-1B86-4AEE-A573-BE6E86DB067A}","CREATED":null,"EDITED":null,"OBJECTID":77}},{"type":"Feature","id":85,"geometry":{"type":"Point","coordinates":[-77.02176767961627,38.9176853824343]},"properties":{"NAME":"12","HARDWARE_TYPE":"0","SIGN_NUMBER":"5","URL":"https://www.culturaltourismdc.org/portal/dc-neighborhood-heritage-trails","LATITUDE":38.91767759,"LONGITUDE":-77.02176539,"XCOORD":398112.45375,"YCOORD":138867.883875,"GIS_ID":"HeritageTrailPt_10","GLOBALID":"{A11A6B73-0363-4447-A1D2-650A45D45DBA}","CREATED":null,"EDITED":null,"OBJECTID":85}},{"type":"Feature","id":92,"geometry":{"type":"Point","coordinates":[-77.02600676685833,38.91691259180395]},"properties":{"NAME":"8","HARDWARE_TYPE":"0","SIGN_NUMBER":"3","URL":"https://www.culturaltourismdc.org/portal/dc-neighborhood-heritage-trails","LATITUDE":38.9169048,"LONGITUDE":-77.02600447,"XCOORD":397744.806125,"YCOORD":138782.194,"GIS_ID":"HeritageTrailPt_17","GLOBALID":"{86D0F8BD-0EAD-42A9-B132-D58B771701D2}","CREATED":null,"EDITED":null,"OBJECTID":92}},{"type":"Feature","id":104,"geometry":{"type":"Point","coordinates":[-77.0222375753672,38.91271043153855]},"properties":{"NAME":"10","HARDWARE_TYPE":"0","SIGN_NUMBER":"7","URL":"https://www.culturaltourismdc.org/portal/dc-neighborhood-heritage-trails","LATITUDE":38.91270264,"LONGITUDE":-77.02223528,"XCOORD":398071.568625,"YCOORD":138315.633375,"GIS_ID":"HeritageTrailPt_29","GLOBALID":"{2AC19A05-650A-4407-BB13-2D8EC6425331}","CREATED":null,"EDITED":null,"OBJECTID":104}},{"type":"Feature","id":113,"geometry":{"type":"Point","coordinates":[-77.02179652369799,38.90589344925895]},"properties":{"NAME":"10","HARDWARE_TYPE":"0","SIGN_NUMBER":"11","URL":"https://www.culturaltourismdc.org/portal/dc-neighborhood-heritage-trails","LATITUDE":38.90588566,"LONGITUDE":-77.02179423,"XCOORD":398109.639875,"YCOORD":137558.882625,"GIS_ID":"HeritageTrailPt_84","GLOBALID":"{65321D14-D022-4EAD-A6CC-27025864D5FF}","CREATED":null,"EDITED":null,"OBJECTID":113}},{"type":"Feature","id":123,"geometry":{"type":"Point","coordinates":[-76.99255551938451,38.903643166643015]},"properties":{"NAME":"13","HARDWARE_TYPE":"0","SIGN_NUMBER":"9","URL":"https://www.culturaltourismdc.org/portal/dc-neighborhood-heritage-trails","LATITUDE":38.90363538,"LONGITUDE":-76.99255324,"XCOORD":400645.92775,"YCOORD":137308.88375,"GIS_ID":"HeritageTrailPt_94","GLOBALID":"{F633B430-362F-4BA4-AA29-BD387551972F}","CREATED":null,"EDITED":null,"OBJECTID":123}},{"type":"Feature","id":127,"geometry":{"type":"Point","coordinates":[-76.93352145253502,38.9029879515279]},"properties":{"NAME":"7","HARDWARE_TYPE":"0","SIGN_NUMBER":"7","URL":"https://www.culturaltourismdc.org/portal/dc-neighborhood-heritage-trails","LATITUDE":38.90298016,"LONGITUDE":-76.93351919,"XCOORD":405766.561,"YCOORD":137238.2231875,"GIS_ID":"HeritageTrailPt_98","GLOBALID":"{7B0A67A6-83CE-4BF1-BB54-B090BCD5F2C4}","CREATED":null,"EDITED":null,"OBJECTID":127}},{"type":"Feature","id":136,"geometry":{"type":"Point","coordinates":[-76.98891835799678,38.90032219068972]},"properties":{"NAME":"13","HARDWARE_TYPE":"0","SIGN_NUMBER":"13","URL":"https://www.culturaltourismdc.org/portal/dc-neighborhood-heritage-trails","LATITUDE":38.9003144,"LONGITUDE":-76.98891608,"XCOORD":400961.457875,"YCOORD":136940.2610625,"GIS_ID":"HeritageTrailPt_107","GLOBALID":"{3118C651-EF13-435B-818E-BB22A0EA0253}","CREATED":null,"EDITED":null,"OBJECTID":136}},{"type":"Feature","id":143,"geometry":{"type":"Point","coordinates":[-77.03086616596565,38.899916072341796]},"properties":{"NAME":"6","HARDWARE_TYPE":"0","SIGN_NUMBER":"3","URL":"https://www.culturaltourismdc.org/portal/dc-neighborhood-heritage-trails","LATITUDE":38.89990829,"LONGITUDE":-77.03086387,"XCOORD":397322.744875,"YCOORD":136895.573375,"GIS_ID":"HeritageTrailPt_114","GLOBALID":"{A02D05FE-A8A8-42D9-A005-EAC1AF81D434}","CREATED":null,"EDITED":null,"OBJECTID":143}},{"type":"Feature","id":153,"geometry":{"type":"Point","coordinates":[-76.9314168919901,38.898311215127535]},"properties":{"NAME":"7","HARDWARE_TYPE":"0","SIGN_NUMBER":"3","URL":"https://www.culturaltourismdc.org/portal/dc-neighborhood-heritage-trails","LATITUDE":38.89830343,"LONGITUDE":-76.93141463,"XCOORD":405949.5013125,"YCOORD":136719.2031875,"GIS_ID":"HeritageTrailPt_31","GLOBALID":"{5C012D2C-1E3D-4E12-857C-B1FD51AC11B5}","CREATED":null,"EDITED":null,"OBJECTID":153}},{"type":"Feature","id":162,"geometry":{"type":"Point","coordinates":[-77.00222823511108,38.897272616481125]},"properties":{"NAME":"13","HARDWARE_TYPE":"0","SIGN_NUMBER":"4","URL":"https://www.culturaltourismdc.org/portal/dc-neighborhood-heritage-trails","LATITUDE":38.89726483,"LONGITUDE":-77.00222595,"XCOORD":399806.9046875,"YCOORD":136601.677625,"GIS_ID":"HeritageTrailPt_40","GLOBALID":"{3522A845-82FE-467A-A0E3-C0DBA70DA94A}","CREATED":null,"EDITED":null,"OBJECTID":162}},{"type":"Feature","id":169,"geometry":{"type":"Point","coordinates":[-77.02212489862147,38.89593867331797]},"properties":{"NAME":"4","HARDWARE_TYPE":"0","SIGN_NUMBER":"2","URL":"https://www.culturaltourismdc.org/portal/dc-neighborhood-heritage-trails","LATITUDE":38.89593089,"LONGITUDE":-77.02212261,"XCOORD":398080.890125,"YCOORD":136453.829875,"GIS_ID":"HeritageTrailPt_47","GLOBALID":"{5B96D45A-C5B1-4AB0-B27A-AF227DBAC610}","CREATED":null,"EDITED":null,"OBJECTID":169}},{"type":"Feature","id":180,"geometry":{"type":"Point","coordinates":[-76.99383714892193,38.88257970530512]},"properties":{"NAME":"1","HARDWARE_TYPE":"0","SIGN_NUMBER":"3","URL":"https://www.culturaltourismdc.org/portal/dc-neighborhood-heritage-trails","LATITUDE":38.88257192,"LONGITUDE":-76.99383487,"XCOORD":400534.917875,"YCOORD":134970.665625,"GIS_ID":"HeritageTrailPt_58","GLOBALID":"{7217BB8F-0AAE-416B-8F09-C2CCB61A5EAC}","CREATED":null,"EDITED":null,"OBJECTID":180}},{"type":"Feature","id":189,"geometry":{"type":"Point","coordinates":[-77.0177154575673,38.88026667379785]},"properties":{"NAME":"11","HARDWARE_TYPE":"0","SIGN_NUMBER":"3","URL":"https://www.culturaltourismdc.org/portal/dc-neighborhood-heritage-trails","LATITUDE":38.88025889,"LONGITUDE":-77.01771317,"XCOORD":398463.066,"YCOORD":134714.0333125,"GIS_ID":"HeritageTrailPt_67","GLOBALID":"{122C1054-7025-41DE-8749-4D1CB3D310A9}","CREATED":null,"EDITED":null,"OBJECTID":189}},{"type":"Feature","id":198,"geometry":{"type":"Point","coordinates":[-77.01741905634734,38.87662745308906]},"properties":{"NAME":"11","HARDWARE_TYPE":"0","SIGN_NUMBER":"0","URL":"https://www.culturaltourismdc.org/portal/dc-neighborhood-heritage-trails","LATITUDE":38.87661967,"LONGITUDE":-77.01741677,"XCOORD":398488.707,"YCOORD":134310.046875,"GIS_ID":"HeritageTrailPt_76","GLOBALID":"{AA396789-FDF9-4986-989E-F82C08263EA2}","CREATED":null,"EDITED":null,"OBJECTID":198}},{"type":"Feature","id":4,"geometry":{"type":"Point","coordinates":[-77.0295616899363,38.967526489853526]},"properties":{"NAME":"2","HARDWARE_TYPE":"0","SIGN_NUMBER":"9","URL":"https://www.culturaltourismdc.org/portal/dc-neighborhood-heritage-trails","LATITUDE":38.96751869,"LONGITUDE":-77.02955939,"XCOORD":397438.330875,"YCOORD":144400.8786875,"GIS_ID":"HeritageTrailPt_127","GLOBALID":"{F777C788-0DF1-4D38-AFD5-100B0A7DEFE3}","CREATED":null,"EDITED":null,"OBJECTID":4}},{"type":"Feature","id":1,"geometry":{"type":"Point","coordinates":[-77.0270921928078,38.970686314839725]},"properties":{"NAME":"2","HARDWARE_TYPE":"0","SIGN_NUMBER":"12","URL":"https://www.culturaltourismdc.org/portal/dc-neighborhood-heritage-trails","LATITUDE":38.97067851,"LONGITUDE":-77.0270899,"XCOORD":397652.446,"YCOORD":144751.582875,"GIS_ID":"HeritageTrailPt_124","GLOBALID":"{8351E675-85C7-4B17-87BC-4796E25CF06A}","CREATED":null,"EDITED":null,"OBJECTID":1}},{"type":"Feature","id":2,"geometry":{"type":"Point","coordinates":[-77.02754322653722,38.96903327826729]},"properties":{"NAME":"2","HARDWARE_TYPE":"0","SIGN_NUMBER":"11","URL":"https://www.culturaltourismdc.org/portal/dc-neighborhood-heritage-trails","LATITUDE":38.96902548,"LONGITUDE":-77.02754093,"XCOORD":397613.305125,"YCOORD":144568.0915,"GIS_ID":"HeritageTrailPt_125","GLOBALID":"{3F7EF0FC-4435-4BF9-92E3-F22E49253DD5}","CREATED":null,"EDITED":null,"OBJECTID":2}},{"type":"Feature","id":3,"geometry":{"type":"Point","coordinates":[-77.02769559682683,38.96753076624529]},"properties":{"NAME":"2","HARDWARE_TYPE":"0","SIGN_NUMBER":"10","URL":"https://www.culturaltourismdc.org/portal/dc-neighborhood-heritage-trails","LATITUDE":38.96752297,"LONGITUDE":-77.0276933,"XCOORD":397600.050125,"YCOORD":144401.3025,"GIS_ID":"HeritageTrailPt_126","GLOBALID":"{D99917F2-FF02-4F80-95A9-689C1747DA81}","CREATED":null,"EDITED":null,"OBJECTID":3}},{"type":"Feature","id":5,"geometry":{"type":"Point","coordinates":[-77.03253682229877,38.966189893932025]},"properties":{"NAME":"2","HARDWARE_TYPE":"0","SIGN_NUMBER":"8","URL":"https://www.culturaltourismdc.org/portal/dc-neighborhood-heritage-trails","LATITUDE":38.96618209,"LONGITUDE":-77.03253452,"XCOORD":397180.448375,"YCOORD":144252.5918125,"GIS_ID":"HeritageTrailPt_128","GLOBALID":"{2BC04910-7524-4968-9F6D-1677EB906A99}","CREATED":null,"EDITED":null,"OBJECTID":5}},{"type":"Feature","id":6,"geometry":{"type":"Point","coordinates":[-77.03357914073419,38.965499585408146]},"properties":{"NAME":"2","HARDWARE_TYPE":"4","SIGN_NUMBER":"7","URL":"https://www.culturaltourismdc.org/portal/dc-neighborhood-heritage-trails","LATITUDE":38.96549179,"LONGITUDE":-77.03357684,"XCOORD":397090.088875,"YCOORD":144175.9943125,"GIS_ID":"HeritageTrailPt_129","GLOBALID":"{EBB8CB67-643C-445E-819F-68D8F990B384}","CREATED":null,"EDITED":null,"OBJECTID":6}},{"type":"Feature","id":7,"geometry":{"type":"Point","coordinates":[-77.02928239883138,38.96373970847163]},"properties":{"NAME":"2","HARDWARE_TYPE":"0","SIGN_NUMBER":"15","URL":"https://www.culturaltourismdc.org/portal/dc-neighborhood-heritage-trails","LATITUDE":38.96373191,"LONGITUDE":-77.0292801,"XCOORD":397462.400375,"YCOORD":143980.5033125,"GIS_ID":"HeritageTrailPt_130","GLOBALID":"{0BB5559F-A874-4763-883B-10C6E4F5C0CE}","CREATED":null,"EDITED":null,"OBJECTID":7}},{"type":"Feature","id":8,"geometry":{"type":"Point","coordinates":[-77.02792744288966,38.96364948000191]},"properties":{"NAME":"2","HARDWARE_TYPE":"0","SIGN_NUMBER":"14","URL":"https://www.culturaltourismdc.org/portal/dc-neighborhood-heritage-trails","LATITUDE":38.96364168,"LONGITUDE":-77.02792515,"XCOORD":397579.8261875,"YCOORD":143970.4496875,"GIS_ID":"HeritageTrailPt_131","GLOBALID":"{05AE0037-6203-49FA-852F-DE376AE74AD8}","CREATED":null,"EDITED":null,"OBJECTID":8}},{"type":"Feature","id":9,"geometry":{"type":"Point","coordinates":[-77.0296235774905,38.96350941663334]},"properties":{"NAME":"2","HARDWARE_TYPE":"0","SIGN_NUMBER":"16","URL":"https://www.culturaltourismdc.org/portal/dc-neighborhood-heritage-trails","LATITUDE":38.96350162,"LONGITUDE":-77.02962128,"XCOORD":397432.823125,"YCOORD":143954.947625,"GIS_ID":"HeritageTrailPt_132","GLOBALID":"{A8B1223A-624A-4A6B-BD38-066C222433F2}","CREATED":null,"EDITED":null,"OBJECTID":9}},{"type":"Feature","id":10,"geometry":{"type":"Point","coordinates":[-77.0335198936331,38.96335055795553]},"properties":{"NAME":"2","HARDWARE_TYPE":"0","SIGN_NUMBER":"6","URL":"https://www.culturaltourismdc.org/portal/dc-neighborhood-heritage-trails","LATITUDE":38.96334276,"LONGITUDE":-77.0335176,"XCOORD":397095.136,"YCOORD":143937.4295,"GIS_ID":"HeritageTrailPt_133","GLOBALID":"{CDE22F53-4E41-4A2C-A1B2-8C393646A6FB}","CREATED":null,"EDITED":null,"OBJECTID":10}},{"type":"Feature","id":11,"geometry":{"type":"Point","coordinates":[-77.02802674521577,38.96259852637424]},"properties":{"NAME":"2","HARDWARE_TYPE":"0","SIGN_NUMBER":"17","URL":"https://www.culturaltourismdc.org/portal/dc-neighborhood-heritage-trails","LATITUDE":38.96259073,"LONGITUDE":-77.02802445,"XCOORD":397571.183625,"YCOORD":143853.786875,"GIS_ID":"HeritageTrailPt_134","GLOBALID":"{68EED71C-2D10-4E1C-9507-DE56A615211B}","CREATED":null,"EDITED":null,"OBJECTID":11}},{"type":"Feature","id":12,"geometry":{"type":"Point","coordinates":[-77.03155267721785,38.96190772178736]},"properties":{"NAME":"2","HARDWARE_TYPE":"0","SIGN_NUMBER":"5","URL":"https://www.culturaltourismdc.org/portal/dc-neighborhood-heritage-trails","LATITUDE":38.96189992,"LONGITUDE":-77.03155038,"XCOORD":397265.5731875,"YCOORD":143777.2013125,"GIS_ID":"HeritageTrailPt_135","GLOBALID":"{F7F11CD5-D4AA-47F9-B72C-A00E925FDB91}","CREATED":null,"EDITED":null,"OBJECTID":12}},{"type":"Feature","id":14,"geometry":{"type":"Point","coordinates":[-77.02815142846474,38.96099238747297]},"properties":{"NAME":"2","HARDWARE_TYPE":"0","SIGN_NUMBER":"3","URL":"https://www.culturaltourismdc.org/portal/dc-neighborhood-heritage-trails","LATITUDE":38.96098459,"LONGITUDE":-77.02814913,"XCOORD":397560.3225,"YCOORD":143675.4941875,"GIS_ID":"HeritageTrailPt_137","GLOBALID":"{3A7A8B0E-A4F5-498D-B711-6AF3B03934F0}","CREATED":null,"EDITED":null,"OBJECTID":14}},{"type":"Feature","id":15,"geometry":{"type":"Point","coordinates":[-77.0282080621281,38.96013013940249]},"properties":{"NAME":"2","HARDWARE_TYPE":"0","SIGN_NUMBER":"2","URL":"https://www.culturaltourismdc.org/portal/dc-neighborhood-heritage-trails","LATITUDE":38.96012234,"LONGITUDE":-77.02820577,"XCOORD":397555.384625,"YCOORD":143579.778,"GIS_ID":"HeritageTrailPt_138","GLOBALID":"{F9B3FCF9-D8C6-4C3A-94BC-338965E0CA6E}","CREATED":null,"EDITED":null,"OBJECTID":15}},{"type":"Feature","id":16,"geometry":{"type":"Point","coordinates":[-77.02833834447463,38.958640565069324]},"properties":{"NAME":"2","HARDWARE_TYPE":"0","SIGN_NUMBER":"1","URL":"https://www.culturaltourismdc.org/portal/dc-neighborhood-heritage-trails","LATITUDE":38.95863277,"LONGITUDE":-77.02833605,"XCOORD":397544.042,"YCOORD":143414.425,"GIS_ID":"HeritageTrailPt_139","GLOBALID":"{8BD5336D-DD5F-4AB1-812B-5ABEFACD2828}","CREATED":null,"EDITED":null,"OBJECTID":16}},{"type":"Feature","id":17,"geometry":{"type":"Point","coordinates":[-77.03328701729158,38.95589883883593]},"properties":{"NAME":"2","HARDWARE_TYPE":"0","SIGN_NUMBER":"0","URL":"https://www.culturaltourismdc.org/portal/dc-neighborhood-heritage-trails","LATITUDE":38.95589104,"LONGITUDE":-77.03328472,"XCOORD":397115.0166875,"YCOORD":143110.2125,"GIS_ID":"HeritageTrailPt_140","GLOBALID":"{8AE24989-2BA0-4081-ACB9-F24AA049EA8A}","CREATED":null,"EDITED":null,"OBJECTID":17}},{"type":"Feature","id":18,"geometry":{"type":"Point","coordinates":[-77.0245153453747,38.936334583693174]},"properties":{"NAME":"12","HARDWARE_TYPE":"0","SIGN_NUMBER":"19","URL":"https://www.culturaltourismdc.org/portal/dc-neighborhood-heritage-trails","LATITUDE":38.93632679,"LONGITUDE":-77.02451305,"XCOORD":397874.7255625,"YCOORD":140938.1649375,"GIS_ID":"HeritageTrailPt_141","GLOBALID":"{DAC61FAB-F8B2-41DE-87A5-B0B477DDB2AE}","CREATED":null,"EDITED":null,"OBJECTID":18}},{"type":"Feature","id":19,"geometry":{"type":"Point","coordinates":[-77.03873887160871,38.93456989995801]},"properties":{"NAME":"9","HARDWARE_TYPE":"3","SIGN_NUMBER":"5","URL":"https://www.culturaltourismdc.org/portal/dc-neighborhood-heritage-trails","LATITUDE":38.93456211,"LONGITUDE":-77.03873657,"XCOORD":396641.468375,"YCOORD":140742.696875,"GIS_ID":"HeritageTrailPt_142","GLOBALID":"{A28AB020-9E46-48F4-900A-C3FD3FDD049A}","CREATED":null,"EDITED":null,"OBJECTID":19}},{"type":"Feature","id":20,"geometry":{"type":"Point","coordinates":[-77.03256747175976,38.93453218207353]},"properties":{"NAME":"3","HARDWARE_TYPE":"0","SIGN_NUMBER":"4","URL":"https://www.culturaltourismdc.org/portal/dc-neighborhood-heritage-trails","LATITUDE":38.93452439,"LONGITUDE":-77.03256518,"XCOORD":397176.5381875,"YCOORD":140738.301125,"GIS_ID":"HeritageTrailPt_143","GLOBALID":"{8F34DB1A-06C8-49A7-84E4-50A285F119F7}","CREATED":null,"EDITED":null,"OBJECTID":20}},{"type":"Feature","id":21,"geometry":{"type":"Point","coordinates":[-77.04121787805835,38.93427711987908]},"properties":{"NAME":"9","HARDWARE_TYPE":"0","SIGN_NUMBER":"6","URL":"https://www.culturaltourismdc.org/portal/dc-neighborhood-heritage-trails","LATITUDE":38.93426933,"LONGITUDE":-77.04121558,"XCOORD":396426.5186875,"YCOORD":140710.290375,"GIS_ID":"HeritageTrailPt_144","GLOBALID":"{145DA946-A6B6-4568-80E6-83E276EED6A8}","CREATED":null,"EDITED":null,"OBJECTID":21}},{"type":"Feature","id":23,"geometry":{"type":"Point","coordinates":[-77.04558962866288,38.93321656104059]},"properties":{"NAME":"9","HARDWARE_TYPE":"0","SIGN_NUMBER":"8","URL":"https://www.culturaltourismdc.org/portal/dc-neighborhood-heritage-trails","LATITUDE":38.93320877,"LONGITUDE":-77.04558733,"XCOORD":396047.420125,"YCOORD":140592.7393125,"GIS_ID":"HeritageTrailPt_146","GLOBALID":"{7D092EB8-A6E6-4DD3-8BA2-8ADD2C6DD1C4}","CREATED":null,"EDITED":null,"OBJECTID":23}},{"type":"Feature","id":24,"geometry":{"type":"Point","coordinates":[-77.03657711589834,38.933128474989225]},"properties":{"NAME":"9","HARDWARE_TYPE":"0","SIGN_NUMBER":"4","URL":"https://www.culturaltourismdc.org/portal/dc-neighborhood-heritage-trails","LATITUDE":38.93312068,"LONGITUDE":-77.03657482,"XCOORD":396828.831625,"YCOORD":140582.609375,"GIS_ID":"HeritageTrailPt_147","GLOBALID":"{EDFFB16D-2EB9-433C-A743-71288B9FD9B2}","CREATED":null,"EDITED":null,"OBJECTID":24}}]}
