{
  "type": "FeatureCollection",
  "features": [
    {
      "type": "Feature",
      "id": "us-cd:118:38:00",
      "properties": {
        "boundary_id": "us-cd:118:38:00",
        "boundary_type": "congressional_district",
        "name": "Congressional District (at Large)",
        "stateFips": "38",
        "congress": 118,
        "district": "00",
        "bbox": [
          -104.0489,
          45.937087,
          -96.554507,
          49.000562
        ]
      },
      "geometry": {
        "type": "Polygon",
        "coordinates": [
          [
            [
              -104.048678397744,
              48.8637810991792
            ],
            [
              -104.048736,
              48.999877
            ],
            [
              -97.228722,
              49.000562
            ],
            [
              -97.238387,
              48.982631
            ],
            [
              -97.238882,
              48.966573
            ],
            [
              -97.228001,
              48.96295
            ],
            [
              -97.234054,
              48.947611
            ],
            [
              -97.214374,
              48.931572
            ],
            [
              -97.219776,
              48.922039
            ],
            [
              -97.210541,
              48.90439
            ],
            [
              -97.189751,
              48.894482
            ],
            [
              -97.201718,
              48.891723
            ],
            [
              -97.199545,
              48.881346
            ],
            [
              -97.17779,
              48.875312
            ],
            [
              -97.190445,
              48.865292
            ],
            [
              -97.17942,
              48.863079
            ],
            [
              -97.173278,
              48.850282
            ],
            [
              -97.182923,
              48.846912
            ],
            [
              -97.173811,
              48.838309
            ],
            [
              -97.184457,
              48.833395
            ],
            [
              -97.17959,
              48.820131
            ],
            [
              -97.190313,
              48.815714
            ],
            [
              -97.15876,
              48.810931
            ],
            [
              -97.18123,
              48.79789
            ],
            [
              -97.162577,
              48.800116
            ],
            [
              -97.173556,
              48.793315
            ],
            [
              -97.147281,
              48.78114
            ],
            [
              -97.158971,
              48.775746
            ],
            [
              -97.145918,
              48.765603
            ],
            [
              -97.152997,
              48.752844
            ],
            [
              -97.138248,
              48.750235
            ],
            [
              -97.141244,
              48.735271
            ],
            [
              -97.12834,
              48.732136
            ],
            [
              -97.136868,
              48.726035
            ],
            [
              -97.109992,
              48.707776
            ],
            [
              -97.12007,
              48.701434
            ],
            [
              -97.090328,
              48.684512
            ],
            [
              -97.100408,
              48.683078
            ],
            [
              -97.100562,
              48.668406
            ],
            [
              -97.109255,
              48.664142
            ],
            [
              -97.098731,
              48.661284
            ],
            [
              -97.115714,
              48.64449
            ],
            [
              -97.109349,
              48.632637
            ],
            [
              -97.130781,
              48.632108
            ],
            [
              -97.120408,
              48.618017
            ],
            [
              -97.132857,
              48.622896
            ],
            [
              -97.130183,
              48.613399
            ],
            [
              -97.149798,
              48.612724
            ],
            [
              -97.134481,
              48.60785
            ],
            [
              -97.153979,
              48.595081
            ],
            [
              -97.142237,
              48.592595
            ],
            [
              -97.143654,
              48.582358
            ],
            [
              -97.160631,
              48.580936
            ],
            [
              -97.14917,
              48.570014
            ],
            [
              -97.175329,
              48.562461
            ],
            [
              -97.138345,
              48.554395
            ],
            [
              -97.166027,
              48.549185
            ],
            [
              -97.14097,
              48.534225
            ],
            [
              -97.154058,
              48.521926
            ],
            [
              -97.126864,
              48.519758
            ],
            [
              -97.149949,
              48.511986
            ],
            [
              -97.13224,
              48.488436
            ],
            [
              -97.143017,
              48.492334
            ],
            [
              -97.140291,
              48.484722
            ],
            [
              -97.162668,
              48.477783
            ],
            [
              -97.128115,
              48.473596
            ],
            [
              -97.146133,
              48.474052
            ],
            [
              -97.129331,
              48.454048
            ],
            [
              -97.150542,
              48.441203
            ],
            [
              -97.126572,
              48.443131
            ],
            [
              -97.126777,
              48.431804
            ],
            [
              -97.145751,
              48.43027
            ],
            [
              -97.122453,
              48.418276
            ],
            [
              -97.154845,
              48.417463
            ],
            [
              -97.139351,
              48.418031
            ],
            [
              -97.131479,
              48.406586
            ],
            [
              -97.16329,
              48.391987
            ],
            [
              -97.133377,
              48.382026
            ],
            [
              -97.139286,
              48.3704
            ],
            [
              -97.156276,
              48.366198
            ],
            [
              -97.136373,
              48.352393
            ],
            [
              -97.1396,
              48.344246
            ],
            [
              -97.12592,
              48.340579
            ],
            [
              -97.141715,
              48.325729
            ],
            [
              -97.115581,
              48.323928
            ],
            [
              -97.137984,
              48.310117
            ],
            [
              -97.123826,
              48.31093
            ],
            [
              -97.126176,
              48.303701
            ],
            [
              -97.112231,
              48.296472
            ],
            [
              -97.13809,
              48.290846
            ],
            [
              -97.125348,
              48.291855
            ],
            [
              -97.11657,
              48.279661
            ],
            [
              -97.145112,
              48.267743
            ],
            [
              -97.122954,
              48.261666
            ],
            [
              -97.130614,
              48.25889
            ],
            [
              -97.125108,
              48.249983
            ],
            [
              -97.146744,
              48.244484
            ],
            [
              -97.133735,
              48.239075
            ],
            [
              -97.144423,
              48.233187
            ],
            [
              -97.120749,
              48.225826
            ],
            [
              -97.151746,
              48.218932
            ],
            [
              -97.135056,
              48.220648
            ],
            [
              -97.117838,
              48.209764
            ],
            [
              -97.138953,
              48.217075
            ],
            [
              -97.129216,
              48.209605
            ],
            [
              -97.149766,
              48.185374
            ],
            [
              -97.135994,
              48.178897
            ],
            [
              -97.146331,
              48.168583
            ],
            [
              -97.14195,
              48.160202
            ],
            [
              -97.12102,
              48.159086
            ],
            [
              -97.146667,
              48.143203
            ],
            [
              -97.122326,
              48.138597
            ],
            [
              -97.133468,
              48.137101
            ],
            [
              -97.123205,
              48.106648
            ],
            [
              -97.102249,
              48.096694
            ],
            [
              -97.109857,
              48.091395
            ],
            [
              -97.099798,
              48.085884
            ],
            [
              -97.104483,
              48.072428
            ],
            [
              -97.072257,
              48.048068
            ],
            [
              -97.072239,
              48.019107
            ],
            [
              -97.053089,
              47.990252
            ],
            [
              -97.061854,
              47.96448
            ],
            [
              -97.052454,
              47.957179
            ],
            [
              -97.054554,
              47.946279
            ],
            [
              -97.017754,
              47.919778
            ],
            [
              -97.023156,
              47.873978
            ],
            [
              -97.002456,
              47.868677
            ],
            [
              -96.998295,
              47.841724
            ],
            [
              -96.974184,
              47.822978
            ],
            [
              -96.978894,
              47.809882
            ],
            [
              -96.991007,
              47.807672
            ],
            [
              -96.96712,
              47.799852
            ],
            [
              -96.957216,
              47.79097
            ],
            [
              -96.965316,
              47.783474
            ],
            [
              -96.935174,
              47.767466
            ],
            [
              -96.928804,
              47.755724
            ],
            [
              -96.939753,
              47.755292
            ],
            [
              -96.929051,
              47.750331
            ],
            [
              -96.932809,
              47.737139
            ],
            [
              -96.918556,
              47.723863
            ],
            [
              -96.930853,
              47.715387
            ],
            [
              -96.919868,
              47.716982
            ],
            [
              -96.911881,
              47.706745
            ],
            [
              -96.920546,
              47.699649
            ],
            [
              -96.912846,
              47.701746
            ],
            [
              -96.896724,
              47.674758
            ],
            [
              -96.885116,
              47.673808
            ],
            [
              -96.888573,
              47.63845
            ],
            [
              -96.874373,
              47.627824
            ],
            [
              -96.879421,
              47.619039
            ],
            [
              -96.857112,
              47.61076
            ],
            [
              -96.851051,
              47.59794
            ],
            [
              -96.858887,
              47.595103
            ],
            [
              -96.849896,
              47.590898
            ],
            [
              -96.859856,
              47.574144
            ],
            [
              -96.851698,
              47.568498
            ],
            [
              -96.868372,
              47.565768
            ],
            [
              -96.847499,
              47.566226
            ],
            [
              -96.861746,
              47.559496
            ],
            [
              -96.849886,
              47.552516
            ],
            [
              -96.860455,
              47.546515
            ],
            [
              -96.845383,
              47.539563
            ],
            [
              -96.863205,
              47.540589
            ],
            [
              -96.853755,
              47.535967
            ],
            [
              -96.871026,
              47.527867
            ],
            [
              -96.861422,
              47.515873
            ],
            [
              -96.843305,
              47.516582
            ],
            [
              -96.853606,
              47.511362
            ],
            [
              -96.84228,
              47.508636
            ],
            [
              -96.865068,
              47.491544
            ],
            [
              -96.852185,
              47.485846
            ],
            [
              -96.868415,
              47.47901
            ],
            [
              -96.851896,
              47.478696
            ],
            [
              -96.861002,
              47.472588
            ],
            [
              -96.853908,
              47.460403
            ],
            [
              -96.863552,
              47.457294
            ],
            [
              -96.854232,
              47.454406
            ],
            [
              -96.862598,
              47.435671
            ],
            [
              -96.852818,
              47.432282
            ],
            [
              -96.871663,
              47.419392
            ],
            [
              -96.842307,
              47.411883
            ],
            [
              -96.852739,
              47.405909
            ],
            [
              -96.837444,
              47.389274
            ],
            [
              -96.854622,
              47.37378
            ],
            [
              -96.837773,
              47.370808
            ],
            [
              -96.858211,
              47.367602
            ],
            [
              -96.838111,
              47.356032
            ],
            [
              -96.846639,
              47.347028
            ],
            [
              -96.830613,
              47.338643
            ],
            [
              -96.846009,
              47.328403
            ],
            [
              -96.8288,
              47.328138
            ],
            [
              -96.846976,
              47.315834
            ],
            [
              -96.830697,
              47.30542
            ],
            [
              -96.843922,
              47.29302
            ],
            [
              -96.840353,
              47.275496
            ],
            [
              -96.847517,
              47.271776
            ],
            [
              -96.834591,
              47.267012
            ],
            [
              -96.847315,
              47.262757
            ],
            [
              -96.836532,
              47.262901
            ],
            [
              -96.844049,
              47.25033
            ],
            [
              -96.832494,
              47.24797
            ],
            [
              -96.843721,
              47.239788
            ],
            [
              -96.828878,
              47.234248
            ],
            [
              -96.841176,
              47.233415
            ],
            [
              -96.832078,
              47.225936
            ],
            [
              -96.845634,
              47.221107
            ],
            [
              -96.833114,
              47.220833
            ],
            [
              -96.837178,
              47.207468
            ],
            [
              -96.82723,
              47.201672
            ],
            [
              -96.844711,
              47.192902
            ],
            [
              -96.821555,
              47.184314
            ],
            [
              -96.833383,
              47.176328
            ],
            [
              -96.82243,
              47.172723
            ],
            [
              -96.819964,
              47.163021
            ],
            [
              -96.831983,
              47.159503
            ],
            [
              -96.822706,
              47.156229
            ],
            [
              -96.841101,
              47.151401
            ],
            [
              -96.828648,
              47.146419
            ],
            [
              -96.83075,
              47.12968
            ],
            [
              -96.819972,
              47.130934
            ],
            [
              -96.837564,
              47.12198
            ],
            [
              -96.816823,
              47.10912
            ],
            [
              -96.817251,
              47.092088
            ],
            [
              -96.826292,
              47.088663
            ],
            [
              -96.815973,
              47.088466
            ],
            [
              -96.815712,
              47.079877
            ],
            [
              -96.829276,
              47.07462
            ],
            [
              -96.820971,
              47.074214
            ],
            [
              -96.819876,
              47.062347
            ],
            [
              -96.830386,
              47.060823
            ],
            [
              -96.817571,
              47.0516
            ],
            [
              -96.827459,
              47.045561
            ],
            [
              -96.818596,
              47.047554
            ],
            [
              -96.821488,
              47.035802
            ],
            [
              -96.812726,
              47.038271
            ],
            [
              -96.827327,
              47.031272
            ],
            [
              -96.81529,
              47.023871
            ],
            [
              -96.829499,
              47.021537
            ],
            [
              -96.839548,
              47.006728
            ],
            [
              -96.821344,
              47.003645
            ],
            [
              -96.821852,
              46.969372
            ],
            [
              -96.794993,
              46.965433
            ],
            [
              -96.804662,
              46.947468
            ],
            [
              -96.792656,
              46.946764
            ],
            [
              -96.791758,
              46.928465
            ],
            [
              -96.763257,
              46.935063
            ],
            [
              -96.756857,
              46.928463
            ],
            [
              -96.765257,
              46.927563
            ],
            [
              -96.753257,
              46.924563
            ],
            [
              -96.763257,
              46.923363
            ],
            [
              -96.75343,
              46.914665
            ],
            [
              -96.762494,
              46.918053
            ],
            [
              -96.776558,
              46.895663
            ],
            [
              -96.768458,
              46.879563
            ],
            [
              -96.781358,
              46.879363
            ],
            [
              -96.783959,
              46.861663
            ],
            [
              -96.776058,
              46.854463
            ],
            [
              -96.785459,
              46.854863
            ],
            [
              -96.773534,
              46.851688
            ],
            [
              -96.781659,
              46.845663
            ],
            [
              -96.775359,
              46.838863
            ],
            [
              -96.793925,
              46.833051
            ],
            [
              -96.780271,
              46.825763
            ],
            [
              -96.791559,
              46.827864
            ],
            [
              -96.802544,
              46.811521
            ],
            [
              -96.795756,
              46.807795
            ],
            [
              -96.801914,
              46.796965
            ],
            [
              -96.787568,
              46.786177
            ],
            [
              -96.796722,
              46.777464
            ],
            [
              -96.783793,
              46.778247
            ],
            [
              -96.788419,
              46.770342
            ],
            [
              -96.775686,
              46.766043
            ],
            [
              -96.789519,
              46.766024
            ],
            [
              -96.77785,
              46.761588
            ],
            [
              -96.789389,
              46.757501
            ],
            [
              -96.779252,
              46.727429
            ],
            [
              -96.791066,
              46.717798
            ],
            [
              -96.782121,
              46.716499
            ],
            [
              -96.791204,
              46.703747
            ],
            [
              -96.784339,
              46.685054
            ],
            [
              -96.801344,
              46.668514
            ],
            [
              -96.785878,
              46.640249
            ],
            [
              -96.797941,
              46.629113
            ],
            [
              -96.778416,
              46.627047
            ],
            [
              -96.787022,
              46.619205
            ],
            [
              -96.775532,
              46.621201
            ],
            [
              -96.77857,
              46.606702
            ],
            [
              -96.768724,
              46.606682
            ],
            [
              -96.770507,
              46.595485
            ],
            [
              -96.755398,
              46.594803
            ],
            [
              -96.762702,
              46.589543
            ],
            [
              -96.75189,
              46.58759
            ],
            [
              -96.75651,
              46.575055
            ],
            [
              -96.746863,
              46.575731
            ],
            [
              -96.752633,
              46.571186
            ],
            [
              -96.741887,
              46.56423
            ],
            [
              -96.75437,
              46.556712
            ],
            [
              -96.745887,
              46.555898
            ],
            [
              -96.740518,
              46.546052
            ],
            [
              -96.750229,
              46.543952
            ],
            [
              -96.738052,
              46.53458
            ],
            [
              -96.746102,
              46.534635
            ],
            [
              -96.733297,
              46.503878
            ],
            [
              -96.742343,
              46.500186
            ],
            [
              -96.733612,
              46.497224
            ],
            [
              -96.738092,
              46.477812
            ],
            [
              -96.714218,
              46.470991
            ],
            [
              -96.723055,
              46.468265
            ],
            [
              -96.713019,
              46.466348
            ],
            [
              -96.712962,
              46.450545
            ],
            [
              -96.721661,
              46.448252
            ],
            [
              -96.712255,
              46.4415
            ],
            [
              -96.721897,
              46.440077
            ],
            [
              -96.704603,
              46.438178
            ],
            [
              -96.704679,
              46.4182
            ],
            [
              -96.693465,
              46.422105
            ],
            [
              -96.700834,
              46.414448
            ],
            [
              -96.685134,
              46.413928
            ],
            [
              -96.689907,
              46.409494
            ],
            [
              -96.667588,
              46.391046
            ],
            [
              -96.666028,
              46.374566
            ],
            [
              -96.643756,
              46.362347
            ],
            [
              -96.645372,
              46.350847
            ],
            [
              -96.629287,
              46.354247
            ],
            [
              -96.599761,
              46.330386
            ],
            [
              -96.605997,
              46.326904
            ],
            [
              -96.596999,
              46.31759
            ],
            [
              -96.597802,
              46.297005
            ],
            [
              -96.605486,
              46.293249
            ],
            [
              -96.594849,
              46.286275
            ],
            [
              -96.600415,
              46.261852
            ],
            [
              -96.583857,
              46.250152
            ],
            [
              -96.598645,
              46.241626
            ],
            [
              -96.591025,
              46.208602
            ],
            [
              -96.583842,
              46.208375
            ],
            [
              -96.592682,
              46.175211
            ],
            [
              -96.579926,
              46.177229
            ],
            [
              -96.579453,
              46.147601
            ],
            [
              -96.560268,
              46.116614
            ],
            [
              -96.56692,
              46.11475
            ],
            [
              -96.554507,
              46.083978
            ],
            [
              -96.57794,
              46.026874
            ],
            [
              -96.562525,
              45.937087
            ],
            [
              -104.045443,
              45.94531
            ],
            [
              -104.041662,
              47.862282
            ],
            [
              -104.0489,
              48.847387
            ],
            [
              -104.048678397744,
              48.8637810991792
            ]
          ]
        ]
      }
    }
  ]
}
