{
  "type": "FeatureCollection",
  "features": [
    {
      "type": "Feature",
      "id": "us-cd:118:15:01",
      "properties": {
        "boundary_id": "us-cd:118:15:01",
        "boundary_type": "congressional_district",
        "name": "Congressional District 1",
        "stateFips": "15",
        "congress": 118,
        "district": "01",
        "bbox": [
          -158.09077634631038,
          21.25503885038633,
          -157.64893424866474,
          21.501555908982066
        ]
      },
      "geometry": {
        "type": "Polygon",
        "coordinates": [
          [
            [
              -158.09002634620137,
              21.32833285967718
            ],
            [
              -158.0518803394929,
              21.373663872172315
            ],
            [
              -158.0192213329423,
              21.390290877350523
            ],
            [
              -158.03143733670143,
              21.420130884392204
            ],
            [
              -158.02475733538301,
              21.42412788560032
            ],
            [
              -158.0285253386596,
              21.491456902249798
            ],
            [
              -157.96860132536128,
              21.48707090306898
            ],
            [
              -157.89624831001566,
              21.501555908982066
            ],
            [
              -157.87247230256204,
              21.439787894338544
            ],
            [
              -157.83843029429977,
              21.417793889932824
            ],
            [
              -157.83890829383515,
              21.40198288597641
            ],
            [
              -157.82405929033072,
              21.39512588473577
            ],
            [
              -157.8096602862448,
              21.36932587875832
            ],
            [
              -157.79060728187508,
              21.364038878040052
            ],
            [
              -157.78716128029828,
              21.341127872437205
            ],
            [
              -157.7168622640165,
              21.31712786865848
            ],
            [
              -157.67827725565698,
              21.320196870630443
            ],
            [
              -157.64893424866474,
              21.304711867684517
            ],
            [
              -157.68933025626177,
              21.26896985751172
            ],
            [
              -157.6959572578112,
              21.27165285797387
            ],
            [
              -157.69152125657592,
              21.26427585627312
            ],
            [
              -157.6987242580286,
              21.26067785515147
            ],
            [
              -157.71152526088312,
              21.26197785507611
            ],
            [
              -157.70947926098458,
              21.27746485900068
            ],
            [
              -157.71941626340984,
              21.284354860407863
            ],
            [
              -157.80620628139945,
              21.25503885038633
            ],
            [
              -157.88669330088666,
              21.30664186071268
            ],
            [
              -157.94718531403788,
              21.30376485808826
            ],
            [
              -157.94718531446,
              21.315500861010563
            ],
            [
              -157.96524931884784,
              21.327456863416575
            ],
            [
              -157.97831832129506,
              21.315924860131876
            ],
            [
              -158.0860124522841,
              21.295780370782833
            ],
            [
              -158.09077634631038,
              21.32681085927462
            ],
            [
              -158.09002634620137,
              21.32833285967718
            ]
          ]
        ]
      }
    },
    {
      "type": "Feature",
      "id": "us-cd:118:15:02",
      "properties": {
        "boundary_id": "us-cd:118:15:02",
        "boundary_type": "congressional_district",
        "name": "Congressional District 2",
        "stateFips": "15",
        "congress": 118,
        "district": "02",
        "bbox": [
          -178.334698,
          18.910356326630147,
          -154.80677756545956,
          28.402123
        ]
      },
      "geometry": {
        "type": "MultiPolygon",
        "coordinates": [
          [
            [
              [
                -156.06076384820983,
                19.73054452112737
              ],
              [
                -156.03826384497694,
                19.787237535887645
              ],
              [
                -155.97299683246115,
                19.84802455283739
              ],
              [
                -155.92210482153757,
                19.857165556499094
              ],
              [
                -155.92326582219562,
                19.870481559795547
              ],
              [
                -155.8882378158367,
                19.915232571930417
              ],
              [
                -155.89068481678086,
                19.928611575209338
              ],
              [
                -155.85289380966023,
                19.96837958617919
              ],
              [
                -155.83240080531175,
                19.97392258812109
              ],
              [
                -155.82308280488715,
                20.02762360181068
              ],
              [
                -155.8835348206137,
                20.10618561982617
              ],
              [
                -155.9043778279731,
                20.196111641766155
              ],
              [
                -155.8993828279187,
                20.230082650409674
              ],
              [
                -155.88258682503783,
                20.25682965757051
              ],
              [
                -155.83704381529793,
                20.267025661376895
              ],
              [
                -155.75719179679248,
                20.238751656480076
              ],
              [
                -155.731004790434,
                20.22002865250274
              ],
              [
                -155.7249227885276,
                20.201627648056903
              ],
              [
                -155.65165777123642,
                20.16535064095572
              ],
              [
                -155.6386107678067,
                20.14733763679406
              ],
              [
                -155.60780176071577,
                20.137982635282242
              ],
              [
                -155.5890727560084,
                20.11918163107477
              ],
              [
                -155.55611474902793,
                20.129216634479018
              ],
              [
                -155.43782772177678,
                20.092677628490783
              ],
              [
                -155.28028068473043,
                20.018983614192546
              ],
              [
                -155.20564366675163,
                19.969438603727614
              ],
              [
                -155.1414746510201,
                19.917279592319797
              ],
              [
                -155.08075563555687,
                19.847780576460227
              ],
              [
                -155.09263963707113,
                19.80932356650126
              ],
              [
                -155.0871226335005,
                19.728008546245942
              ],
              [
                -155.06078962762868,
                19.726340546507803
              ],
              [
                -155.0410626236193,
                19.738645550103744
              ],
              [
                -155.00352861524837,
                19.736325550489326
              ],
              [
                -154.97807760825967,
                19.688973539262875
              ],
              [
                -154.9808806074312,
                19.638268526471478
              ],
              [
                -154.9451755990482,
                19.621216523107435
              ],
              [
                -154.9471105990109,
                19.60485151895324
              ],
              [
                -154.90263858813992,
                19.568357510932657
              ],
              [
                -154.81486156762122,
                19.529318503364355
              ],
              [
                -154.80677756545956,
                19.516036500236375
              ],
              [
                -154.8352315702285,
                19.461672485883174
              ],
              [
                -154.8891945808661,
                19.41556947296467
              ],
              [
                -154.92859658899096,
                19.39483246677406
              ],
              [
                -154.97187759729164,
                19.349939454436083
              ],
              [
                -155.07122061814238,
                19.311652442340286
              ],
              [
                -155.1571016357765,
                19.265266428560075
              ],
              [
                -155.19193764319655,
                19.256117425388528
              ],
              [
                -155.2625366591758,
                19.271200427363695
              ],
              [
                -155.29324066573173,
                19.263896424755135
              ],
              [
                -155.35798367836153,
                19.20653040877075
              ],
              [
                -155.41469469022132,
                19.184742401881746
              ],
              [
                -155.45007869699177,
                19.149049392068058
              ],
              [
                -155.50999870959365,
                19.128998385532423
              ],
              [
                -155.55492671801227,
                19.077786371610436
              ],
              [
                -155.55389671687357,
                19.045519363592305
              ],
              [
                -155.59373272419822,
                18.995248350046076
              ],
              [
                -155.59919272463907,
                18.96839134321548
              ],
              [
                -155.61957472909046,
                18.96768334251912
              ],
              [
                -155.63811973227175,
                18.936241334214966
              ],
              [
                -155.68279774133794,
                18.910356326630147
              ],
              [
                -155.68398674227063,
                18.934188332532738
              ],
              [
                -155.72361775187025,
                18.966432339545666
              ],
              [
                -155.75919275997492,
                18.977254341326393
              ],
              [
                -155.80101577007588,
                19.010109348427896
              ],
              [
                -155.87959678796344,
                19.033529352224967
              ],
              [
                -155.88329678930546,
                19.052061356740857
              ],
              [
                -155.90678379525087,
                19.07988936305634
              ],
              [
                -155.9181877993205,
                19.13437037631993
              ],
              [
                -155.89928079737288,
                19.210275395714508
              ],
              [
                -155.88672679855722,
                19.345547429749377
              ],
              [
                -155.92777181089258,
                19.458807456902093
              ],
              [
                -155.9197648096221,
                19.475341461237882
              ],
              [
                -155.95042981668954,
                19.486643463241705
              ],
              [
                -155.9601708196679,
                19.514999470054033
              ],
              [
                -155.95586281924432,
                19.532621474564056
              ],
              [
                -155.97379182530096,
                19.60385449185519
              ],
              [
                -155.99130683011342,
                19.636151499444125
              ],
              [
                -156.0289868388089,
                19.650093501910167
              ],
              [
                -156.02684483912125,
                19.67619350848005
              ],
              [
                -156.06151384829806,
                19.728005520473467
              ],
              [
                -156.06076384820983,
                19.73054452112737
              ]
            ]
          ],
          [
            [
              [
                -156.69742302596168,
                20.9163637994985
              ],
              [
                -156.6657310218915,
                21.003788822315784
              ],
              [
                -156.6377860160338,
                21.013021825451897
              ],
              [
                -156.64109001710585,
                21.023272827921744
              ],
              [
                -156.58853900575738,
                21.030812831358844
              ],
              [
                -156.5834800042327,
                21.01859782844761
              ],
              [
                -156.5436789948682,
                21.001296825282378
              ],
              [
                -156.53569499256213,
                20.984961821423887
              ],
              [
                -156.5254099903688,
                20.987301822311544
              ],
              [
                -156.52516398954953,
                20.96425781654529
              ],
              [
                -156.479694977322,
                20.898070801291784
              ],
              [
                -156.4497749706841,
                20.89709980191917
              ],
              [
                -156.38370395671205,
                20.915978808569523
              ],
              [
                -156.3217679440462,
                20.94709481816684
              ],
              [
                -156.24028792566185,
                20.935896817714514
              ],
              [
                -156.166750907108,
                20.865641802204824
              ],
              [
                -156.13036189885756,
                20.85944780169312
              ],
              [
                -156.11609589463998,
                20.826626793865934
              ],
              [
                -156.0876678884034,
                20.82825279508521
              ],
              [
                -156.05690288091387,
                20.80707379064695
              ],
              [
                -156.00048286792708,
                20.791469788333472
              ],
              [
                -155.9789528623016,
                20.764606782200815
              ],
              [
                -155.9864058637988,
                20.759847780795436
              ],
              [
                -155.97905586204655,
                20.755917780017036
              ],
              [
                -155.98335586190655,
                20.721747771320143
              ],
              [
                -155.9985928644209,
                20.6949017641539
              ],
              [
                -156.02851487054022,
                20.679281759390506
              ],
              [
                -156.0466268736935,
                20.652590752184924
              ],
              [
                -156.11075288745383,
                20.639694747138705
              ],
              [
                -156.13903589301248,
                20.618118740930342
              ],
              [
                -156.19131690489016,
                20.62849874204903
              ],
              [
                -156.29961792733465,
                20.583078727594433
              ],
              [
                -156.37379894343022,
                20.574911723435168
              ],
              [
                -156.41230995217666,
                20.582896724332347
              ],
              [
                -156.4171509537056,
                20.597203727773447
              ],
              [
                -156.44070495912587,
                20.604280728869067
              ],
              [
                -156.43926095935726,
                20.621263733159648
              ],
              [
                -156.45372396305604,
                20.637025736688123
              ],
              [
                -156.4413649608438,
                20.652817740994987
              ],
              [
                -156.46126396932578,
                20.77846077187137
              ],
              [
                -156.49971397839764,
                20.796461775264184
              ],
              [
                -156.53767998605275,
                20.774582768685836
              ],
              [
                -156.60814400274435,
                20.809731775431448
              ],
              [
                -156.62293000597847,
                20.80897077480963
              ],
              [
                -156.68926502301753,
                20.88194379112572
              ],
              [
                -156.68512202277856,
                20.90221379631941
              ],
              [
                -156.69663391050074,
                20.915854324578337
              ],
              [
                -156.69742302596168,
                20.9163637994985
              ]
            ]
          ],
          [
            [
              [
                -156.70000601373087,
                20.527919702315245
              ],
              [
                -156.67746200965422,
                20.554970709723733
              ],
              [
                -156.57530998875032,
                20.60341072477968
              ],
              [
                -156.5536089836893,
                20.59472472323366
              ],
              [
                -156.5390329798772,
                20.576171719014585
              ],
              [
                -156.55404898190974,
                20.53687770875987
              ],
              [
                -156.53179097673083,
                20.528252707243055
              ],
              [
                -156.5452079791597,
                20.51202670280239
              ],
              [
                -156.55733798203337,
                20.518330704029797
              ],
              [
                -156.58389798754442,
                20.50800970068771
              ],
              [
                -156.61062399369948,
                20.51648570203703
              ],
              [
                -156.6402999998553,
                20.505003698314212
              ],
              [
                -156.64611000148722,
                20.515909700871127
              ],
              [
                -156.66631400544358,
                20.500908696541813
              ],
              [
                -156.7009910138463,
                20.524812701510815
              ],
              [
                -156.70000601373087,
                20.527919702315245
              ]
            ]
          ],
          [
            [
              [
                -157.06024710535917,
                20.90191978513043
              ],
              [
                -157.03547810060556,
                20.922414790989095
              ],
              [
                -157.00145709330138,
                20.927726793331654
              ],
              [
                -156.90039407062739,
                20.91489579313263
              ],
              [
                -156.8288210528923,
                20.855878780498404
              ],
              [
                -156.80591304670773,
                20.82166377262058
              ],
              [
                -156.80623904627808,
                20.806599768845537
              ],
              [
                -156.83687405148,
                20.76028075636938
              ],
              [
                -156.88475706149444,
                20.744687751065623
              ],
              [
                -156.89038906241137,
                20.735017748484687
              ],
              [
                -156.9633430783465,
                20.731922745561707
              ],
              [
                -156.9915270861433,
                20.779861756696754
              ],
              [
                -156.99183908777917,
                20.826598768357666
              ],
              [
                -157.01120209295811,
                20.85400477462648
              ],
              [
                -157.04967010196157,
                20.87019177752311
              ],
              [
                -157.0611331051722,
                20.89063078228487
              ],
              [
                -157.06024710535917,
                20.90191978513043
              ]
            ]
          ],
          [
            [
              [
                -157.3064771665474,
                21.108186829203593
              ],
              [
                -157.28844016392034,
                21.14682483940077
              ],
              [
                -157.25138015684377,
                21.17781184827053
              ],
              [
                -157.24765515668153,
                21.196762853118557
              ],
              [
                -157.26029116023938,
                21.219150858326095
              ],
              [
                -157.25410915905258,
                21.22414085976181
              ],
              [
                -157.2120871497246,
                21.221843860470955
              ],
              [
                -157.1868001435168,
                21.20332985661457
              ],
              [
                -157.15452313621498,
                21.19765785617882
              ],
              [
                -156.99821710114892,
                21.1791838562927
              ],
              [
                -156.98535609854522,
                21.185914858364534
              ],
              [
                -156.9823480986328,
                21.207793863929346
              ],
              [
                -156.9706180963118,
                21.215514866215386
              ],
              [
                -156.9439130889656,
                21.172944856367927
              ],
              [
                -156.90139407921626,
                21.161975854900902
              ],
              [
                -156.77016505074948,
                21.176215862395534
              ],
              [
                -156.73905904379066,
                21.173500862643856
              ],
              [
                -156.73573104258284,
                21.15953785924546
              ],
              [
                -156.7091110366757,
                21.158650859816074
              ],
              [
                -156.72289703871496,
                21.128945851965028
              ],
              [
                -156.77494904862024,
                21.08215983870146
              ],
              [
                -156.8745010693291,
                21.045473826555465
              ],
              [
                -157.066871113575,
                21.100497834545816
              ],
              [
                -157.24970615325998,
                21.08479782509099
              ],
              [
                -157.31075316726006,
                21.10162282743466
              ],
              [
                -157.3064771665474,
                21.108186829203593
              ]
            ]
          ],
          [
            [
              [
                -157.65983025190494,
                21.328563873293614
              ],
              [
                -157.65888625176515,
                21.330460873796266
              ],
              [
                -157.65657625130123,
                21.331676874171738
              ],
              [
                -157.65388825059236,
                21.328341873423824
              ],
              [
                -157.65408925055277,
                21.32598787283038
              ],
              [
                -157.65650325107993,
                21.3259068727348
              ],
              [
                -157.6595922517975,
                21.327013872914428
              ],
              [
                -157.65983025190494,
                21.328563873293614
              ]
            ]
          ],
          [
            [
              [
                -157.79087528447144,
                21.434672895642894
              ],
              [
                -157.7897442842358,
                21.43502389576611
              ],
              [
                -157.78882828407495,
                21.436140896073578
              ],
              [
                -157.7872182837099,
                21.43581789604383
              ],
              [
                -157.7867452835109,
                21.43317289539915
              ],
              [
                -157.78803928372196,
                21.431144894852583
              ],
              [
                -157.79043928426464,
                21.431585894886833
              ],
              [
                -157.79053328433812,
                21.433054895250198
              ],
              [
                -157.79087528447144,
                21.434672895642894
              ]
            ]
          ],
          [
            [
              [
                -158.2775603963589,
                21.576985915533044
              ],
              [
                -158.12282836270393,
                21.583508922154902
              ],
              [
                -158.0277583457625,
                21.689663951673214
              ],
              [
                -157.96738833327228,
                21.710422958794588
              ],
              [
                -157.93311232440632,
                21.67405695082397
              ],
              [
                -157.92818932258177,
                21.653798945928386
              ],
              [
                -157.91414731934702,
                21.649684945351943
              ],
              [
                -157.91937631963785,
                21.626265939342886
              ],
              [
                -157.87519630799397,
                21.573051927480655
              ],
              [
                -157.8769373078064,
                21.5573979235209
              ],
              [
                -157.8507383019634,
                21.55491092373433
              ],
              [
                -157.8368052980693,
                21.53192291844318
              ],
              [
                -157.8348342968044,
                21.508964912779675
              ],
              [
                -157.85263030038513,
                21.49996690997115
              ],
              [
                -157.84099529636666,
                21.45947890024421
              ],
              [
                -157.8165922908359,
                21.45463789980918
              ],
              [
                -157.8059052876056,
                21.430095894027165
              ],
              [
                -157.79229128457254,
                21.42884789414563
              ],
              [
                -157.7780492808339,
                21.411811890346502
              ],
              [
                -157.75750127714676,
                21.434730896709816
              ],
              [
                -157.77680728169167,
                21.443243898224303
              ],
              [
                -157.77275328129446,
                21.45693190176624
              ],
              [
                -157.7225112703431,
                21.45922090392154
              ],
              [
                -157.73567427273153,
                21.445237900018398
              ],
              [
                -157.74329427327368,
                21.41374189192215
              ],
              [
                -157.70589226386357,
                21.3802938847546
              ],
              [
                -157.70903526384006,
                21.360327879676262
              ],
              [
                -157.69380525951792,
                21.332895873311884
              ],
              [
                -157.6498303010692,
                21.310672234471387
              ],
              [
                -157.6871642576561,
                21.321553870691083
              ],
              [
                -157.7168622640165,
                21.31712786865848
              ],
              [
                -157.78076127871893,
                21.33622787141684
              ],
              [
                -157.79060728187508,
                21.364038878040052
              ],
              [
                -157.8096602862448,
                21.36932587875832
              ],
              [
                -157.82405929033072,
                21.39512588473577
              ],
              [
                -157.83890829383515,
                21.40198288597641
              ],
              [
                -157.83843029429977,
                21.417793889932824
              ],
              [
                -157.87247230256204,
                21.439787894338544
              ],
              [
                -157.8758283040751,
                21.46127089958741
              ],
              [
                -157.88721130665553,
                21.463563899798
              ],
              [
                -157.9012563111134,
                21.501522908814625
              ],
              [
                -157.96860132536128,
                21.48707090306898
              ],
              [
                -158.0285253386596,
                21.491456902249798
              ],
              [
                -158.02475733538301,
                21.42412788560032
              ],
              [
                -158.03143733670143,
                21.420130884392204
              ],
              [
                -158.0192213329423,
                21.390290877350523
              ],
              [
                -158.0518803394929,
                21.373663872172315
              ],
              [
                -158.08954034623062,
                21.33207686062423
              ],
              [
                -158.0860124522841,
                21.295780370782833
              ],
              [
                -158.10830334908863,
                21.297609851452552
              ],
              [
                -158.12051435260906,
                21.32104385689378
              ],
              [
                -158.11341135125642,
                21.326604858503313
              ],
              [
                -158.1230943533427,
                21.32570785797193
              ],
              [
                -158.14113235913095,
                21.376378870003297
              ],
              [
                -158.1792053684807,
                21.40429587573156
              ],
              [
                -158.18985637235582,
                21.446522885896496
              ],
              [
                -158.2311493827203,
                21.482680893565735
              ],
              [
                -158.2315363848115,
                21.537178907114725
              ],
              [
                -158.2815803971713,
                21.575158914948148
              ],
              [
                -158.2775603963589,
                21.576985915533044
              ]
            ]
          ],
          [
            [
              [
                -159.78794874315014,
                22.03009797698674
              ],
              [
                -159.78375174364348,
                22.064892985735536
              ],
              [
                -159.74525273660035,
                22.097503995150902
              ],
              [
                -159.72207873370175,
                22.150319009030017
              ],
              [
                -159.6583737207741,
                22.173130016912918
              ],
              [
                -159.58106370598833,
                22.22348403209459
              ],
              [
                -159.5490276990696,
                22.22488803356527
              ],
              [
                -159.51076168987453,
                22.203544029615337
              ],
              [
                -159.4984026873688,
                22.20816503119232
              ],
              [
                -159.5009296883628,
                22.219169033831147
              ],
              [
                -159.48794468595077,
                22.229508036847573
              ],
              [
                -159.42899967262693,
                22.217627035959744
              ],
              [
                -159.40247166744578,
                22.232599040596856
              ],
              [
                -159.3821766623928,
                22.216967037426713
              ],
              [
                -159.33996965284973,
                22.20851503679739
              ],
              [
                -159.312298645797,
                22.183078031447124
              ],
              [
                -159.30635664319234,
                22.150281023517277
              ],
              [
                -159.29328464010473,
                22.144337022494895
              ],
              [
                -159.29663863927505,
                22.1051030126478
              ],
              [
                -159.32160164275894,
                22.055818999566362
              ],
              [
                -159.33546264538967,
                22.046005996655904
              ],
              [
                -159.32988764077908,
                21.960172975575585
              ],
              [
                -159.35190064557037,
                21.96013697481034
              ],
              [
                -159.35746264629012,
                21.947703971539017
              ],
              [
                -159.34762264414292,
                21.947570971844122
              ],
              [
                -159.3467626435135,
                21.936363969097254
              ],
              [
                -159.37988965012374,
                21.92116996419611
              ],
              [
                -159.3872456510195,
                21.90330295951874
              ],
              [
                -159.44487366218496,
                21.868622948953675
              ],
              [
                -159.4882716722924,
                21.885682951682828
              ],
              [
                -159.55180768616236,
                21.887288949889125
              ],
              [
                -159.59442469608982,
                21.90417195259186
              ],
              [
                -159.60328469754006,
                21.892243949335313
              ],
              [
                -159.668720714194,
                21.95358096223286
              ],
              [
                -159.75941073492015,
                21.979505965480435
              ],
              [
                -159.78670774242522,
                22.018796974236878
              ],
              [
                -159.78794874315014,
                22.03009797698674
              ]
            ]
          ],
          [
            [
              [
                -160.1020188107584,
                22.018458963040423
              ],
              [
                -160.10017281078905,
                22.029007965708328
              ],
              [
                -160.08780580790204,
                22.02387296487991
              ],
              [
                -160.10261981081058,
                22.01654796254769
              ],
              [
                -160.1020188107584,
                22.018458963040423
              ]
            ]
          ],
          [
            [
              [
                -160.24518883474772,
                21.847200915757963
              ],
              [
                -160.22535283220083,
                21.889979926997036
              ],
              [
                -160.18700782533284,
                21.924877936954136
              ],
              [
                -160.12552781320923,
                21.953702946236554
              ],
              [
                -160.11174181184978,
                21.993597956563345
              ],
              [
                -160.0920148080645,
                22.005497960197534
              ],
              [
                -160.05303479908721,
                21.992275958314735
              ],
              [
                -160.0511337981473,
                21.97927195517343
              ],
              [
                -160.0686328014475,
                21.96725195158984
              ],
              [
                -160.08298280295696,
                21.927908941379243
              ],
              [
                -160.07484879985597,
                21.894788933498614
              ],
              [
                -160.15903981686742,
                21.865276923255102
              ],
              [
                -160.20354282299948,
                21.77915590047126
              ],
              [
                -160.23343382999155,
                21.792466902695256
              ],
              [
                -160.24650483476898,
                21.840721914115864
              ],
              [
                -160.24518883474772,
                21.847200915757963
              ]
            ]
          ],
          [
            [
              [
                -160.5449618914991,
                21.653389857476334
              ],
              [
                -160.5378208901925,
                21.65905185912009
              ],
              [
                -160.53697688962893,
                21.649638856838344
              ],
              [
                -160.54496189145607,
                21.65232885721578
              ],
              [
                -160.5449618914991,
                21.653389857476334
              ]
            ]
          ],
          [
            [
              [
                -161.9294982501789,
                23.062551151261893
              ],
              [
                -161.9155922469983,
                23.058345150780944
              ],
              [
                -161.92813524963313,
                23.05707014997278
              ],
              [
                -161.9294982501789,
                23.062551151261893
              ]
            ]
          ],
          [
            [
              [
                -166.164902,
                23.729804
              ],
              [
                -166.163932,
                23.72961
              ],
              [
                -166.163108,
                23.727349
              ],
              [
                -166.163751,
                23.726874
              ],
              [
                -166.164634,
                23.727036
              ],
              [
                -166.16558,
                23.72909
              ],
              [
                -166.164902,
                23.729804
              ]
            ]
          ],
          [
            [
              [
                -166.167069,
                23.734835
              ],
              [
                -166.166391,
                23.735549
              ],
              [
                -166.165421,
                23.735355
              ],
              [
                -166.164977,
                23.733303
              ],
              [
                -166.16562,
                23.732827
              ],
              [
                -166.166503,
                23.732989
              ],
              [
                -166.167069,
                23.734835
              ]
            ]
          ],
          [
            [
              [
                -166.171986,
                23.643397
              ],
              [
                -166.171328,
                23.644102
              ],
              [
                -166.170062,
                23.643953
              ],
              [
                -166.169657,
                23.643266
              ],
              [
                -166.17018,
                23.642416
              ],
              [
                -166.171491,
                23.642607
              ],
              [
                -166.171986,
                23.643397
              ]
            ]
          ],
          [
            [
              [
                -166.210718,
                23.787715
              ],
              [
                -166.20918,
                23.788229
              ],
              [
                -166.207463,
                23.786816
              ],
              [
                -166.20803,
                23.785782
              ],
              [
                -166.210551,
                23.78651
              ],
              [
                -166.210718,
                23.787715
              ]
            ]
          ],
          [
            [
              [
                -166.223662,
                23.862043
              ],
              [
                -166.222507,
                23.86221
              ],
              [
                -166.221462,
                23.861417
              ],
              [
                -166.221729,
                23.860591
              ],
              [
                -166.222758,
                23.860498
              ],
              [
                -166.223783,
                23.861244
              ],
              [
                -166.223662,
                23.862043
              ]
            ]
          ],
          [
            [
              [
                -166.289249,
                23.869154
              ],
              [
                -166.279933,
                23.87151
              ],
              [
                -166.289364,
                23.867875
              ],
              [
                -166.289249,
                23.869154
              ]
            ]
          ],
          [
            [
              [
                -168.002069,
                24.999967
              ],
              [
                -167.99556,
                25.001871
              ],
              [
                -168.000984,
                24.997373
              ],
              [
                -168.002069,
                24.999967
              ]
            ]
          ],
          [
            [
              [
                -171.7452,
                25.7709
              ],
              [
                -171.73506,
                25.781772
              ],
              [
                -171.725554,
                25.779315
              ],
              [
                -171.733093,
                25.757305
              ],
              [
                -171.745809,
                25.760138
              ],
              [
                -171.7452,
                25.7709
              ]
            ]
          ],
          [
            [
              [
                -173.972954,
                26.079864
              ],
              [
                -173.964157,
                26.062327
              ],
              [
                -173.976077,
                26.078607
              ],
              [
                -173.972954,
                26.079864
              ]
            ]
          ],
          [
            [
              [
                -175.739556,
                27.924376
              ],
              [
                -175.738163,
                27.926965
              ],
              [
                -175.736884,
                27.927052
              ],
              [
                -175.736292,
                27.925927
              ],
              [
                -175.737701,
                27.923558
              ],
              [
                -175.739122,
                27.923505
              ],
              [
                -175.739556,
                27.924376
              ]
            ]
          ],
          [
            [
              [
                -175.82115,
                27.790701
              ],
              [
                -175.814511,
                27.789968
              ],
              [
                -175.821109,
                27.789378
              ],
              [
                -175.82115,
                27.790701
              ]
            ]
          ],
          [
            [
              [
                -175.909221,
                27.774096
              ],
              [
                -175.906272,
                27.774158
              ],
              [
                -175.905927,
                27.773373
              ],
              [
                -175.906175,
                27.772829
              ],
              [
                -175.909038,
                27.772443
              ],
              [
                -175.909699,
                27.773063
              ],
              [
                -175.909221,
                27.774096
              ]
            ]
          ],
          [
            [
              [
                -175.947623,
                27.764634
              ],
              [
                -175.943587,
                27.765933
              ],
              [
                -175.941872,
                27.763924
              ],
              [
                -175.942552,
                27.762429
              ],
              [
                -175.947546,
                27.763481
              ],
              [
                -175.947623,
                27.764634
              ]
            ]
          ],
          [
            [
              [
                -178.333034,
                28.394464
              ],
              [
                -178.297975,
                28.391614
              ],
              [
                -178.288927,
                28.402123
              ],
              [
                -178.288113,
                28.392374
              ],
              [
                -178.334698,
                28.389446
              ],
              [
                -178.333034,
                28.394464
              ]
            ]
          ]
        ]
      }
    }
  ]
}
