{
  "type": "FeatureCollection",
  "features": [
    {
      "type": "Feature",
      "id": "us-county:33:001",
      "properties": {
        "boundary_id": "us-county:33:001",
        "boundary_type": "county",
        "name": "Belknap County",
        "stateFips": "33",
        "countyFips": "001",
        "bbox": [
          -71.7314929999886,
          43.28499400008297,
          -71.15936400042038,
          43.76097900014938
        ]
      },
      "geometry": {
        "type": "Polygon",
        "coordinates": [
          [
            [
              -71.43988999975318,
              43.695557999937705
            ],
            [
              -71.53165800037196,
              43.76097900014938
            ],
            [
              -71.52138899993139,
              43.69780099969646
            ],
            [
              -71.64834599999749,
              43.68451100010634
            ],
            [
              -71.65707399985695,
              43.63083799985846
            ],
            [
              -71.65115299990175,
              43.62111899988875
            ],
            [
              -71.68687500034984,
              43.59526299992964
            ],
            [
              -71.70863500017325,
              43.60116800001991
            ],
            [
              -71.72812100019483,
              43.5949039997222
            ],
            [
              -71.7314929999886,
              43.58849600015159
            ],
            [
              -71.7157150002198,
              43.57789799982827
            ],
            [
              -71.72906600002594,
              43.560845999707105
            ],
            [
              -71.68794400002955,
              43.52861400027251
            ],
            [
              -71.69134599996056,
              43.51584200008041
            ],
            [
              -71.67729299999755,
              43.50049100011864
            ],
            [
              -71.65335100043389,
              43.487574999715164
            ],
            [
              -71.6380459995948,
              43.491755999932586
            ],
            [
              -71.61242600008099,
              43.437893000296064
            ],
            [
              -71.60009600027395,
              43.43497099982997
            ],
            [
              -71.55543500007919,
              43.45496699996166
            ],
            [
              -71.23601100032307,
              43.28499400008297
            ],
            [
              -71.15936400042038,
              43.35512299976621
            ],
            [
              -71.19079899958417,
              43.5150329997192
            ],
            [
              -71.16267500011482,
              43.53895899984052
            ],
            [
              -71.19946500041767,
              43.55913000027511
            ],
            [
              -71.20894099956647,
              43.550516999770934
            ],
            [
              -71.25847300030333,
              43.57144400011203
            ],
            [
              -71.43818199966582,
              43.69436799985029
            ],
            [
              -71.43988999975318,
              43.695557999937705
            ]
          ]
        ]
      }
    },
    {
      "type": "Feature",
      "id": "us-county:33:003",
      "properties": {
        "boundary_id": "us-county:33:003",
        "boundary_type": "county",
        "name": "Carroll County",
        "stateFips": "33",
        "countyFips": "003",
        "bbox": [
          -71.56460300015469,
          43.48291300025484,
          -70.95063199999154,
          44.284899000223845
        ]
      },
      "geometry": {
        "type": "Polygon",
        "coordinates": [
          [
            [
              -71.42650700015999,
              44.2109030001976
            ],
            [
              -71.41317100042247,
              44.167462000295664
            ],
            [
              -71.38713799955846,
              44.15520100024843
            ],
            [
              -71.37651800038694,
              44.11887000026403
            ],
            [
              -71.38163000005515,
              44.09787400018126
            ],
            [
              -71.36635500025159,
              44.0685240000459
            ],
            [
              -71.34665599979468,
              44.06882200031488
            ],
            [
              -71.3836129996038,
              44.02261100029046
            ],
            [
              -71.36196499993342,
              43.915937999904095
            ],
            [
              -71.56460300015469,
              43.89317199974027
            ],
            [
              -71.53165800037196,
              43.76097900014938
            ],
            [
              -71.25847300030333,
              43.57144400011203
            ],
            [
              -71.20894099956647,
              43.550516999770934
            ],
            [
              -71.19946500041767,
              43.55913000027511
            ],
            [
              -71.16267500011482,
              43.53895899984052
            ],
            [
              -71.12780799998446,
              43.57278699968813
            ],
            [
              -71.11149600028826,
              43.50670899994025
            ],
            [
              -71.0894769999988,
              43.5126909996968
            ],
            [
              -71.08483800015861,
              43.50668599983504
            ],
            [
              -71.06756499983946,
              43.52723999992978
            ],
            [
              -71.03793099975114,
              43.529826000153726
            ],
            [
              -71.02424400038434,
              43.48291300025484
            ],
            [
              -70.95063199999154,
              43.55131299981352
            ],
            [
              -70.97277400030465,
              43.57051200022883
            ],
            [
              -71.00997600033618,
              44.284899000223845
            ],
            [
              -71.04438499980881,
              44.28377799994006
            ],
            [
              -71.04228000006141,
              44.23751400027353
            ],
            [
              -71.25195700032137,
              44.24426599989469
            ],
            [
              -71.30603599993862,
              44.13727200016985
            ],
            [
              -71.31175799970218,
              44.09175600024886
            ],
            [
              -71.33588199973903,
              44.0857519997211
            ],
            [
              -71.35648199964614,
              44.16583600010069
            ],
            [
              -71.3842389995927,
              44.17884399971458
            ],
            [
              -71.39487399973116,
              44.214678999992216
            ],
            [
              -71.42543900030522,
              44.211024999684035
            ],
            [
              -71.42650700015999,
              44.2109030001976
            ]
          ]
        ]
      }
    },
    {
      "type": "Feature",
      "id": "us-county:33:005",
      "properties": {
        "boundary_id": "us-county:33:005",
        "boundary_type": "county",
        "name": "Cheshire County",
        "stateFips": "33",
        "countyFips": "005",
        "bbox": [
          -72.55707799992963,
          42.71210200023902,
          -71.92899299970409,
          43.18196800013495
        ]
      },
      "geometry": {
        "type": "Polygon",
        "coordinates": [
          [
            [
              -72.06124599956142,
              42.965806000039684
            ],
            [
              -72.0340829998167,
              43.12874600000675
            ],
            [
              -72.17849700032497,
              43.13186599973675
            ],
            [
              -72.15666100033361,
              43.18196800013495
            ],
            [
              -72.33213900028491,
              43.162841999805856
            ],
            [
              -72.33032599971725,
              43.15516599984265
            ],
            [
              -72.37642399983774,
              43.157730000075
            ],
            [
              -72.37204500028854,
              43.13211800007294
            ],
            [
              -72.4316320003074,
              43.13563500012263
            ],
            [
              -72.43209000006681,
              43.1598199998699
            ],
            [
              -72.45225099958277,
              43.161353999745415
            ],
            [
              -72.45722199968397,
              43.14649899993539
            ],
            [
              -72.43267000002494,
              43.119812000289194
            ],
            [
              -72.44321399992681,
              43.102760000089674
            ],
            [
              -72.43398200027718,
              43.08445000001665
            ],
            [
              -72.46785699982243,
              43.052513999861354
            ],
            [
              -72.4626229999555,
              43.02578800008746
            ],
            [
              -72.44325900013266,
              43.007576999822696
            ],
            [
              -72.46251599982538,
              42.997445000141795
            ],
            [
              -72.46169999986569,
              42.982870999990965
            ],
            [
              -72.47371699967826,
              42.97212400026734
            ],
            [
              -72.53380800038563,
              42.952584999908744
            ],
            [
              -72.52449899984478,
              42.91514800003743
            ],
            [
              -72.53337999986515,
              42.89531200030388
            ],
            [
              -72.55262200038754,
              42.88504300001401
            ],
            [
              -72.55707799992963,
              42.85286300029007
            ],
            [
              -72.54151299969786,
              42.80709400000258
            ],
            [
              -72.5087369999695,
              42.77952199987482
            ],
            [
              -72.5154660003868,
              42.765629000070504
            ],
            [
              -72.49054700030663,
              42.772746999671895
            ],
            [
              -72.45841199973748,
              42.72693300027202
            ],
            [
              -71.92899299970409,
              42.71210200023902
            ],
            [
              -71.94428299957627,
              42.78840999995756
            ],
            [
              -71.97471000005808,
              42.7894020002702
            ],
            [
              -72.00619000032601,
              42.94378899973549
            ],
            [
              -72.062222000253,
              42.9447959997577
            ],
            [
              -72.06131500005671,
              42.964410999733595
            ],
            [
              -72.06124599956142,
              42.965806000039684
            ]
          ]
        ]
      }
    },
    {
      "type": "Feature",
      "id": "us-county:33:007",
      "properties": {
        "boundary_id": "us-county:33:007",
        "boundary_type": "county",
        "name": "Coos County",
        "stateFips": "33",
        "countyFips": "007",
        "bbox": [
          -71.76568399990136,
          44.0857519997211,
          -71.00997600033618,
          45.30569800025932
        ]
      },
      "geometry": {
        "type": "Polygon",
        "coordinates": [
          [
            [
              -71.24322799973866,
              44.243748999685685
            ],
            [
              -71.04228000006141,
              44.23751400027353
            ],
            [
              -71.04438499980881,
              44.28377799994006
            ],
            [
              -71.00997600033618,
              44.284899000223845
            ],
            [
              -71.03839000023376,
              44.76698200027908
            ],
            [
              -71.08471900033292,
              45.30569800025932
            ],
            [
              -71.10527999988197,
              45.29487499971958
            ],
            [
              -71.12411700034845,
              45.25513799972917
            ],
            [
              -71.14756000014481,
              45.2394349996876
            ],
            [
              -71.16233100015823,
              45.25034600016592
            ],
            [
              -71.18010099969652,
              45.23993700021573
            ],
            [
              -71.19642900018457,
              45.25405200015178
            ],
            [
              -71.23061400024953,
              45.24941700000294
            ],
            [
              -71.25939200019518,
              45.27203300021887
            ],
            [
              -71.2649480002774,
              45.293791999913125
            ],
            [
              -71.2842240002367,
              45.302358999964035
            ],
            [
              -71.33641200036678,
              45.272741999701594
            ],
            [
              -71.36027799976247,
              45.270331999799446
            ],
            [
              -71.35653900044586,
              45.2538969999335
            ],
            [
              -71.38413700038377,
              45.233509000115156
            ],
            [
              -71.40214499957344,
              45.242598000061456
            ],
            [
              -71.42105099963689,
              45.23220300000198
            ],
            [
              -71.44281800003127,
              45.23829199995303
            ],
            [
              -71.39734199970172,
              45.203517999764884
            ],
            [
              -71.4376040002558,
              45.14187599984991
            ],
            [
              -71.42838500012665,
              45.123672000290064
            ],
            [
              -71.44878699966704,
              45.11256699972044
            ],
            [
              -71.46787799967842,
              45.08365099975365
            ],
            [
              -71.49804200039448,
              45.07018700025216
            ],
            [
              -71.50644999968848,
              45.04848200016434
            ],
            [
              -71.49095399995198,
              45.043167000095394
            ],
            [
              -71.50108199992725,
              45.01334700017625
            ],
            [
              -71.46506499992637,
              45.012917999891435
            ],
            [
              -71.48828099994202,
              45.00073900020509
            ],
            [
              -71.50878399976474,
              45.00784400003129
            ],
            [
              -71.54151600001047,
              44.98476800000649
            ],
            [
              -71.51795500021332,
              44.96765499989088
            ],
            [
              -71.52370899976394,
              44.96427700024597
            ],
            [
              -71.5163209997458,
              44.964477999731216
            ],
            [
              -71.51479000010875,
              44.94369499987899
            ],
            [
              -71.52283799955265,
              44.93991500009581
            ],
            [
              -71.49490999990189,
              44.90429900001666
            ],
            [
              -71.54945100037479,
              44.86208400011812
            ],
            [
              -71.5511140002563,
              44.83696500030335
            ],
            [
              -71.57686500018968,
              44.81519699994443
            ],
            [
              -71.56838400020241,
              44.80704000004349
            ],
            [
              -71.57281700017828,
              44.79087099982585
            ],
            [
              -71.63211399976893,
              44.75161800030577
            ],
            [
              -71.62609300025461,
              44.728543000153905
            ],
            [
              -71.61710699975397,
              44.72871199971942
            ],
            [
              -71.59386099960108,
              44.69641499994482
            ],
            [
              -71.59661499980191,
              44.67808799990612
            ],
            [
              -71.58146300002198,
              44.673204000243224
            ],
            [
              -71.5873649997106,
              44.65971500016538
            ],
            [
              -71.5628060003789,
              44.65235599973037
            ],
            [
              -71.56372100007277,
              44.637247000148975
            ],
            [
              -71.54681900037272,
              44.629756000217974
            ],
            [
              -71.557019000318,
              44.629485999864855
            ],
            [
              -71.54633700032385,
              44.622955000075606
            ],
            [
              -71.55512700010762,
              44.62524400011239
            ],
            [
              -71.55363099973236,
              44.60613199997727
            ],
            [
              -71.5621309999862,
              44.601180999769724
            ],
            [
              -71.53493899992915,
              44.587700000142874
            ],
            [
              -71.54578800032786,
              44.57793399989558
            ],
            [
              -71.55236500040917,
              44.584392999991174
            ],
            [
              -71.54772599967067,
              44.571380999708275
            ],
            [
              -71.55971700044232,
              44.56397500024505
            ],
            [
              -71.59696799997931,
              44.55947100018657
            ],
            [
              -71.57186700032427,
              44.53791900018371
            ],
            [
              -71.59411400021939,
              44.52155399987722
            ],
            [
              -71.57702400019832,
              44.50206099986164
            ],
            [
              -71.58813299998971,
              44.506585000167014
            ],
            [
              -71.59860099972362,
              44.48682499980245
            ],
            [
              -71.61784300024604,
              44.485841000014396
            ],
            [
              -71.6262050004076,
              44.474466000141426
            ],
            [
              -71.63450499974658,
              44.47562500007325
            ],
            [
              -71.62466300000159,
              44.48174400025244
            ],
            [
              -71.6327819995906,
              44.48379600017395
            ],
            [
              -71.64683700010177,
              44.47320200029861
            ],
            [
              -71.63898600030136,
              44.464410999938295
            ],
            [
              -71.65421699972399,
              44.458823000081175
            ],
            [
              -71.66088300039208,
              44.43993699968091
            ],
            [
              -71.70258000032374,
              44.413542000301724
            ],
            [
              -71.7354129999535,
              44.410004999881274
            ],
            [
              -71.74372599971127,
              44.401026999869124
            ],
            [
              -71.76568399990136,
              44.40629500031819
            ],
            [
              -71.69688500032434,
              44.33211799985009
            ],
            [
              -71.68692100038064,
              44.3365809997559
            ],
            [
              -71.58700400003558,
              44.30475899980457
            ],
            [
              -71.57581900007621,
              44.254596000296345
            ],
            [
              -71.4697060003147,
              44.25993600010035
            ],
            [
              -71.44333799971494,
              44.2491719997481
            ],
            [
              -71.4158979999608,
              44.21216899978885
            ],
            [
              -71.39487399973116,
              44.214678999992216
            ],
            [
              -71.3842389995927,
              44.17884399971458
            ],
            [
              -71.35648199964614,
              44.16583600010069
            ],
            [
              -71.33588199973903,
              44.0857519997211
            ],
            [
              -71.31175799970218,
              44.09175600024886
            ],
            [
              -71.30603599993862,
              44.13727200016985
            ],
            [
              -71.25195700032137,
              44.24426599989469
            ],
            [
              -71.24392999989557,
              44.243792999976186
            ],
            [
              -71.24322799973866,
              44.243748999685685
            ]
          ]
        ]
      }
    },
    {
      "type": "Feature",
      "id": "us-county:33:009",
      "properties": {
        "boundary_id": "us-county:33:009",
        "boundary_type": "county",
        "name": "Grafton County",
        "stateFips": "33",
        "countyFips": "009",
        "bbox": [
          -72.33514799985554,
          43.528857000093616,
          -71.34665599979468,
          44.4063510002711
        ]
      },
      "geometry": {
        "type": "Polygon",
        "coordinates": [
          [
            [
              -71.86459899961555,
              43.59806299975458
            ],
            [
              -71.84920300033647,
              43.61120000006002
            ],
            [
              -71.81792100043525,
              43.54420800018269
            ],
            [
              -71.79785600028043,
              43.5593819998664
            ],
            [
              -71.78254999961642,
              43.56058000016979
            ],
            [
              -71.77749999987249,
              43.55250100028988
            ],
            [
              -71.76101999994681,
              43.56772900005878
            ],
            [
              -71.7261059999608,
              43.56418000025494
            ],
            [
              -71.7157150002198,
              43.57823399979538
            ],
            [
              -71.73123400042084,
              43.58814499981722
            ],
            [
              -71.72812100019483,
              43.5949039997222
            ],
            [
              -71.70863500017325,
              43.60116800001991
            ],
            [
              -71.68687500034984,
              43.59526299992964
            ],
            [
              -71.65115299990175,
              43.62111899988875
            ],
            [
              -71.65707399985695,
              43.63083799985846
            ],
            [
              -71.64834599999749,
              43.68451100010634
            ],
            [
              -71.52138899993139,
              43.69780099969646
            ],
            [
              -71.56460300015469,
              43.89317199974027
            ],
            [
              -71.36196499993342,
              43.915937999904095
            ],
            [
              -71.3836129996038,
              44.02261100029046
            ],
            [
              -71.34665599979468,
              44.06882200031488
            ],
            [
              -71.36635500025159,
              44.0685240000459
            ],
            [
              -71.38163000005515,
              44.09787400018126
            ],
            [
              -71.37651800038694,
              44.11887000026403
            ],
            [
              -71.38713799955846,
              44.15520100024843
            ],
            [
              -71.41317100042247,
              44.167462000295664
            ],
            [
              -71.42650700015999,
              44.2109030001976
            ],
            [
              -71.4158979999608,
              44.21216899978885
            ],
            [
              -71.44333799971494,
              44.2491719997481
            ],
            [
              -71.4697060003147,
              44.25993600010035
            ],
            [
              -71.50583999959312,
              44.25555699985684
            ],
            [
              -71.50741200013637,
              44.262896999794386
            ],
            [
              -71.57581900007621,
              44.254596000296345
            ],
            [
              -71.58700400003558,
              44.30475899980457
            ],
            [
              -71.68692100038064,
              44.3365809997559
            ],
            [
              -71.69688500032434,
              44.33211799985009
            ],
            [
              -71.765734999955,
              44.4063510002711
            ],
            [
              -71.79367500019966,
              44.39946099989257
            ],
            [
              -71.80057199994812,
              44.38402799987244
            ],
            [
              -71.81442700044272,
              44.38192200026372
            ],
            [
              -71.81584599992676,
              44.3540059999298
            ],
            [
              -71.87158800032383,
              44.33667999998026
            ],
            [
              -71.90842399975915,
              44.34841400023131
            ],
            [
              -71.93525000011829,
              44.33575699993767
            ],
            [
              -71.98218699976469,
              44.337167999727576
            ],
            [
              -72.03280200042492,
              44.32048999992246
            ],
            [
              -72.03287799969459,
              44.30216499969774
            ],
            [
              -72.06438899992467,
              44.27932299971928
            ],
            [
              -72.06841699984457,
              44.270502999950445
            ],
            [
              -72.05833099970212,
              44.27008300026785
            ],
            [
              -72.04766399977662,
              44.23895600023932
            ],
            [
              -72.0661580001114,
              44.19012799996984
            ],
            [
              -72.03899700001651,
              44.156796000020485
            ],
            [
              -72.04195700008167,
              44.13699800007659
            ],
            [
              -72.03326000018431,
              44.131680000275715
            ],
            [
              -72.05536999981207,
              44.110760000281736
            ],
            [
              -72.04787999968669,
              44.096585999724205
            ],
            [
              -72.03130600004967,
              44.10043000014077
            ],
            [
              -72.0452839996696,
              44.087308000041645
            ],
            [
              -72.03184099980196,
              44.078541999858174
            ],
            [
              -72.05251699987706,
              44.076641999680795
            ],
            [
              -72.04856500012511,
              44.06923399993104
            ],
            [
              -72.06809600035253,
              44.057377999777124
            ],
            [
              -72.06190099986263,
              44.04959600031652
            ],
            [
              -72.07831999968894,
              44.04337800009167
            ],
            [
              -72.08266899999923,
              44.021803000216615
            ],
            [
              -72.09542599960352,
              44.0217569997036
            ],
            [
              -72.09052700037064,
              44.009923999748516
            ],
            [
              -72.1055269998146,
              44.01279199978801
            ],
            [
              -72.10412300039917,
              44.00237100022618
            ],
            [
              -72.11698700013359,
              43.994207000052576
            ],
            [
              -72.11460700002658,
              43.96871000000277
            ],
            [
              -72.0909399999242,
              43.9657800002582
            ],
            [
              -72.11834500041657,
              43.94653199978632
            ],
            [
              -72.12045099998889,
              43.91955500027287
            ],
            [
              -72.17210299964344,
              43.884985999994356
            ],
            [
              -72.16790700039236,
              43.86910899978716
            ],
            [
              -72.18461599974857,
              43.86414300005301
            ],
            [
              -72.18405099985905,
              43.80640399980529
            ],
            [
              -72.20553600022113,
              43.78458400021106
            ],
            [
              -72.20522999989939,
              43.770930000204125
            ],
            [
              -72.23417799972435,
              43.74596499981265
            ],
            [
              -72.27110500029457,
              43.733918000023365
            ],
            [
              -72.29970099976705,
              43.70610899973839
            ],
            [
              -72.30314899972882,
              43.66861900000844
            ],
            [
              -72.33514799985554,
              43.61615899982968
            ],
            [
              -72.32989899991999,
              43.60021399995864
            ],
            [
              -72.20831299998818,
              43.58520700006151
            ],
            [
              -72.10641200026957,
              43.55348499987359
            ],
            [
              -72.12017599962927,
              43.53830199984799
            ],
            [
              -72.09089300006855,
              43.528857000093616
            ],
            [
              -72.06951599966149,
              43.55317199982515
            ],
            [
              -72.0671649998668,
              43.54397099996293
            ],
            [
              -71.93531000039275,
              43.52888000021623
            ],
            [
              -71.86523100035053,
              43.5975250002334
            ],
            [
              -71.86459899961555,
              43.59806299975458
            ]
          ]
        ]
      }
    },
    {
      "type": "Feature",
      "id": "us-county:33:011",
      "properties": {
        "boundary_id": "us-county:33:011",
        "boundary_type": "county",
        "name": "Hillsborough County",
        "stateFips": "33",
        "countyFips": "011",
        "bbox": [
          -72.062222000253,
          42.697041999738616,
          -71.24548099962408,
          43.20709900011946
        ]
      },
      "geometry": {
        "type": "Polygon",
        "coordinates": [
          [
            [
              -72.03684500041345,
              43.18247099978759
            ],
            [
              -72.02347799981547,
              43.16012500001224
            ],
            [
              -72.03814900026977,
              43.128806999702306
            ],
            [
              -72.05794900011071,
              43.01892199987932
            ],
            [
              -72.062222000253,
              42.9447959997577
            ],
            [
              -72.00619000032601,
              42.94378899973549
            ],
            [
              -71.97471000005808,
              42.7894020002702
            ],
            [
              -71.94428299957627,
              42.78840999995756
            ],
            [
              -71.92899299970409,
              42.71210200023902
            ],
            [
              -71.294636999719,
              42.697041999738616
            ],
            [
              -71.24548099962408,
              42.742514000066336
            ],
            [
              -71.2600900001541,
              42.755733999749935
            ],
            [
              -71.35103500024218,
              42.77218300024301
            ],
            [
              -71.3529580004147,
              42.78316099967755
            ],
            [
              -71.36452400014058,
              42.78535100029044
            ],
            [
              -71.36067899962045,
              42.79896200008544
            ],
            [
              -71.38720000038107,
              42.823559000229295
            ],
            [
              -71.42706700002663,
              42.824839999700956
            ],
            [
              -71.45115400025358,
              42.930900000184025
            ],
            [
              -71.37543499956524,
              42.939317999782865
            ],
            [
              -71.39238800021725,
              43.0093089998576
            ],
            [
              -71.44996199965193,
              43.020068999755374
            ],
            [
              -71.45478299996532,
              43.04399999985031
            ],
            [
              -71.47398100010682,
              43.035273999705836
            ],
            [
              -71.48910899959728,
              43.05177900032377
            ],
            [
              -71.51276700037714,
              43.0496150003151
            ],
            [
              -71.51746700031669,
              43.068909000193756
            ],
            [
              -71.6412910000653,
              43.05416799969036
            ],
            [
              -71.66777099991971,
              43.152534000128384
            ],
            [
              -71.85610000008494,
              43.11513500016365
            ],
            [
              -71.91321499993529,
              43.20709900011946
            ],
            [
              -72.03311000039649,
              43.18319899971323
            ],
            [
              -72.03684500041345,
              43.18247099978759
            ]
          ]
        ]
      }
    },
    {
      "type": "Feature",
      "id": "us-county:33:013",
      "properties": {
        "boundary_id": "us-county:33:013",
        "boundary_type": "county",
        "name": "Merrimack County",
        "stateFips": "33",
        "countyFips": "013",
        "bbox": [
          -72.09014599970584,
          43.0093089998576,
          -71.23601100032307,
          43.61120000006002
        ]
      },
      "geometry": {
        "type": "Polygon",
        "coordinates": [
          [
            [
              -71.4714539996867,
              43.411297999954186
            ],
            [
              -71.556470000322,
              43.45527500003076
            ],
            [
              -71.60009600027395,
              43.43497099982997
            ],
            [
              -71.61283799980963,
              43.43812999968127
            ],
            [
              -71.6380459995948,
              43.491755999932586
            ],
            [
              -71.65335100043389,
              43.487574999715164
            ],
            [
              -71.67729299999755,
              43.50049100011864
            ],
            [
              -71.69134599996056,
              43.51584200008041
            ],
            [
              -71.68794400002955,
              43.52861400027251
            ],
            [
              -71.7082529996835,
              43.53904199970295
            ],
            [
              -71.73089799996187,
              43.56790400023966
            ],
            [
              -71.76101999994681,
              43.56772900005878
            ],
            [
              -71.77749999987249,
              43.55250100028988
            ],
            [
              -71.78254999961642,
              43.56058000016979
            ],
            [
              -71.79785600028043,
              43.5593819998664
            ],
            [
              -71.81792100043525,
              43.54420800018269
            ],
            [
              -71.84920300033647,
              43.61120000006002
            ],
            [
              -71.92836800043844,
              43.53677699980522
            ],
            [
              -72.01136300009361,
              43.43687099969107
            ],
            [
              -72.05375200013638,
              43.44109700029591
            ],
            [
              -72.05030400017462,
              43.378278000253765
            ],
            [
              -72.09014599970584,
              43.322553000153896
            ],
            [
              -72.06544199971083,
              43.25508000023355
            ],
            [
              -72.0452839996696,
              43.254766999942944
            ],
            [
              -72.041545000353,
              43.222724000152596
            ],
            [
              -72.00907400022318,
              43.18788200029355
            ],
            [
              -71.91321499993529,
              43.20709900011946
            ],
            [
              -71.85610000008494,
              43.11513500016365
            ],
            [
              -71.66777099991971,
              43.152534000128384
            ],
            [
              -71.6412910000653,
              43.05416799969036
            ],
            [
              -71.51746700031669,
              43.068909000193756
            ],
            [
              -71.51276700037714,
              43.0496150003151
            ],
            [
              -71.48910899959728,
              43.05177900032377
            ],
            [
              -71.47398100010682,
              43.035273999705836
            ],
            [
              -71.45478299996532,
              43.04399999985031
            ],
            [
              -71.44996199965193,
              43.020068999755374
            ],
            [
              -71.39238800021725,
              43.0093089998576
            ],
            [
              -71.40296200025635,
              43.04105400014271
            ],
            [
              -71.39223500005637,
              43.03928499984938
            ],
            [
              -71.23601100032307,
              43.28499400008297
            ],
            [
              -71.46958900013882,
              43.41030100032456
            ],
            [
              -71.4714539996867,
              43.411297999954186
            ]
          ]
        ]
      }
    },
    {
      "type": "Feature",
      "id": "us-county:33:015",
      "properties": {
        "boundary_id": "us-county:33:015",
        "boundary_type": "county",
        "name": "Rockingham County",
        "stateFips": "33",
        "countyFips": "015",
        "bbox": [
          -71.45115400025358,
          42.73734100016633,
          -70.5750940002927,
          43.27523200023227
        ]
      },
      "geometry": {
        "type": "Polygon",
        "coordinates": [
          [
            [
              -70.99746999990374,
              42.86444200005894
            ],
            [
              -70.91463099988418,
              42.886647999970165
            ],
            [
              -70.88560199986836,
              42.88283399989744
            ],
            [
              -70.84771799977145,
              42.860866999724095
            ],
            [
              -70.82023799983433,
              42.871786999801124
            ],
            [
              -70.73500500036238,
              42.87468500021481
            ],
            [
              -70.7260239998846,
              42.92852399987909
            ],
            [
              -70.69439499965375,
              42.9567539999842
            ],
            [
              -70.68093300041784,
              42.936873999895774
            ],
            [
              -70.65510899979122,
              42.9220989998882
            ],
            [
              -70.61065900038197,
              42.91252900016829
            ],
            [
              -70.5750940002927,
              42.91712599993515
            ],
            [
              -70.61115200030146,
              42.97899000013694
            ],
            [
              -70.63071399959273,
              42.98528599991779
            ],
            [
              -70.70119699986597,
              43.045240000071075
            ],
            [
              -70.7063100002574,
              43.075338999831914
            ],
            [
              -70.756170000159,
              43.08007299992007
            ],
            [
              -70.82001899955121,
              43.12254499993711
            ],
            [
              -70.86245000032511,
              43.12435899976582
            ],
            [
              -70.86231300005777,
              43.08953900017667
            ],
            [
              -70.87543600025826,
              43.08042200004115
            ],
            [
              -70.93375200003277,
              43.09015699969672
            ],
            [
              -71.07293599997375,
              43.08168099967366
            ],
            [
              -71.02668600041564,
              43.13794700012499
            ],
            [
              -71.24733600002452,
              43.27523200023227
            ],
            [
              -71.39223500005637,
              43.03928499984938
            ],
            [
              -71.40296200025635,
              43.04105400014271
            ],
            [
              -71.37543499956524,
              42.939317999782865
            ],
            [
              -71.45115400025358,
              42.930900000184025
            ],
            [
              -71.42706700002663,
              42.824839999700956
            ],
            [
              -71.38720000038107,
              42.823559000229295
            ],
            [
              -71.36067899962045,
              42.79896200008544
            ],
            [
              -71.36452400014058,
              42.78535100029044
            ],
            [
              -71.3529580004147,
              42.78316099967755
            ],
            [
              -71.35103500024218,
              42.77218300024301
            ],
            [
              -71.2600900001541,
              42.755733999749935
            ],
            [
              -71.24548099962408,
              42.742514000066336
            ],
            [
              -71.18178600021767,
              42.73734100016633
            ],
            [
              -71.18613999965251,
              42.79093500010305
            ],
            [
              -71.16664699995823,
              42.808881000230166
            ],
            [
              -71.13280500002493,
              42.8214759998798
            ],
            [
              -71.06441599962844,
              42.80627499979891
            ],
            [
              -71.0449199995611,
              42.8486669999432
            ],
            [
              -70.99950400040433,
              42.86413499990109
            ],
            [
              -70.99746999990374,
              42.86444200005894
            ]
          ]
        ]
      }
    },
    {
      "type": "Feature",
      "id": "us-county:33:017",
      "properties": {
        "boundary_id": "us-county:33:017",
        "boundary_type": "county",
        "name": "Strafford County",
        "stateFips": "33",
        "countyFips": "017",
        "bbox": [
          -71.24733600002452,
          43.08042200004115,
          -70.80951599965722,
          43.57278699968813
        ]
      },
      "geometry": {
        "type": "Polygon",
        "coordinates": [
          [
            [
              -70.83887299973613,
              43.24449300016003
            ],
            [
              -70.84282700003617,
              43.25422499979249
            ],
            [
              -70.88334099958703,
              43.273230000143144
            ],
            [
              -70.88361500012174,
              43.28343799976437
            ],
            [
              -70.90656400017372,
              43.29203599996985
            ],
            [
              -70.8963409997639,
              43.29855099977818
            ],
            [
              -70.93084200019635,
              43.33627799968306
            ],
            [
              -70.9562330002796,
              43.33411100023212
            ],
            [
              -70.9781000002331,
              43.358379999845845
            ],
            [
              -70.98708699966033,
              43.41307500022995
            ],
            [
              -70.96087299994471,
              43.438892000116645
            ],
            [
              -70.96111599961895,
              43.46918800031713
            ],
            [
              -70.97603999979324,
              43.47842799988767
            ],
            [
              -70.95454000026086,
              43.50970800020105
            ],
            [
              -70.96194099979948,
              43.54092699988833
            ],
            [
              -71.02424400038434,
              43.48291300025484
            ],
            [
              -71.03793099975114,
              43.529826000153726
            ],
            [
              -71.06756499983946,
              43.52723999992978
            ],
            [
              -71.08483800015861,
              43.50668599983504
            ],
            [
              -71.0894769999988,
              43.5126909996968
            ],
            [
              -71.11149600028826,
              43.50670899994025
            ],
            [
              -71.12780799998446,
              43.57278699968813
            ],
            [
              -71.19079899958417,
              43.5150329997192
            ],
            [
              -71.15936400042038,
              43.35512299976621
            ],
            [
              -71.24733600002452,
              43.27523200023227
            ],
            [
              -71.02668600041564,
              43.13794700012499
            ],
            [
              -71.07293599997375,
              43.08168099967366
            ],
            [
              -70.93375200003277,
              43.09015699969672
            ],
            [
              -70.87543600025826,
              43.08042200004115
            ],
            [
              -70.86402199997003,
              43.087082000125505
            ],
            [
              -70.86245000032511,
              43.12435899976582
            ],
            [
              -70.82001899955121,
              43.12254499993711
            ],
            [
              -70.83353400028719,
              43.14781100012135
            ],
            [
              -70.82356899962022,
              43.1742390000186
            ],
            [
              -70.82825500021441,
              43.187788999851485
            ],
            [
              -70.80951599965722,
              43.225165000107765
            ],
            [
              -70.81782599994025,
              43.23815600031212
            ],
            [
              -70.83886000021563,
              43.24445399993801
            ],
            [
              -70.83887299973613,
              43.24449300016003
            ]
          ]
        ]
      }
    },
    {
      "type": "Feature",
      "id": "us-county:33:019",
      "properties": {
        "boundary_id": "us-county:33:019",
        "boundary_type": "county",
        "name": "Sullivan County",
        "stateFips": "33",
        "countyFips": "019",
        "bbox": [
          -72.45291900030276,
          43.128806999702306,
          -71.93531000039275,
          43.60021399995864
        ]
      },
      "geometry": {
        "type": "Polygon",
        "coordinates": [
          [
            [
              -72.17118799994955,
              43.573985000256336
            ],
            [
              -72.32989899991999,
              43.60021399995864
            ],
            [
              -72.38000999989175,
              43.573884999712455
            ],
            [
              -72.38069699998002,
              43.54035500028504
            ],
            [
              -72.39887099974936,
              43.512653000281766
            ],
            [
              -72.38106299967791,
              43.4940369998392
            ],
            [
              -72.38147500030487,
              43.480029999853684
            ],
            [
              -72.39256900002765,
              43.4668839999829
            ],
            [
              -72.40350899976464,
              43.39158300026663
            ],
            [
              -72.41602199986977,
              43.37716399977818
            ],
            [
              -72.41264900025108,
              43.362279000188245
            ],
            [
              -72.38986800042859,
              43.35657200003193
            ],
            [
              -72.41055899967398,
              43.33112099994842
            ],
            [
              -72.39531499983256,
              43.31269599972285
            ],
            [
              -72.41603699993838,
              43.27023100022736
            ],
            [
              -72.43713999981074,
              43.25605599995486
            ],
            [
              -72.43822399955903,
              43.20291800027882
            ],
            [
              -72.45048599959401,
              43.192663999975366
            ],
            [
              -72.44385400015942,
              43.180411000185984
            ],
            [
              -72.45291900030276,
              43.1721980002338
            ],
            [
              -72.45225099958277,
              43.161353999745415
            ],
            [
              -72.43209000006681,
              43.1598199998699
            ],
            [
              -72.4316320003074,
              43.13563500012263
            ],
            [
              -72.37204500028854,
              43.13211800007294
            ],
            [
              -72.37642399983774,
              43.157730000075
            ],
            [
              -72.33032599971725,
              43.15516599984265
            ],
            [
              -72.33213900028491,
              43.162841999805856
            ],
            [
              -72.15666100033361,
              43.18196800013495
            ],
            [
              -72.17849700032497,
              43.13186599973675
            ],
            [
              -72.03814900026977,
              43.128806999702306
            ],
            [
              -72.02347799981547,
              43.16012500001224
            ],
            [
              -72.03684500041345,
              43.18247099978759
            ],
            [
              -72.00907400022318,
              43.18788200029355
            ],
            [
              -72.041545000353,
              43.222724000152596
            ],
            [
              -72.0452839996696,
              43.254766999942944
            ],
            [
              -72.06544199971083,
              43.25508000023355
            ],
            [
              -72.09014599970584,
              43.322553000153896
            ],
            [
              -72.05030400017462,
              43.378278000253765
            ],
            [
              -72.05375200013638,
              43.44109700029591
            ],
            [
              -72.01136300009361,
              43.43687099969107
            ],
            [
              -71.93531000039275,
              43.52888000021623
            ],
            [
              -72.0671649998668,
              43.54397099996293
            ],
            [
              -72.06951599966149,
              43.55317199982515
            ],
            [
              -72.09089300006855,
              43.528857000093616
            ],
            [
              -72.12017599962927,
              43.53830199984799
            ],
            [
              -72.10641200026957,
              43.55348499987359
            ],
            [
              -72.17074500025876,
              43.573846999800615
            ],
            [
              -72.17118799994955,
              43.573985000256336
            ]
          ]
        ]
      }
    },
    {
      "type": "Feature",
      "id": "us-state:33",
      "properties": {
        "boundary_id": "us-state:33",
        "boundary_type": "state",
        "name": "New Hampshire",
        "stateFips": "33",
        "bbox": [
          -72.55707799992963,
          42.697041999738616,
          -70.5750940002927,
          45.305483999973255
        ]
      },
      "geometry": {
        "type": "Polygon",
        "coordinates": [
          [
            [
              -70.83887299973613,
              43.24449300016003
            ],
            [
              -70.84282700003617,
              43.25422499979249
            ],
            [
              -70.88334099958703,
              43.273230000143144
            ],
            [
              -70.88361500012174,
              43.28343799976437
            ],
            [
              -70.90656400017372,
              43.29203599996985
            ],
            [
              -70.8963409997639,
              43.29855099977818
            ],
            [
              -70.93117799975703,
              43.33654499988285
            ],
            [
              -70.95585199961478,
              43.33399699968549
            ],
            [
              -70.97304899976595,
              43.34881299975149
            ],
            [
              -70.98788099987873,
              43.38993499970597
            ],
            [
              -70.9868430001612,
              43.41378399998749
            ],
            [
              -70.96097900024992,
              43.438389000179924
            ],
            [
              -70.96111599961895,
              43.46918800031713
            ],
            [
              -70.97603999979324,
              43.47842799988767
            ],
            [
              -70.95466099973636,
              43.50930299996599
            ],
            [
              -70.96380200004772,
              43.53937099993218
            ],
            [
              -70.95350400019313,
              43.54060300006902
            ],
            [
              -70.95063199999154,
              43.55131299981352
            ],
            [
              -70.97277400030465,
              43.57051200022883
            ],
            [
              -71.03352399971453,
              44.69763699976558
            ],
            [
              -71.08392799958928,
              45.305483999973255
            ],
            [
              -71.10527999988197,
              45.29487499971958
            ],
            [
              -71.12411700034845,
              45.25513799972917
            ],
            [
              -71.14756000014481,
              45.2394349996876
            ],
            [
              -71.16233100015823,
              45.25034600016592
            ],
            [
              -71.18010099969652,
              45.23993700021573
            ],
            [
              -71.19642900018457,
              45.25405200015178
            ],
            [
              -71.23061400024953,
              45.24941700000294
            ],
            [
              -71.25939200019518,
              45.27203300021887
            ],
            [
              -71.2649480002774,
              45.293791999913125
            ],
            [
              -71.2842240002367,
              45.302358999964035
            ],
            [
              -71.33641200036678,
              45.272741999701594
            ],
            [
              -71.36027799976247,
              45.270331999799446
            ],
            [
              -71.35653900044586,
              45.2538969999335
            ],
            [
              -71.38413700038377,
              45.233509000115156
            ],
            [
              -71.40214499957344,
              45.242598000061456
            ],
            [
              -71.42105099963689,
              45.23220300000198
            ],
            [
              -71.44281800003127,
              45.23829199995303
            ],
            [
              -71.39734199970172,
              45.203517999764884
            ],
            [
              -71.4376040002558,
              45.14187599984991
            ],
            [
              -71.42838500012665,
              45.123672000290064
            ],
            [
              -71.44878699966704,
              45.11256699972044
            ],
            [
              -71.46787799967842,
              45.08365099975365
            ],
            [
              -71.49804200039448,
              45.07018700025216
            ],
            [
              -71.50644999968848,
              45.04848200016434
            ],
            [
              -71.49095399995198,
              45.043167000095394
            ],
            [
              -71.50108199992725,
              45.01334700017625
            ],
            [
              -71.46506499992637,
              45.012917999891435
            ],
            [
              -71.48828099994202,
              45.00073900020509
            ],
            [
              -71.50878399976474,
              45.00784400003129
            ],
            [
              -71.54151600001047,
              44.98476800000649
            ],
            [
              -71.51795500021332,
              44.96765499989088
            ],
            [
              -71.52370899976394,
              44.96427700024597
            ],
            [
              -71.5163209997458,
              44.964477999731216
            ],
            [
              -71.51479000010875,
              44.94369499987899
            ],
            [
              -71.52283799955265,
              44.93991500009581
            ],
            [
              -71.49490999990189,
              44.90429900001666
            ],
            [
              -71.54945100037479,
              44.86208400011812
            ],
            [
              -71.5511140002563,
              44.83696500030335
            ],
            [
              -71.57686500018968,
              44.81519699994443
            ],
            [
              -71.56838400020241,
              44.80704000004349
            ],
            [
              -71.57281700017828,
              44.79087099982585
            ],
            [
              -71.6320200000576,
              44.752058999887964
            ],
            [
              -71.62609300025461,
              44.728543000153905
            ],
            [
              -71.61710699975397,
              44.72871199971942
            ],
            [
              -71.59386099960108,
              44.69641499994482
            ],
            [
              -71.59661499980191,
              44.67808799990612
            ],
            [
              -71.58146300002198,
              44.673204000243224
            ],
            [
              -71.5873649997106,
              44.65971500016538
            ],
            [
              -71.5628060003789,
              44.65235599973037
            ],
            [
              -71.56372100007277,
              44.637247000148975
            ],
            [
              -71.54681900037272,
              44.629756000217974
            ],
            [
              -71.557019000318,
              44.629485999864855
            ],
            [
              -71.54633700032385,
              44.622955000075606
            ],
            [
              -71.55512700010762,
              44.62524400011239
            ],
            [
              -71.55363099973236,
              44.60613199997727
            ],
            [
              -71.5621309999862,
              44.601180999769724
            ],
            [
              -71.53490899979192,
              44.58789800018244
            ],
            [
              -71.54578800032786,
              44.57793399989558
            ],
            [
              -71.55236500040917,
              44.584392999991174
            ],
            [
              -71.54772599967067,
              44.571380999708275
            ],
            [
              -71.55971700044232,
              44.56397500024505
            ],
            [
              -71.59696799997931,
              44.55947100018657
            ],
            [
              -71.57186700032427,
              44.53791900018371
            ],
            [
              -71.59411400021939,
              44.52155399987722
            ],
            [
              -71.57702400019832,
              44.50206099986164
            ],
            [
              -71.58813299998971,
              44.506585000167014
            ],
            [
              -71.59860099972362,
              44.48682499980245
            ],
            [
              -71.61784300024604,
              44.485841000014396
            ],
            [
              -71.6262050004076,
              44.474466000141426
            ],
            [
              -71.63450499974658,
              44.47562500007325
            ],
            [
              -71.62466300000159,
              44.48174400025244
            ],
            [
              -71.6327819995906,
              44.48379600017395
            ],
            [
              -71.64683700010177,
              44.47320200029861
            ],
            [
              -71.63898600030136,
              44.464410999938295
            ],
            [
              -71.65421699972399,
              44.458823000081175
            ],
            [
              -71.66088300039208,
              44.43993699968091
            ],
            [
              -71.70258000032374,
              44.413542000301724
            ],
            [
              -71.79448299976342,
              44.39900400014003
            ],
            [
              -71.80057199994812,
              44.38402799987244
            ],
            [
              -71.81442700044272,
              44.38192200026372
            ],
            [
              -71.81474700010986,
              44.354493999985145
            ],
            [
              -71.87145100005648,
              44.336695000155444
            ],
            [
              -71.91062099956805,
              44.3483759997952
            ],
            [
              -71.93404400017126,
              44.33600099998328
            ],
            [
              -71.98142400040673,
              44.33736599995461
            ],
            [
              -72.0090890002918,
              44.322222000055014
            ],
            [
              -72.02930699970916,
              44.32234500008248
            ],
            [
              -72.03287799969459,
              44.30216499969774
            ],
            [
              -72.06785199995508,
              44.27340199983063
            ],
            [
              -72.05833099970212,
              44.27008300026785
            ],
            [
              -72.04766399977662,
              44.23895600023932
            ],
            [
              -72.0661580001114,
              44.19012799996984
            ],
            [
              -72.03899700001651,
              44.156796000020485
            ],
            [
              -72.04195700008167,
              44.13699800007659
            ],
            [
              -72.03326000018431,
              44.131680000275715
            ],
            [
              -72.05536999981207,
              44.110760000281736
            ],
            [
              -72.04787999968669,
              44.096585999724205
            ],
            [
              -72.03130600004967,
              44.10043000014077
            ],
            [
              -72.0452839996696,
              44.087308000041645
            ],
            [
              -72.03167299957246,
              44.078968999697835
            ],
            [
              -72.05286800040463,
              44.07630599985371
            ],
            [
              -72.04830499983412,
              44.069706999930226
            ],
            [
              -72.06809600035253,
              44.057377999777124
            ],
            [
              -72.06190099986263,
              44.04959600031652
            ],
            [
              -72.07831999968894,
              44.04337800009167
            ],
            [
              -72.08266899999923,
              44.021803000216615
            ],
            [
              -72.09542599960352,
              44.0217569997036
            ],
            [
              -72.09052700037064,
              44.009923999748516
            ],
            [
              -72.10276500011616,
              44.014577999881155
            ],
            [
              -72.11686499993485,
              43.99446700031749
            ],
            [
              -72.11437799969772,
              43.96805399971824
            ],
            [
              -72.0909399999242,
              43.9657800002582
            ],
            [
              -72.11834500041657,
              43.94653199978632
            ],
            [
              -72.12045099998889,
              43.91955500027287
            ],
            [
              -72.17210299964344,
              43.884985999994356
            ],
            [
              -72.16790700039236,
              43.86910899978716
            ],
            [
              -72.18461599974857,
              43.86414300005301
            ],
            [
              -72.18405099985905,
              43.80640399980529
            ],
            [
              -72.20553600022113,
              43.78458400021106
            ],
            [
              -72.20522999989939,
              43.770930000204125
            ],
            [
              -72.23417799972435,
              43.74596499981265
            ],
            [
              -72.27110500029457,
              43.733918000023365
            ],
            [
              -72.29956400039801,
              43.70627700027426
            ],
            [
              -72.30314899972882,
              43.66861900000844
            ],
            [
              -72.33482700036349,
              43.61795199976235
            ],
            [
              -72.32832700027507,
              43.60111400016259
            ],
            [
              -72.38023699967248,
              43.5734349997656
            ],
            [
              -72.38069699998002,
              43.54035500028504
            ],
            [
              -72.39887099974936,
              43.512653000281766
            ],
            [
              -72.38106299967791,
              43.4940369998392
            ],
            [
              -72.38147500030487,
              43.480029999853684
            ],
            [
              -72.39256900002765,
              43.4668839999829
            ],
            [
              -72.40350899976464,
              43.39158300026663
            ],
            [
              -72.41602199986977,
              43.37716399977818
            ],
            [
              -72.41264900025108,
              43.362279000188245
            ],
            [
              -72.38986800042859,
              43.35657200003193
            ],
            [
              -72.41055899967398,
              43.33112099994842
            ],
            [
              -72.39531499983256,
              43.31269599972285
            ],
            [
              -72.41603699993838,
              43.27023100022736
            ],
            [
              -72.43860500022386,
              43.25242400027806
            ],
            [
              -72.43822399955903,
              43.20291800027882
            ],
            [
              -72.45050800023361,
              43.19261099970304
            ],
            [
              -72.4439310001523,
              43.179778000013876
            ],
            [
              -72.45740499998209,
              43.147537000201936
            ],
            [
              -72.43250199979546,
              43.11889599969069
            ],
            [
              -72.44319800003328,
              43.10302000010745
            ],
            [
              -72.4352640003922,
              43.08148999988127
            ],
            [
              -72.46784199975383,
              43.052749999738005
            ],
            [
              -72.4626229999555,
              43.02578800008746
            ],
            [
              -72.44325900013266,
              43.007576999822696
            ],
            [
              -72.46251599982538,
              42.997445000141795
            ],
            [
              -72.46169999986569,
              42.982870999990965
            ],
            [
              -72.47371699967826,
              42.97212400026734
            ],
            [
              -72.53380800038563,
              42.952584999908744
            ],
            [
              -72.52449899984478,
              42.91514800003743
            ],
            [
              -72.53337999986515,
              42.89531200030388
            ],
            [
              -72.55262200038754,
              42.88504300001401
            ],
            [
              -72.55707799992963,
              42.85286300029007
            ],
            [
              -72.54151299969786,
              42.80709400000258
            ],
            [
              -72.5087369999695,
              42.77952199987482
            ],
            [
              -72.5154660003868,
              42.765629000070504
            ],
            [
              -72.49054700030663,
              42.772746999671895
            ],
            [
              -72.45841199973748,
              42.72693300027202
            ],
            [
              -71.294636999719,
              42.697041999738616
            ],
            [
              -71.24542600027081,
              42.74254599973771
            ],
            [
              -71.18178600021767,
              42.73734100016633
            ],
            [
              -71.18613999965251,
              42.79093500010305
            ],
            [
              -71.16664699995823,
              42.808881000230166
            ],
            [
              -71.13280500002493,
              42.8214759998798
            ],
            [
              -71.06441599962844,
              42.80627499979891
            ],
            [
              -71.0449199995611,
              42.8486669999432
            ],
            [
              -71.03120100040726,
              42.8590869998415
            ],
            [
              -70.91463099988418,
              42.886647999970165
            ],
            [
              -70.88560199986836,
              42.88283399989744
            ],
            [
              -70.84771799977145,
              42.860866999724095
            ],
            [
              -70.82023799983433,
              42.871786999801124
            ],
            [
              -70.73500500036238,
              42.87468500021481
            ],
            [
              -70.7260239998846,
              42.92852399987909
            ],
            [
              -70.69439499965375,
              42.9567539999842
            ],
            [
              -70.68093300041784,
              42.936873999895774
            ],
            [
              -70.65510899979122,
              42.9220989998882
            ],
            [
              -70.61065900038197,
              42.91252900016829
            ],
            [
              -70.5750940002927,
              42.91712599993515
            ],
            [
              -70.61115200030146,
              42.97899000013694
            ],
            [
              -70.63071399959273,
              42.98528599991779
            ],
            [
              -70.70119699986597,
              43.045240000071075
            ],
            [
              -70.7063100002574,
              43.075338999831914
            ],
            [
              -70.75641200000834,
              43.08017700027311
            ],
            [
              -70.82708000022953,
              43.127395000108145
            ],
            [
              -70.83360999955686,
              43.14610599980147
            ],
            [
              -70.82356899962022,
              43.1742390000186
            ],
            [
              -70.82825500021441,
              43.187788999851485
            ],
            [
              -70.80951599965722,
              43.225165000107765
            ],
            [
              -70.81782599994025,
              43.23815600031212
            ],
            [
              -70.83886000021563,
              43.24445399993801
            ],
            [
              -70.83887299973613,
              43.24449300016003
            ]
          ]
        ]
      }
    }
  ]
}
