{
  "type": "FeatureCollection",
  "features": [
    {
      "type": "Feature",
      "id": "us-cd:119:25:01",
      "properties": {
        "boundary_id": "us-cd:119:25:01",
        "boundary_type": "congressional_district",
        "name": "1",
        "stateFips": "25",
        "congress": 119,
        "district": "01",
        "bbox": [
          -73.50820999977523,
          41.997685000102855,
          -71.79717699968978,
          42.74585099972671
        ]
      },
      "geometry": {
        "type": "Polygon",
        "coordinates": [
          [
            [
              -73.50820999977523,
              42.08613399972491
            ],
            [
              -73.49701800014317,
              42.0496240001605
            ],
            [
              -72.8137839998975,
              42.03674400029586
            ],
            [
              -72.81705299975913,
              41.997685000102855
            ],
            [
              -72.7667330004483,
              42.003266000225935
            ],
            [
              -72.75589400009532,
              42.03634900028546
            ],
            [
              -72.58216299969114,
              42.02474099975854
            ],
            [
              -72.53154899975411,
              42.034578000228784
            ],
            [
              -71.84571199981868,
              42.023994000113035
            ],
            [
              -71.88038700032841,
              42.05550700008676
            ],
            [
              -71.88150899971154,
              42.07589299979715
            ],
            [
              -71.79717699968978,
              42.09917199984794
            ],
            [
              -71.81795599969702,
              42.13326399992452
            ],
            [
              -71.82952999981883,
              42.12939100030965
            ],
            [
              -71.82485300034381,
              42.15533199993501
            ],
            [
              -71.83448500002652,
              42.15725699969486
            ],
            [
              -71.82595899983342,
              42.165820000309154
            ],
            [
              -71.85809600005237,
              42.160705999801856
            ],
            [
              -71.89513499987729,
              42.192424999815834
            ],
            [
              -71.939355999856,
              42.18923799973227
            ],
            [
              -71.96729100007778,
              42.31068200028631
            ],
            [
              -72.04116799988614,
              42.30869699983992
            ],
            [
              -72.12366700014707,
              42.363929999777795
            ],
            [
              -72.14039499976987,
              42.3446869998219
            ],
            [
              -72.1585119996378,
              42.34312499976528
            ],
            [
              -72.18395999962246,
              42.30642000032062
            ],
            [
              -72.20718300020913,
              42.31152199970234
            ],
            [
              -72.21397299982748,
              42.29425700001864
            ],
            [
              -72.21079500020242,
              42.3113800000332
            ],
            [
              -72.27463899957178,
              42.30196300001951
            ],
            [
              -72.28423099996982,
              42.35201000023837
            ],
            [
              -72.31477800010221,
              42.34349600001248
            ],
            [
              -72.32811700021279,
              42.31874599993223
            ],
            [
              -72.35637399975154,
              42.30332599968453
            ],
            [
              -72.35398799979674,
              42.34006800028086
            ],
            [
              -72.4054550004017,
              42.33643699972224
            ],
            [
              -72.40941700019935,
              42.3587619997226
            ],
            [
              -72.47228700032358,
              42.351458000160775
            ],
            [
              -72.46419499960042,
              42.30805300022263
            ],
            [
              -72.56930599962942,
              42.30448900006539
            ],
            [
              -72.6099480001251,
              42.28522400033083
            ],
            [
              -72.67209099997808,
              42.29188700013519
            ],
            [
              -72.73672600009108,
              42.284240999674054
            ],
            [
              -72.73575799979541,
              42.26651800018182
            ],
            [
              -72.81440499986351,
              42.2568189998212
            ],
            [
              -72.82112199968692,
              42.338629999796815
            ],
            [
              -72.84037599990492,
              42.34507700029444
            ],
            [
              -72.88563499960117,
              42.34003600017074
            ],
            [
              -72.90458000002268,
              42.430385000307
            ],
            [
              -72.84790500038835,
              42.436489999821454
            ],
            [
              -72.85563300016513,
              42.48091999970418
            ],
            [
              -72.87113599957432,
              42.48404099978089
            ],
            [
              -72.87702599956737,
              42.55542499999396
            ],
            [
              -72.84845400038436,
              42.55906900015773
            ],
            [
              -72.83174799960456,
              42.616626999853366
            ],
            [
              -72.74838399987846,
              42.61803799978962
            ],
            [
              -72.73511400026317,
              42.6331080001873
            ],
            [
              -72.76609200039078,
              42.62925999984911
            ],
            [
              -72.77264699983249,
              42.65833400029411
            ],
            [
              -72.82150599982648,
              42.63687699989974
            ],
            [
              -72.84279299982185,
              42.63809800024483
            ],
            [
              -72.8576869998589,
              42.67409000010362
            ],
            [
              -72.8643190001918,
              42.737837999861625
            ],
            [
              -73.26482700002443,
              42.74585099972671
            ],
            [
              -73.50776799990935,
              42.08735699999902
            ],
            [
              -73.50820999977523,
              42.08613399972491
            ]
          ]
        ]
      }
    },
    {
      "type": "Feature",
      "id": "us-cd:119:25:02",
      "properties": {
        "boundary_id": "us-cd:119:25:02",
        "boundary_type": "congressional_district",
        "name": "2",
        "stateFips": "25",
        "congress": 119,
        "district": "02",
        "bbox": [
          -72.90436400011261,
          42.008052999761894,
          -71.37561799986335,
          42.737837999861625
        ]
      },
      "geometry": {
        "type": "Polygon",
        "coordinates": [
          [
            [
              -72.90436400011261,
              42.430413999872904
            ],
            [
              -72.88563499960117,
              42.34003600017074
            ],
            [
              -72.84037599990492,
              42.34507700029444
            ],
            [
              -72.82112199968692,
              42.338629999796815
            ],
            [
              -72.81440499986351,
              42.2568189998212
            ],
            [
              -72.73575799979541,
              42.26651800018182
            ],
            [
              -72.73672600009108,
              42.284240999674054
            ],
            [
              -72.67209099997808,
              42.29188700013519
            ],
            [
              -72.6099480001251,
              42.28522400033083
            ],
            [
              -72.56930599962942,
              42.30448900006539
            ],
            [
              -72.46419499960042,
              42.30805300022263
            ],
            [
              -72.47228700032358,
              42.351458000160775
            ],
            [
              -72.40941700019935,
              42.3587619997226
            ],
            [
              -72.4054550004017,
              42.33643699972224
            ],
            [
              -72.35398799979674,
              42.34006800028086
            ],
            [
              -72.3560180000994,
              42.3032829998904
            ],
            [
              -72.32811700021279,
              42.31874599993223
            ],
            [
              -72.31477800010221,
              42.34349600001248
            ],
            [
              -72.28423099996982,
              42.35201000023837
            ],
            [
              -72.27463899957178,
              42.30196300001951
            ],
            [
              -72.21079500020242,
              42.3113800000332
            ],
            [
              -72.21397299982748,
              42.29425700001864
            ],
            [
              -72.20718300020913,
              42.31152199970234
            ],
            [
              -72.18395999962246,
              42.30642000032062
            ],
            [
              -72.1585119996378,
              42.34312499976528
            ],
            [
              -72.14039499976987,
              42.3446869998219
            ],
            [
              -72.12366700014707,
              42.363929999777795
            ],
            [
              -72.04116799988614,
              42.30869699983992
            ],
            [
              -71.96729100007778,
              42.31068200028631
            ],
            [
              -71.939355999856,
              42.18923799973227
            ],
            [
              -71.89513499987729,
              42.192424999815834
            ],
            [
              -71.85809600005237,
              42.160705999801856
            ],
            [
              -71.82595899983342,
              42.165820000309154
            ],
            [
              -71.83448500002652,
              42.15725699969486
            ],
            [
              -71.82485300034381,
              42.15533199993501
            ],
            [
              -71.82952999981883,
              42.12939100030965
            ],
            [
              -71.81795599969702,
              42.13326399992452
            ],
            [
              -71.79717699968978,
              42.09917199984794
            ],
            [
              -71.88150899971154,
              42.07589299979715
            ],
            [
              -71.88232499967123,
              42.05876799982846
            ],
            [
              -71.84571199981868,
              42.023994000113035
            ],
            [
              -71.80067099968231,
              42.02351400030542
            ],
            [
              -71.79918799972585,
              42.008052999761894
            ],
            [
              -71.59109999972756,
              42.013646000020174
            ],
            [
              -71.59274800043879,
              42.121647999935654
            ],
            [
              -71.57000500025114,
              42.139184000061704
            ],
            [
              -71.56201700018337,
              42.178613999775294
            ],
            [
              -71.53949800030172,
              42.18973399968185
            ],
            [
              -71.50262599998308,
              42.1914159997568
            ],
            [
              -71.49737799987243,
              42.16664300014211
            ],
            [
              -71.47802699957006,
              42.165870999992656
            ],
            [
              -71.47852200003771,
              42.13137799992417
            ],
            [
              -71.37561799986335,
              42.13545399982317
            ],
            [
              -71.40442699977116,
              42.18843300014386
            ],
            [
              -71.38476500002248,
              42.19201399976443
            ],
            [
              -71.38018200025878,
              42.2017589996861
            ],
            [
              -71.41002200021143,
              42.21874900002817
            ],
            [
              -71.41929800024198,
              42.25728100013627
            ],
            [
              -71.49704599961143,
              42.28982900002178
            ],
            [
              -71.48679700016065,
              42.33018900010325
            ],
            [
              -71.55112599995188,
              42.32639499982132
            ],
            [
              -71.58520999973449,
              42.310952000206036
            ],
            [
              -71.63394200040521,
              42.358397999786305
            ],
            [
              -71.67779400031297,
              42.365154000236195
            ],
            [
              -71.67055100005979,
              42.386664999958015
            ],
            [
              -71.70101700000133,
              42.395808000167094
            ],
            [
              -71.7259789997392,
              42.390289000017724
            ],
            [
              -71.71869899967608,
              42.473374000035946
            ],
            [
              -71.72838499978546,
              42.47512800016217
            ],
            [
              -71.71674000041686,
              42.51897100031783
            ],
            [
              -71.70223600036715,
              42.53389500013635
            ],
            [
              -71.74507200029869,
              42.57386000015297
            ],
            [
              -71.76294999979201,
              42.56392400031115
            ],
            [
              -71.74967900035183,
              42.54520199982502
            ],
            [
              -71.77134200009083,
              42.55924799995808
            ],
            [
              -71.8078999996918,
              42.54716399995867
            ],
            [
              -71.83712299987639,
              42.548550999806835
            ],
            [
              -71.8420039995659,
              42.51467899968584
            ],
            [
              -71.8568370004019,
              42.519083000169715
            ],
            [
              -71.87486499968307,
              42.50952000030627
            ],
            [
              -71.90243900022983,
              42.535679000283
            ],
            [
              -71.91430999955423,
              42.5232819999428
            ],
            [
              -71.92046599968609,
              42.529876000305784
            ],
            [
              -71.94847000040316,
              42.52448499990606
            ],
            [
              -71.94979299962775,
              42.51188600002913
            ],
            [
              -72.02701000034115,
              42.56324099990649
            ],
            [
              -72.01499900037635,
              42.567942999769706
            ],
            [
              -72.01702899978068,
              42.575535000294714
            ],
            [
              -72.04202400002882,
              42.57979399969618
            ],
            [
              -72.035983000423,
              42.59385699990687
            ],
            [
              -72.07574899978623,
              42.62523500010863
            ],
            [
              -72.11663099958311,
              42.62660699974899
            ],
            [
              -72.11105899960738,
              42.717205999959525
            ],
            [
              -72.8643190001918,
              42.737837999861625
            ],
            [
              -72.8576869998589,
              42.67409000010362
            ],
            [
              -72.84279299982185,
              42.63809800024483
            ],
            [
              -72.82150599982648,
              42.63687699989974
            ],
            [
              -72.77264699983249,
              42.65833400029411
            ],
            [
              -72.76609200039078,
              42.62925999984911
            ],
            [
              -72.73511400026317,
              42.6331080001873
            ],
            [
              -72.74838399987846,
              42.61803799978962
            ],
            [
              -72.83174799960456,
              42.616626999853366
            ],
            [
              -72.84845400038436,
              42.55906900015773
            ],
            [
              -72.87702599956737,
              42.55542499999396
            ],
            [
              -72.87113599957432,
              42.48404099978089
            ],
            [
              -72.85563300016513,
              42.48091999970418
            ],
            [
              -72.84790500038835,
              42.436489999821454
            ],
            [
              -72.90295300012616,
              42.43056599989316
            ],
            [
              -72.90436400011261,
              42.430413999872904
            ]
          ]
        ]
      }
    },
    {
      "type": "Feature",
      "id": "us-cd:119:25:03",
      "properties": {
        "boundary_id": "us-cd:119:25:03",
        "boundary_type": "congressional_district",
        "name": "3",
        "stateFips": "25",
        "congress": 119,
        "district": "03",
        "bbox": [
          -72.11658299990253,
          42.310952000206036,
          -70.9986850000716,
          42.83328199971637
        ]
      },
      "geometry": {
        "type": "Polygon",
        "coordinates": [
          [
            [
              -72.11658299990253,
              42.62739799975395
            ],
            [
              -72.07574899978623,
              42.62523500010863
            ],
            [
              -72.035983000423,
              42.59385699990687
            ],
            [
              -72.04202400002882,
              42.57979399969618
            ],
            [
              -72.01702899978068,
              42.575535000294714
            ],
            [
              -72.01499900037635,
              42.567942999769706
            ],
            [
              -72.02701000034115,
              42.56324099990649
            ],
            [
              -71.94979299962775,
              42.51188600002913
            ],
            [
              -71.94847000040316,
              42.52448499990606
            ],
            [
              -71.92046599968609,
              42.529876000305784
            ],
            [
              -71.91430999955423,
              42.5232819999428
            ],
            [
              -71.90243900022983,
              42.535679000283
            ],
            [
              -71.87486499968307,
              42.50952000030627
            ],
            [
              -71.8568370004019,
              42.519083000169715
            ],
            [
              -71.8420039995659,
              42.51467899968584
            ],
            [
              -71.83712299987639,
              42.548550999806835
            ],
            [
              -71.8078999996918,
              42.54716399995867
            ],
            [
              -71.77134200009083,
              42.55924799995808
            ],
            [
              -71.74967900035183,
              42.54520199982502
            ],
            [
              -71.76294999979201,
              42.56392400031115
            ],
            [
              -71.74507200029869,
              42.57386000015297
            ],
            [
              -71.70223600036715,
              42.53389500013635
            ],
            [
              -71.71674000041686,
              42.51897100031783
            ],
            [
              -71.72838499978546,
              42.47512800016217
            ],
            [
              -71.71869899967608,
              42.473374000035946
            ],
            [
              -71.7259789997392,
              42.390289000017724
            ],
            [
              -71.70101700000133,
              42.395808000167094
            ],
            [
              -71.67055100005979,
              42.386664999958015
            ],
            [
              -71.67779400031297,
              42.365154000236195
            ],
            [
              -71.63394200040521,
              42.358397999786305
            ],
            [
              -71.58520999973449,
              42.310952000206036
            ],
            [
              -71.55112599995188,
              42.32639499982132
            ],
            [
              -71.48679700016065,
              42.33018900010325
            ],
            [
              -71.46944299965064,
              42.402592999805904
            ],
            [
              -71.47838200029562,
              42.43710400031509
            ],
            [
              -71.46434900042411,
              42.45030000002483
            ],
            [
              -71.36634000018296,
              42.41271999977085
            ],
            [
              -71.2893019995697,
              42.46455700016818
            ],
            [
              -71.32126800008447,
              42.48051499967166
            ],
            [
              -71.316968000178,
              42.50646300018943
            ],
            [
              -71.30669899973743,
              42.52059299986748
            ],
            [
              -71.25249000042385,
              42.52407799988401
            ],
            [
              -71.25869300041136,
              42.53756699973181
            ],
            [
              -71.27639500017759,
              42.54438300021289
            ],
            [
              -71.22566900008759,
              42.58003600026575
            ],
            [
              -71.2963189998671,
              42.61266699980248
            ],
            [
              -71.27779100009543,
              42.6208469998591
            ],
            [
              -71.27515400007047,
              42.65621599990837
            ],
            [
              -71.24248999959678,
              42.66234599991092
            ],
            [
              -71.21553600008944,
              42.70119799987737
            ],
            [
              -71.18886200006627,
              42.69626800004711
            ],
            [
              -71.18550299979296,
              42.675868000207785
            ],
            [
              -71.13445200001294,
              42.676778000092085
            ],
            [
              -71.14585700008033,
              42.69848100011206
            ],
            [
              -71.11557899956145,
              42.74110399979721
            ],
            [
              -71.05888300001075,
              42.73246300009744
            ],
            [
              -70.9986850000716,
              42.80862699983178
            ],
            [
              -71.05400499979596,
              42.83328199971637
            ],
            [
              -71.06441599962844,
              42.80627499979891
            ],
            [
              -71.13280500002493,
              42.8214759998798
            ],
            [
              -71.14793900026152,
              42.816175999884614
            ],
            [
              -71.18613999965251,
              42.79093500010305
            ],
            [
              -71.18178600021767,
              42.73734100016633
            ],
            [
              -71.24542600027081,
              42.74254599973771
            ],
            [
              -71.294636999719,
              42.697041999738616
            ],
            [
              -72.11105899960738,
              42.717205999959525
            ],
            [
              -72.11646599972667,
              42.62930499970519
            ],
            [
              -72.11658299990253,
              42.62739799975395
            ]
          ]
        ]
      }
    },
    {
      "type": "Feature",
      "id": "us-cd:119:25:04",
      "properties": {
        "boundary_id": "us-cd:119:25:04",
        "boundary_type": "congressional_district",
        "name": "4",
        "stateFips": "25",
        "congress": 119,
        "district": "04",
        "bbox": [
          -71.59274800043879,
          41.60367600029008,
          -70.893454000392,
          42.36782500019071
        ]
      },
      "geometry": {
        "type": "Polygon",
        "coordinates": [
          [
            [
              -71.59274800043879,
              42.121647999935654
            ],
            [
              -71.59109999972756,
              42.013646000020174
            ],
            [
              -71.3814009997263,
              42.0187979997801
            ],
            [
              -71.38146299965057,
              41.89354600001753
            ],
            [
              -71.33878699955261,
              41.89859300001877
            ],
            [
              -71.33403999975737,
              41.86260399999971
            ],
            [
              -71.34255000005695,
              41.84465599971396
            ],
            [
              -71.33541700030695,
              41.83564500019505
            ],
            [
              -71.34754500044761,
              41.82324600013131
            ],
            [
              -71.34048100029456,
              41.79703300001129
            ],
            [
              -71.3284719999796,
              41.7806940001221
            ],
            [
              -71.26106699977227,
              41.75208200018372
            ],
            [
              -71.19547900033056,
              41.67509000022768
            ],
            [
              -71.13255700032782,
              41.66036300023152
            ],
            [
              -71.13834600003855,
              41.60367600029008
            ],
            [
              -71.11440699994962,
              41.692804000294004
            ],
            [
              -71.06663000005408,
              41.68561899974933
            ],
            [
              -70.90718400031481,
              41.76354300002152
            ],
            [
              -70.92179200012161,
              41.791264000248574
            ],
            [
              -70.89640000021343,
              41.79431999987293
            ],
            [
              -70.893454000392,
              41.82790100015358
            ],
            [
              -70.91870499983484,
              41.851943000278204
            ],
            [
              -70.91641099994156,
              41.87691700007937
            ],
            [
              -70.9929330001708,
              41.90622799978651
            ],
            [
              -70.99749400019317,
              41.91843999969696
            ],
            [
              -71.01118800013097,
              41.90700100030114
            ],
            [
              -71.01883700026505,
              41.92425999980943
            ],
            [
              -71.03564799972851,
              41.923657000105486
            ],
            [
              -71.03472100033906,
              41.93236099993579
            ],
            [
              -71.06032699960913,
              41.945123000233735
            ],
            [
              -71.08549000008678,
              41.941743000042656
            ],
            [
              -71.06144700024078,
              41.964402999735135
            ],
            [
              -71.07034499997955,
              41.98784100004248
            ],
            [
              -71.156450000386,
              42.001042000171374
            ],
            [
              -71.16868099956051,
              42.06116099981539
            ],
            [
              -71.13860700015444,
              42.0727749998829
            ],
            [
              -71.13165699980424,
              42.105968999923896
            ],
            [
              -71.14916600012494,
              42.13861200016084
            ],
            [
              -71.16354200012813,
              42.14145700022113
            ],
            [
              -71.17797400020783,
              42.16565499995467
            ],
            [
              -71.2318729999,
              42.13163300013955
            ],
            [
              -71.23880399998365,
              42.10640100005148
            ],
            [
              -71.28026800028681,
              42.08849199973007
            ],
            [
              -71.30022299993844,
              42.12590999989075
            ],
            [
              -71.30375100026616,
              42.14950000007735
            ],
            [
              -71.27502500019902,
              42.14862299975228
            ],
            [
              -71.26956899967594,
              42.20049899978589
            ],
            [
              -71.251415999823,
              42.20261300023105
            ],
            [
              -71.22945500015815,
              42.263907000022414
            ],
            [
              -71.19712499959532,
              42.26895299975293
            ],
            [
              -71.1647020000444,
              42.30383000018053
            ],
            [
              -71.1468830001023,
              42.29727999996065
            ],
            [
              -71.11653699981136,
              42.32393900032137
            ],
            [
              -71.1065700003929,
              42.34991200024714
            ],
            [
              -71.12858299993626,
              42.34983300001188
            ],
            [
              -71.15703600019192,
              42.330389999935655
            ],
            [
              -71.17485000011115,
              42.350336999825494
            ],
            [
              -71.16762500029964,
              42.36007300002088
            ],
            [
              -71.19629799976498,
              42.36180199973393
            ],
            [
              -71.19542200042916,
              42.36782500019071
            ],
            [
              -71.23467999980427,
              42.36137700002234
            ],
            [
              -71.2603579999427,
              42.3536579998084
            ],
            [
              -71.25568899996527,
              42.339290999830126
            ],
            [
              -71.27029199974919,
              42.330863999683196
            ],
            [
              -71.24662999966971,
              42.31573000030551
            ],
            [
              -71.27711999990069,
              42.311979999895186
            ],
            [
              -71.26436999996909,
              42.30018000032837
            ],
            [
              -71.28831699955563,
              42.295826999797065
            ],
            [
              -71.3093020003255,
              42.27637899992191
            ],
            [
              -71.30292199988769,
              42.24827400013627
            ],
            [
              -71.33290800032852,
              42.24783800008508
            ],
            [
              -71.3903649995873,
              42.271916000145644
            ],
            [
              -71.41929800024198,
              42.25728100013627
            ],
            [
              -71.41002200021143,
              42.21874900002817
            ],
            [
              -71.38018200025878,
              42.2017589996861
            ],
            [
              -71.38476500002248,
              42.19201399976443
            ],
            [
              -71.40442699977116,
              42.18843300014386
            ],
            [
              -71.37953399963028,
              42.13313800013432
            ],
            [
              -71.40234299994016,
              42.13954299970924
            ],
            [
              -71.47852200003771,
              42.13137799992417
            ],
            [
              -71.47802699957006,
              42.165870999992656
            ],
            [
              -71.49737799987243,
              42.16664300014211
            ],
            [
              -71.50262599998308,
              42.1914159997568
            ],
            [
              -71.53949800030172,
              42.18973399968185
            ],
            [
              -71.56201700018337,
              42.178613999775294
            ],
            [
              -71.57000500025114,
              42.139184000061704
            ],
            [
              -71.59264799998135,
              42.121720999791904
            ],
            [
              -71.59274800043879,
              42.121647999935654
            ]
          ]
        ]
      }
    },
    {
      "type": "Feature",
      "id": "us-cd:119:25:05",
      "properties": {
        "boundary_id": "us-cd:119:25:05",
        "boundary_type": "congressional_district",
        "name": "5",
        "stateFips": "25",
        "congress": 119,
        "district": "05",
        "bbox": [
          -71.49701100034963,
          42.24783800008508,
          -70.91789200024823,
          42.53000099996084
        ]
      },
      "geometry": {
        "type": "Polygon",
        "coordinates": [
          [
            [
              -71.49701100034963,
              42.289894999701254
            ],
            [
              -71.41929800024198,
              42.25728100013627
            ],
            [
              -71.3903649995873,
              42.271916000145644
            ],
            [
              -71.33290800032852,
              42.24783800008508
            ],
            [
              -71.30292199988769,
              42.24827400013627
            ],
            [
              -71.3093020003255,
              42.27637899992191
            ],
            [
              -71.28831699955563,
              42.295826999797065
            ],
            [
              -71.26436999996909,
              42.30018000032837
            ],
            [
              -71.27711999990069,
              42.311979999895186
            ],
            [
              -71.24662999966971,
              42.31573000030551
            ],
            [
              -71.25280800044116,
              42.32671000022178
            ],
            [
              -71.27025499993928,
              42.32855499992417
            ],
            [
              -71.25568899996527,
              42.339290999830126
            ],
            [
              -71.2603579999427,
              42.3536579998084
            ],
            [
              -71.19542200042916,
              42.36782500019071
            ],
            [
              -71.19629799976498,
              42.36180199973393
            ],
            [
              -71.16260099959665,
              42.35850899989368
            ],
            [
              -71.13068500020893,
              42.37392199995469
            ],
            [
              -71.10314599982226,
              42.36634400029379
            ],
            [
              -71.1209739999852,
              42.393706000023464
            ],
            [
              -71.1304099998493,
              42.38291800023031
            ],
            [
              -71.15636199962414,
              42.395852000158854
            ],
            [
              -71.12736100009569,
              42.39709600018704
            ],
            [
              -71.13463500031104,
              42.40425900026293
            ],
            [
              -71.13040499982644,
              42.41742399974046
            ],
            [
              -71.11237400017225,
              42.40022600024165
            ],
            [
              -71.075995999598,
              42.39639600028284
            ],
            [
              -71.07329599982386,
              42.41479599985656
            ],
            [
              -71.0282270000984,
              42.42420200002707
            ],
            [
              -71.03318099958287,
              42.41420600014372
            ],
            [
              -71.02623699997875,
              42.40592500025836
            ],
            [
              -70.98713299969111,
              42.39212300017984
            ],
            [
              -71.01036299995047,
              42.36503100025118
            ],
            [
              -70.98659700011389,
              42.36457199973507
            ],
            [
              -70.97289300013036,
              42.35359700009456
            ],
            [
              -70.91789200024823,
              42.385996999774314
            ],
            [
              -70.95949399974532,
              42.40749799980174
            ],
            [
              -70.95079299965003,
              42.44429600006307
            ],
            [
              -70.96859400004878,
              42.444396000017576
            ],
            [
              -70.98229399983437,
              42.43129600010635
            ],
            [
              -71.01077700022725,
              42.434567999837654
            ],
            [
              -71.05336499956337,
              42.475925000284455
            ],
            [
              -71.07815200029735,
              42.47402000022146
            ],
            [
              -71.0752399999128,
              42.48800800001364
            ],
            [
              -71.09011499968327,
              42.50126100009464
            ],
            [
              -71.11975999964223,
              42.50029199995944
            ],
            [
              -71.13545399974545,
              42.53000099996084
            ],
            [
              -71.17003299999573,
              42.51553699975595
            ],
            [
              -71.16892400013307,
              42.48708699993764
            ],
            [
              -71.20431699979488,
              42.46584499973167
            ],
            [
              -71.25666200028382,
              42.492924999810015
            ],
            [
              -71.25669300024596,
              42.4784559999438
            ],
            [
              -71.27269500032074,
              42.459703999889925
            ],
            [
              -71.30228199965508,
              42.46200999992941
            ],
            [
              -71.36634000018296,
              42.41271999977085
            ],
            [
              -71.46434900042411,
              42.45030000002483
            ],
            [
              -71.47838200029562,
              42.43710400031509
            ],
            [
              -71.46944299965064,
              42.402592999805904
            ],
            [
              -71.49679600026448,
              42.29030800017275
            ],
            [
              -71.49701100034963,
              42.289894999701254
            ]
          ]
        ]
      }
    },
    {
      "type": "Feature",
      "id": "us-cd:119:25:06",
      "properties": {
        "boundary_id": "us-cd:119:25:06",
        "boundary_type": "congressional_district",
        "name": "6",
        "stateFips": "25",
        "congress": 119,
        "district": "06",
        "bbox": [
          -71.32123499957419,
          42.38679799973114,
          -70.5021430000489,
          42.88503199993913
        ]
      },
      "geometry": {
        "type": "Polygon",
        "coordinates": [
          [
            [
              -71.32123499957419,
              42.48063700015368
            ],
            [
              -71.27269500032074,
              42.459703999889925
            ],
            [
              -71.25344699995054,
              42.49329199967033
            ],
            [
              -71.20431699979488,
              42.46584499973167
            ],
            [
              -71.16892400013307,
              42.48708699993764
            ],
            [
              -71.17003299999573,
              42.51553699975595
            ],
            [
              -71.13545399974545,
              42.53000099996084
            ],
            [
              -71.11975999964223,
              42.50029199995944
            ],
            [
              -71.09011499968327,
              42.50126100009464
            ],
            [
              -71.0752399999128,
              42.48800800001364
            ],
            [
              -71.07815200029735,
              42.47402000022146
            ],
            [
              -71.05336499956337,
              42.475925000284455
            ],
            [
              -71.01077700022725,
              42.434567999837654
            ],
            [
              -70.98229399983437,
              42.43129600010635
            ],
            [
              -70.96859400004878,
              42.444396000017576
            ],
            [
              -70.95079299965003,
              42.44429600006307
            ],
            [
              -70.96209300013544,
              42.41239700002632
            ],
            [
              -70.92459300017809,
              42.38679799973114
            ],
            [
              -70.64807200030069,
              42.40562800029661
            ],
            [
              -70.6062899999802,
              42.53122000026482
            ],
            [
              -70.52179300010201,
              42.5934590003015
            ],
            [
              -70.5021430000489,
              42.635471000144165
            ],
            [
              -70.51393399990567,
              42.68059400024674
            ],
            [
              -70.5493059996511,
              42.72416400009981
            ],
            [
              -70.62594300040637,
              42.73972399985762
            ],
            [
              -70.70258000026332,
              42.72416199985789
            ],
            [
              -70.71432400026443,
              42.731911000126566
            ],
            [
              -70.7372249997375,
              42.7879559998839
            ],
            [
              -70.7348739999428,
              42.82447699990263
            ],
            [
              -70.74882999982145,
              42.85883099975284
            ],
            [
              -70.73500500036238,
              42.87468500021481
            ],
            [
              -70.82023799983433,
              42.871786999801124
            ],
            [
              -70.84771799977145,
              42.860866999724095
            ],
            [
              -70.88560199986836,
              42.88283399989744
            ],
            [
              -70.92959400041653,
              42.88503199993913
            ],
            [
              -71.0449199995611,
              42.8486669999432
            ],
            [
              -71.05400499979596,
              42.83328199971637
            ],
            [
              -70.99908599992958,
              42.806292999876476
            ],
            [
              -71.0187080003936,
              42.79160499990009
            ],
            [
              -71.05888300001075,
              42.73246300009744
            ],
            [
              -71.11557899956145,
              42.74110399979721
            ],
            [
              -71.14585700008033,
              42.69848100011206
            ],
            [
              -71.13445200001294,
              42.676778000092085
            ],
            [
              -71.18550299979296,
              42.675868000207785
            ],
            [
              -71.18886200006627,
              42.69626800004711
            ],
            [
              -71.21553600008944,
              42.70119799987737
            ],
            [
              -71.24248999959678,
              42.66234599991092
            ],
            [
              -71.27515400007047,
              42.65621599990837
            ],
            [
              -71.27779100009543,
              42.6208469998591
            ],
            [
              -71.2963189998671,
              42.61266699980248
            ],
            [
              -71.22566900008759,
              42.58003600026575
            ],
            [
              -71.27639500017759,
              42.54438300021289
            ],
            [
              -71.25869300041136,
              42.53756699973181
            ],
            [
              -71.25249000042385,
              42.52407799988401
            ],
            [
              -71.30669899973743,
              42.52059299986748
            ],
            [
              -71.3210379999307,
              42.48132199994124
            ],
            [
              -71.32123499957419,
              42.48063700015368
            ]
          ]
        ]
      }
    },
    {
      "type": "Feature",
      "id": "us-cd:119:25:07",
      "properties": {
        "boundary_id": "us-cd:119:25:07",
        "boundary_type": "congressional_district",
        "name": "7",
        "stateFips": "25",
        "congress": 119,
        "district": "07",
        "bbox": [
          -71.17485000011115,
          42.1356340000971,
          -70.97289300013036,
          42.42420200002707
        ]
      },
      "geometry": {
        "type": "Polygon",
        "coordinates": [
          [
            [
              -71.17485000011115,
              42.350336999825494
            ],
            [
              -71.15703600019192,
              42.330389999935655
            ],
            [
              -71.12858299993626,
              42.34983300001188
            ],
            [
              -71.1065700003929,
              42.34991200024714
            ],
            [
              -71.11960700037967,
              42.322613999915205
            ],
            [
              -71.10294400015589,
              42.31929800026549
            ],
            [
              -71.11841499977803,
              42.293409000331856
            ],
            [
              -71.16042399987924,
              42.26682300025484
            ],
            [
              -71.14664200007788,
              42.25575500022503
            ],
            [
              -71.14268100010513,
              42.235998000135524
            ],
            [
              -71.03509299988472,
              42.1356340000971
            ],
            [
              -71.019130000168,
              42.18685099991357
            ],
            [
              -71.0472710002541,
              42.19459199990935
            ],
            [
              -71.04948999980434,
              42.20666900000779
            ],
            [
              -71.08272699966511,
              42.20429000020721
            ],
            [
              -71.09318899955123,
              42.213936000304784
            ],
            [
              -71.07664000002856,
              42.221119999790716
            ],
            [
              -71.09331199957487,
              42.238670000063856
            ],
            [
              -71.09350999994159,
              42.25691999993161
            ],
            [
              -71.08120000022603,
              42.25837000002441
            ],
            [
              -71.05534700018542,
              42.28824199983441
            ],
            [
              -71.05350600002868,
              42.310493000051984
            ],
            [
              -71.06874700039536,
              42.31859400003947
            ],
            [
              -71.04959500028463,
              42.35449699993207
            ],
            [
              -71.08374900038746,
              42.34838000004758
            ],
            [
              -71.08751100016858,
              42.35555699995531
            ],
            [
              -71.04909499979412,
              42.37119700025951
            ],
            [
              -71.0458279995823,
              42.35722699970378
            ],
            [
              -71.01099399996224,
              42.342698000015524
            ],
            [
              -70.9750940001372,
              42.34349899979619
            ],
            [
              -70.97289300013036,
              42.35359700009456
            ],
            [
              -70.98659700011389,
              42.36457199973507
            ],
            [
              -71.01036299995047,
              42.36503100025118
            ],
            [
              -70.9874420003859,
              42.392741999678506
            ],
            [
              -71.02623699997875,
              42.40592500025836
            ],
            [
              -71.03318099958287,
              42.41420600014372
            ],
            [
              -71.0282270000984,
              42.42420200002707
            ],
            [
              -71.07329599982386,
              42.41479599985656
            ],
            [
              -71.075995999598,
              42.39639600028284
            ],
            [
              -71.11237400017225,
              42.40022600024165
            ],
            [
              -71.12825599969811,
              42.41798899996276
            ],
            [
              -71.13463500031104,
              42.40425900026293
            ],
            [
              -71.12865400008137,
              42.39605700001538
            ],
            [
              -71.15636199962414,
              42.395852000158854
            ],
            [
              -71.1304099998493,
              42.38291800023031
            ],
            [
              -71.1209739999852,
              42.393706000023464
            ],
            [
              -71.10238699976398,
              42.367366999725334
            ],
            [
              -71.1169209999509,
              42.364246000264394
            ],
            [
              -71.13152499955974,
              42.373802000211235
            ],
            [
              -71.17479800023261,
              42.35051000016027
            ],
            [
              -71.17485000011115,
              42.350336999825494
            ]
          ]
        ]
      }
    },
    {
      "type": "Feature",
      "id": "us-cd:119:25:08",
      "properties": {
        "boundary_id": "us-cd:119:25:08",
        "boundary_type": "congressional_district",
        "name": "8",
        "stateFips": "25",
        "congress": 119,
        "district": "08",
        "bbox": [
          -71.30378499970303,
          41.982716000081105,
          -70.62448200019121,
          42.40562800029661
        ]
      },
      "geometry": {
        "type": "Polygon",
        "coordinates": [
          [
            [
              -71.30378499970303,
              42.14921100003739
            ],
            [
              -71.28026800028681,
              42.08849199973007
            ],
            [
              -71.23880399998365,
              42.10640100005148
            ],
            [
              -71.23194499987002,
              42.131558999751746
            ],
            [
              -71.1868850003654,
              42.15326399972684
            ],
            [
              -71.18131300038965,
              42.165523000160235
            ],
            [
              -71.16354200012813,
              42.14145700022113
            ],
            [
              -71.14916600012494,
              42.13861200016084
            ],
            [
              -71.13113000044785,
              42.101790000263314
            ],
            [
              -71.13860700015444,
              42.0727749998829
            ],
            [
              -71.16868099956051,
              42.06116099981539
            ],
            [
              -71.156450000386,
              42.001042000171374
            ],
            [
              -71.0541839998961,
              41.982716000081105
            ],
            [
              -70.97958499983939,
              42.010998999819336
            ],
            [
              -70.92536399993195,
              42.00890900014931
            ],
            [
              -70.89918700002623,
              41.99637099966992
            ],
            [
              -70.89661799977331,
              42.023284999711215
            ],
            [
              -70.91296200015488,
              42.08441699968444
            ],
            [
              -70.90241200040523,
              42.085897000019685
            ],
            [
              -70.9314869995535,
              42.11654899975311
            ],
            [
              -70.94076799960693,
              42.1513649999007
            ],
            [
              -70.82701499993219,
              42.20078600006893
            ],
            [
              -70.8533800001589,
              42.239606999727904
            ],
            [
              -70.84115199956078,
              42.243345999860324
            ],
            [
              -70.84927699989589,
              42.24733100008406
            ],
            [
              -70.84462700018504,
              42.260425999998375
            ],
            [
              -70.82563800028093,
              42.26463300020671
            ],
            [
              -70.72921199955539,
              42.37384799991878
            ],
            [
              -70.67569000033008,
              42.375097999906515
            ],
            [
              -70.75104900026997,
              42.29311399998622
            ],
            [
              -70.67507699986164,
              42.136198999706316
            ],
            [
              -70.66578400011265,
              42.12510000019354
            ],
            [
              -70.6244830000161,
              42.12510699996631
            ],
            [
              -70.62448200019121,
              42.15722499994184
            ],
            [
              -70.64294600038878,
              42.178184999782374
            ],
            [
              -70.64011299964693,
              42.228371999944464
            ],
            [
              -70.68406099981416,
              42.253836000176186
            ],
            [
              -70.6903929996731,
              42.2789989998625
            ],
            [
              -70.64807200030069,
              42.40562800029661
            ],
            [
              -70.91789200024823,
              42.385996999774314
            ],
            [
              -70.97289300013036,
              42.35359700009456
            ],
            [
              -70.9750940001372,
              42.34349899979619
            ],
            [
              -71.01099399996224,
              42.342698000015524
            ],
            [
              -71.0458279995823,
              42.35722699970378
            ],
            [
              -71.04909499979412,
              42.37119700025951
            ],
            [
              -71.06947799996624,
              42.36904599986744
            ],
            [
              -71.08751100016858,
              42.35555699995531
            ],
            [
              -71.08374900038746,
              42.34838000004758
            ],
            [
              -71.04959500028463,
              42.35449699993207
            ],
            [
              -71.06874700039536,
              42.31859400003947
            ],
            [
              -71.05350600002868,
              42.310493000051984
            ],
            [
              -71.05534700018542,
              42.28824199983441
            ],
            [
              -71.08120000022603,
              42.25837000002441
            ],
            [
              -71.09350999994159,
              42.25691999993161
            ],
            [
              -71.09331199957487,
              42.238670000063856
            ],
            [
              -71.07664000002856,
              42.221119999790716
            ],
            [
              -71.09318899955123,
              42.213936000304784
            ],
            [
              -71.08272699966511,
              42.20429000020721
            ],
            [
              -71.04948999980434,
              42.20666900000779
            ],
            [
              -71.0472710002541,
              42.19459199990935
            ],
            [
              -71.019130000168,
              42.18685099991357
            ],
            [
              -71.03509299988472,
              42.1356340000971
            ],
            [
              -71.14268100010513,
              42.235998000135524
            ],
            [
              -71.14664200007788,
              42.25575500022503
            ],
            [
              -71.16042399987924,
              42.26682300025484
            ],
            [
              -71.11841499977803,
              42.293409000331856
            ],
            [
              -71.10294400015589,
              42.31929800026549
            ],
            [
              -71.12152800000406,
              42.323881999961436
            ],
            [
              -71.15211299977128,
              42.29458799981659
            ],
            [
              -71.1647020000444,
              42.30383000018053
            ],
            [
              -71.17863600018173,
              42.29459500010272
            ],
            [
              -71.19712499959532,
              42.26895299975293
            ],
            [
              -71.22933299995942,
              42.2640400002971
            ],
            [
              -71.251415999823,
              42.20261300023105
            ],
            [
              -71.26956899967594,
              42.20049899978589
            ],
            [
              -71.27502500019902,
              42.14862299975228
            ],
            [
              -71.3037610003119,
              42.149409999731624
            ],
            [
              -71.30378499970303,
              42.14921100003739
            ]
          ]
        ]
      }
    },
    {
      "type": "Feature",
      "id": "us-cd:119:25:09",
      "properties": {
        "boundary_id": "us-cd:119:25:09",
        "boundary_type": "congressional_district",
        "name": "9",
        "stateFips": "25",
        "congress": 119,
        "district": "09",
        "bbox": [
          -71.13835299971122,
          41.187052999986186,
          -69.85895000042437,
          42.375097999906515
        ]
      },
      "geometry": {
        "type": "Polygon",
        "coordinates": [
          [
            [
              -71.13835299971122,
              41.603691999991234
            ],
            [
              -71.1211160002754,
              41.49278700008756
            ],
            [
              -71.08857099962744,
              41.431314999762186
            ],
            [
              -71.03360400008047,
              41.414085000185636
            ],
            [
              -71.03991800039607,
              41.39825899996903
            ],
            [
              -71.03270100008216,
              41.38027300007018
            ],
            [
              -70.99074800005745,
              41.35128900012414
            ],
            [
              -70.95575200005568,
              41.3501609998456
            ],
            [
              -70.8960169998988,
              41.37014800019951
            ],
            [
              -70.90100499971844,
              41.33461300016776
            ],
            [
              -70.87002699959082,
              41.29706799994866
            ],
            [
              -70.89033699996801,
              41.27736199993487
            ],
            [
              -70.89054100018252,
              41.24309100020124
            ],
            [
              -70.84774600025885,
              41.20581400009508
            ],
            [
              -70.80594999969468,
              41.19874199974897
            ],
            [
              -70.76783700016722,
              41.206489999841516
            ],
            [
              -70.7443070003322,
              41.226029999885704
            ],
            [
              -70.73484299998067,
              41.25923099999235
            ],
            [
              -70.70310599979479,
              41.28904000026538
            ],
            [
              -70.60667199957163,
              41.299410000134074
            ],
            [
              -70.51219900005414,
              41.2983130000821
            ],
            [
              -70.45985100009048,
              41.26525300015181
            ],
            [
              -70.40873300036331,
              41.277293999821815
            ],
            [
              -70.37446600028258,
              41.26945799982833
            ],
            [
              -70.34408300018171,
              41.27614600004654
            ],
            [
              -70.28573600044506,
              41.242346000054624
            ],
            [
              -70.10968400038341,
              41.18980299994938
            ],
            [
              -70.01248299970605,
              41.187052999986186
            ],
            [
              -69.96373900023809,
              41.19639299983875
            ],
            [
              -69.91584199979366,
              41.22093899978936
            ],
            [
              -69.89447199995762,
              41.25924000030685
            ],
            [
              -69.89378900006733,
              41.28692500031366
            ],
            [
              -69.9100930002659,
              41.31726299968095
            ],
            [
              -69.96963400025402,
              41.40351100013025
            ],
            [
              -70.0064670002146,
              41.43389800016319
            ],
            [
              -70.04427199977049,
              41.44380100009852
            ],
            [
              -70.09441200005458,
              41.43081000025903
            ],
            [
              -70.1165409999489,
              41.39513200027849
            ],
            [
              -70.09784400012282,
              41.353583999864654
            ],
            [
              -70.13794000009726,
              41.34637100018911
            ],
            [
              -70.21511500007955,
              41.36027500002971
            ],
            [
              -70.23814199994932,
              41.386204999772616
            ],
            [
              -70.26728300011816,
              41.39342599999152
            ],
            [
              -70.32359299987947,
              41.39160700009978
            ],
            [
              -70.38344900041017,
              41.36993299996047
            ],
            [
              -70.38080700036234,
              41.41199600021507
            ],
            [
              -70.39289199994698,
              41.44548000023978
            ],
            [
              -70.43644900030199,
              41.46891900027624
            ],
            [
              -70.48968900039331,
              41.462976999927726
            ],
            [
              -70.50860299995436,
              41.49896499984115
            ],
            [
              -70.4485670003969,
              41.51309299975788
            ],
            [
              -70.39516400009896,
              41.556722000293554
            ],
            [
              -70.3112539998516,
              41.57106199980687
            ],
            [
              -70.24946300035113,
              41.56014599985545
            ],
            [
              -70.18149999992697,
              41.593546999693345
            ],
            [
              -70.07793399977872,
              41.61252800008509
            ],
            [
              -70.06856900005971,
              41.61069699990041
            ],
            [
              -70.0633519999112,
              41.59017299988579
            ],
            [
              -70.08031600043387,
              41.56445400015246
            ],
            [
              -70.10952000035186,
              41.551481999928164
            ],
            [
              -70.12855399956352,
              41.52473200014841
            ],
            [
              -70.1143940003687,
              41.48408299977197
            ],
            [
              -70.08490400022043,
              41.46749300028061
            ],
            [
              -70.04031300034586,
              41.465959999788055
            ],
            [
              -69.94661300023205,
              41.512152000201745
            ],
            [
              -69.92899400030647,
              41.53215199999615
            ],
            [
              -69.91539900010287,
              41.58924300019492
            ],
            [
              -69.8681250001726,
              41.65679099971215
            ],
            [
              -69.85895000042437,
              41.70691599979195
            ],
            [
              -69.86652500004027,
              41.81701099973051
            ],
            [
              -69.92910899993421,
              41.97847599981154
            ],
            [
              -70.01159099957839,
              42.073377999887924
            ],
            [
              -70.06709799979882,
              42.10532699979471
            ],
            [
              -70.15067599978515,
              42.13146500003464
            ],
            [
              -70.22917499971526,
              42.13118899984665
            ],
            [
              -70.27743000035997,
              42.114345000049525
            ],
            [
              -70.60838100038221,
              42.13847900005962
            ],
            [
              -70.62448200019121,
              42.15722499994184
            ],
            [
              -70.6244830000161,
              42.12510699996631
            ],
            [
              -70.66578400011265,
              42.12510000019354
            ],
            [
              -70.75104900026997,
              42.29311399998622
            ],
            [
              -70.67569000033008,
              42.375097999906515
            ],
            [
              -70.72921199955539,
              42.37384799991878
            ],
            [
              -70.82563800028093,
              42.26463300020671
            ],
            [
              -70.84462700018504,
              42.260425999998375
            ],
            [
              -70.84927699989589,
              42.24733100008406
            ],
            [
              -70.84115199956078,
              42.243345999860324
            ],
            [
              -70.8533800001589,
              42.239606999727904
            ],
            [
              -70.82701499993219,
              42.20078600006893
            ],
            [
              -70.94076799960693,
              42.1513649999007
            ],
            [
              -70.9314869995535,
              42.11654899975311
            ],
            [
              -70.90241200040523,
              42.085897000019685
            ],
            [
              -70.91296200015488,
              42.08441699968444
            ],
            [
              -70.89661799977331,
              42.023284999711215
            ],
            [
              -70.89918700002623,
              41.99637099966992
            ],
            [
              -70.92536399993195,
              42.00890900014931
            ],
            [
              -70.97958499983939,
              42.010998999819336
            ],
            [
              -71.0541839998961,
              41.982716000081105
            ],
            [
              -71.07034499997955,
              41.98784100004248
            ],
            [
              -71.06144700024078,
              41.964402999735135
            ],
            [
              -71.08549000008678,
              41.941743000042656
            ],
            [
              -71.06032699960913,
              41.945123000233735
            ],
            [
              -71.03472100033906,
              41.93236099993579
            ],
            [
              -71.03564799972851,
              41.923657000105486
            ],
            [
              -71.01883700026505,
              41.92425999980943
            ],
            [
              -71.01118800013097,
              41.90700100030114
            ],
            [
              -70.99749400019317,
              41.91843999969696
            ],
            [
              -70.9929330001708,
              41.90622799978651
            ],
            [
              -70.91641099994156,
              41.87691700007937
            ],
            [
              -70.91870499983484,
              41.851943000278204
            ],
            [
              -70.893454000392,
              41.82790100015358
            ],
            [
              -70.89640000021343,
              41.79431999987293
            ],
            [
              -70.92179200012161,
              41.791264000248574
            ],
            [
              -70.90718400031481,
              41.76354300002152
            ],
            [
              -71.06663000005408,
              41.68561899974933
            ],
            [
              -71.11440699994962,
              41.692804000294004
            ],
            [
              -71.13830300038083,
              41.60405400031445
            ],
            [
              -71.13835299971122,
              41.603691999991234
            ]
          ]
        ]
      }
    }
  ]
}
