{
  "type": "FeatureCollection",
  "features": [
    {
      "type": "Feature",
      "id": "us-cd:118:49:01",
      "properties": {
        "boundary_id": "us-cd:118:49:01",
        "boundary_type": "congressional_district",
        "name": "Congressional District 1",
        "stateFips": "49",
        "congress": 118,
        "district": "01",
        "bbox": [
          -114.042553,
          40.677739,
          -110.851926,
          42.001702
        ]
      },
      "geometry": {
        "type": "Polygon",
        "coordinates": [
          [
            [
              -114.042553,
              41.210923
            ],
            [
              -114.041477,
              41.993873
            ],
            [
              -113.867726,
              41.988209
            ],
            [
              -112.775055,
              41.999806
            ],
            [
              -111.046714,
              42.001702
            ],
            [
              -111.046723,
              40.997959
            ],
            [
              -110.872056647566,
              40.9973028121329
            ],
            [
              -110.851926,
              40.963418
            ],
            [
              -110.873548,
              40.916978
            ],
            [
              -110.902769,
              40.89787
            ],
            [
              -110.921598,
              40.861409
            ],
            [
              -110.96831,
              40.847731
            ],
            [
              -110.960082,
              40.845672
            ],
            [
              -110.971914,
              40.836909
            ],
            [
              -110.99472,
              40.850294
            ],
            [
              -111.046519,
              40.846915
            ],
            [
              -111.091205,
              40.830105
            ],
            [
              -111.161132,
              40.8244
            ],
            [
              -111.181673,
              40.808853
            ],
            [
              -111.246107,
              40.811056
            ],
            [
              -111.299547,
              40.800449
            ],
            [
              -111.401185,
              40.81308
            ],
            [
              -111.407433,
              40.772629
            ],
            [
              -111.376025,
              40.752869
            ],
            [
              -111.379328,
              40.737891
            ],
            [
              -111.43392,
              40.739012
            ],
            [
              -111.43687,
              40.680587
            ],
            [
              -111.462395,
              40.683142
            ],
            [
              -111.472333,
              40.697551
            ],
            [
              -111.473895,
              40.682792
            ],
            [
              -111.558964,
              40.677739
            ],
            [
              -111.557746,
              40.686907
            ],
            [
              -111.587181,
              40.689832
            ],
            [
              -111.586641,
              40.699436
            ],
            [
              -111.606221,
              40.712856
            ],
            [
              -111.768187,
              40.710898
            ],
            [
              -111.781525,
              40.709007
            ],
            [
              -111.776737,
              40.690534
            ],
            [
              -111.830874,
              40.687082
            ],
            [
              -111.830321,
              40.745492
            ],
            [
              -111.891081,
              40.749775
            ],
            [
              -111.891101,
              40.77425
            ],
            [
              -111.91815,
              40.806962
            ],
            [
              -111.915555,
              40.821816
            ],
            [
              -111.853382,
              40.834668
            ],
            [
              -111.853443,
              40.856436
            ],
            [
              -111.83429,
              40.856122
            ],
            [
              -111.834627,
              40.871176
            ],
            [
              -111.815554,
              40.87114
            ],
            [
              -111.815371,
              40.885575
            ],
            [
              -111.839158,
              40.878387
            ],
            [
              -111.84761,
              40.900021
            ],
            [
              -111.86299,
              40.903518
            ],
            [
              -111.8534,
              40.91483
            ],
            [
              -111.865046,
              40.916124
            ],
            [
              -111.880018,
              40.952387
            ],
            [
              -111.873045,
              40.974777
            ],
            [
              -111.892228,
              41.016528
            ],
            [
              -111.930888,
              41.008599
            ],
            [
              -111.930932,
              40.996176
            ],
            [
              -111.969838,
              40.986443
            ],
            [
              -111.97991,
              40.993977
            ],
            [
              -112.003618,
              40.985437
            ],
            [
              -112.043371,
              40.989422
            ],
            [
              -112.065691,
              41.021815
            ],
            [
              -112.097491,
              41.035288
            ],
            [
              -112.126771,
              41.089216
            ],
            [
              -112.451621,
              41.087334
            ],
            [
              -112.799359,
              40.999939
            ],
            [
              -114.042145133139,
              40.9998965245684
            ],
            [
              -114.041447,
              41.207752
            ],
            [
              -114.042553,
              41.210923
            ]
          ]
        ]
      }
    },
    {
      "type": "Feature",
      "id": "us-cd:118:49:02",
      "properties": {
        "boundary_id": "us-cd:118:49:02",
        "boundary_type": "congressional_district",
        "name": "Congressional District 2",
        "stateFips": "49",
        "congress": 118,
        "district": "02",
        "bbox": [
          -114.052962,
          37.000396,
          -109.886678,
          41.089216
        ]
      },
      "geometry": {
        "type": "Polygon",
        "coordinates": [
          [
            [
              -114.052962,
              37.592783
            ],
            [
              -114.042145133139,
              40.9998965245684
            ],
            [
              -112.799359,
              40.999939
            ],
            [
              -112.451621,
              41.087334
            ],
            [
              -112.126771,
              41.089216
            ],
            [
              -112.097491,
              41.035288
            ],
            [
              -112.065691,
              41.021815
            ],
            [
              -112.049037,
              40.9921
            ],
            [
              -112.031193,
              40.987363
            ],
            [
              -111.97991,
              40.993977
            ],
            [
              -111.969838,
              40.986443
            ],
            [
              -111.930932,
              40.996176
            ],
            [
              -111.930888,
              41.008599
            ],
            [
              -111.892228,
              41.016528
            ],
            [
              -111.873045,
              40.974777
            ],
            [
              -111.880018,
              40.952387
            ],
            [
              -111.865046,
              40.916124
            ],
            [
              -111.8534,
              40.91483
            ],
            [
              -111.86299,
              40.903518
            ],
            [
              -111.84761,
              40.900021
            ],
            [
              -111.839158,
              40.878387
            ],
            [
              -111.815371,
              40.885575
            ],
            [
              -111.815554,
              40.87114
            ],
            [
              -111.834627,
              40.871176
            ],
            [
              -111.83429,
              40.856122
            ],
            [
              -111.853443,
              40.856436
            ],
            [
              -111.853382,
              40.834668
            ],
            [
              -111.915555,
              40.821816
            ],
            [
              -111.91815,
              40.806962
            ],
            [
              -111.891101,
              40.77425
            ],
            [
              -111.891081,
              40.749775
            ],
            [
              -111.830321,
              40.745492
            ],
            [
              -111.830874,
              40.687082
            ],
            [
              -112.024743,
              40.682078
            ],
            [
              -112.024634,
              40.638551
            ],
            [
              -112.035019,
              40.631229
            ],
            [
              -112.197674,
              40.625462
            ],
            [
              -112.175337,
              40.603981
            ],
            [
              -112.183613,
              40.573036
            ],
            [
              -112.178761,
              40.522017
            ],
            [
              -112.187541,
              40.514098
            ],
            [
              -112.175845,
              40.500142
            ],
            [
              -112.181433,
              40.493918
            ],
            [
              -112.171567,
              40.471182
            ],
            [
              -112.214178,
              40.45231
            ],
            [
              -112.209485,
              40.433068
            ],
            [
              -112.19467,
              40.421062
            ],
            [
              -112.201585,
              40.388154
            ],
            [
              -112.188734,
              40.372487
            ],
            [
              -112.194504,
              40.361198
            ],
            [
              -112.175533,
              40.335837
            ],
            [
              -112.196276,
              40.325836
            ],
            [
              -112.198605,
              40.306915
            ],
            [
              -112.187356,
              40.292036
            ],
            [
              -112.192898,
              40.268939
            ],
            [
              -112.179326,
              40.249365
            ],
            [
              -112.179693,
              40.23224
            ],
            [
              -112.149486,
              40.212174
            ],
            [
              -112.160399,
              40.198849
            ],
            [
              -112.148561,
              40.195355
            ],
            [
              -112.153373,
              40.182158
            ],
            [
              -112.144383,
              40.173249
            ],
            [
              -112.173993,
              40.154288
            ],
            [
              -112.167769,
              40.146666
            ],
            [
              -112.176101,
              40.130806
            ],
            [
              -112.150892,
              40.107298
            ],
            [
              -112.183594,
              40.059655
            ],
            [
              -112.171981,
              40.039484
            ],
            [
              -112.1798,
              40.011656
            ],
            [
              -112.160026,
              40.006758
            ],
            [
              -112.132729,
              39.977471
            ],
            [
              -112.110139,
              39.973835
            ],
            [
              -112.094135,
              39.954474
            ],
            [
              -112.106259,
              39.939305
            ],
            [
              -112.10359,
              39.928767
            ],
            [
              -112.085248,
              39.925494
            ],
            [
              -112.053511,
              39.893397
            ],
            [
              -112.08122,
              39.865081
            ],
            [
              -112.065415,
              39.830039
            ],
            [
              -112.076756,
              39.800126
            ],
            [
              -112.114904,
              39.7571
            ],
            [
              -112.180031,
              39.757398
            ],
            [
              -112.20587,
              39.710552
            ],
            [
              -112.30087,
              39.64617
            ],
            [
              -112.354467,
              39.553684
            ],
            [
              -112.212045,
              39.553987
            ],
            [
              -112.193292,
              39.540451
            ],
            [
              -112.193242,
              39.526023
            ],
            [
              -112.211973,
              39.526042
            ],
            [
              -112.211961,
              39.511579
            ],
            [
              -112.202626,
              39.489858
            ],
            [
              -112.193277,
              39.489834
            ],
            [
              -112.188922,
              39.329392
            ],
            [
              -112.072108,
              39.329695
            ],
            [
              -112.072218,
              39.314923
            ],
            [
              -112.016003,
              39.314561
            ],
            [
              -112.014083,
              39.045518
            ],
            [
              -111.849886,
              39.045577
            ],
            [
              -111.853402,
              39.033368
            ],
            [
              -111.299363,
              39.032311
            ],
            [
              -111.305701,
              38.499998
            ],
            [
              -110.025285,
              38.499982
            ],
            [
              -110.001977,
              38.481678
            ],
            [
              -110.010662,
              38.449741
            ],
            [
              -110.018553,
              38.446293
            ],
            [
              -110.035991,
              38.459929
            ],
            [
              -110.044318,
              38.449011
            ],
            [
              -110.026588,
              38.447432
            ],
            [
              -110.003217,
              38.413617
            ],
            [
              -110.032662,
              38.385985
            ],
            [
              -110.010249,
              38.377605
            ],
            [
              -110.011771,
              38.364168
            ],
            [
              -109.976682,
              38.388993
            ],
            [
              -109.973002,
              38.375916
            ],
            [
              -109.986996,
              38.360041
            ],
            [
              -109.983714,
              38.352037
            ],
            [
              -109.9644,
              38.339743
            ],
            [
              -109.952145,
              38.355211
            ],
            [
              -109.94094,
              38.353294
            ],
            [
              -109.948737,
              38.337593
            ],
            [
              -109.964999,
              38.331804
            ],
            [
              -109.963349,
              38.319492
            ],
            [
              -109.946379,
              38.309198
            ],
            [
              -109.949101,
              38.290193
            ],
            [
              -109.928896,
              38.281661
            ],
            [
              -109.93589,
              38.263101
            ],
            [
              -109.9075,
              38.270572
            ],
            [
              -109.901791,
              38.256807
            ],
            [
              -109.918257,
              38.242771
            ],
            [
              -109.899263,
              38.242905
            ],
            [
              -109.88863,
              38.230156
            ],
            [
              -109.920466,
              38.220882
            ],
            [
              -109.887739,
              38.207649
            ],
            [
              -109.903942,
              38.18998
            ],
            [
              -109.886678,
              38.183536
            ],
            [
              -109.932573,
              38.157245
            ],
            [
              -109.929292,
              38.140352
            ],
            [
              -109.954905,
              38.131197
            ],
            [
              -109.964173,
              38.114056
            ],
            [
              -109.986883,
              38.10052
            ],
            [
              -110.0101,
              38.109685
            ],
            [
              -110.026283,
              38.096978
            ],
            [
              -110.04721,
              38.069779
            ],
            [
              -110.045686,
              38.050272
            ],
            [
              -110.0653,
              38.041728
            ],
            [
              -110.07612,
              38.022721
            ],
            [
              -110.078387,
              37.998174
            ],
            [
              -110.136293,
              38.005153
            ],
            [
              -110.168663,
              37.964464
            ],
            [
              -110.201849,
              37.946877
            ],
            [
              -110.198407,
              37.915925
            ],
            [
              -110.208795,
              37.894071
            ],
            [
              -110.269488,
              37.897551
            ],
            [
              -110.283273,
              37.865923
            ],
            [
              -110.307976,
              37.891005
            ],
            [
              -110.362729,
              37.892495
            ],
            [
              -110.404221,
              37.880946
            ],
            [
              -110.402741,
              37.852178
            ],
            [
              -110.431476,
              37.836813
            ],
            [
              -110.436562,
              37.808281
            ],
            [
              -110.471058,
              37.808788
            ],
            [
              -110.476961,
              37.800017
            ],
            [
              -110.461565,
              37.77092
            ],
            [
              -110.426481,
              37.774369
            ],
            [
              -110.445699,
              37.759924
            ],
            [
              -110.450217,
              37.73477
            ],
            [
              -110.488404,
              37.702012
            ],
            [
              -110.484534,
              37.681806
            ],
            [
              -110.498244,
              37.651738
            ],
            [
              -110.513565,
              37.65694
            ],
            [
              -110.538987,
              37.633138
            ],
            [
              -110.55904,
              37.642264
            ],
            [
              -110.567389,
              37.613745
            ],
            [
              -110.603788,
              37.602115
            ],
            [
              -110.599707,
              37.568696
            ],
            [
              -110.637253,
              37.552973
            ],
            [
              -110.663924,
              37.518368
            ],
            [
              -110.667233,
              37.495631
            ],
            [
              -110.640198,
              37.48602
            ],
            [
              -110.667608,
              37.477659
            ],
            [
              -110.718813,
              37.481294
            ],
            [
              -110.726527,
              37.459147
            ],
            [
              -110.747583,
              37.458486
            ],
            [
              -110.726086,
              37.435733
            ],
            [
              -110.699833,
              37.433348
            ],
            [
              -110.716958,
              37.401378
            ],
            [
              -110.753591,
              37.403732
            ],
            [
              -110.722818,
              37.373151
            ],
            [
              -110.73619,
              37.345978
            ],
            [
              -110.751189,
              37.352983
            ],
            [
              -110.760535,
              37.332491
            ],
            [
              -110.804506,
              37.320931
            ],
            [
              -110.856675,
              37.348529
            ],
            [
              -110.87326,
              37.34593
            ],
            [
              -110.868159,
              37.328654
            ],
            [
              -110.840791,
              37.318376
            ],
            [
              -110.837742,
              37.303386
            ],
            [
              -110.873048,
              37.286904
            ],
            [
              -110.860741,
              37.260116
            ],
            [
              -110.888562,
              37.247941
            ],
            [
              -110.875527,
              37.227344
            ],
            [
              -110.897508,
              37.215881
            ],
            [
              -110.888914,
              37.199735
            ],
            [
              -110.902945,
              37.172348
            ],
            [
              -110.92508,
              37.17779
            ],
            [
              -110.928284,
              37.154878
            ],
            [
              -110.953698,
              37.151921
            ],
            [
              -110.956624,
              37.125771
            ],
            [
              -110.981267,
              37.127377
            ],
            [
              -110.989071,
              37.111703
            ],
            [
              -111.013372,
              37.115705
            ],
            [
              -111.05264,
              37.098914
            ],
            [
              -111.065402,
              37.107873
            ],
            [
              -111.122183,
              37.107904
            ],
            [
              -111.139159,
              37.088613
            ],
            [
              -111.166528,
              37.105664
            ],
            [
              -111.17845,
              37.102208
            ],
            [
              -111.218216,
              37.056678
            ],
            [
              -111.239463,
              37.068674
            ],
            [
              -111.247623,
              37.048666
            ],
            [
              -111.229927,
              37.039317
            ],
            [
              -111.243183,
              37.021239
            ],
            [
              -111.268179,
              37.054073
            ],
            [
              -111.299758,
              37.066755
            ],
            [
              -111.302383,
              37.046047
            ],
            [
              -111.281756,
              37.04122
            ],
            [
              -111.306211,
              37.026628
            ],
            [
              -111.306239,
              37.012552
            ],
            [
              -111.330476,
              37.020708
            ],
            [
              -111.371438,
              37.001589
            ],
            [
              -114.0506,
              37.000396
            ],
            [
              -114.052736983833,
              37.5310280136728
            ],
            [
              -114.052962,
              37.592783
            ]
          ]
        ]
      }
    },
    {
      "type": "Feature",
      "id": "us-cd:118:49:03",
      "properties": {
        "boundary_id": "us-cd:118:49:03",
        "boundary_type": "congressional_district",
        "name": "Congressional District 3",
        "stateFips": "49",
        "congress": 118,
        "district": "03",
        "bbox": [
          -111.914233,
          36.999084,
          -109.041762,
          41.000659
        ]
      },
      "geometry": {
        "type": "Polygon",
        "coordinates": [
          [
            [
              -111.91384,
              40.462156
            ],
            [
              -111.890949,
              40.493719
            ],
            [
              -111.905698,
              40.615145
            ],
            [
              -111.865993,
              40.622184
            ],
            [
              -111.865518,
              40.687057
            ],
            [
              -111.776737,
              40.690534
            ],
            [
              -111.781525,
              40.709007
            ],
            [
              -111.768187,
              40.710898
            ],
            [
              -111.606221,
              40.712856
            ],
            [
              -111.586641,
              40.699436
            ],
            [
              -111.587181,
              40.689832
            ],
            [
              -111.557746,
              40.686907
            ],
            [
              -111.558964,
              40.677739
            ],
            [
              -111.473895,
              40.682792
            ],
            [
              -111.472333,
              40.697551
            ],
            [
              -111.462395,
              40.683142
            ],
            [
              -111.43687,
              40.680587
            ],
            [
              -111.43392,
              40.739012
            ],
            [
              -111.379328,
              40.737891
            ],
            [
              -111.376025,
              40.752869
            ],
            [
              -111.407433,
              40.772629
            ],
            [
              -111.401185,
              40.81308
            ],
            [
              -111.299547,
              40.800449
            ],
            [
              -111.246107,
              40.811056
            ],
            [
              -111.181673,
              40.808853
            ],
            [
              -111.161132,
              40.8244
            ],
            [
              -111.091205,
              40.830105
            ],
            [
              -111.046519,
              40.846915
            ],
            [
              -110.99472,
              40.850294
            ],
            [
              -110.971914,
              40.836909
            ],
            [
              -110.960082,
              40.845672
            ],
            [
              -110.96831,
              40.847731
            ],
            [
              -110.921598,
              40.861409
            ],
            [
              -110.902769,
              40.89787
            ],
            [
              -110.873548,
              40.916978
            ],
            [
              -110.851926,
              40.963418
            ],
            [
              -110.872056647566,
              40.9973028121329
            ],
            [
              -109.050076,
              41.000659
            ],
            [
              -109.060062,
              38.275489
            ],
            [
              -109.041762,
              38.16469
            ],
            [
              -109.045223,
              36.999084
            ],
            [
              -111.413013987341,
              37.0014775769675
            ],
            [
              -111.368153,
              37.002037
            ],
            [
              -111.327043,
              37.021168
            ],
            [
              -111.306239,
              37.012552
            ],
            [
              -111.306211,
              37.026628
            ],
            [
              -111.281756,
              37.04122
            ],
            [
              -111.302383,
              37.046047
            ],
            [
              -111.299758,
              37.066755
            ],
            [
              -111.268179,
              37.054073
            ],
            [
              -111.248409,
              37.022607
            ],
            [
              -111.239488,
              37.022256
            ],
            [
              -111.229927,
              37.039317
            ],
            [
              -111.247623,
              37.048666
            ],
            [
              -111.239463,
              37.068674
            ],
            [
              -111.218216,
              37.056678
            ],
            [
              -111.175948,
              37.103271
            ],
            [
              -111.139159,
              37.088613
            ],
            [
              -111.122183,
              37.107904
            ],
            [
              -111.065402,
              37.107873
            ],
            [
              -111.05264,
              37.098914
            ],
            [
              -111.013372,
              37.115705
            ],
            [
              -110.987347,
              37.112343
            ],
            [
              -110.981267,
              37.127377
            ],
            [
              -110.956624,
              37.125771
            ],
            [
              -110.953698,
              37.151921
            ],
            [
              -110.937001,
              37.147982
            ],
            [
              -110.925577,
              37.159627
            ],
            [
              -110.92508,
              37.17779
            ],
            [
              -110.902945,
              37.172348
            ],
            [
              -110.89044,
              37.193069
            ],
            [
              -110.897508,
              37.215881
            ],
            [
              -110.875163,
              37.229886
            ],
            [
              -110.888562,
              37.247941
            ],
            [
              -110.860741,
              37.260116
            ],
            [
              -110.873048,
              37.286904
            ],
            [
              -110.838907,
              37.299561
            ],
            [
              -110.840791,
              37.318376
            ],
            [
              -110.868159,
              37.328654
            ],
            [
              -110.87326,
              37.34593
            ],
            [
              -110.856675,
              37.348529
            ],
            [
              -110.804506,
              37.320931
            ],
            [
              -110.760535,
              37.332491
            ],
            [
              -110.751189,
              37.352983
            ],
            [
              -110.73619,
              37.345978
            ],
            [
              -110.722818,
              37.373151
            ],
            [
              -110.753591,
              37.403732
            ],
            [
              -110.716958,
              37.401378
            ],
            [
              -110.699833,
              37.433348
            ],
            [
              -110.726086,
              37.435733
            ],
            [
              -110.747583,
              37.458486
            ],
            [
              -110.726527,
              37.459147
            ],
            [
              -110.718813,
              37.481294
            ],
            [
              -110.667608,
              37.477659
            ],
            [
              -110.640198,
              37.48602
            ],
            [
              -110.667233,
              37.495631
            ],
            [
              -110.663924,
              37.518368
            ],
            [
              -110.637253,
              37.552973
            ],
            [
              -110.599707,
              37.568696
            ],
            [
              -110.603788,
              37.602115
            ],
            [
              -110.567389,
              37.613745
            ],
            [
              -110.55904,
              37.642264
            ],
            [
              -110.538987,
              37.633138
            ],
            [
              -110.513565,
              37.65694
            ],
            [
              -110.498244,
              37.651738
            ],
            [
              -110.484534,
              37.681806
            ],
            [
              -110.488404,
              37.702012
            ],
            [
              -110.450217,
              37.73477
            ],
            [
              -110.445699,
              37.759924
            ],
            [
              -110.426481,
              37.774369
            ],
            [
              -110.461565,
              37.77092
            ],
            [
              -110.476961,
              37.800017
            ],
            [
              -110.471058,
              37.808788
            ],
            [
              -110.436562,
              37.808281
            ],
            [
              -110.431476,
              37.836813
            ],
            [
              -110.402741,
              37.852178
            ],
            [
              -110.404221,
              37.880946
            ],
            [
              -110.362729,
              37.892495
            ],
            [
              -110.307976,
              37.891005
            ],
            [
              -110.283273,
              37.865923
            ],
            [
              -110.269488,
              37.897551
            ],
            [
              -110.208795,
              37.894071
            ],
            [
              -110.198407,
              37.915925
            ],
            [
              -110.201849,
              37.946877
            ],
            [
              -110.168663,
              37.964464
            ],
            [
              -110.136293,
              38.005153
            ],
            [
              -110.078387,
              37.998174
            ],
            [
              -110.07612,
              38.022721
            ],
            [
              -110.0653,
              38.041728
            ],
            [
              -110.045686,
              38.050272
            ],
            [
              -110.04721,
              38.069779
            ],
            [
              -110.026283,
              38.096978
            ],
            [
              -110.0101,
              38.109685
            ],
            [
              -109.986883,
              38.10052
            ],
            [
              -109.964173,
              38.114056
            ],
            [
              -109.954905,
              38.131197
            ],
            [
              -109.929292,
              38.140352
            ],
            [
              -109.932573,
              38.157245
            ],
            [
              -109.886678,
              38.183536
            ],
            [
              -109.903942,
              38.18998
            ],
            [
              -109.887739,
              38.207649
            ],
            [
              -109.920466,
              38.220882
            ],
            [
              -109.88863,
              38.230156
            ],
            [
              -109.899263,
              38.242905
            ],
            [
              -109.918257,
              38.242771
            ],
            [
              -109.901791,
              38.256807
            ],
            [
              -109.9075,
              38.270572
            ],
            [
              -109.93589,
              38.263101
            ],
            [
              -109.928896,
              38.281661
            ],
            [
              -109.949101,
              38.290193
            ],
            [
              -109.946379,
              38.309198
            ],
            [
              -109.963349,
              38.319492
            ],
            [
              -109.964999,
              38.331804
            ],
            [
              -109.948737,
              38.337593
            ],
            [
              -109.94094,
              38.353294
            ],
            [
              -109.952145,
              38.355211
            ],
            [
              -109.9644,
              38.339743
            ],
            [
              -109.983714,
              38.352037
            ],
            [
              -109.986996,
              38.360041
            ],
            [
              -109.973002,
              38.375916
            ],
            [
              -109.976682,
              38.388993
            ],
            [
              -110.011771,
              38.364168
            ],
            [
              -110.010249,
              38.377605
            ],
            [
              -110.032662,
              38.385985
            ],
            [
              -110.003217,
              38.413617
            ],
            [
              -110.026588,
              38.447432
            ],
            [
              -110.044318,
              38.449011
            ],
            [
              -110.035991,
              38.459929
            ],
            [
              -110.018553,
              38.446293
            ],
            [
              -110.010662,
              38.449741
            ],
            [
              -110.001977,
              38.481678
            ],
            [
              -110.025285,
              38.499982
            ],
            [
              -111.305701,
              38.499998
            ],
            [
              -111.307011,
              38.672331
            ],
            [
              -111.299138,
              38.672329
            ],
            [
              -111.298432,
              38.751804
            ],
            [
              -111.300905,
              39.467237
            ],
            [
              -111.247748,
              39.467199
            ],
            [
              -111.247496,
              39.813028
            ],
            [
              -110.85778,
              39.813285
            ],
            [
              -110.857647,
              39.899707
            ],
            [
              -111.083102,
              39.900059
            ],
            [
              -111.083061,
              39.943198
            ],
            [
              -111.131073,
              39.947326
            ],
            [
              -111.119271,
              39.968156
            ],
            [
              -111.143043,
              39.986955
            ],
            [
              -111.167879,
              39.990936
            ],
            [
              -111.171665,
              40.010657
            ],
            [
              -111.197708,
              40.031179
            ],
            [
              -111.203919,
              40.04927
            ],
            [
              -111.226705,
              40.035693
            ],
            [
              -111.246207,
              40.047466
            ],
            [
              -111.249227,
              40.055595
            ],
            [
              -111.236031,
              40.069998
            ],
            [
              -111.241415,
              40.091896
            ],
            [
              -111.221464,
              40.124918
            ],
            [
              -111.231328,
              40.147627
            ],
            [
              -111.225433,
              40.167022
            ],
            [
              -111.273375,
              40.221913
            ],
            [
              -111.264839,
              40.242271
            ],
            [
              -111.315246,
              40.287605
            ],
            [
              -111.32813,
              40.282229
            ],
            [
              -111.377558,
              40.297483
            ],
            [
              -111.426646,
              40.28702
            ],
            [
              -111.457316,
              40.300714
            ],
            [
              -111.512349,
              40.283054
            ],
            [
              -111.542415,
              40.261187
            ],
            [
              -111.542372,
              40.247196
            ],
            [
              -111.525733,
              40.246875
            ],
            [
              -111.511973,
              40.234026
            ],
            [
              -111.505448,
              40.199087
            ],
            [
              -111.493746,
              40.192143
            ],
            [
              -111.492771,
              40.166058
            ],
            [
              -111.501188,
              40.162055
            ],
            [
              -111.559925,
              40.152277
            ],
            [
              -111.593799,
              40.171052
            ],
            [
              -111.600654,
              40.161055
            ],
            [
              -111.720085,
              40.15469
            ],
            [
              -111.747565,
              40.166451
            ],
            [
              -111.737203,
              40.180668
            ],
            [
              -111.718531,
              40.18384
            ],
            [
              -111.731597,
              40.1953
            ],
            [
              -111.731692,
              40.223498
            ],
            [
              -111.740962,
              40.236985
            ],
            [
              -111.730561,
              40.256653
            ],
            [
              -111.758587,
              40.279922
            ],
            [
              -111.772264,
              40.28015
            ],
            [
              -111.772777,
              40.341038
            ],
            [
              -111.779298,
              40.347661
            ],
            [
              -111.785542,
              40.339526
            ],
            [
              -111.800542,
              40.342368
            ],
            [
              -111.801289,
              40.370836
            ],
            [
              -111.877707,
              40.41987
            ],
            [
              -111.914233,
              40.457891
            ],
            [
              -111.91384,
              40.462156
            ]
          ]
        ]
      }
    },
    {
      "type": "Feature",
      "id": "us-cd:118:49:04",
      "properties": {
        "boundary_id": "us-cd:118:49:04",
        "boundary_type": "congressional_district",
        "name": "Congressional District 4",
        "stateFips": "49",
        "congress": 118,
        "district": "04",
        "bbox": [
          -112.354467,
          39.032311,
          -110.857647,
          40.687057
        ]
      },
      "geometry": {
        "type": "Polygon",
        "coordinates": [
          [
            [
              -112.329836,
              39.591316
            ],
            [
              -112.30087,
              39.64617
            ],
            [
              -112.20587,
              39.710552
            ],
            [
              -112.180031,
              39.757398
            ],
            [
              -112.114904,
              39.7571
            ],
            [
              -112.076756,
              39.800126
            ],
            [
              -112.065415,
              39.830039
            ],
            [
              -112.08122,
              39.865081
            ],
            [
              -112.053511,
              39.893397
            ],
            [
              -112.085248,
              39.925494
            ],
            [
              -112.10359,
              39.928767
            ],
            [
              -112.106259,
              39.939305
            ],
            [
              -112.094135,
              39.954474
            ],
            [
              -112.110139,
              39.973835
            ],
            [
              -112.132729,
              39.977471
            ],
            [
              -112.160026,
              40.006758
            ],
            [
              -112.1798,
              40.011656
            ],
            [
              -112.171981,
              40.039484
            ],
            [
              -112.183594,
              40.059655
            ],
            [
              -112.150892,
              40.107298
            ],
            [
              -112.176101,
              40.130806
            ],
            [
              -112.167769,
              40.146666
            ],
            [
              -112.173993,
              40.154288
            ],
            [
              -112.144383,
              40.173249
            ],
            [
              -112.153373,
              40.182158
            ],
            [
              -112.148561,
              40.195355
            ],
            [
              -112.160399,
              40.198849
            ],
            [
              -112.149486,
              40.212174
            ],
            [
              -112.176688,
              40.227717
            ],
            [
              -112.192196,
              40.2645
            ],
            [
              -112.186495,
              40.286858
            ],
            [
              -112.198605,
              40.306915
            ],
            [
              -112.196276,
              40.325836
            ],
            [
              -112.175533,
              40.335837
            ],
            [
              -112.194504,
              40.361198
            ],
            [
              -112.188734,
              40.372487
            ],
            [
              -112.201585,
              40.388154
            ],
            [
              -112.19467,
              40.421062
            ],
            [
              -112.209485,
              40.433068
            ],
            [
              -112.214178,
              40.45231
            ],
            [
              -112.171567,
              40.471182
            ],
            [
              -112.181433,
              40.493918
            ],
            [
              -112.175845,
              40.500142
            ],
            [
              -112.187541,
              40.514098
            ],
            [
              -112.178761,
              40.522017
            ],
            [
              -112.183613,
              40.573036
            ],
            [
              -112.175337,
              40.603981
            ],
            [
              -112.196393,
              40.62934
            ],
            [
              -112.035019,
              40.631229
            ],
            [
              -112.024634,
              40.638551
            ],
            [
              -112.024743,
              40.682078
            ],
            [
              -111.865518,
              40.687057
            ],
            [
              -111.865993,
              40.622184
            ],
            [
              -111.905698,
              40.615145
            ],
            [
              -111.890949,
              40.493719
            ],
            [
              -111.913313,
              40.452523
            ],
            [
              -111.827844,
              40.382307
            ],
            [
              -111.801289,
              40.370836
            ],
            [
              -111.800542,
              40.342368
            ],
            [
              -111.785542,
              40.339526
            ],
            [
              -111.779298,
              40.347661
            ],
            [
              -111.772777,
              40.341038
            ],
            [
              -111.772264,
              40.28015
            ],
            [
              -111.758587,
              40.279922
            ],
            [
              -111.730561,
              40.256653
            ],
            [
              -111.740962,
              40.236985
            ],
            [
              -111.731692,
              40.223498
            ],
            [
              -111.731597,
              40.1953
            ],
            [
              -111.718531,
              40.18384
            ],
            [
              -111.737203,
              40.180668
            ],
            [
              -111.747565,
              40.166451
            ],
            [
              -111.720085,
              40.15469
            ],
            [
              -111.600654,
              40.161055
            ],
            [
              -111.593799,
              40.171052
            ],
            [
              -111.559925,
              40.152277
            ],
            [
              -111.501188,
              40.162055
            ],
            [
              -111.492771,
              40.166058
            ],
            [
              -111.493746,
              40.192143
            ],
            [
              -111.505448,
              40.199087
            ],
            [
              -111.511973,
              40.234026
            ],
            [
              -111.525733,
              40.246875
            ],
            [
              -111.542372,
              40.247196
            ],
            [
              -111.542415,
              40.261187
            ],
            [
              -111.512349,
              40.283054
            ],
            [
              -111.457316,
              40.300714
            ],
            [
              -111.426646,
              40.28702
            ],
            [
              -111.377558,
              40.297483
            ],
            [
              -111.32813,
              40.282229
            ],
            [
              -111.315246,
              40.287605
            ],
            [
              -111.264839,
              40.242271
            ],
            [
              -111.273375,
              40.221913
            ],
            [
              -111.225433,
              40.167022
            ],
            [
              -111.231328,
              40.147627
            ],
            [
              -111.221464,
              40.124918
            ],
            [
              -111.241415,
              40.091896
            ],
            [
              -111.236031,
              40.069998
            ],
            [
              -111.249227,
              40.055595
            ],
            [
              -111.246207,
              40.047466
            ],
            [
              -111.226705,
              40.035693
            ],
            [
              -111.203919,
              40.04927
            ],
            [
              -111.197708,
              40.031179
            ],
            [
              -111.171665,
              40.010657
            ],
            [
              -111.167879,
              39.990936
            ],
            [
              -111.143043,
              39.986955
            ],
            [
              -111.119271,
              39.968156
            ],
            [
              -111.131073,
              39.947326
            ],
            [
              -111.083061,
              39.943198
            ],
            [
              -111.083102,
              39.900059
            ],
            [
              -110.857647,
              39.899707
            ],
            [
              -110.85778,
              39.813285
            ],
            [
              -111.247496,
              39.813028
            ],
            [
              -111.247748,
              39.467199
            ],
            [
              -111.300905,
              39.467237
            ],
            [
              -111.299363,
              39.032311
            ],
            [
              -111.853402,
              39.033368
            ],
            [
              -111.849886,
              39.045577
            ],
            [
              -112.014083,
              39.045518
            ],
            [
              -112.016003,
              39.314561
            ],
            [
              -112.072218,
              39.314923
            ],
            [
              -112.072108,
              39.329695
            ],
            [
              -112.188922,
              39.329392
            ],
            [
              -112.193277,
              39.489834
            ],
            [
              -112.202626,
              39.489858
            ],
            [
              -112.211961,
              39.511579
            ],
            [
              -112.211973,
              39.526042
            ],
            [
              -112.193242,
              39.526023
            ],
            [
              -112.193292,
              39.540451
            ],
            [
              -112.212045,
              39.553987
            ],
            [
              -112.354467,
              39.553684
            ],
            [
              -112.329836,
              39.591316
            ]
          ]
        ]
      }
    }
  ]
}
