{
  "type": "FeatureCollection",
  "features": [
    {
      "type": "Feature",
      "id": "us-cd:119:15:01",
      "properties": {
        "boundary_id": "us-cd:119:15:01",
        "boundary_type": "congressional_district",
        "name": "1",
        "stateFips": "15",
        "congress": 119,
        "district": "01",
        "bbox": [
          -158.09071999962282,
          21.19923799969125,
          -157.59758000042945,
          21.501559999634704
        ]
      },
      "geometry": {
        "type": "Polygon",
        "coordinates": [
          [
            [
              -158.09071999962282,
              21.326889999630534
            ],
            [
              -158.0849190002165,
              21.239280000052545
            ],
            [
              -157.96355500004253,
              21.25773799964421
            ],
            [
              -157.89865600033895,
              21.249939000251608
            ],
            [
              -157.85906699962936,
              21.21313500017911
            ],
            [
              -157.81022899955178,
              21.19923799969125
            ],
            [
              -157.74531099958162,
              21.22167100016276
            ],
            [
              -157.71970100011353,
              21.209485000114313
            ],
            [
              -157.67577700023577,
              21.213801000399116
            ],
            [
              -157.6076930003361,
              21.26913399984354
            ],
            [
              -157.5979090003174,
              21.295133999779416
            ],
            [
              -157.59758000042945,
              21.313817000138293
            ],
            [
              -157.66042600026418,
              21.30813400020878
            ],
            [
              -157.67878099978353,
              21.320322999613833
            ],
            [
              -157.71685700039936,
              21.31713199958774
            ],
            [
              -157.78225599969517,
              21.337132000328644
            ],
            [
              -157.79060199996323,
              21.364042999998297
            ],
            [
              -157.80965500033977,
              21.36933000018314
            ],
            [
              -157.82405399990918,
              21.395130000227088
            ],
            [
              -157.83890299974038,
              21.4019869999249
            ],
            [
              -157.83853200001965,
              21.417933000112512
            ],
            [
              -157.87246699983933,
              21.439791999782763
            ],
            [
              -157.89624299972166,
              21.501559999634704
            ],
            [
              -157.96859599956565,
              21.487075000203884
            ],
            [
              -158.02851999986842,
              21.49146099970698
            ],
            [
              -158.02475200023952,
              21.42413200018135
            ],
            [
              -158.03145200034444,
              21.42003299959769
            ],
            [
              -158.01921600024878,
              21.390294999833557
            ],
            [
              -158.05187499980124,
              21.373668000148996
            ],
            [
              -158.09062699973637,
              21.327036000103973
            ],
            [
              -158.09071999962282,
              21.326889999630534
            ]
          ]
        ]
      }
    },
    {
      "type": "Feature",
      "id": "us-cd:119:15:02",
      "properties": {
        "boundary_id": "us-cd:119:15:02",
        "boundary_type": "congressional_district",
        "name": "2",
        "stateFips": "15",
        "congress": 119,
        "district": "02",
        "bbox": [
          -178.4435930001603,
          18.866785999612517,
          -154.75660500003795,
          28.51726899980199
        ]
      },
      "geometry": {
        "type": "MultiPolygon",
        "coordinates": [
          [
            [
              [
                -156.1192980003294,
                19.73648199989161
              ],
              [
                -156.0785920002596,
                19.62500099988913
              ],
              [
                -156.03027700023873,
                19.58747800010298
              ],
              [
                -156.0128640001775,
                19.500000000341064
              ],
              [
                -155.99913400025468,
                19.466181000354364
              ],
              [
                -155.97810500000216,
                19.445809000155915
              ],
              [
                -155.94321299975746,
                19.344226999618144
              ],
              [
                -155.97473800023124,
                19.130160999922172
              ],
              [
                -155.95406399980598,
                19.05362199984225
              ],
              [
                -155.91633399969487,
                18.99999900040688
              ],
              [
                -155.87499999998636,
                18.976430000342425
              ],
              [
                -155.82823300021929,
                18.966542000034103
              ],
              [
                -155.78172699966981,
                18.93341700041606
              ],
              [
                -155.73997100018693,
                18.91689099964785
              ],
              [
                -155.72289500040955,
                18.8825229999192
              ],
              [
                -155.694257000206,
                18.866785999612517
              ],
              [
                -155.63909700031522,
                18.874999999628862
              ],
              [
                -155.56560000044846,
                18.934516999663412
              ],
              [
                -155.51655399995838,
                19.011482999824153
              ],
              [
                -155.5000020000627,
                19.064338000098317
              ],
              [
                -155.4660970003802,
                19.09535200033711
              ],
              [
                -155.42893399980844,
                19.107214999912166
              ],
              [
                -155.39143399985107,
                19.14436000010243
              ],
              [
                -155.325376999881,
                19.171280000088725
              ],
              [
                -155.26840500014578,
                19.219494999901872
              ],
              [
                -155.17561700025112,
                19.211385999833414
              ],
              [
                -155.1055099997215,
                19.234270000333286
              ],
              [
                -155.07933899966358,
                19.254088000083705
              ],
              [
                -154.93966299962798,
                19.312834000006912
              ],
              [
                -154.78613199999614,
                19.44037599970451
              ],
              [
                -154.75660500003795,
                19.50691100031725
              ],
              [
                -154.75933300029953,
                19.536462000296172
              ],
              [
                -154.77829399971623,
                19.55989499997693
              ],
              [
                -154.82222099996707,
                19.593309999895308
              ],
              [
                -154.88142800004437,
                19.619950999731252
              ],
              [
                -154.92893499960311,
                19.67360499999966
              ],
              [
                -154.93185299983546,
                19.71546800009029
              ],
              [
                -154.96384299974136,
                19.769189000086502
              ],
              [
                -154.99471999958666,
                19.788923999963497
              ],
              [
                -155.03331500006124,
                19.793420999591394
              ],
              [
                -155.03162000039268,
                19.875000000171646
              ],
              [
                -155.0860489998143,
                19.941742999927996
              ],
              [
                -155.14032999999617,
                19.989481000332443
              ],
              [
                -155.25239899987304,
                20.063448000360555
              ],
              [
                -155.39754700032523,
                20.132832999958286
              ],
              [
                -155.54074999996527,
                20.18024899970306
              ],
              [
                -155.58208700004684,
                20.18131600007709
              ],
              [
                -155.68884500006382,
                20.24477600032372
              ],
              [
                -155.74039999963398,
                20.288925000218068
              ],
              [
                -155.83678299980355,
                20.321225999803897
              ],
              [
                -155.9159200003164,
                20.301049000372693
              ],
              [
                -155.94238099990423,
                20.2716279999485
              ],
              [
                -155.95902900005945,
                20.226871000051506
              ],
              [
                -155.94798800004008,
                20.123786000030563
              ],
              [
                -155.93227499967028,
                20.083445000334613
              ],
              [
                -155.884311000177,
                20.018327000389913
              ],
              [
                -155.93888299971374,
                19.96151800011188
              ],
              [
                -155.96242699979248,
                19.909151999717633
              ],
              [
                -156.00808100039725,
                19.89274099983934
              ],
              [
                -156.05354400030802,
                19.843533999763956
              ],
              [
                -156.0906159997449,
                19.821142999601708
              ],
              [
                -156.10551800017785,
                19.797261999780417
              ],
              [
                -156.11791999995492,
                19.744570999850488
              ],
              [
                -156.1192980003294,
                19.73648199989161
              ]
            ]
          ],
          [
            [
              [
                -156.75597300032211,
                20.530161999751638
              ],
              [
                -156.7442639995828,
                20.49999900022212
              ],
              [
                -156.74999999959007,
                20.45433500005383
              ],
              [
                -156.54606900028145,
                20.460845000362387
              ],
              [
                -156.51219999968566,
                20.474779999969613
              ],
              [
                -156.48936699998467,
                20.499999999837357
              ],
              [
                -156.47955100017893,
                20.529572999673153
              ],
              [
                -156.48450999968625,
                20.579083000055167
              ],
              [
                -156.437383999894,
                20.543929000236297
              ],
              [
                -156.37500000001657,
                20.528985000118332
              ],
              [
                -156.29047200017627,
                20.53689500013102
              ],
              [
                -156.19560799994818,
                20.577150999800033
              ],
              [
                -156.13527000026693,
                20.569843000352247
              ],
              [
                -156.07327100035403,
                20.5984089996316
              ],
              [
                -156.03861000008797,
                20.600715999942135
              ],
              [
                -155.96145799967192,
                20.66045200009662
              ],
              [
                -155.93280100010008,
                20.712583000153398
              ],
              [
                -155.92678499971032,
                20.781735000137203
              ],
              [
                -155.93912600028634,
                20.83659100009676
              ],
              [
                -155.9589910004246,
                20.87500000009371
              ],
              [
                -156.00000000044307,
                20.87500000009371
              ],
              [
                -156.00000000044307,
                20.85212300037108
              ],
              [
                -156.08169399971663,
                20.880727999911546
              ],
              [
                -156.19529599977866,
                20.971502000411757
              ],
              [
                -156.26277700015396,
                21.00224299968051
              ],
              [
                -156.33921800019232,
                21.004194999986275
              ],
              [
                -156.40490799974128,
                20.974181000005544
              ],
              [
                -156.45109000042567,
                20.96875800008401
              ],
              [
                -156.48313399985992,
                21.028650000212647
              ],
              [
                -156.55951299997398,
                21.082337999677943
              ],
              [
                -156.60588899992885,
                21.0925799996653
              ],
              [
                -156.6704239995844,
                21.076693000165314
              ],
              [
                -156.7284249997146,
                21.01732699982898
              ],
              [
                -156.74999999959007,
                20.96077300014465
              ],
              [
                -156.75194100020425,
                20.9136809998455
              ],
              [
                -156.7375309998659,
                20.867917999665963
              ],
              [
                -156.65985899976613,
                20.7784189996922
              ],
              [
                -156.6250000000317,
                20.763082000358235
              ],
              [
                -156.6250000000317,
                20.750000000183856
              ],
              [
                -156.58693199981175,
                20.750000000183856
              ],
              [
                -156.5468199999438,
                20.73248600034461
              ],
              [
                -156.5118699999728,
                20.73538600005526
              ],
              [
                -156.4957280001559,
                20.69158000017489
              ],
              [
                -156.5316589999431,
                20.679219999799873
              ],
              [
                -156.54962500019826,
                20.658030000032706
              ],
              [
                -156.5977340003548,
                20.657878999948714
              ],
              [
                -156.7044420001431,
                20.60459100039948
              ],
              [
                -156.74265900032592,
                20.570091000131747
              ],
              [
                -156.75574200034342,
                20.53527600009121
              ],
              [
                -156.75597300032211,
                20.530161999751638
              ]
            ]
          ],
          [
            [
              [
                -157.1161869998136,
                20.90281300003809
              ],
              [
                -157.11267799975246,
                20.87500000009371
              ],
              [
                -157.09518199985055,
                20.847153999741884
              ],
              [
                -157.07520700010744,
                20.82729900005698
              ],
              [
                -157.04806899957876,
                20.820545000173983
              ],
              [
                -157.04518300003178,
                20.770467000165866
              ],
              [
                -157.02727799987593,
                20.728730999617483
              ],
              [
                -156.9999999996052,
                20.696894999767714
              ],
              [
                -156.97380699980593,
                20.686783999834716
              ],
              [
                -156.8750000000468,
                20.690964999957618
              ],
              [
                -156.81699300006875,
                20.719793000389853
              ],
              [
                -156.7823019996655,
                20.750000000183856
              ],
              [
                -156.74999999959007,
                20.80760499994612
              ],
              [
                -156.75745899975334,
                20.85077099959398
              ],
              [
                -156.82332900012565,
                20.930807999596357
              ],
              [
                -156.8684740000191,
                20.964379000297196
              ],
              [
                -156.90510000029042,
                20.975923000052497
              ],
              [
                -156.9898220002995,
                20.9850579995939
              ],
              [
                -157.04948999961093,
                20.97903500007433
              ],
              [
                -157.09993000036903,
                20.948603000353124
              ],
              [
                -157.11618000014093,
                20.902888999983393
              ],
              [
                -157.1161869998136,
                20.90281300003809
              ]
            ]
          ],
          [
            [
              [
                -157.36625899979873,
                21.116658000323895
              ],
              [
                -157.35843099956455,
                21.083606999585687
              ],
              [
                -157.32124399960165,
                21.050676000233313
              ],
              [
                -157.23143800041174,
                21.043099000191678
              ],
              [
                -157.0775560002523,
                21.058358000041725
              ],
              [
                -156.9631309996596,
                21.012869999922167
              ],
              [
                -156.87792300030202,
                20.993363999701266
              ],
              [
                -156.82998900004768,
                21.00225900003428
              ],
              [
                -156.74999999959007,
                21.043829999739213
              ],
              [
                -156.6725860001315,
                21.095717000278803
              ],
              [
                -156.65052500000922,
                21.13427700015404
              ],
              [
                -156.66737800020383,
                21.19315000021347
              ],
              [
                -156.7220760001373,
                21.2260620001315
              ],
              [
                -156.79484300025803,
                21.234160999722242
              ],
              [
                -156.8408690004085,
                21.223195000166637
              ],
              [
                -156.8861099996631,
                21.234343999911825
              ],
              [
                -156.91027899990578,
                21.22957100038346
              ],
              [
                -156.927399999889,
                21.2565779998007
              ],
              [
                -156.97128899960666,
                21.274365000070528
              ],
              [
                -157.00908599966493,
                21.265947999656763
              ],
              [
                -157.03016299959802,
                21.243949999857165
              ],
              [
                -157.05739599966296,
                21.244187000189314
              ],
              [
                -157.24999999962031,
                21.28034700032557
              ],
              [
                -157.28128400006963,
                21.272590000092478
              ],
              [
                -157.3052519995726,
                21.25288100000521
              ],
              [
                -157.314468000227,
                21.230432999971793
              ],
              [
                -157.31167499966813,
                21.204127999653604
              ],
              [
                -157.33859300008876,
                21.17503800037391
              ],
              [
                -157.36348399968153,
                21.124999999835893
              ],
              [
                -157.36625899979873,
                21.116658000323895
              ]
            ]
          ],
          [
            [
              [
                -158.3446499996485,
                21.58317699995056
              ],
              [
                -158.335052000301,
                21.55399400025616
              ],
              [
                -158.29865299981037,
                21.524717999883276
              ],
              [
                -158.3013529995845,
                21.496817999638292
              ],
              [
                -158.29016400032552,
                21.496821999904395
              ],
              [
                -158.2859349996658,
                21.46516400018148
              ],
              [
                -158.24005199963054,
                21.411530999951264
              ],
              [
                -158.2288519996025,
                21.375631000187774
              ],
              [
                -158.18325300014766,
                21.345935000078715
              ],
              [
                -158.1643539997569,
                21.272334999886056
              ],
              [
                -158.13475999985152,
                21.24239100000836
              ],
              [
                -158.0849190002165,
                21.239280000052545
              ],
              [
                -158.0895349995922,
                21.332081000217073
              ],
              [
                -158.05187499980124,
                21.373668000148996
              ],
              [
                -158.01921600024878,
                21.390294999833557
              ],
              [
                -158.03145200034444,
                21.42003299959769
              ],
              [
                -158.02475200023952,
                21.42413200018135
              ],
              [
                -158.02779799962008,
                21.491762999679995
              ],
              [
                -157.96859599956565,
                21.487075000203884
              ],
              [
                -157.89624299972166,
                21.501559999634704
              ],
              [
                -157.87246699983933,
                21.439791999782763
              ],
              [
                -157.83853200001965,
                21.417933000112512
              ],
              [
                -157.83890299974038,
                21.4019869999249
              ],
              [
                -157.82405399990918,
                21.395130000227088
              ],
              [
                -157.80965500033977,
                21.36933000018314
              ],
              [
                -157.79060199996323,
                21.364042999998297
              ],
              [
                -157.78225599969517,
                21.337132000328644
              ],
              [
                -157.71685700039936,
                21.31713199958774
              ],
              [
                -157.67878099978353,
                21.320322999613833
              ],
              [
                -157.66042600026418,
                21.30813400020878
              ],
              [
                -157.59758000042945,
                21.313817000138293
              ],
              [
                -157.60229899973726,
                21.34152100004451
              ],
              [
                -157.62845200025185,
                21.37661600035464
              ],
              [
                -157.65215100014126,
                21.439107000054815
              ],
              [
                -157.64074900044693,
                21.462695000007134
              ],
              [
                -157.65574899989085,
                21.492088999733422
              ],
              [
                -157.7026129997423,
                21.518709000191503
              ],
              [
                -157.74725100037088,
                21.515306999699302
              ],
              [
                -157.76193100014768,
                21.52638900012393
              ],
              [
                -157.78095100001394,
                21.544607000339816
              ],
              [
                -157.80204899986342,
                21.590099000327026
              ],
              [
                -157.8441490002012,
                21.621803999800886
              ],
              [
                -157.88144599976897,
                21.705182999667667
              ],
              [
                -157.94178500017344,
                21.75457900011456
              ],
              [
                -157.99724399981497,
                21.761591000111537
              ],
              [
                -158.0571439998283,
                21.735483000003942
              ],
              [
                -158.095542999586,
                21.702994999686965
              ],
              [
                -158.12022900003765,
                21.657304999585413
              ],
              [
                -158.12224300044676,
                21.665698000333844
              ],
              [
                -158.14884600032482,
                21.641999000103194
              ],
              [
                -158.17500499978888,
                21.63200900030431
              ],
              [
                -158.3119450000653,
                21.621779999672537
              ],
              [
                -158.342149000066,
                21.59117499963521
              ],
              [
                -158.3446499996485,
                21.58317699995056
              ]
            ]
          ],
          [
            [
              [
                -159.8509520003592,
                22.027459000369664
              ],
              [
                -159.84360899964855,
                21.999999999619256
              ],
              [
                -159.79360099960897,
                21.939780000183053
              ],
              [
                -159.71171399999153,
                21.907556999914032
              ],
              [
                -159.63125900027697,
                21.846688000363546
              ],
              [
                -159.49999999975626,
                21.833565000388298
              ],
              [
                -159.44399899979143,
                21.817788999791368
              ],
              [
                -159.35777899975722,
                21.865692000310553
              ],
              [
                -159.28435399986049,
                21.940637000406788
              ],
              [
                -159.28371100015318,
                22.018500999889728
              ],
              [
                -159.24502000031742,
                22.101652000348963
              ],
              [
                -159.2457790003757,
                22.16680799998908
              ],
              [
                -159.26551700029233,
                22.203914999845683
              ],
              [
                -159.30879799956452,
                22.249999999777604
              ],
              [
                -159.38967300030197,
                22.2875070001925
              ],
              [
                -159.41241300011657,
                22.28884599996227
              ],
              [
                -159.43275500028082,
                22.27803500036671
              ],
              [
                -159.4840429998873,
                22.285916000374158
              ],
              [
                -159.52465400042087,
                22.275493999689
              ],
              [
                -159.5748830003934,
                22.282950000258566
              ],
              [
                -159.61295200043824,
                22.272235000013634
              ],
              [
                -159.67725199991716,
                22.22710799986688
              ],
              [
                -159.76341400022497,
                22.18975200038167
              ],
              [
                -159.78882600022467,
                22.1601050002503
              ],
              [
                -159.80111199965074,
                22.124999999799915
              ],
              [
                -159.83772299985347,
                22.09422599978715
              ],
              [
                -159.85067799982448,
                22.04059000004872
              ],
              [
                -159.8509520003592,
                22.027459000369664
              ]
            ]
          ],
          [
            [
              [
                -160.30435999962617,
                21.853794999839174
              ],
              [
                -160.29852599970963,
                21.79050000017526
              ],
              [
                -160.2657779995704,
                21.74617999990959
              ],
              [
                -160.21830100014884,
                21.7287969999106
              ],
              [
                -160.17732200026757,
                21.735553999840132
              ],
              [
                -160.155275000389,
                21.757154999820635
              ],
              [
                -160.14193899975317,
                21.799026000101836
              ],
              [
                -160.12201500006367,
                21.8249600003294
              ],
              [
                -160.0594079997052,
                21.84559400021302
              ],
              [
                -160.03103200034076,
                21.869363999746707
              ],
              [
                -160.02290799983055,
                21.89645900038788
              ],
              [
                -160.0275020003632,
                21.93121399968206
              ],
              [
                -159.99999899996158,
                21.968102000101467
              ],
              [
                -159.99720499957775,
                21.992510000233587
              ],
              [
                -160.01828800025692,
                22.03001000024374
              ],
              [
                -160.05672200017474,
                22.068344999833336
              ],
              [
                -160.125001999893,
                22.08113500031524
              ],
              [
                -160.15143300024192,
                22.060514999664136
              ],
              [
                -160.1740109996748,
                21.991479000002595
              ],
              [
                -160.27994699988432,
                21.92063799981137
              ],
              [
                -160.30237100022975,
                21.861490999768677
              ],
              [
                -160.30435999962617,
                21.853794999839174
              ]
            ]
          ],
          [
            [
              [
                -160.60087500041163,
                21.658163000017687
              ],
              [
                -160.59074800026124,
                21.624999999803688
              ],
              [
                -160.5707280003123,
                21.606664000293318
              ],
              [
                -160.5462159999379,
                21.600383999688606
              ],
              [
                -160.49624300005843,
                21.618852999693594
              ],
              [
                -160.4829070003209,
                21.64031099990831
              ],
              [
                -160.49414499998372,
                21.690536999977187
              ],
              [
                -160.5317400003756,
                21.711998000160424
              ],
              [
                -160.57826500029333,
                21.700249999713794
              ],
              [
                -160.59976700037387,
                21.66764999961656
              ],
              [
                -160.60087500041163,
                21.658163000017687
              ]
            ]
          ],
          [
            [
              [
                -161.98755499957423,
                23.06992400018331
              ],
              [
                -161.98544499980397,
                23.041131000028393
              ],
              [
                -161.95517100038137,
                23.009168999991388
              ],
              [
                -161.8942190004068,
                23.00942999990811
              ],
              [
                -161.87500000034893,
                23.01924199991668
              ],
              [
                -161.8607659997376,
                23.04437799962108
              ],
              [
                -161.8630019999046,
                23.08518300040926
              ],
              [
                -161.88757500037832,
                23.110384000256357
              ],
              [
                -161.94466199974127,
                23.111896999589206
              ],
              [
                -161.98252400009687,
                23.091274999644508
              ],
              [
                -161.98755499957423,
                23.06992400018331
              ]
            ]
          ],
          [
            [
              [
                -164.76481000044492,
                23.581721000093935
              ],
              [
                -164.75000000007347,
                23.536145999939215
              ],
              [
                -164.70130000008814,
                23.517001999949585
              ],
              [
                -164.67332200020863,
                23.521084999876138
              ],
              [
                -164.65402399960973,
                23.53522100021523
              ],
              [
                -164.64001900022564,
                23.576110999661488
              ],
              [
                -164.65408300005927,
                23.607069000296246
              ],
              [
                -164.68889400011312,
                23.623424999791787
              ],
              [
                -164.74006000041922,
                23.614394000211917
              ],
              [
                -164.76344999961384,
                23.586702000202163
              ],
              [
                -164.76481000044492,
                23.581721000093935
              ]
            ]
          ],
          [
            [
              [
                -166.3865320000115,
                23.84636299976974
              ],
              [
                -166.37883900039486,
                23.823634999611734
              ],
              [
                -166.3563420002545,
                23.805944999947908
              ],
              [
                -166.313574000095,
                23.803736000183363
              ],
              [
                -166.32374200025325,
                23.770974000085104
              ],
              [
                -166.31582299978248,
                23.74012000020395
              ],
              [
                -166.3026069996955,
                23.72866599972289
              ],
              [
                -166.26558899978704,
                23.713139999720173
              ],
              [
                -166.2267819996003,
                23.727443999604066
              ],
              [
                -166.22282700037366,
                23.70487800009234
              ],
              [
                -166.20541500013732,
                23.69160099984303
              ],
              [
                -166.2239639998254,
                23.67253299976837
              ],
              [
                -166.2322849999791,
                23.641580000006392
              ],
              [
                -166.21105800025816,
                23.599809999814237
              ],
              [
                -166.17221799956118,
                23.58708999999896
              ],
              [
                -166.11678099966093,
                23.611253999751284
              ],
              [
                -166.11384200041053,
                23.652336000257517
              ],
              [
                -166.1329540003383,
                23.684703000354542
              ],
              [
                -166.10588100010693,
                23.71353599992774
              ],
              [
                -166.1067799999073,
                23.74252199971326
              ],
              [
                -166.11849899979404,
                23.766668999806082
              ],
              [
                -166.14817100041552,
                23.785478999688607
              ],
              [
                -166.1534780000774,
                23.81894100031933
              ],
              [
                -166.16973899971998,
                23.837421999671847
              ],
              [
                -166.16593599993098,
                23.875000000152582
              ],
              [
                -166.18234700025968,
                23.902325000345403
              ],
              [
                -166.23306400012888,
                23.928491000328755
              ],
              [
                -166.28836600030988,
                23.92897699964235
              ],
              [
                -166.3749999997225,
                23.888266999775333
              ],
              [
                -166.38428400014897,
                23.863656999738136
              ],
              [
                -166.3865320000115,
                23.84636299976974
              ]
            ]
          ],
          [
            [
              [
                -168.05821499976204,
                25.000000000388827
              ],
              [
                -168.03775100029736,
                24.95971500026683
              ],
              [
                -168.00000000026984,
                24.948107000298712
              ],
              [
                -167.95368500041442,
                24.964386000387773
              ],
              [
                -167.94420400034443,
                24.98980700007614
              ],
              [
                -167.95244900033015,
                25.023537999731143
              ],
              [
                -168.00000000026984,
                25.052240000123962
              ],
              [
                -168.04205200002878,
                25.035432000083635
              ],
              [
                -168.05797700011064,
                25.0026129996809
              ],
              [
                -168.05821499976204,
                25.000000000388827
              ]
            ]
          ],
          [
            [
              [
                -170.6846310003791,
                25.506313000089975
              ],
              [
                -170.66822800044633,
                25.470653999840675
              ],
              [
                -170.6297300000561,
                25.455731999919735
              ],
              [
                -170.59164400029283,
                25.468614999771344
              ],
              [
                -170.57315099978294,
                25.505115999860404
              ],
              [
                -170.58851599999818,
                25.5412179996175
              ],
              [
                -170.62533600043827,
                25.557033999643156
              ],
              [
                -170.66653399970437,
                25.54394700003759
              ],
              [
                -170.6846010002419,
                25.50883699964599
              ],
              [
                -170.6846310003791,
                25.506313000089975
              ]
            ]
          ],
          [
            [
              [
                -171.8096290003481,
                25.781350000316635
              ],
              [
                -171.79702699965623,
                25.74053900017673
              ],
              [
                -171.77015000014174,
                25.718199000145816
              ],
              [
                -171.73749099969095,
                25.70653299960347
              ],
              [
                -171.68686000003547,
                25.72787899975007
              ],
              [
                -171.667922000185,
                25.78121699972463
              ],
              [
                -171.68827600004482,
                25.823767999747982
              ],
              [
                -171.74999999959812,
                25.837944000168044
              ],
              [
                -171.78697800022198,
                25.822300999733635
              ],
              [
                -171.80646400024355,
                25.793360000114884
              ],
              [
                -171.8096290003481,
                25.781350000316635
              ]
            ]
          ],
          [
            [
              [
                -174.06737399997928,
                26.059614000001012
              ],
              [
                -174.0460929998317,
                26.00230599962011
              ],
              [
                -173.9999999997341,
                25.990212000329528
              ],
              [
                -173.92596800011503,
                26.01962700004632
              ],
              [
                -173.90335799999676,
                26.06005599983943
              ],
              [
                -173.91857000005115,
                26.109741000399108
              ],
              [
                -173.95791600018816,
                26.135689999703974
              ],
              [
                -174.03111400030411,
                26.129069999972867
              ],
              [
                -174.05246900007154,
                26.112987000064127
              ],
              [
                -174.0615350000398,
                26.08200799996624
              ],
              [
                -174.06737399997928,
                26.059614000001012
              ]
            ]
          ],
          [
            [
              [
                -176.04335399982034,
                27.795896999977785
              ],
              [
                -176.0396270001993,
                27.75824199975933
              ],
              [
                -176.02929199963648,
                27.742683000216612
              ],
              [
                -175.99999999985494,
                27.709305999908207
              ],
              [
                -175.96959800038582,
                27.69340199977273
              ],
              [
                -175.93948800009645,
                27.68823099979348
              ],
              [
                -175.89519199977462,
                27.69921300038711
              ],
              [
                -175.8450499998407,
                27.7284569996374
              ],
              [
                -175.80293899963226,
                27.72348499987556
              ],
              [
                -175.74611500003502,
                27.73271699976479
              ],
              [
                -175.72615899966019,
                27.749999999823395
              ],
              [
                -175.66559400019824,
                27.87499999993108
              ],
              [
                -175.6701279995581,
                27.94160100026148
              ],
              [
                -175.70435399963094,
                27.982737000068976
              ],
              [
                -175.73492800042587,
                28.00000000038887
              ],
              [
                -175.8100520001891,
                28.00594200029398
              ],
              [
                -175.96633500037197,
                27.929911000361905
              ],
              [
                -175.981438999573,
                27.913218000087817
              ],
              [
                -175.99214400003166,
                27.889498999819317
              ],
              [
                -175.9888740003451,
                27.861904000380516
              ],
              [
                -175.95575899978473,
                27.833055000107862
              ],
              [
                -175.9210280000968,
                27.821439000052788
              ],
              [
                -175.92430399963112,
                27.8137100001803
              ],
              [
                -175.99999999985494,
                27.835344000261603
              ],
              [
                -176.02501600001943,
                27.82157900010222
              ],
              [
                -176.04259200028733,
                27.798067999724914
              ],
              [
                -176.04335399982034,
                27.795896999977785
              ]
            ]
          ],
          [
            [
              [
                -178.4435930001603,
                28.41898599975667
              ],
              [
                -178.4114779996826,
                28.360660999811657
              ],
              [
                -178.39561000040044,
                28.341900999827644
              ],
              [
                -178.37500000044759,
                28.335357000307425
              ],
              [
                -178.28889500004115,
                28.328810000169085
              ],
              [
                -178.2499999999909,
                28.347151000085926
              ],
              [
                -178.23301799992487,
                28.375000000272703
              ],
              [
                -178.2384690004251,
                28.45614999984585
              ],
              [
                -178.30434800011997,
                28.513262999914033
              ],
              [
                -178.34054000002303,
                28.51726899980199
              ],
              [
                -178.3957690004091,
                28.49999999985444
              ],
              [
                -178.4383359998288,
                28.444087999845966
              ],
              [
                -178.4435930001603,
                28.41898599975667
              ]
            ]
          ]
        ]
      }
    }
  ]
}
