{
  "type": "FeatureCollection",
  "features": [
    {
      "type": "Feature",
      "id": "us-cd:119:54:01",
      "properties": {
        "boundary_id": "us-cd:119:54:01",
        "boundary_type": "congressional_district",
        "name": "1",
        "stateFips": "54",
        "congress": 119,
        "district": "01",
        "bbox": [
          -82.64459099965542,
          37.2015400000175,
          -79.05725300022459,
          39.18557199988108
        ]
      },
      "geometry": {
        "type": "Polygon",
        "coordinates": [
          [
            [
              -82.64459099965542,
              38.16590399993603
            ],
            [
              -82.63657300034872,
              38.13802000009351
            ],
            [
              -82.6218349999473,
              38.13329100024905
            ],
            [
              -82.61922800005955,
              38.12053999984253
            ],
            [
              -82.58700600035009,
              38.108663999884484
            ],
            [
              -82.58335699964853,
              38.09003200016795
            ],
            [
              -82.54984899962608,
              38.06945200033846
            ],
            [
              -82.51919299971375,
              38.00113100021149
            ],
            [
              -82.48865499980221,
              37.998911999999386
            ],
            [
              -82.48359400018761,
              37.98384400035372
            ],
            [
              -82.46456599992543,
              37.983876000125235
            ],
            [
              -82.46885099976329,
              37.973229999867236
            ],
            [
              -82.4844310000637,
              37.970921000162264
            ],
            [
              -82.47177499984343,
              37.95873899981253
            ],
            [
              -82.49722000035335,
              37.94624500005205
            ],
            [
              -82.48927699959312,
              37.93821699983847
            ],
            [
              -82.50243400012882,
              37.93345299998503
            ],
            [
              -82.48065699968869,
              37.926168999848045
            ],
            [
              -82.4883460000057,
              37.91772399966829
            ],
            [
              -82.47557400033278,
              37.911842999754896
            ],
            [
              -82.47440699984551,
              37.89995499983944
            ],
            [
              -82.46299099990746,
              37.91481999967379
            ],
            [
              -82.41992900002012,
              37.88486999979136
            ],
            [
              -82.41755999978375,
              37.870278999726374
            ],
            [
              -82.40751299999935,
              37.86729699987028
            ],
            [
              -82.4246230001119,
              37.86144900021629
            ],
            [
              -82.41470900039688,
              37.85596999979562
            ],
            [
              -82.42049300008472,
              37.84643299979447
            ],
            [
              -82.39934599983144,
              37.829523000106185
            ],
            [
              -82.40145899997475,
              37.80966600006805
            ],
            [
              -82.38672499977129,
              37.81822499990734
            ],
            [
              -82.37664100017695,
              37.802206999661465
            ],
            [
              -82.34008600005072,
              37.78562500008821
            ],
            [
              -82.33746499991928,
              37.774913999755775
            ],
            [
              -82.3238859996092,
              37.774995000007735
            ],
            [
              -82.33338000009796,
              37.764413999936075
            ],
            [
              -82.31154499993153,
              37.76457900029905
            ],
            [
              -82.33417400031635,
              37.7427709997678
            ],
            [
              -82.29637499970994,
              37.70218499969892
            ],
            [
              -82.30431400027221,
              37.676092999901336
            ],
            [
              -82.28811899985358,
              37.66810799967733
            ],
            [
              -82.28248599977847,
              37.67592500028076
            ],
            [
              -82.25806800001374,
              37.656883000148206
            ],
            [
              -82.23606600034103,
              37.65963400006753
            ],
            [
              -82.21684800010804,
              37.64159799972474
            ],
            [
              -82.21449899996317,
              37.62540000009962
            ],
            [
              -82.18722800026342,
              37.626984000167994
            ],
            [
              -82.19111600044126,
              37.64458599998378
            ],
            [
              -82.17507500000839,
              37.64783199968656
            ],
            [
              -82.17241200004418,
              37.63263399992357
            ],
            [
              -82.18119799962997,
              37.62151000033543
            ],
            [
              -82.16424599970118,
              37.62029000021313
            ],
            [
              -82.1687749999365,
              37.60907999991336
            ],
            [
              -82.15668299978087,
              37.60896899979851
            ],
            [
              -82.15685100001033,
              37.59272299982097
            ],
            [
              -82.12733999994568,
              37.58654499976845
            ],
            [
              -82.12624000030384,
              37.57373800008394
            ],
            [
              -82.14491399966539,
              37.567654999960595
            ],
            [
              -82.13324699965717,
              37.552832000044695
            ],
            [
              -82.07517899957976,
              37.555853000230556
            ],
            [
              -82.06483499969445,
              37.53719599972553
            ],
            [
              -82.0461549995868,
              37.52793999996349
            ],
            [
              -82.04298299980955,
              37.54806399998936
            ],
            [
              -82.01080799995574,
              37.53286500008529
            ],
            [
              -81.97009199984021,
              37.546723999838406
            ],
            [
              -81.967717999581,
              37.533097000053665
            ],
            [
              -81.94385300001022,
              37.531161000088495
            ],
            [
              -81.94425899989109,
              37.5132770003496
            ],
            [
              -81.9264630004135,
              37.51470499972792
            ],
            [
              -81.95314699958412,
              37.50131399998222
            ],
            [
              -81.95326399976,
              37.49176299965525
            ],
            [
              -81.99089599996181,
              37.484430999731735
            ],
            [
              -81.99564899960482,
              37.4698330002647
            ],
            [
              -81.98700600013416,
              37.45487800035232
            ],
            [
              -81.93562100044329,
              37.43839700025991
            ],
            [
              -81.93891200004624,
              37.42200200029371
            ],
            [
              -81.9229560000022,
              37.41138900033025
            ],
            [
              -81.93674399965134,
              37.38073000015814
            ],
            [
              -81.9284619998557,
              37.36046100001085
            ],
            [
              -81.89388400032865,
              37.33001599982851
            ],
            [
              -81.87935400033967,
              37.33249300026475
            ],
            [
              -81.86048900028412,
              37.315942000130505
            ],
            [
              -81.86568299996807,
              37.30948400008629
            ],
            [
              -81.85446000037388,
              37.30657000011478
            ],
            [
              -81.84994899968189,
              37.28522700011337
            ],
            [
              -81.7571370003961,
              37.27614700019111
            ],
            [
              -81.7408969997716,
              37.25431699970494
            ],
            [
              -81.74012400036796,
              37.23775200004952
            ],
            [
              -81.72306100011107,
              37.24049299974242
            ],
            [
              -81.67822099981616,
              37.2015400000175
            ],
            [
              -81.56063100001721,
              37.2066630001617
            ],
            [
              -81.50763600014827,
              37.23371200004952
            ],
            [
              -81.49909599971149,
              37.25795199970568
            ],
            [
              -81.48014399961727,
              37.2511210000772
            ],
            [
              -81.4476549999441,
              37.2722449996813
            ],
            [
              -81.4160290000863,
              37.27362599995931
            ],
            [
              -81.39428699980625,
              37.316410999906836
            ],
            [
              -81.37437700036048,
              37.31908099971393
            ],
            [
              -81.36282199960692,
              37.33809900031641
            ],
            [
              -81.225103999904,
              37.23487399998075
            ],
            [
              -81.10414700033411,
              37.28060499966347
            ],
            [
              -80.97958899974329,
              37.30227900008737
            ],
            [
              -80.981321999945,
              37.29346500002625
            ],
            [
              -80.96655599995447,
              37.29215800026123
            ],
            [
              -80.89915999996798,
              37.31567799968979
            ],
            [
              -80.84945099967909,
              37.34690899966503
            ],
            [
              -80.88324699958164,
              37.38393299988707
            ],
            [
              -80.85945700035393,
              37.429490999649154
            ],
            [
              -80.83723499967489,
              37.42540599997738
            ],
            [
              -80.80574299971136,
              37.39795400019255
            ],
            [
              -80.7841879999274,
              37.39458700002008
            ],
            [
              -80.77008200026094,
              37.372363000275286
            ],
            [
              -80.71629800019649,
              37.3886940001656
            ],
            [
              -80.55203600016671,
              37.473562999816245
            ],
            [
              -80.5113910001963,
              37.48167200014058
            ],
            [
              -80.4929810004254,
              37.457748999982634
            ],
            [
              -80.49486000021699,
              37.43507200018021
            ],
            [
              -80.47546500043201,
              37.422953000064524
            ],
            [
              -80.37195100016227,
              37.474068999933486
            ],
            [
              -80.36683699994595,
              37.48487899992754
            ],
            [
              -80.299789000114,
              37.50827099968232
            ],
            [
              -80.28239100012138,
              37.53351899985918
            ],
            [
              -80.30934700017686,
              37.52738000003313
            ],
            [
              -80.33036800003345,
              37.53626700010758
            ],
            [
              -80.3122009999368,
              37.54621999982602
            ],
            [
              -80.32850400031046,
              37.56431500007608
            ],
            [
              -80.25891900001267,
              37.59549900033297
            ],
            [
              -80.22098399986214,
              37.62776699966773
            ],
            [
              -80.267503999757,
              37.64615599988975
            ],
            [
              -80.29591600000477,
              37.692837999659524
            ],
            [
              -80.2530769997002,
              37.72589899969574
            ],
            [
              -80.2627650003577,
              37.738336000171195
            ],
            [
              -80.25741099994185,
              37.75608400011268
            ],
            [
              -80.2304580002594,
              37.77830499967056
            ],
            [
              -80.21660500031295,
              37.77596099982759
            ],
            [
              -80.2276899998149,
              37.79789199967217
            ],
            [
              -80.17939099968756,
              37.83975100034866
            ],
            [
              -80.18275499998374,
              37.85136499972108
            ],
            [
              -80.16220199993231,
              37.87512200027424
            ],
            [
              -80.11774699960186,
              37.897719999819614
            ],
            [
              -80.10293100028092,
              37.9189109996812
            ],
            [
              -79.999382999676,
              37.99490799986462
            ],
            [
              -79.95437000002707,
              38.0804010001894
            ],
            [
              -79.92639700017041,
              38.106542999719736
            ],
            [
              -79.93894600026057,
              38.11162799987392
            ],
            [
              -79.94525800002803,
              38.13223899990341
            ],
            [
              -79.91866199982266,
              38.15479000009891
            ],
            [
              -79.92007500035723,
              38.182528999973805
            ],
            [
              -79.84521199981157,
              38.24107400027531
            ],
            [
              -79.78894499970795,
              38.26870300031467
            ],
            [
              -79.8101539998855,
              38.30670699978945
            ],
            [
              -79.77308999994624,
              38.335528999880026
            ],
            [
              -79.76443200040697,
              38.35651400005708
            ],
            [
              -79.74217700011596,
              38.35324800016758
            ],
            [
              -79.72559699973284,
              38.36382800012201
            ],
            [
              -79.72951199967486,
              38.38119399971691
            ],
            [
              -79.68966699977061,
              38.4314620003121
            ],
            [
              -79.69757199999769,
              38.48722300011718
            ],
            [
              -79.68037400002162,
              38.51061700027768
            ],
            [
              -79.66217400031299,
              38.51521699990431
            ],
            [
              -79.6729740003079,
              38.52871700000633
            ],
            [
              -79.66977499986817,
              38.55031600008185
            ],
            [
              -79.64917499996106,
              38.5914149998835
            ],
            [
              -79.53687000008267,
              38.550917000141254
            ],
            [
              -79.47663799980832,
              38.45722799994557
            ],
            [
              -79.31227600021943,
              38.41187599985183
            ],
            [
              -79.28294000005695,
              38.418099999897315
            ],
            [
              -79.2827540002841,
              38.431693999792984
            ],
            [
              -79.25448199977842,
              38.455930000015314
            ],
            [
              -79.24266800035542,
              38.45418100017845
            ],
            [
              -79.23988099964433,
              38.47007900024033
            ],
            [
              -79.2105910004109,
              38.49291299991165
            ],
            [
              -79.20585899978599,
              38.52452099970077
            ],
            [
              -79.17095400002079,
              38.56811600030104
            ],
            [
              -79.12975599985641,
              38.65501800015233
            ],
            [
              -79.09275499966634,
              38.659816999911385
            ],
            [
              -79.08725499966063,
              38.7201140002785
            ],
            [
              -79.05725300022459,
              38.761413000276946
            ],
            [
              -79.3498670004134,
              38.95750899985786
            ],
            [
              -79.37486799961098,
              38.92081000029373
            ],
            [
              -79.45457199966322,
              38.93021000017944
            ],
            [
              -79.44447100035043,
              38.89860999968727
            ],
            [
              -79.4828729995829,
              38.88631000006298
            ],
            [
              -79.5196739997564,
              38.892010000273125
            ],
            [
              -79.5126740000758,
              38.86721099976712
            ],
            [
              -79.5390750002875,
              38.84141100007765
            ],
            [
              -79.52317299977182,
              38.83021400024929
            ],
            [
              -79.52977099976954,
              38.8193150003167
            ],
            [
              -79.5078729998539,
              38.800910999788854
            ],
            [
              -79.50857300036094,
              38.78441199985697
            ],
            [
              -79.56433199957813,
              38.71315299982429
            ],
            [
              -79.59767499974414,
              38.687613999716056
            ],
            [
              -79.59555599975305,
              38.66305200033921
            ],
            [
              -79.62307500004823,
              38.668813999857825
            ],
            [
              -79.63547600000037,
              38.66111400005866
            ],
            [
              -79.62707600020396,
              38.67891299990965
            ],
            [
              -79.66097599986357,
              38.69021200029948
            ],
            [
              -79.67857600042088,
              38.68191099979284
            ],
            [
              -79.67897700027888,
              38.66451199986241
            ],
            [
              -79.69777799986201,
              38.66611299978384
            ],
            [
              -79.71017899981415,
              38.68571299975769
            ],
            [
              -79.73898000022436,
              38.67951299998158
            ],
            [
              -79.74388000018044,
              38.686412000119155
            ],
            [
              -79.73078000044448,
              38.71241199975805
            ],
            [
              -79.75088099968598,
              38.72191199976372
            ],
            [
              -79.75468199982517,
              38.734010999845914
            ],
            [
              -79.77748299973914,
              38.739511000168264
            ],
            [
              -79.80248300001014,
              38.71001100012306
            ],
            [
              -79.80798300001587,
              38.682912000309436
            ],
            [
              -79.83378300035304,
              38.64761200028509
            ],
            [
              -79.83044099979816,
              38.63620000027165
            ],
            [
              -79.84668300007246,
              38.62961300024805
            ],
            [
              -79.84228299970856,
              38.60811299972343
            ],
            [
              -79.86325000003679,
              38.550820000127985
            ],
            [
              -80.02840400019424,
              38.45916599966564
            ],
            [
              -80.11691999977151,
              38.47395300027303
            ],
            [
              -80.24551799997782,
              38.38845699990401
            ],
            [
              -80.18393099979355,
              38.52538599973703
            ],
            [
              -80.28005899969493,
              38.694866999796304
            ],
            [
              -80.31973200007006,
              38.6848809998653
            ],
            [
              -80.33126299963584,
              38.71806999987193
            ],
            [
              -80.3533020000168,
              38.730687999841464
            ],
            [
              -80.40096900030747,
              38.73005499983351
            ],
            [
              -80.40694600033916,
              38.72275599987415
            ],
            [
              -80.45261500011424,
              38.73322600033889
            ],
            [
              -80.4531549998894,
              38.76101400016521
            ],
            [
              -80.44209100030386,
              38.771849999810975
            ],
            [
              -80.45848199964277,
              38.77605300020306
            ],
            [
              -80.46311200016044,
              38.79588199989104
            ],
            [
              -80.48552800010994,
              38.80030399998513
            ],
            [
              -80.4738100000481,
              38.833229000044675
            ],
            [
              -80.52376700003408,
              38.8628019998646
            ],
            [
              -80.54385800012815,
              38.85379899997554
            ],
            [
              -80.5579570001219,
              38.8676089997452
            ],
            [
              -80.58640000033184,
              38.86140900022911
            ],
            [
              -80.59708700034882,
              38.89606199974071
            ],
            [
              -80.71681500040545,
              39.00843000004999
            ],
            [
              -80.72832599987973,
              39.09567900019727
            ],
            [
              -80.81297000007103,
              39.109401000026196
            ],
            [
              -80.81104400042378,
              39.098904999664114
            ],
            [
              -80.83502399962227,
              39.08237600025955
            ],
            [
              -80.85458099978896,
              39.083920000288245
            ],
            [
              -80.8590189997877,
              39.07356899965536
            ],
            [
              -80.87695400008077,
              39.07390399982336
            ],
            [
              -80.91161799982152,
              39.0462399999682
            ],
            [
              -80.96020300017913,
              39.038021999750754
            ],
            [
              -81.0072310000621,
              39.00878500010969
            ],
            [
              -81.09213399982119,
              39.01498300023595
            ],
            [
              -81.11603399955204,
              39.04248200016452
            ],
            [
              -81.12963499960344,
              39.04518200026359
            ],
            [
              -81.16289800030182,
              39.030519000293744
            ],
            [
              -81.21074100031959,
              39.045180999796095
            ],
            [
              -81.2282380000464,
              39.03227999980026
            ],
            [
              -81.24898699991643,
              39.03447500007333
            ],
            [
              -81.25368100000819,
              39.05607000011655
            ],
            [
              -81.27393899960853,
              39.05917900017754
            ],
            [
              -81.25722500022944,
              39.07180499975637
            ],
            [
              -81.2633610002698,
              39.10697100008593
            ],
            [
              -81.27638200036306,
              39.108016000045296
            ],
            [
              -81.28731100022938,
              39.13243200032641
            ],
            [
              -81.29984799972564,
              39.12985600007035
            ],
            [
              -81.32912899963655,
              39.150071000318626
            ],
            [
              -81.31056900007783,
              39.1579420002399
            ],
            [
              -81.31890799977488,
              39.16338799973876
            ],
            [
              -81.29801699961465,
              39.18557199988108
            ],
            [
              -81.40314799973513,
              39.137275999960664
            ],
            [
              -81.42490599990867,
              39.135678999942606
            ],
            [
              -81.5814469998344,
              39.026178999734014
            ],
            [
              -81.7472539997449,
              39.09537900008151
            ],
            [
              -81.77555499966459,
              39.078377000012075
            ],
            [
              -81.81065399959854,
              39.08327800010296
            ],
            [
              -81.80805500010673,
              39.05377700003039
            ],
            [
              -81.76425300042767,
              39.01527900002049
            ],
            [
              -81.7815889995977,
              38.96227499984101
            ],
            [
              -81.75613099956729,
              38.93354600031326
            ],
            [
              -81.77410500021843,
              38.92296399995275
            ],
            [
              -81.82735399963225,
              38.9458980000064
            ],
            [
              -81.8444860003844,
              38.928746000098634
            ],
            [
              -81.85597099991944,
              38.8927339998786
            ],
            [
              -81.8892329998946,
              38.87427899993293
            ],
            [
              -81.92799900007343,
              38.89349199982787
            ],
            [
              -81.89846999956708,
              38.929602999875755
            ],
            [
              -81.93318600008472,
              38.98766000020862
            ],
            [
              -81.95144699989268,
              38.99603200025346
            ],
            [
              -81.97937100024382,
              38.993192999763735
            ],
            [
              -82.00449899966303,
              39.02889200034573
            ],
            [
              -82.03774899994261,
              39.02386499999854
            ],
            [
              -82.05156300042933,
              38.994377999932
            ],
            [
              -82.09156499979412,
              38.97377800011688
            ],
            [
              -82.11166699975884,
              38.932578999816045
            ],
            [
              -82.14316700011828,
              38.898079000317
            ],
            [
              -82.14546699985934,
              38.83968000021753
            ],
            [
              -82.22156599959095,
              38.78718700008842
            ],
            [
              -82.21964400014167,
              38.7722830001105
            ],
            [
              -82.19888199985284,
              38.757724999769366
            ],
            [
              -82.18796800005512,
              38.73308200024363
            ],
            [
              -82.18686800041331,
              38.72228199981362
            ],
            [
              -82.193098000165,
              38.73771800023092
            ],
            [
              -82.18246700022449,
              38.70878199985668
            ],
            [
              -82.19086700002092,
              38.680383000022296
            ],
            [
              -82.17216699982178,
              38.62718400001159
            ],
            [
              -82.17726699979443,
              38.60378399967148
            ],
            [
              -82.20517100005408,
              38.59171900014785
            ],
            [
              -82.2620699999944,
              38.59818299987187
            ],
            [
              -82.29127100043766,
              38.57898299994785
            ],
            [
              -82.3042230000356,
              38.496308000330146
            ],
            [
              -82.33033499964401,
              38.44449999978934
            ],
            [
              -82.38177299993663,
              38.434783000149515
            ],
            [
              -82.40488199982218,
              38.43934699978533
            ],
            [
              -82.5410060001389,
              38.40379999976939
            ],
            [
              -82.57342500039017,
              38.40568900030527
            ],
            [
              -82.59347999960092,
              38.421820999963835
            ],
            [
              -82.59812099998925,
              38.34593300029432
            ],
            [
              -82.57175599976256,
              38.31719499990262
            ],
            [
              -82.58303500033158,
              38.29680699999028
            ],
            [
              -82.5746239997662,
              38.2639369997117
            ],
            [
              -82.58331700036388,
              38.246793000022976
            ],
            [
              -82.60462500027563,
              38.247662000346864
            ],
            [
              -82.61221599978505,
              38.23629699975952
            ],
            [
              -82.59829500006651,
              38.21736100003376
            ],
            [
              -82.6116009996668,
              38.17133899988268
            ],
            [
              -82.64444300041572,
              38.16656099981738
            ],
            [
              -82.64459099965542,
              38.16590399993603
            ]
          ]
        ]
      }
    },
    {
      "type": "Feature",
      "id": "us-cd:119:54:02",
      "properties": {
        "boundary_id": "us-cd:119:54:02",
        "boundary_type": "congressional_district",
        "name": "2",
        "stateFips": "54",
        "congress": 119,
        "district": "02",
        "bbox": [
          -81.7563840001856,
          38.38845699990401,
          -77.71951900019627,
          40.63880100014802
        ]
      },
      "geometry": {
        "type": "Polygon",
        "coordinates": [
          [
            [
              -81.7563840001856,
              39.17801200006125
            ],
            [
              -81.74276499969255,
              39.142669000325974
            ],
            [
              -81.7472539997449,
              39.09537900008151
            ],
            [
              -81.5814469998344,
              39.026178999734014
            ],
            [
              -81.42490599990867,
              39.135678999942606
            ],
            [
              -81.40314799973513,
              39.137275999960664
            ],
            [
              -81.29801699961465,
              39.18557199988108
            ],
            [
              -81.31890799977488,
              39.16338799973876
            ],
            [
              -81.31056900007783,
              39.1579420002399
            ],
            [
              -81.32912899963655,
              39.150071000318626
            ],
            [
              -81.29984799972564,
              39.12985600007035
            ],
            [
              -81.28731100022938,
              39.13243200032641
            ],
            [
              -81.27638200036306,
              39.108016000045296
            ],
            [
              -81.2633610002698,
              39.10697100008593
            ],
            [
              -81.25722500022944,
              39.07180499975637
            ],
            [
              -81.27393899960853,
              39.05917900017754
            ],
            [
              -81.25368100000819,
              39.05607000011655
            ],
            [
              -81.24898699991643,
              39.03447500007333
            ],
            [
              -81.2282380000464,
              39.03227999980026
            ],
            [
              -81.21074100031959,
              39.045180999796095
            ],
            [
              -81.16289800030182,
              39.030519000293744
            ],
            [
              -81.12963499960344,
              39.04518200026359
            ],
            [
              -81.11603399955204,
              39.04248200016452
            ],
            [
              -81.09213399982119,
              39.01498300023595
            ],
            [
              -81.0072310000621,
              39.00878500010969
            ],
            [
              -80.96020300017913,
              39.038021999750754
            ],
            [
              -80.91161799982152,
              39.0462399999682
            ],
            [
              -80.87695400008077,
              39.07390399982336
            ],
            [
              -80.8590189997877,
              39.07356899965536
            ],
            [
              -80.85458099978896,
              39.083920000288245
            ],
            [
              -80.83502399962227,
              39.08237600025955
            ],
            [
              -80.81104400042378,
              39.098904999664114
            ],
            [
              -80.81297000007103,
              39.109401000026196
            ],
            [
              -80.72832599987973,
              39.09567900019727
            ],
            [
              -80.71681500040545,
              39.00843000004999
            ],
            [
              -80.59708700034882,
              38.89606199974071
            ],
            [
              -80.58640000033184,
              38.86140900022911
            ],
            [
              -80.5579570001219,
              38.8676089997452
            ],
            [
              -80.54385800012815,
              38.85379899997554
            ],
            [
              -80.52376700003408,
              38.8628019998646
            ],
            [
              -80.4738100000481,
              38.833229000044675
            ],
            [
              -80.48552800010994,
              38.80030399998513
            ],
            [
              -80.46311200016044,
              38.79588199989104
            ],
            [
              -80.45848199964277,
              38.77605300020306
            ],
            [
              -80.44209100030386,
              38.771849999810975
            ],
            [
              -80.4531549998894,
              38.76101400016521
            ],
            [
              -80.45261500011424,
              38.73322600033889
            ],
            [
              -80.40694600033916,
              38.72275599987415
            ],
            [
              -80.40096900030747,
              38.73005499983351
            ],
            [
              -80.3533020000168,
              38.730687999841464
            ],
            [
              -80.33126299963584,
              38.71806999987193
            ],
            [
              -80.31973200007006,
              38.6848809998653
            ],
            [
              -80.28005899969493,
              38.694866999796304
            ],
            [
              -80.18393099979355,
              38.52538599973703
            ],
            [
              -80.24551799997782,
              38.38845699990401
            ],
            [
              -80.11691999977151,
              38.47395300027303
            ],
            [
              -80.02840400019424,
              38.45916599966564
            ],
            [
              -79.86325000003679,
              38.550820000127985
            ],
            [
              -79.84228299970856,
              38.60811299972343
            ],
            [
              -79.84668300007246,
              38.62961300024805
            ],
            [
              -79.83044099979816,
              38.63620000027165
            ],
            [
              -79.83378300035304,
              38.64761200028509
            ],
            [
              -79.80798300001587,
              38.682912000309436
            ],
            [
              -79.80248300001014,
              38.71001100012306
            ],
            [
              -79.77748299973914,
              38.739511000168264
            ],
            [
              -79.75468199982517,
              38.734010999845914
            ],
            [
              -79.75088099968598,
              38.72191199976372
            ],
            [
              -79.73078000044448,
              38.71241199975805
            ],
            [
              -79.74388000018044,
              38.686412000119155
            ],
            [
              -79.73898000022436,
              38.67951299998158
            ],
            [
              -79.71017899981415,
              38.68571299975769
            ],
            [
              -79.69777799986201,
              38.66611299978384
            ],
            [
              -79.67897700027888,
              38.66451199986241
            ],
            [
              -79.67857600042088,
              38.68191099979284
            ],
            [
              -79.66097599986357,
              38.69021200029948
            ],
            [
              -79.62707600020396,
              38.67891299990965
            ],
            [
              -79.63547600000037,
              38.66111400005866
            ],
            [
              -79.62307500004823,
              38.668813999857825
            ],
            [
              -79.59555599975305,
              38.66305200033921
            ],
            [
              -79.59767499974414,
              38.687613999716056
            ],
            [
              -79.56433199957813,
              38.71315299982429
            ],
            [
              -79.50857300036094,
              38.78441199985697
            ],
            [
              -79.5078729998539,
              38.800910999788854
            ],
            [
              -79.52977099976954,
              38.8193150003167
            ],
            [
              -79.52317299977182,
              38.83021400024929
            ],
            [
              -79.5390750002875,
              38.84141100007765
            ],
            [
              -79.5126740000758,
              38.86721099976712
            ],
            [
              -79.5196739997564,
              38.892010000273125
            ],
            [
              -79.4828729995829,
              38.88631000006298
            ],
            [
              -79.44447100035043,
              38.89860999968727
            ],
            [
              -79.45457199966322,
              38.93021000017944
            ],
            [
              -79.37486799961098,
              38.92081000029373
            ],
            [
              -79.3498670004134,
              38.95750899985786
            ],
            [
              -79.05725300022459,
              38.761413000276946
            ],
            [
              -79.05495400030843,
              38.78571299991891
            ],
            [
              -79.02725300043836,
              38.79211299979927
            ],
            [
              -79.01953399998412,
              38.8179070003297
            ],
            [
              -79.00655200024893,
              38.823712000070344
            ],
            [
              -78.993997000311,
              38.85010200013612
            ],
            [
              -78.868970999915,
              38.763139000156606
            ],
            [
              -78.78602499976535,
              38.887186999952455
            ],
            [
              -78.7170760004005,
              38.936027999933216
            ],
            [
              -78.71929099975276,
              38.90523000020403
            ],
            [
              -78.69743700021806,
              38.91435900002508
            ],
            [
              -78.62779800039189,
              38.981790000062304
            ],
            [
              -78.60165499992306,
              38.96460300005377
            ],
            [
              -78.55046699987568,
              39.01806500024314
            ],
            [
              -78.57190100018414,
              39.03199500023373
            ],
            [
              -78.4951599996718,
              39.10099199973953
            ],
            [
              -78.45986900011722,
              39.113350999835404
            ],
            [
              -78.40369700044816,
              39.16745099995365
            ],
            [
              -78.43869500009977,
              39.19809299967474
            ],
            [
              -78.39966899962994,
              39.243873999866764
            ],
            [
              -78.4194219996152,
              39.25747600013966
            ],
            [
              -78.33928400009303,
              39.348604999799655
            ],
            [
              -78.36686699996231,
              39.35928999988519
            ],
            [
              -78.34321400010366,
              39.38880699965354
            ],
            [
              -78.35991800033531,
              39.409028000340115
            ],
            [
              -78.34671800014192,
              39.42761800022059
            ],
            [
              -78.35322699955286,
              39.436792000298034
            ],
            [
              -78.34708700021288,
              39.46601199983728
            ],
            [
              -77.82829900012,
              39.13242600006469
            ],
            [
              -77.79266299988562,
              39.21138799966728
            ],
            [
              -77.77136500001959,
              39.23649299978489
            ],
            [
              -77.77010200017115,
              39.25636899975717
            ],
            [
              -77.73841000019111,
              39.308190999729746
            ],
            [
              -77.71951900019627,
              39.32131400013024
            ],
            [
              -77.76086200012561,
              39.340026999941536
            ],
            [
              -77.74365800030175,
              39.35919000005725
            ],
            [
              -77.75297699999001,
              39.38167899989774
            ],
            [
              -77.73573999965588,
              39.3894589999144
            ],
            [
              -77.75294299965482,
              39.42304100020762
            ],
            [
              -77.80320500013765,
              39.43711100031639
            ],
            [
              -77.78526499982173,
              39.44540300004472
            ],
            [
              -77.7980060004308,
              39.46076900004981
            ],
            [
              -77.77760499981703,
              39.46225300020315
            ],
            [
              -77.79719600031889,
              39.48013899979483
            ],
            [
              -77.76634000039003,
              39.49623799969786
            ],
            [
              -77.8028910003183,
              39.48946000029831
            ],
            [
              -77.8453780002704,
              39.49810900015331
            ],
            [
              -77.82473900000524,
              39.52848400009766
            ],
            [
              -77.83696099985721,
              39.53211200024192
            ],
            [
              -77.84194500037722,
              39.51842799983581
            ],
            [
              -77.86117600013068,
              39.514292999731055
            ],
            [
              -77.8652750001957,
              39.53841199992982
            ],
            [
              -77.88873600043374,
              39.555409999993906
            ],
            [
              -77.83608700017122,
              39.566662000313634
            ],
            [
              -77.83414499973213,
              39.603371000173375
            ],
            [
              -77.88491600002797,
              39.61583300017158
            ],
            [
              -77.8811509998738,
              39.60097900003948
            ],
            [
              -77.89197299961,
              39.59775599974852
            ],
            [
              -77.9410850002223,
              39.61903499985276
            ],
            [
              -77.93603700012821,
              39.59674700011921
            ],
            [
              -77.94610200035427,
              39.58479200034106
            ],
            [
              -77.95504000027603,
              39.60807799991626
            ],
            [
              -77.97761199986114,
              39.59960800028142
            ],
            [
              -78.01010899993022,
              39.603043999751975
            ],
            [
              -78.08055600021845,
              39.670501999873274
            ],
            [
              -78.17654199982964,
              39.695979000213
            ],
            [
              -78.20220400007454,
              39.67685600021533
            ],
            [
              -78.23256799990882,
              39.67358299995763
            ],
            [
              -78.22382499998075,
              39.66053899965787
            ],
            [
              -78.25406699961631,
              39.64018399974972
            ],
            [
              -78.26608799962685,
              39.61905499996139
            ],
            [
              -78.35532299997774,
              39.64066299973503
            ],
            [
              -78.35550600027584,
              39.62611099974077
            ],
            [
              -78.38236299969883,
              39.6277929998477
            ],
            [
              -78.37561099971532,
              39.60830700014121
            ],
            [
              -78.43013899976943,
              39.623415999691424
            ],
            [
              -78.42548599968553,
              39.60767199994947
            ],
            [
              -78.3948440000169,
              39.58515200015276
            ],
            [
              -78.40738300006132,
              39.578607000205736
            ],
            [
              -78.44349799997148,
              39.59133099999927
            ],
            [
              -78.45677199978473,
              39.58760799988636
            ],
            [
              -78.45427899969982,
              39.57408200027977
            ],
            [
              -78.41701899994199,
              39.54856000023078
            ],
            [
              -78.43771699975836,
              39.5533659996695
            ],
            [
              -78.43785800022368,
              39.538515999824334
            ],
            [
              -78.46111699989704,
              39.55083299987809
            ],
            [
              -78.44864200032505,
              39.53995999994948
            ],
            [
              -78.46236700022502,
              39.53636200009785
            ],
            [
              -78.46178800009179,
              39.52225399974402
            ],
            [
              -78.47194200000631,
              39.51593800017208
            ],
            [
              -78.52308599967274,
              39.52485399979448
            ],
            [
              -78.56611499994816,
              39.51937099974889
            ],
            [
              -78.59093799976884,
              39.53674799982372
            ],
            [
              -78.65469699964764,
              39.53460499982107
            ],
            [
              -78.68955799993023,
              39.54582399987814
            ],
            [
              -78.72458900009211,
              39.56391899984586
            ],
            [
              -78.73338999974652,
              39.58645800017369
            ],
            [
              -78.74633200019706,
              39.57977800019539
            ],
            [
              -78.76706099997558,
              39.58751099993428
            ],
            [
              -78.77680499981129,
              39.60413199999344
            ],
            [
              -78.73318700025524,
              39.61529499973999
            ],
            [
              -78.74676700039024,
              39.62672199980037
            ],
            [
              -78.7776219995959,
              39.62200000010254
            ],
            [
              -78.76465800030235,
              39.64589199997858
            ],
            [
              -78.77527900019712,
              39.64565699973579
            ],
            [
              -78.80140199967616,
              39.62838499986833
            ],
            [
              -78.79646200043541,
              39.60590199975409
            ],
            [
              -78.809028000244,
              39.60818199985541
            ],
            [
              -78.82572200042992,
              39.58917700016022
            ],
            [
              -78.81584600034974,
              39.56288099999057
            ],
            [
              -78.83924200029045,
              39.56700799997734
            ],
            [
              -78.87068700039829,
              39.538766999727194
            ],
            [
              -78.87514899978817,
              39.52266500005218
            ],
            [
              -78.89310199962458,
              39.523995999687614
            ],
            [
              -78.89239100014518,
              39.51327900001862
            ],
            [
              -78.90551299962245,
              39.51154500002729
            ],
            [
              -78.91672000022145,
              39.48631999997363
            ],
            [
              -78.93429800013912,
              39.486283999742994
            ],
            [
              -78.94249200007121,
              39.46894999983648
            ],
            [
              -78.9589100000726,
              39.46283800020067
            ],
            [
              -78.95657299962332,
              39.44033100007154
            ],
            [
              -79.01803099993619,
              39.46765600010618
            ],
            [
              -79.03087600030231,
              39.46525399982047
            ],
            [
              -79.04702499979189,
              39.483346000296066
            ],
            [
              -79.05690400024514,
              39.47067199985062
            ],
            [
              -79.06634199975908,
              39.47997099980588
            ],
            [
              -79.08301699967843,
              39.47147299973415
            ],
            [
              -79.1023830000494,
              39.47639400030024
            ],
            [
              -79.09454200029475,
              39.46484900005493
            ],
            [
              -79.10787899985716,
              39.4612209997106
            ],
            [
              -79.10281599969446,
              39.450482000043586
            ],
            [
              -79.11686000033494,
              39.438857999958486
            ],
            [
              -79.11082100037898,
              39.43185400011195
            ],
            [
              -79.12904700002686,
              39.42954200006776
            ],
            [
              -79.12744199987165,
              39.41817700005865
            ],
            [
              -79.1418429999892,
              39.417097999727346
            ],
            [
              -79.1437510000931,
              39.405202000179884
            ],
            [
              -79.15946600011272,
              39.417036000182364
            ],
            [
              -79.16227100036716,
              39.38812900028754
            ],
            [
              -79.17918399993789,
              39.396494999897826
            ],
            [
              -79.17695899964158,
              39.389027999946336
            ],
            [
              -79.19769099979317,
              39.38837299986582
            ],
            [
              -79.21428000039711,
              39.36348200001514
            ],
            [
              -79.25630799986655,
              39.357227000321664
            ],
            [
              -79.25384999994176,
              39.337143999743866
            ],
            [
              -79.28213199959487,
              39.323273000335035
            ],
            [
              -79.29039500002223,
              39.299452000328316
            ],
            [
              -79.31394400012383,
              39.304706000031686
            ],
            [
              -79.3460110000226,
              39.29395999973075
            ],
            [
              -79.34491499968044,
              39.28496900030365
            ],
            [
              -79.3873380000584,
              39.267820000145136
            ],
            [
              -79.42571300042502,
              39.22531400027896
            ],
            [
              -79.47294899982214,
              39.20213799968732
            ],
            [
              -79.48687499956353,
              39.20589600010885
            ],
            [
              -79.47666200009778,
              39.72107800030686
            ],
            [
              -80.5193419995558,
              39.72140299998133
            ],
            [
              -80.51899099992654,
              40.63880100014802
            ],
            [
              -80.5767040001767,
              40.614222999669046
            ],
            [
              -80.59876399957574,
              40.6252629996649
            ],
            [
              -80.62717099980063,
              40.619936000164
            ],
            [
              -80.6678130002963,
              40.58353599968546
            ],
            [
              -80.66437200000723,
              40.57001600020182
            ],
            [
              -80.62750700025961,
              40.535792999871354
            ],
            [
              -80.6180029997251,
              40.502048999701444
            ],
            [
              -80.59540500020074,
              40.475315999917136
            ],
            [
              -80.61219499974781,
              40.434838000193835
            ],
            [
              -80.61232500034247,
              40.40276199969442
            ],
            [
              -80.63273199990573,
              40.390504999761994
            ],
            [
              -80.60968599976937,
              40.37494999969436
            ],
            [
              -80.61279499979743,
              40.34766900033221
            ],
            [
              -80.59989500007802,
              40.31766599967421
            ],
            [
              -80.619297000434,
              40.26516999973805
            ],
            [
              -80.65210099975144,
              40.24497499988239
            ],
            [
              -80.66808299973475,
              40.199689000309334
            ],
            [
              -80.7056110001795,
              40.15347599979991
            ],
            [
              -80.70954500038809,
              40.100301999937706
            ],
            [
              -80.73818100004353,
              40.07860699979428
            ],
            [
              -80.73102400000406,
              40.044291000142756
            ],
            [
              -80.74216999960538,
              40.008575000080356
            ],
            [
              -80.74013900037613,
              39.970794999666836
            ],
            [
              -80.76427500010855,
              39.94996300023588
            ],
            [
              -80.75611299996352,
              39.91340200029893
            ],
            [
              -80.80677600030435,
              39.91630800000023
            ],
            [
              -80.80917399995471,
              39.90393599984049
            ],
            [
              -80.79076099981076,
              39.86728000033102
            ],
            [
              -80.82612400023366,
              39.844238000080594
            ],
            [
              -80.82607900002782,
              39.79858399969854
            ],
            [
              -80.8690920004097,
              39.76636399989179
            ],
            [
              -80.82976399981605,
              39.71183899977976
            ],
            [
              -80.86369799981087,
              39.69172399981505
            ],
            [
              -80.86664600018045,
              39.65261599978263
            ],
            [
              -80.88036000020973,
              39.620706000313156
            ],
            [
              -80.92834600034264,
              39.616553999780585
            ],
            [
              -80.97348299984016,
              39.588446000020205
            ],
            [
              -81.07102500010106,
              39.51560800028121
            ],
            [
              -81.1325339995692,
              39.446275000086644
            ],
            [
              -81.1851450001969,
              39.43147900009808
            ],
            [
              -81.21938600033837,
              39.38680900016026
            ],
            [
              -81.27029200035344,
              39.38604699993576
            ],
            [
              -81.34492700039516,
              39.34679399986775
            ],
            [
              -81.37596099970096,
              39.34169699969437
            ],
            [
              -81.39379399988677,
              39.35170599984329
            ],
            [
              -81.40668899958332,
              39.388089999988495
            ],
            [
              -81.42057800041312,
              39.40037799996328
            ],
            [
              -81.44654299970841,
              39.410373999996764
            ],
            [
              -81.46773500016752,
              39.403778999787335
            ],
            [
              -81.55754700010351,
              39.338773999765
            ],
            [
              -81.5702469998064,
              39.26767499965904
            ],
            [
              -81.60840799991276,
              39.27604299975479
            ],
            [
              -81.67759499982728,
              39.27417099996627
            ],
            [
              -81.6963800004152,
              39.25703500029495
            ],
            [
              -81.69239500015301,
              39.2264429998741
            ],
            [
              -81.72562199996807,
              39.21590500004718
            ],
            [
              -81.73687399987458,
              39.1926280000212
            ],
            [
              -81.7563840001856,
              39.17831799979752
            ],
            [
              -81.7563840001856,
              39.17801200006125
            ]
          ]
        ]
      }
    }
  ]
}
