{
  "type": "FeatureCollection",
  "features": [
    {
      "type": "Feature",
      "id": "us-cd:119:78:98",
      "properties": {
        "boundary_id": "us-cd:119:78:98",
        "boundary_type": "congressional_district",
        "name": "Delegate District (at Large)",
        "stateFips": "78",
        "congress": 119,
        "district": "98",
        "bbox": [
          -65.15387900012074,
          17.624695000132554,
          -64.51317799985789,
          18.463364000355423
        ]
      },
      "geometry": {
        "type": "MultiPolygon",
        "coordinates": [
          [
            [
              [
                -65.15387900012074,
                18.281144999865457
              ],
              [
                -65.14262200019134,
                18.25078900040707
              ],
              [
                -65.10083099965003,
                18.232629000195324
              ],
              [
                -65.06773199988149,
                18.243908000297566
              ],
              [
                -65.05019400014679,
                18.269128999807563
              ],
              [
                -65.01982100009167,
                18.252354999656433
              ],
              [
                -64.94647200036293,
                18.257223000065807
              ],
              [
                -64.93371400003541,
                18.237969999947772
              ],
              [
                -64.90615100025761,
                18.224192999978538
              ],
              [
                -64.88640300029519,
                18.191412000064247
              ],
              [
                -64.84955199989295,
                18.17968299999451
              ],
              [
                -64.81181599993405,
                18.198712999933438
              ],
              [
                -64.79996499980282,
                18.222596999748966
              ],
              [
                -64.80128899975062,
                18.245105999683748
              ],
              [
                -64.77341999965108,
                18.260505999740122
              ],
              [
                -64.74873599974757,
                18.26305900008032
              ],
              [
                -64.69448899990084,
                18.248757999899222
              ],
              [
                -64.66425899996086,
                18.26127099969586
              ],
              [
                -64.66385499972982,
                18.28537600018612
              ],
              [
                -64.63773499972552,
                18.319758999655463
              ],
              [
                -64.63914400006212,
                18.35518999976734
              ],
              [
                -64.6404370000478,
                18.363997000315987
              ],
              [
                -64.68329300007083,
                18.37256699971408
              ],
              [
                -64.75692300000696,
                18.376685999906186
              ],
              [
                -64.80032899985089,
                18.407594999762125
              ],
              [
                -64.8306170004155,
                18.395202000197763
              ],
              [
                -64.86497599965945,
                18.395927000277702
              ],
              [
                -64.89502400002455,
                18.463364000355423
              ],
              [
                -65.00776900011897,
                18.440702999610068
              ],
              [
                -65.03038199971196,
                18.4553759999645
              ],
              [
                -65.06066500025372,
                18.45974699965178
              ],
              [
                -65.09179099962103,
                18.447101999782475
              ],
              [
                -65.1072989999514,
                18.428608999605988
              ],
              [
                -65.11742699992666,
                18.38023300029048
              ],
              [
                -65.13994099978545,
                18.336290999726405
              ],
              [
                -65.13768899972496,
                18.320558000391856
              ],
              [
                -65.1536439999441,
                18.293138999799513
              ],
              [
                -65.15387900012074,
                18.281144999865457
              ]
            ]
          ],
          [
            [
              [
                -64.95671400014099,
                17.678976999942922
              ],
              [
                -64.94358300044289,
                17.644095000001
              ],
              [
                -64.91591400035988,
                17.62523099972471
              ],
              [
                -64.86556300018857,
                17.63532899984329
              ],
              [
                -64.80168600030899,
                17.624695000132554
              ],
              [
                -64.75643599993523,
                17.63064600023038
              ],
              [
                -64.63368599988918,
                17.664643000342057
              ],
              [
                -64.54874799997003,
                17.70303800026038
              ],
              [
                -64.52472199984246,
                17.72270299990983
              ],
              [
                -64.51317799985789,
                17.76040699982495
              ],
              [
                -64.52982099999019,
                17.79300299962555
              ],
              [
                -64.5799830000156,
                17.830907999972915
              ],
              [
                -64.61206199960995,
                17.843496999867657
              ],
              [
                -64.65234699973026,
                17.842382999821627
              ],
              [
                -64.69752400030906,
                17.808761000357975
              ],
              [
                -64.74707200004113,
                17.835179000132545
              ],
              [
                -64.7980700001177,
                17.83305499970935
              ],
              [
                -64.8421410003086,
                17.814749999948756
              ],
              [
                -64.88272900037761,
                17.820339000421185
              ],
              [
                -64.91056099976892,
                17.809016999706095
              ],
              [
                -64.93419600008426,
                17.784678999990195
              ],
              [
                -64.94681100029663,
                17.748027999991443
              ],
              [
                -64.9389379998566,
                17.717533999810247
              ],
              [
                -64.95638400042812,
                17.68365199977168
              ],
              [
                -64.95671400014099,
                17.678976999942922
              ]
            ]
          ]
        ]
      }
    }
  ]
}
