{
  "type": "FeatureCollection",
  "features": [
    {
      "type": "Feature",
      "id": "us-county:32:001",
      "properties": {
        "boundary_id": "us-county:32:001",
        "boundary_type": "county",
        "name": "Churchill County",
        "stateFips": "32",
        "countyFips": "001",
        "bbox": [
          -119.22613000042546,
          39.073654000275305,
          -117.46134000003971,
          40.00103399997976
        ]
      },
      "geometry": {
        "type": "Polygon",
        "coordinates": [
          [
            [
              -119.22613000042546,
              39.90038400030876
            ],
            [
              -119.20862799977745,
              39.899459000039435
            ],
            [
              -119.20854300028694,
              39.80996699994539
            ],
            [
              -119.18976100007207,
              39.8099939999487
            ],
            [
              -119.18970699964541,
              39.78822099998086
            ],
            [
              -119.17089900038957,
              39.78828799981154
            ],
            [
              -119.17064099974839,
              39.680453000229456
            ],
            [
              -119.1893269997038,
              39.68047999987118
            ],
            [
              -119.19067599976596,
              39.63178699980339
            ],
            [
              -119.17862200014343,
              39.651992000057135
            ],
            [
              -119.11489300040185,
              39.687515999848216
            ],
            [
              -119.05856600002376,
              39.737129000313224
            ],
            [
              -119.07713599962823,
              39.722637000329065
            ],
            [
              -119.07714800022212,
              39.63679600033014
            ],
            [
              -119.08914599976812,
              39.63682899968067
            ],
            [
              -119.0905309998153,
              39.51887100007402
            ],
            [
              -119.11780200041335,
              39.51894599990824
            ],
            [
              -119.1177139996515,
              39.38865800017946
            ],
            [
              -119.09968499964711,
              39.38790400018498
            ],
            [
              -119.09954999992792,
              39.373803999998344
            ],
            [
              -119.08121200012702,
              39.37357600034114
            ],
            [
              -119.08092900026982,
              39.35938200029499
            ],
            [
              -119.0622790002994,
              39.359292999704145
            ],
            [
              -119.06226699970553,
              39.3446140001545
            ],
            [
              -119.04425600014282,
              39.34456700027992
            ],
            [
              -119.044206999739,
              39.330110999660434
            ],
            [
              -119.02550099969211,
              39.33008500032687
            ],
            [
              -119.0254789999508,
              39.31559999980314
            ],
            [
              -119.00679399982027,
              39.315564999717964
            ],
            [
              -119.00679200017049,
              39.29997400011825
            ],
            [
              -118.98781800033497,
              39.299974999747874
            ],
            [
              -118.9877210002506,
              39.28547400030087
            ],
            [
              -118.96501700042103,
              39.28547599997417
            ],
            [
              -118.96499599960632,
              39.27067999990255
            ],
            [
              -118.94644100007044,
              39.270662999782694
            ],
            [
              -118.94632899991745,
              39.256173000165376
            ],
            [
              -118.92783600030589,
              39.2561700000964
            ],
            [
              -118.92767800012214,
              39.24168100014845
            ],
            [
              -118.90914799980231,
              39.241678999921035
            ],
            [
              -118.90903099962647,
              39.22719099985038
            ],
            [
              -118.89066299968836,
              39.22720000029651
            ],
            [
              -118.89083099991785,
              39.19821799987456
            ],
            [
              -118.8667570001097,
              39.198210000275
            ],
            [
              -118.86673700001822,
              39.18533699969614
            ],
            [
              -118.84810299994136,
              39.18531399984916
            ],
            [
              -118.84809100024579,
              39.17123000027962
            ],
            [
              -118.82943999955216,
              39.171136999721575
            ],
            [
              -118.82942899968151,
              39.156333999921266
            ],
            [
              -118.81081499969609,
              39.15632899989156
            ],
            [
              -118.81081700024426,
              39.141818999990434
            ],
            [
              -118.7922190001524,
              39.14182599994252
            ],
            [
              -118.79220900010664,
              39.112849999761295
            ],
            [
              -118.75506800017448,
              39.112811000102795
            ],
            [
              -118.75505899995366,
              39.07470199971921
            ],
            [
              -117.86511599990908,
              39.073654000275305
            ],
            [
              -117.77546800000462,
              39.09342499975937
            ],
            [
              -117.80011199972513,
              39.11252000020002
            ],
            [
              -117.79149699984359,
              39.13138199970287
            ],
            [
              -117.80678599989085,
              39.14537500025453
            ],
            [
              -117.78463799972995,
              39.15104199967694
            ],
            [
              -117.79159899995082,
              39.169635999988785
            ],
            [
              -117.75316300038321,
              39.18480199994463
            ],
            [
              -117.73461100032209,
              39.21007400009336
            ],
            [
              -117.71972399995774,
              39.21300800013879
            ],
            [
              -117.71405599972252,
              39.24555800018519
            ],
            [
              -117.74358699987867,
              39.287793000340855
            ],
            [
              -117.73972200016539,
              39.29684499971502
            ],
            [
              -117.75987000016086,
              39.33405599970444
            ],
            [
              -117.75578399961633,
              39.37621900029711
            ],
            [
              -117.7469190003878,
              39.38568899993339
            ],
            [
              -117.69630499955248,
              39.385934000195434
            ],
            [
              -117.67559199966747,
              39.4224689997964
            ],
            [
              -117.64601100018092,
              39.42660200033407
            ],
            [
              -117.63723100044291,
              39.451821000074524
            ],
            [
              -117.6566479999692,
              39.46790700016539
            ],
            [
              -117.60176599991274,
              39.49081700017318
            ],
            [
              -117.58653999961469,
              39.50352200004035
            ],
            [
              -117.59013999991242,
              39.518020999989304
            ],
            [
              -117.53203800039813,
              39.52692199992421
            ],
            [
              -117.51851400033965,
              39.538211999907894
            ],
            [
              -117.49513599994229,
              39.533321999797906
            ],
            [
              -117.47609000013676,
              39.583640999865985
            ],
            [
              -117.48223700004775,
              39.59822200011324
            ],
            [
              -117.46158699991194,
              39.62264399967856
            ],
            [
              -117.46337299981711,
              39.63310100013086
            ],
            [
              -117.48607099979891,
              39.64476699980318
            ],
            [
              -117.46438499959538,
              39.67897399996455
            ],
            [
              -117.48782400009212,
              39.70390300021466
            ],
            [
              -117.47521200025278,
              39.735851000216684
            ],
            [
              -117.49534400035475,
              39.74836399980314
            ],
            [
              -117.49664800021105,
              39.76048100011514
            ],
            [
              -117.48574000026113,
              39.786517999788934
            ],
            [
              -117.48824199966855,
              39.826625000136985
            ],
            [
              -117.47234000005118,
              39.83921800015078
            ],
            [
              -117.46134000003971,
              39.86781800002426
            ],
            [
              -117.46794100041049,
              39.92211699983054
            ],
            [
              -117.54174899972355,
              40.00103399997976
            ],
            [
              -119.22517600037352,
              39.99938500012607
            ],
            [
              -119.2261050003111,
              39.90293700021371
            ],
            [
              -119.22613000042546,
              39.90038400030876
            ]
          ]
        ]
      }
    },
    {
      "type": "Feature",
      "id": "us-county:32:003",
      "properties": {
        "boundary_id": "us-county:32:003",
        "boundary_type": "county",
        "name": "Clark County",
        "stateFips": "32",
        "countyFips": "003",
        "bbox": [
          -115.89692499994415,
          35.00185699992408,
          -114.04394399967116,
          36.85366200006578
        ]
      },
      "geometry": {
        "type": "Polygon",
        "coordinates": [
          [
            [
              -115.89692499994415,
              36.84208500017678
            ],
            [
              -115.89575300033232,
              36.17222700004161
            ],
            [
              -115.84576200001112,
              36.17076399986767
            ],
            [
              -115.84599399981472,
              35.96370700033581
            ],
            [
              -114.63348700002383,
              35.00185699992408
            ],
            [
              -114.63473200032892,
              35.03373399993712
            ],
            [
              -114.60290800010439,
              35.0685879999082
            ],
            [
              -114.64676400021014,
              35.10186799976946
            ],
            [
              -114.62842700023417,
              35.11894299969341
            ],
            [
              -114.57826299966065,
              35.128810000001394
            ],
            [
              -114.56925799979174,
              35.18342400018934
            ],
            [
              -114.60460699997094,
              35.35523899992858
            ],
            [
              -114.62676500017756,
              35.4096439998946
            ],
            [
              -114.66289599998126,
              35.446448999705474
            ],
            [
              -114.67864199996302,
              35.49762800019905
            ],
            [
              -114.67568500027093,
              35.51562999989211
            ],
            [
              -114.65676999998666,
              35.534964000021354
            ],
            [
              -114.67566699982928,
              35.58003300010464
            ],
            [
              -114.65923799995721,
              35.58747700001496
            ],
            [
              -114.65353399973701,
              35.60967199999097
            ],
            [
              -114.68950700025526,
              35.65142899999577
            ],
            [
              -114.68063100025779,
              35.684045999878975
            ],
            [
              -114.70559700019359,
              35.708274000304655
            ],
            [
              -114.69426699957094,
              35.75663299993846
            ],
            [
              -114.6993180000381,
              35.790479999703
            ],
            [
              -114.71202600013693,
              35.80552899973275
            ],
            [
              -114.69527699969942,
              35.8310909998345
            ],
            [
              -114.70585599976137,
              35.850508000345044
            ],
            [
              -114.66163599960757,
              35.871232999750745
            ],
            [
              -114.70811200001982,
              35.90993299978652
            ],
            [
              -114.70760300020679,
              35.92795000028146
            ],
            [
              -114.74053600029397,
              35.97554500006092
            ],
            [
              -114.74300500008945,
              36.00844999989724
            ],
            [
              -114.72209600038587,
              36.028951999879226
            ],
            [
              -114.74126199984198,
              36.03804399964776
            ],
            [
              -114.73528499981028,
              36.05664800025217
            ],
            [
              -114.75450800006612,
              36.08617099997761
            ],
            [
              -114.73485700018811,
              36.10442600032962
            ],
            [
              -114.66434299995274,
              36.11630000001182
            ],
            [
              -114.63047400025525,
              36.142218000081236
            ],
            [
              -114.6154549996464,
              36.129652999858045
            ],
            [
              -114.57108999972766,
              36.15109899974367
            ],
            [
              -114.51121800020174,
              36.150576000129625
            ],
            [
              -114.50023599973363,
              36.143225999722844
            ],
            [
              -114.50471499974027,
              36.12718799978345
            ],
            [
              -114.46260000023217,
              36.139643999971604
            ],
            [
              -114.44504200040598,
              36.12534600011315
            ],
            [
              -114.40562400029897,
              36.14698300024855
            ],
            [
              -114.37018100040844,
              36.14262399993292
            ],
            [
              -114.30693899984024,
              36.0824870000549
            ],
            [
              -114.31359100026462,
              36.05904800033639
            ],
            [
              -114.2708619995649,
              36.045522999746055
            ],
            [
              -114.26437999991813,
              36.02791099968178
            ],
            [
              -114.24386500039985,
              36.015266000223654
            ],
            [
              -114.14698900031082,
              36.02606099978302
            ],
            [
              -114.11199800033191,
              36.09491000011726
            ],
            [
              -114.12086500010854,
              36.1108499996413
            ],
            [
              -114.09699399979168,
              36.12082299973032
            ],
            [
              -114.0667980001869,
              36.17908700007748
            ],
            [
              -114.04394399967116,
              36.19335000002779
            ],
            [
              -114.05035400024622,
              36.84314100030447
            ],
            [
              -115.31474700004337,
              36.85366200006578
            ],
            [
              -115.74084599997579,
              36.853083999648774
            ],
            [
              -115.74074800006652,
              36.84189999971326
            ],
            [
              -115.89159099961978,
              36.84206399998349
            ],
            [
              -115.89692499994415,
              36.84208500017678
            ]
          ]
        ]
      }
    },
    {
      "type": "Feature",
      "id": "us-county:32:005",
      "properties": {
        "boundary_id": "us-county:32:005",
        "boundary_type": "county",
        "name": "Douglas County",
        "stateFips": "32",
        "countyFips": "005",
        "bbox": [
          -120.0034289997596,
          38.53596099974761,
          -119.31054100008993,
          39.114008999706776
        ]
      },
      "geometry": {
        "type": "Polygon",
        "coordinates": [
          [
            [
              -120.0034289997596,
              39.11268700024083
            ],
            [
              -120.00101400039082,
              38.9995739998671
            ],
            [
              -119.33005200022588,
              38.53596099974761
            ],
            [
              -119.32989700041519,
              38.64872400027678
            ],
            [
              -119.34780199967267,
              38.64877499984544
            ],
            [
              -119.34989300007469,
              38.73622700010723
            ],
            [
              -119.4059690003826,
              38.73354299993924
            ],
            [
              -119.40302900040894,
              38.809283999839096
            ],
            [
              -119.42157100042431,
              38.82386799969039
            ],
            [
              -119.42176600041799,
              38.852946000283644
            ],
            [
              -119.44014799970148,
              38.85295500026079
            ],
            [
              -119.4398049995698,
              38.882088000252715
            ],
            [
              -119.42174999962614,
              38.8820239996512
            ],
            [
              -119.42023400005772,
              38.954713000196826
            ],
            [
              -119.40228500041928,
              38.95474599987672
            ],
            [
              -119.4018519998759,
              38.98365100000475
            ],
            [
              -119.31054100008993,
              38.990914999875685
            ],
            [
              -119.31084099966559,
              39.08468099980131
            ],
            [
              -119.75211599966737,
              39.0849039998149
            ],
            [
              -119.76121299959776,
              39.114008999706776
            ],
            [
              -120.00294599988587,
              39.11268799975161
            ],
            [
              -120.0034289997596,
              39.11268700024083
            ]
          ]
        ]
      }
    },
    {
      "type": "Feature",
      "id": "us-county:32:007",
      "properties": {
        "boundary_id": "us-county:32:007",
        "boundary_type": "county",
        "name": "Elko County",
        "stateFips": "32",
        "countyFips": "007",
        "bbox": [
          -117.01841899987487,
          40.11693600009995,
          -114.04147700042382,
          41.999714999815986
        ]
      },
      "geometry": {
        "type": "Polygon",
        "coordinates": [
          [
            [
              -114.97241400041828,
              41.997517999750656
            ],
            [
              -117.01820399978972,
              41.999714999815986
            ],
            [
              -117.01841899987487,
              41.00025400025951
            ],
            [
              -116.15815500012445,
              40.99991200016086
            ],
            [
              -116.15783399973411,
              40.66638899985648
            ],
            [
              -116.00089699997325,
              40.12737599968278
            ],
            [
              -114.0466140002064,
              40.11693600009995
            ],
            [
              -114.04147700042382,
              41.993872999699974
            ],
            [
              -114.96408300021884,
              41.997828999826844
            ],
            [
              -114.97241400041828,
              41.997517999750656
            ]
          ]
        ]
      }
    },
    {
      "type": "Feature",
      "id": "us-county:32:009",
      "properties": {
        "boundary_id": "us-county:32:009",
        "boundary_type": "county",
        "name": "Esmeralda County",
        "stateFips": "32",
        "countyFips": "009",
        "bbox": [
          -118.42300400009164,
          36.97111099984624,
          -117.16561199979999,
          38.47379699997494
        ]
      },
      "geometry": {
        "type": "Polygon",
        "coordinates": [
          [
            [
              -118.42300400009164,
              37.89636799984666
            ],
            [
              -117.16600099996245,
              36.97111099984624
            ],
            [
              -117.16561199979999,
              38.00169200013852
            ],
            [
              -117.21926399961998,
              38.05034799978209
            ],
            [
              -117.24106299980141,
              38.05011599975342
            ],
            [
              -117.24090999964054,
              38.069902000260754
            ],
            [
              -117.69102100035512,
              38.47379699997494
            ],
            [
              -118.35148399992576,
              37.89370500018943
            ],
            [
              -118.41794500012686,
              37.89650500024059
            ],
            [
              -118.42300400009164,
              37.89636799984666
            ]
          ]
        ]
      }
    },
    {
      "type": "Feature",
      "id": "us-county:32:011",
      "properties": {
        "boundary_id": "us-county:32:011",
        "boundary_type": "county",
        "name": "Eureka County",
        "stateFips": "32",
        "countyFips": "011",
        "bbox": [
          -116.60094599969469,
          39.16146299971334,
          -115.79486500021692,
          41.000397999770165
        ]
      },
      "geometry": {
        "type": "Polygon",
        "coordinates": [
          [
            [
              -116.60007299983357,
              40.07896400018314
            ],
            [
              -116.59039599994503,
              40.07227699965972
            ],
            [
              -116.59012399995845,
              39.724664000309964
            ],
            [
              -116.60094599969469,
              39.16146299971334
            ],
            [
              -115.90707100036109,
              39.16184800003208
            ],
            [
              -115.90765899981682,
              39.46443200009397
            ],
            [
              -115.89833900030364,
              39.45388999984343
            ],
            [
              -115.87026799963941,
              39.470045999664606
            ],
            [
              -115.87026400033977,
              39.48712800009173
            ],
            [
              -115.84215400021579,
              39.51124400005056
            ],
            [
              -115.83046000044338,
              39.54138600011996
            ],
            [
              -115.83817300015151,
              39.556187000011334
            ],
            [
              -115.81347599982924,
              39.593521000064456
            ],
            [
              -115.82751000042397,
              39.64604299969841
            ],
            [
              -115.82255699986611,
              39.670247999655466
            ],
            [
              -115.8332709996473,
              39.72813400007043
            ],
            [
              -115.81208400010938,
              39.75292899970173
            ],
            [
              -115.8156340001784,
              39.81433399997114
            ],
            [
              -115.79486500021692,
              39.853941999986695
            ],
            [
              -115.80526699982852,
              39.86982400023996
            ],
            [
              -115.80235899964192,
              39.91282099984993
            ],
            [
              -115.8174450001979,
              39.931003000287994
            ],
            [
              -115.81618300017439,
              39.9548730001668
            ],
            [
              -115.83582599965648,
              39.99394999975582
            ],
            [
              -115.82662999999188,
              40.053117999871965
            ],
            [
              -115.84020299955584,
              40.09756899980205
            ],
            [
              -115.82535600027276,
              40.10607299997294
            ],
            [
              -115.82378600027768,
              40.11999499969483
            ],
            [
              -115.83496899968891,
              40.12784200030577
            ],
            [
              -116.00089699997325,
              40.12737599968278
            ],
            [
              -116.15783399973411,
              40.66638899985648
            ],
            [
              -116.15815500012445,
              40.99991200016086
            ],
            [
              -116.58678599960153,
              41.000397999770165
            ],
            [
              -116.58710399961886,
              40.9470209998412
            ],
            [
              -116.5968149998426,
              40.946459999825706
            ],
            [
              -116.6000109999093,
              40.093868000220105
            ],
            [
              -116.60007299983357,
              40.07896400018314
            ]
          ]
        ]
      }
    },
    {
      "type": "Feature",
      "id": "us-county:32:013",
      "properties": {
        "boundary_id": "us-county:32:013",
        "boundary_type": "county",
        "name": "Humboldt County",
        "stateFips": "32",
        "countyFips": "013",
        "bbox": [
          -119.33141999965629,
          40.52613599976158,
          -117.01820399978972,
          41.999714999815986
        ]
      },
      "geometry": {
        "type": "Polygon",
        "coordinates": [
          [
            [
              -119.33141999965629,
              41.03909699992459
            ],
            [
              -119.32979100010996,
              40.96039399993415
            ],
            [
              -118.78670499990294,
              40.96085000025951
            ],
            [
              -118.78673800041321,
              40.855929000186464
            ],
            [
              -117.64422000025287,
              40.8578240001672
            ],
            [
              -117.64439900035302,
              40.68434300032144
            ],
            [
              -117.30116799985414,
              40.682347999996026
            ],
            [
              -117.30059700011684,
              40.52613599976158
            ],
            [
              -117.24678799993805,
              40.64244500006371
            ],
            [
              -117.01866400009726,
              40.6430350001835
            ],
            [
              -117.01820399978972,
              41.999714999815986
            ],
            [
              -119.32418399997411,
              41.993923000104516
            ],
            [
              -119.32395499964525,
              41.414519000054504
            ],
            [
              -119.30463500020336,
              41.414695000199416
            ],
            [
              -119.30416900004802,
              41.307680000264384
            ],
            [
              -119.30571300010386,
              41.23454200009197
            ],
            [
              -119.33106800020211,
              41.23511800032523
            ],
            [
              -119.33140399976277,
              41.04143300012088
            ],
            [
              -119.33141999965629,
              41.03909699992459
            ]
          ]
        ]
      }
    },
    {
      "type": "Feature",
      "id": "us-county:32:015",
      "properties": {
        "boundary_id": "us-county:32:015",
        "boundary_type": "county",
        "name": "Lander County",
        "stateFips": "32",
        "countyFips": "015",
        "bbox": [
          -117.80678599989085,
          39.09342499975937,
          -116.58678599960153,
          41.000397999770165
        ]
      },
      "geometry": {
        "type": "Polygon",
        "coordinates": [
          [
            [
              -117.40522199989903,
              40.29927399990723
            ],
            [
              -117.54174899972355,
              40.00103399997976
            ],
            [
              -117.50714299970912,
              39.96881599976097
            ],
            [
              -117.50254300022699,
              39.9515160001027
            ],
            [
              -117.4777420001476,
              39.93931700010044
            ],
            [
              -117.4616399996154,
              39.88681700013118
            ],
            [
              -117.47234000005118,
              39.83921800015078
            ],
            [
              -117.48824199966855,
              39.826625000136985
            ],
            [
              -117.48574000026113,
              39.786517999788934
            ],
            [
              -117.49604899998636,
              39.770394000031466
            ],
            [
              -117.49534400035475,
              39.74836399980314
            ],
            [
              -117.47521200025278,
              39.735851000216684
            ],
            [
              -117.48782400009212,
              39.70390300021466
            ],
            [
              -117.46438499959538,
              39.67897399996455
            ],
            [
              -117.48607099979891,
              39.64476699980318
            ],
            [
              -117.46337299981711,
              39.63310100013086
            ],
            [
              -117.46158699991194,
              39.62264399967856
            ],
            [
              -117.48223700004775,
              39.59822200011324
            ],
            [
              -117.47609000013676,
              39.583640999865985
            ],
            [
              -117.48531500011367,
              39.54538399992373
            ],
            [
              -117.50139400018138,
              39.53082100017429
            ],
            [
              -117.51851400033965,
              39.538211999907894
            ],
            [
              -117.53203800039813,
              39.52692199992421
            ],
            [
              -117.59013999991242,
              39.518020999989304
            ],
            [
              -117.58653999961469,
              39.50352200004035
            ],
            [
              -117.60176599991274,
              39.49081700017318
            ],
            [
              -117.6566479999692,
              39.46790700016539
            ],
            [
              -117.63723100044291,
              39.451821000074524
            ],
            [
              -117.64601100018092,
              39.42660200033407
            ],
            [
              -117.67559199966747,
              39.4224689997964
            ],
            [
              -117.69630499955248,
              39.385934000195434
            ],
            [
              -117.7469190003878,
              39.38568899993339
            ],
            [
              -117.75578399961633,
              39.37621900029711
            ],
            [
              -117.75987000016086,
              39.33405599970444
            ],
            [
              -117.73972200016539,
              39.29684499971502
            ],
            [
              -117.74358699987867,
              39.287793000340855
            ],
            [
              -117.71405599972252,
              39.24555800018519
            ],
            [
              -117.71972399995774,
              39.21300800013879
            ],
            [
              -117.73461100032209,
              39.21007400009336
            ],
            [
              -117.75316300038321,
              39.18480199994463
            ],
            [
              -117.79159899995082,
              39.169635999988785
            ],
            [
              -117.78463799972995,
              39.15104199967694
            ],
            [
              -117.80678599989085,
              39.14537500025453
            ],
            [
              -117.79149699984359,
              39.13138199970287
            ],
            [
              -117.80011199972513,
              39.11252000020002
            ],
            [
              -117.77546800000462,
              39.09342499975937
            ],
            [
              -117.33185700027677,
              39.16342999980306
            ],
            [
              -116.60094599969469,
              39.16146299971334
            ],
            [
              -116.59012399995845,
              39.724664000309964
            ],
            [
              -116.59039599994503,
              40.07227699965972
            ],
            [
              -116.60009499957489,
              40.07399600004334
            ],
            [
              -116.5968149998426,
              40.946459999825706
            ],
            [
              -116.58710399961886,
              40.9470209998412
            ],
            [
              -116.58678599960153,
              41.000397999770165
            ],
            [
              -117.01841899987487,
              41.00025400025951
            ],
            [
              -117.01866400009726,
              40.6430350001835
            ],
            [
              -117.24678799993805,
              40.64244500006371
            ],
            [
              -117.40514200043141,
              40.299407000153906
            ],
            [
              -117.40522199989903,
              40.29927399990723
            ]
          ]
        ]
      }
    },
    {
      "type": "Feature",
      "id": "us-county:32:017",
      "properties": {
        "boundary_id": "us-county:32:017",
        "boundary_type": "county",
        "name": "Lincoln County",
        "stateFips": "32",
        "countyFips": "017",
        "bbox": [
          -115.89692499994415,
          36.84189999971326,
          -114.04980699990003,
          38.67736499973523
        ]
      },
      "geometry": {
        "type": "Polygon",
        "coordinates": [
          [
            [
              -114.95610000017393,
              36.853384000316225
            ],
            [
              -114.76250700000455,
              36.853473000139225
            ],
            [
              -114.76230100014023,
              36.84385600004176
            ],
            [
              -114.05035400024622,
              36.84314100030447
            ],
            [
              -114.04980699990003,
              38.67736499973523
            ],
            [
              -115.00084599985922,
              38.67732199985637
            ],
            [
              -115.00084599985922,
              38.05075700005737
            ],
            [
              -115.89385699992397,
              38.05053100002693
            ],
            [
              -115.89692499994415,
              36.84208500017678
            ],
            [
              -115.74074800006652,
              36.84189999971326
            ],
            [
              -115.74084599997579,
              36.853083999648774
            ],
            [
              -114.95611500024256,
              36.853384000316225
            ],
            [
              -114.95610000017393,
              36.853384000316225
            ]
          ]
        ]
      }
    },
    {
      "type": "Feature",
      "id": "us-county:32:019",
      "properties": {
        "boundary_id": "us-county:32:019",
        "boundary_type": "county",
        "name": "Lyon County",
        "stateFips": "32",
        "countyFips": "019",
        "bbox": [
          -119.71228699965661,
          38.41375300018563,
          -118.75505899995366,
          39.737129000313224
        ]
      },
      "geometry": {
        "type": "Polygon",
        "coordinates": [
          [
            [
              -119.71228699965661,
              39.25129300017432
            ],
            [
              -119.68249100008492,
              39.209330000299516
            ],
            [
              -119.64794500034493,
              39.19506000030688
            ],
            [
              -119.5615720001499,
              39.19458900020371
            ],
            [
              -119.57471299989375,
              39.15477599979976
            ],
            [
              -119.56125300030766,
              39.13694599984484
            ],
            [
              -119.5503860003656,
              39.086258999881466
            ],
            [
              -119.31084099966559,
              39.08468099980131
            ],
            [
              -119.31054100008993,
              38.990914999875685
            ],
            [
              -119.4018519998759,
              38.98365100000475
            ],
            [
              -119.40228500041928,
              38.95474599987672
            ],
            [
              -119.42023400005772,
              38.954713000196826
            ],
            [
              -119.42174999962614,
              38.8820239996512
            ],
            [
              -119.4398049995698,
              38.882088000252715
            ],
            [
              -119.44014799970148,
              38.85295500026079
            ],
            [
              -119.42176600041799,
              38.852946000283644
            ],
            [
              -119.42157100042431,
              38.82386799969039
            ],
            [
              -119.40302900040894,
              38.809283999839096
            ],
            [
              -119.4059690003826,
              38.73354299993924
            ],
            [
              -119.34989300007469,
              38.73622700010723
            ],
            [
              -119.34780199967267,
              38.64877499984544
            ],
            [
              -119.32989700041519,
              38.64872400027678
            ],
            [
              -119.33005899989857,
              38.53511399965432
            ],
            [
              -119.15590700044321,
              38.41375300018563
            ],
            [
              -118.90624399981368,
              38.415363000074564
            ],
            [
              -118.90214100044902,
              38.851921999722116
            ],
            [
              -119.01449900003084,
              38.851951000139685
            ],
            [
              -119.01485800005605,
              38.944140000030025
            ],
            [
              -118.91867999992593,
              39.07519099980261
            ],
            [
              -118.75505899995366,
              39.07470199971921
            ],
            [
              -118.75506800017448,
              39.112811000102795
            ],
            [
              -118.79220900010664,
              39.112849999761295
            ],
            [
              -118.7922190001524,
              39.14182599994252
            ],
            [
              -118.81081700024426,
              39.141818999990434
            ],
            [
              -118.81081499969609,
              39.15632899989156
            ],
            [
              -118.82942899968151,
              39.156333999921266
            ],
            [
              -118.82943999955216,
              39.171136999721575
            ],
            [
              -118.84809100024579,
              39.17123000027962
            ],
            [
              -118.84810299994136,
              39.18531399984916
            ],
            [
              -118.86673700001822,
              39.18533699969614
            ],
            [
              -118.8667570001097,
              39.198210000275
            ],
            [
              -118.89083099991785,
              39.19821799987456
            ],
            [
              -118.89066299968836,
              39.22720000029651
            ],
            [
              -118.90903099962647,
              39.22719099985038
            ],
            [
              -118.90914799980231,
              39.241678999921035
            ],
            [
              -118.92767800012214,
              39.24168100014845
            ],
            [
              -118.92783600030589,
              39.2561700000964
            ],
            [
              -118.94632899991745,
              39.256173000165376
            ],
            [
              -118.94644100007044,
              39.270662999782694
            ],
            [
              -118.96499599960632,
              39.27067999990255
            ],
            [
              -118.96501700042103,
              39.28547599997417
            ],
            [
              -118.9877210002506,
              39.28547400030087
            ],
            [
              -118.98781800033497,
              39.299974999747874
            ],
            [
              -119.00679200017049,
              39.29997400011825
            ],
            [
              -119.00679399982027,
              39.315564999717964
            ],
            [
              -119.0254789999508,
              39.31559999980314
            ],
            [
              -119.02550099969211,
              39.33008500032687
            ],
            [
              -119.044206999739,
              39.330110999660434
            ],
            [
              -119.04425600014282,
              39.34456700027992
            ],
            [
              -119.06226699970553,
              39.3446140001545
            ],
            [
              -119.0622790002994,
              39.359292999704145
            ],
            [
              -119.08092900026982,
              39.35938200029499
            ],
            [
              -119.08121200012702,
              39.37357600034114
            ],
            [
              -119.09954999992792,
              39.373803999998344
            ],
            [
              -119.09968499964711,
              39.38790400018498
            ],
            [
              -119.1177139996515,
              39.38865800017946
            ],
            [
              -119.11780200041335,
              39.51894599990824
            ],
            [
              -119.0905309998153,
              39.51887100007402
            ],
            [
              -119.08914599976812,
              39.63682899968067
            ],
            [
              -119.07714800022212,
              39.63679600033014
            ],
            [
              -119.07713599962823,
              39.722637000329065
            ],
            [
              -119.05856600002376,
              39.737129000313224
            ],
            [
              -119.11489300040185,
              39.687515999848216
            ],
            [
              -119.17862200014343,
              39.651992000057135
            ],
            [
              -119.19067599976596,
              39.63178699980339
            ],
            [
              -119.18934400032056,
              39.65142300023258
            ],
            [
              -119.2573420000065,
              39.65131999969326
            ],
            [
              -119.47879199968156,
              39.33785100019887
            ],
            [
              -119.64730599993725,
              39.26678600030354
            ],
            [
              -119.71166700041384,
              39.2514489998344
            ],
            [
              -119.71228699965661,
              39.25129300017432
            ]
          ]
        ]
      }
    },
    {
      "type": "Feature",
      "id": "us-county:32:021",
      "properties": {
        "boundary_id": "us-county:32:021",
        "boundary_type": "county",
        "name": "Mineral County",
        "stateFips": "32",
        "countyFips": "021",
        "bbox": [
          -119.15556400031153,
          37.89370500018943,
          -117.69102100035512,
          39.07519099980261
        ]
      },
      "geometry": {
        "type": "Polygon",
        "coordinates": [
          [
            [
              -119.01488399999532,
              38.939851000179644
            ],
            [
              -119.01449900003084,
              38.851951000139685
            ],
            [
              -118.90214100044902,
              38.851921999722116
            ],
            [
              -118.90624399981368,
              38.415363000074564
            ],
            [
              -119.15556400031153,
              38.413763000063945
            ],
            [
              -118.42814400024724,
              37.89622000017469
            ],
            [
              -118.35148399992576,
              37.89370500018943
            ],
            [
              -117.69102100035512,
              38.47379699997494
            ],
            [
              -118.19623500016081,
              38.919057999919744
            ],
            [
              -118.19627399962054,
              38.999925999856195
            ],
            [
              -117.86511599990908,
              39.073654000275305
            ],
            [
              -118.91867999992593,
              39.07519099980261
            ],
            [
              -119.01486300007892,
              38.94336099989264
            ],
            [
              -119.01488399999532,
              38.939851000179644
            ]
          ]
        ]
      }
    },
    {
      "type": "Feature",
      "id": "us-county:32:023",
      "properties": {
        "boundary_id": "us-county:32:023",
        "boundary_type": "county",
        "name": "Nye County",
        "stateFips": "32",
        "countyFips": "023",
        "bbox": [
          -118.19627399962054,
          35.96370700033581,
          -115.00084599985922,
          39.16342999980306
        ]
      },
      "geometry": {
        "type": "Polygon",
        "coordinates": [
          [
            [
              -117.16633800024634,
              37.66062000002668
            ],
            [
              -117.16600099996245,
              36.97111099984624
            ],
            [
              -115.84599399981472,
              35.96370700033581
            ],
            [
              -115.84576200001112,
              36.17076399986767
            ],
            [
              -115.89575300033232,
              36.17222700004161
            ],
            [
              -115.89385699992397,
              38.05053100002693
            ],
            [
              -115.00084599985922,
              38.05075700005737
            ],
            [
              -115.00084599985922,
              38.67732199985637
            ],
            [
              -115.90707100036109,
              39.16184800003208
            ],
            [
              -117.33185700027677,
              39.16342999980306
            ],
            [
              -117.77546800000462,
              39.09342499975937
            ],
            [
              -118.19627399962054,
              38.999925999856195
            ],
            [
              -118.19623500016081,
              38.919057999919744
            ],
            [
              -117.24090999964054,
              38.069902000260754
            ],
            [
              -117.24106299980141,
              38.05011599975342
            ],
            [
              -117.21926399961998,
              38.05034799978209
            ],
            [
              -117.16561199979999,
              38.00169200013852
            ],
            [
              -117.16632599965244,
              37.66093900005426
            ],
            [
              -117.16633800024634,
              37.66062000002668
            ]
          ]
        ]
      }
    },
    {
      "type": "Feature",
      "id": "us-county:32:027",
      "properties": {
        "boundary_id": "us-county:32:027",
        "boundary_type": "county",
        "name": "Pershing County",
        "stateFips": "32",
        "countyFips": "027",
        "bbox": [
          -119.33929599957105,
          39.99860899977379,
          -117.29997100012795,
          40.96085000025951
        ]
      },
      "geometry": {
        "type": "Polygon",
        "coordinates": [
          [
            [
              -119.33869100039688,
              40.479077999922836
            ],
            [
              -119.33929599957105,
              39.99860899977379
            ],
            [
              -117.54174899972355,
              40.00103399997976
            ],
            [
              -117.30059700011684,
              40.52613599976158
            ],
            [
              -117.29997100012795,
              40.676264000099
            ],
            [
              -117.30944100032725,
              40.68353699998345
            ],
            [
              -117.64439900035302,
              40.68434300032144
            ],
            [
              -117.64422000025287,
              40.8578240001672
            ],
            [
              -118.78673800041321,
              40.855929000186464
            ],
            [
              -118.78670499990294,
              40.96085000025951
            ],
            [
              -119.30959799990865,
              40.96037799979413
            ],
            [
              -119.31303699964958,
              40.51831399994706
            ],
            [
              -119.33850399990081,
              40.51780500015044
            ],
            [
              -119.33861900042687,
              40.4829060003106
            ],
            [
              -119.33869100039688,
              40.479077999922836
            ]
          ]
        ]
      }
    },
    {
      "type": "Feature",
      "id": "us-county:32:029",
      "properties": {
        "boundary_id": "us-county:32:029",
        "boundary_type": "county",
        "name": "Storey County",
        "stateFips": "32",
        "countyFips": "029",
        "bbox": [
          -119.71407000008706,
          39.250870999720455,
          -119.27980099961368,
          39.62711200010884
        ]
      },
      "geometry": {
        "type": "Polygon",
        "coordinates": [
          [
            [
              -119.69620199974116,
              39.45129000023301
            ],
            [
              -119.6550689998741,
              39.447478999744185
            ],
            [
              -119.65714500020752,
              39.404110999738315
            ],
            [
              -119.67700000030003,
              39.40447100005671
            ],
            [
              -119.67727099956335,
              39.389575000101885
            ],
            [
              -119.68546399967053,
              39.389575000101885
            ],
            [
              -119.68541500016505,
              39.37506300015493
            ],
            [
              -119.6775269996564,
              39.37509499978699
            ],
            [
              -119.6775269996564,
              39.36064700024124
            ],
            [
              -119.66810199966292,
              39.36079800007585
            ],
            [
              -119.66813400034829,
              39.34621600005354
            ],
            [
              -119.65882099960949,
              39.34608799991445
            ],
            [
              -119.65850099994235,
              39.331543999852464
            ],
            [
              -119.67741399967849,
              39.33165500031611
            ],
            [
              -119.67747599960276,
              39.28087100009134
            ],
            [
              -119.69595700041711,
              39.28090299974171
            ],
            [
              -119.6965199997585,
              39.25914499965508
            ],
            [
              -119.71407000008706,
              39.259174999761704
            ],
            [
              -119.71264499985693,
              39.250870999720455
            ],
            [
              -119.64730599993725,
              39.26678600030354
            ],
            [
              -119.47879199968156,
              39.33785100019887
            ],
            [
              -119.27980099961368,
              39.62711200010884
            ],
            [
              -119.37060400030987,
              39.586882000254285
            ],
            [
              -119.45588899966035,
              39.58929000031468
            ],
            [
              -119.467840000249,
              39.58402199967743
            ],
            [
              -119.47265099961832,
              39.56595399965975
            ],
            [
              -119.54838000035241,
              39.56173700020028
            ],
            [
              -119.59425800036486,
              39.54404699984115
            ],
            [
              -119.62324800002263,
              39.511044000084006
            ],
            [
              -119.6648389996491,
              39.5084380001333
            ],
            [
              -119.69564299969943,
              39.520023000071475
            ],
            [
              -119.69619000004558,
              39.45223600022458
            ],
            [
              -119.69620199974116,
              39.45129000023301
            ]
          ]
        ]
      }
    },
    {
      "type": "Feature",
      "id": "us-county:32:031",
      "properties": {
        "boundary_id": "us-county:32:031",
        "boundary_type": "county",
        "name": "Washoe County",
        "stateFips": "32",
        "countyFips": "031",
        "bbox": [
          -120.00429699959783,
          39.16550899984869,
          -119.17064099974839,
          41.9949440002954
        ]
      },
      "geometry": {
        "type": "Polygon",
        "coordinates": [
          [
            [
              -119.68533599962402,
              39.376687000113265
            ],
            [
              -119.67700000030003,
              39.40447100005671
            ],
            [
              -119.65714500020752,
              39.404110999738315
            ],
            [
              -119.6550689998741,
              39.447478999744185
            ],
            [
              -119.69608999958817,
              39.447462999882944
            ],
            [
              -119.69564299969943,
              39.520023000071475
            ],
            [
              -119.6648389996491,
              39.5084380001333
            ],
            [
              -119.62324800002263,
              39.511044000084006
            ],
            [
              -119.59425800036486,
              39.54404699984115
            ],
            [
              -119.54754500012616,
              39.562012000001594
            ],
            [
              -119.47265099961832,
              39.56595399965975
            ],
            [
              -119.467840000249,
              39.58402199967743
            ],
            [
              -119.45588899966035,
              39.58929000031468
            ],
            [
              -119.37060400030987,
              39.586882000254285
            ],
            [
              -119.28242500011817,
              39.628889999898185
            ],
            [
              -119.27686599966289,
              39.62232400000229
            ],
            [
              -119.2573420000065,
              39.65131999969326
            ],
            [
              -119.18934400032056,
              39.65142300023258
            ],
            [
              -119.1893269997038,
              39.68047999987118
            ],
            [
              -119.17064099974839,
              39.680453000229456
            ],
            [
              -119.17089900038957,
              39.78828799981154
            ],
            [
              -119.18970699964541,
              39.78822099998086
            ],
            [
              -119.18976100007207,
              39.8099939999487
            ],
            [
              -119.20854300028694,
              39.80996699994539
            ],
            [
              -119.20862799977745,
              39.899459000039435
            ],
            [
              -119.22613899974796,
              39.899449000303576
            ],
            [
              -119.22508599996183,
              39.99937200017683
            ],
            [
              -119.33929599957105,
              39.99860899977379
            ],
            [
              -119.33850399990081,
              40.51780500015044
            ],
            [
              -119.31303699964958,
              40.51831399994706
            ],
            [
              -119.30917799978407,
              40.87760800017142
            ],
            [
              -119.30959799990865,
              40.96037799979413
            ],
            [
              -119.32979100010996,
              40.96039399993415
            ],
            [
              -119.33106800020211,
              41.23511800032523
            ],
            [
              -119.30571300010386,
              41.23454200009197
            ],
            [
              -119.30416900004802,
              41.307680000264384
            ],
            [
              -119.30463500020336,
              41.414695000199416
            ],
            [
              -119.32395499964525,
              41.414519000054504
            ],
            [
              -119.32418399997411,
              41.993923000104516
            ],
            [
              -119.99923400033343,
              41.9949440002954
            ],
            [
              -119.99564499990636,
              40.40494499996141
            ],
            [
              -120.00429699959783,
              39.16560300034056
            ],
            [
              -119.88078699966862,
              39.16550899984869
            ],
            [
              -119.86210300026133,
              39.171147999838965
            ],
            [
              -119.86251699963981,
              39.18563900010692
            ],
            [
              -119.84393299979163,
              39.2007759996832
            ],
            [
              -119.77087100011808,
              39.215284999701225
            ],
            [
              -119.770871999943,
              39.22983200020374
            ],
            [
              -119.75216800044421,
              39.22989199973823
            ],
            [
              -119.75209300010115,
              39.24438500012158
            ],
            [
              -119.7152969999505,
              39.24428300003593
            ],
            [
              -119.71407000008706,
              39.259174999761704
            ],
            [
              -119.6965199997585,
              39.25914499965508
            ],
            [
              -119.69595700041711,
              39.28090299974171
            ],
            [
              -119.67747599960276,
              39.28087100009134
            ],
            [
              -119.67741399967849,
              39.33165500031611
            ],
            [
              -119.65850099994235,
              39.331543999852464
            ],
            [
              -119.65882099960949,
              39.34608799991445
            ],
            [
              -119.66813400034829,
              39.34621600005354
            ],
            [
              -119.66810199966292,
              39.36079800007585
            ],
            [
              -119.6775269996564,
              39.36064700024124
            ],
            [
              -119.6775269996564,
              39.37509499978699
            ],
            [
              -119.68534400001994,
              39.376278000236084
            ],
            [
              -119.68533599962402,
              39.376687000113265
            ]
          ]
        ]
      }
    },
    {
      "type": "Feature",
      "id": "us-county:32:033",
      "properties": {
        "boundary_id": "us-county:32:033",
        "boundary_type": "county",
        "name": "White Pine County",
        "stateFips": "32",
        "countyFips": "033",
        "bbox": [
          -115.90765899981682,
          38.67732199985637,
          -114.0466140002064,
          40.12784200030577
        ]
      },
      "geometry": {
        "type": "Polygon",
        "coordinates": [
          [
            [
              -114.72181500017845,
              40.12102699966627
            ],
            [
              -115.83496899968891,
              40.12784200030577
            ],
            [
              -115.82377700005686,
              40.11882199998733
            ],
            [
              -115.83064299984318,
              40.1126590001502
            ],
            [
              -115.82535600027276,
              40.10607299997294
            ],
            [
              -115.84020299955584,
              40.09756899980205
            ],
            [
              -115.82662999999188,
              40.053117999871965
            ],
            [
              -115.83582599965648,
              39.99394999975582
            ],
            [
              -115.81618300017439,
              39.9548730001668
            ],
            [
              -115.8174450001979,
              39.931003000287994
            ],
            [
              -115.80235899964192,
              39.91282099984993
            ],
            [
              -115.80526699982852,
              39.86982400023996
            ],
            [
              -115.79486500021692,
              39.853941999986695
            ],
            [
              -115.8156340001784,
              39.81433399997114
            ],
            [
              -115.81208400010938,
              39.75292899970173
            ],
            [
              -115.8332709996473,
              39.72813400007043
            ],
            [
              -115.82255699986611,
              39.670247999655466
            ],
            [
              -115.82751000042397,
              39.64604299969841
            ],
            [
              -115.81347599982924,
              39.593521000064456
            ],
            [
              -115.83817300015151,
              39.556187000011334
            ],
            [
              -115.83046000044338,
              39.54138600011996
            ],
            [
              -115.84215400021579,
              39.51124400005056
            ],
            [
              -115.87026400033977,
              39.48712800009173
            ],
            [
              -115.87026799963941,
              39.470045999664606
            ],
            [
              -115.89833900030364,
              39.45388999984343
            ],
            [
              -115.90765899981682,
              39.46443200009397
            ],
            [
              -115.90707100036109,
              39.16184800003208
            ],
            [
              -115.00084599985922,
              38.67732199985637
            ],
            [
              -114.04980699990003,
              38.67736499973523
            ],
            [
              -114.0466140002064,
              40.11693600009995
            ],
            [
              -114.71840300020168,
              40.120999999948424
            ],
            [
              -114.72181500017845,
              40.12102699966627
            ]
          ]
        ]
      }
    },
    {
      "type": "Feature",
      "id": "us-county:32:510",
      "properties": {
        "boundary_id": "us-county:32:510",
        "boundary_type": "county",
        "name": "Carson City",
        "stateFips": "32",
        "countyFips": "510",
        "bbox": [
          -120.00429699959783,
          39.0849039998149,
          -119.54830800038239,
          39.251046000292675
        ]
      },
      "geometry": {
        "type": "Polygon",
        "coordinates": [
          [
            [
              -120.00429699959783,
              39.16560300034056
            ],
            [
              -120.0034289997596,
              39.11268700024083
            ],
            [
              -119.76121299959776,
              39.114008999706776
            ],
            [
              -119.75211599966737,
              39.0849039998149
            ],
            [
              -119.54830800038239,
              39.09078500009464
            ],
            [
              -119.57471299989375,
              39.15477599979976
            ],
            [
              -119.5615720001499,
              39.19458900020371
            ],
            [
              -119.64794500034493,
              39.19506000030688
            ],
            [
              -119.68249100008492,
              39.209330000299516
            ],
            [
              -119.71211199975444,
              39.251046000292675
            ],
            [
              -119.7152969999505,
              39.24428300003593
            ],
            [
              -119.75209300010115,
              39.24438500012158
            ],
            [
              -119.75216800044421,
              39.22989199973823
            ],
            [
              -119.770871999943,
              39.22983200020374
            ],
            [
              -119.77087100011808,
              39.215284999701225
            ],
            [
              -119.84393299979163,
              39.2007759996832
            ],
            [
              -119.86251699963981,
              39.18563900010692
            ],
            [
              -119.86210300026133,
              39.171147999838965
            ],
            [
              -119.88078699966862,
              39.16550899984869
            ],
            [
              -120.0012739997835,
              39.16568000022011
            ],
            [
              -120.00429699959783,
              39.16560300034056
            ]
          ]
        ]
      }
    },
    {
      "type": "Feature",
      "id": "us-state:32",
      "properties": {
        "boundary_id": "us-state:32",
        "boundary_type": "state",
        "name": "Nevada",
        "stateFips": "32",
        "bbox": [
          -120.00101400039082,
          35.00185699992408,
          -114.04147700042382,
          42.001841999931585
        ]
      },
      "geometry": {
        "type": "Polygon",
        "coordinates": [
          [
            [
              -119.32418399997411,
              41.993923000104516
            ],
            [
              -119.99923400033343,
              41.9949440002954
            ],
            [
              -120.00101400039082,
              38.9995739998671
            ],
            [
              -118.71420100044621,
              38.102104999939314
            ],
            [
              -117.50011700008923,
              37.2203799998619
            ],
            [
              -116.09416600009187,
              36.156262999645975
            ],
            [
              -114.63348700002383,
              35.00185699992408
            ],
            [
              -114.63473200032892,
              35.03373399993712
            ],
            [
              -114.60290800010439,
              35.0685879999082
            ],
            [
              -114.64676400021014,
              35.10186799976946
            ],
            [
              -114.62842700023417,
              35.11894299969341
            ],
            [
              -114.57826299966065,
              35.128810000001394
            ],
            [
              -114.56925799979174,
              35.18342400018934
            ],
            [
              -114.60460699997094,
              35.35523899992858
            ],
            [
              -114.62676500017756,
              35.4096439998946
            ],
            [
              -114.66289599998126,
              35.446448999705474
            ],
            [
              -114.67864199996302,
              35.49762800019905
            ],
            [
              -114.67568500027093,
              35.51562999989211
            ],
            [
              -114.65676999998666,
              35.534964000021354
            ],
            [
              -114.67566699982928,
              35.58003300010464
            ],
            [
              -114.65923799995721,
              35.58747700001496
            ],
            [
              -114.65353399973701,
              35.60967199999097
            ],
            [
              -114.68950700025526,
              35.65142899999577
            ],
            [
              -114.68063100025779,
              35.684045999878975
            ],
            [
              -114.70559700019359,
              35.708274000304655
            ],
            [
              -114.69426699957094,
              35.75663299993846
            ],
            [
              -114.6993180000381,
              35.790479999703
            ],
            [
              -114.71202600013693,
              35.80552899973275
            ],
            [
              -114.69527699969942,
              35.8310909998345
            ],
            [
              -114.70585599976137,
              35.850508000345044
            ],
            [
              -114.66163599960757,
              35.871232999750745
            ],
            [
              -114.70811200001982,
              35.90993299978652
            ],
            [
              -114.70760300020679,
              35.92795000028146
            ],
            [
              -114.74053600029397,
              35.97554500006092
            ],
            [
              -114.74300500008945,
              36.00844999989724
            ],
            [
              -114.72209600038587,
              36.028951999879226
            ],
            [
              -114.74126199984198,
              36.03804399964776
            ],
            [
              -114.73528499981028,
              36.05664800025217
            ],
            [
              -114.75378400016794,
              36.08780699980141
            ],
            [
              -114.73408499971103,
              36.10467200024297
            ],
            [
              -114.66434299995274,
              36.11630000001182
            ],
            [
              -114.63047400025525,
              36.142218000081236
            ],
            [
              -114.6154549996464,
              36.129652999858045
            ],
            [
              -114.57108999972766,
              36.15109899974367
            ],
            [
              -114.50810400015081,
              36.14971300009079
            ],
            [
              -114.50179800023112,
              36.12655600029197
            ],
            [
              -114.46260000023217,
              36.139643999971604
            ],
            [
              -114.44504200040598,
              36.12534600011315
            ],
            [
              -114.4124909999102,
              36.146510999999734
            ],
            [
              -114.37374499982286,
              36.14372200013472
            ],
            [
              -114.30693899984024,
              36.0824870000549
            ],
            [
              -114.31359100026462,
              36.05904800033639
            ],
            [
              -114.2708619995649,
              36.045522999746055
            ],
            [
              -114.26437999991813,
              36.02791099968178
            ],
            [
              -114.24386500039985,
              36.015266000223654
            ],
            [
              -114.15138999960134,
              36.02313299995271
            ],
            [
              -114.11229700008265,
              36.094049999949995
            ],
            [
              -114.12086500010854,
              36.1108499996413
            ],
            [
              -114.09699399979168,
              36.12082299973032
            ],
            [
              -114.0667980001869,
              36.17908700007748
            ],
            [
              -114.04394399967116,
              36.19335000002779
            ],
            [
              -114.05288499996597,
              37.560854999797606
            ],
            [
              -114.04147700042382,
              41.993872999699974
            ],
            [
              -114.82349099976616,
              42.001841999931585
            ],
            [
              -119.32362199955931,
              41.99391700000459
            ],
            [
              -119.32418399997411,
              41.993923000104516
            ]
          ]
        ]
      }
    }
  ]
}
