{
  "type": "FeatureCollection",
  "features": [
    {
      "type": "Feature",
      "id": "us-cd:118:60:98",
      "properties": {
        "boundary_id": "us-cd:118:60:98",
        "boundary_type": "congressional_district",
        "name": "Delegate District (at Large)",
        "stateFips": "60",
        "congress": 118,
        "district": "98",
        "bbox": [
          -171.089874,
          -14.548699,
          -168.1433,
          -11.046934
        ]
      },
      "geometry": {
        "type": "MultiPolygon",
        "coordinates": [
          [
            [
              [
                -168.145824,
                -14.547906
              ],
              [
                -168.145605,
                -14.546883
              ],
              [
                -168.145231,
                -14.545659
              ],
              [
                -168.145097,
                -14.545332
              ],
              [
                -168.144883,
                -14.545375
              ],
              [
                -168.144603,
                -14.545516
              ],
              [
                -168.144004,
                -14.546022
              ],
              [
                -168.143623,
                -14.546434
              ],
              [
                -168.143476,
                -14.546758
              ],
              [
                -168.143347,
                -14.546928
              ],
              [
                -168.143311,
                -14.547162
              ],
              [
                -168.1433,
                -14.547368
              ],
              [
                -168.143362,
                -14.547501
              ],
              [
                -168.143637,
                -14.547874
              ],
              [
                -168.144099,
                -14.548297
              ],
              [
                -168.144371,
                -14.548491
              ],
              [
                -168.144905,
                -14.548699
              ],
              [
                -168.145294,
                -14.548608
              ],
              [
                -168.145426,
                -14.548543
              ],
              [
                -168.145529,
                -14.548445
              ],
              [
                -168.145661,
                -14.548275
              ],
              [
                -168.145824,
                -14.547906
              ]
            ]
          ],
          [
            [
              [
                -168.152291,
                -14.536105
              ],
              [
                -168.152028,
                -14.535755
              ],
              [
                -168.151724,
                -14.535604
              ],
              [
                -168.151329,
                -14.535588
              ],
              [
                -168.150943,
                -14.535791
              ],
              [
                -168.150606,
                -14.536125
              ],
              [
                -168.150458,
                -14.536411
              ],
              [
                -168.150429,
                -14.536813
              ],
              [
                -168.150445,
                -14.537056
              ],
              [
                -168.15054,
                -14.537306
              ],
              [
                -168.15084,
                -14.537724
              ],
              [
                -168.151103,
                -14.537605
              ],
              [
                -168.151444,
                -14.53741
              ],
              [
                -168.151654,
                -14.537362
              ],
              [
                -168.151921,
                -14.537092
              ],
              [
                -168.151991,
                -14.536821
              ],
              [
                -168.151982,
                -14.536662
              ],
              [
                -168.152135,
                -14.53661
              ],
              [
                -168.152307,
                -14.536368
              ],
              [
                -168.152291,
                -14.536105
              ]
            ]
          ],
          [
            [
              [
                -169.519103,
                -14.220882
              ],
              [
                -169.507363,
                -14.212398
              ],
              [
                -169.427311,
                -14.211574
              ],
              [
                -169.418802,
                -14.218394
              ],
              [
                -169.422938,
                -14.255024
              ],
              [
                -169.461537,
                -14.248851
              ],
              [
                -169.490534,
                -14.27184
              ],
              [
                -169.518485,
                -14.223693
              ],
              [
                -169.519103,
                -14.220882
              ]
            ]
          ],
          [
            [
              [
                -169.631936,
                -14.168769
              ],
              [
                -169.61026,
                -14.156601
              ],
              [
                -169.612684,
                -14.193334
              ],
              [
                -169.631856303434,
                -14.1688829404948
              ],
              [
                -169.631936,
                -14.168769
              ]
            ]
          ],
          [
            [
              [
                -169.682134,
                -14.161625
              ],
              [
                -169.632839,
                -14.168308
              ],
              [
                -169.66987,
                -14.185637
              ],
              [
                -169.681991,
                -14.163054
              ],
              [
                -169.682134,
                -14.161625
              ]
            ]
          ],
          [
            [
              [
                -169.687268,
                -14.164298
              ],
              [
                -169.684416,
                -14.172318
              ],
              [
                -169.687743,
                -14.164805
              ],
              [
                -169.687268,
                -14.164298
              ]
            ]
          ],
          [
            [
              [
                -170.561009,
                -14.283769
              ],
              [
                -170.545733,
                -14.283224
              ],
              [
                -170.561707,
                -14.285706
              ],
              [
                -170.561009,
                -14.283769
              ]
            ]
          ],
          [
            [
              [
                -170.847,
                -14.320853
              ],
              [
                -170.798359,
                -14.289397
              ],
              [
                -170.78291,
                -14.287412
              ],
              [
                -170.780672,
                -14.295055
              ],
              [
                -170.761433,
                -14.287419
              ],
              [
                -170.753387,
                -14.296114
              ],
              [
                -170.731366,
                -14.281636
              ],
              [
                -170.723439,
                -14.288606
              ],
              [
                -170.712443,
                -14.261894
              ],
              [
                -170.688695,
                -14.253625
              ],
              [
                -170.671555,
                -14.229563
              ],
              [
                -170.675122,
                -14.250367
              ],
              [
                -170.652494,
                -14.248541
              ],
              [
                -170.65242,
                -14.258984
              ],
              [
                -170.639779,
                -14.247094
              ],
              [
                -170.622331,
                -14.248515
              ],
              [
                -170.627987,
                -14.258523
              ],
              [
                -170.613198,
                -14.251438
              ],
              [
                -170.588915,
                -14.261973
              ],
              [
                -170.577728,
                -14.246278
              ],
              [
                -170.561475,
                -14.246095
              ],
              [
                -170.56449,
                -14.26982
              ],
              [
                -170.602281,
                -14.28409
              ],
              [
                -170.614653,
                -14.268082
              ],
              [
                -170.663265,
                -14.291052
              ],
              [
                -170.665168,
                -14.270924
              ],
              [
                -170.699458,
                -14.27107
              ],
              [
                -170.680745,
                -14.276256
              ],
              [
                -170.677804,
                -14.298279
              ],
              [
                -170.702848,
                -14.32206
              ],
              [
                -170.706002,
                -14.311203
              ],
              [
                -170.716546,
                -14.317164
              ],
              [
                -170.699675,
                -14.327006
              ],
              [
                -170.740417,
                -14.364817
              ],
              [
                -170.751723,
                -14.359858
              ],
              [
                -170.759768,
                -14.37374
              ],
              [
                -170.760232,
                -14.362575
              ],
              [
                -170.785475,
                -14.357289
              ],
              [
                -170.794981,
                -14.331535
              ],
              [
                -170.846889397161,
                -14.3223931066596
              ],
              [
                -170.847,
                -14.320853
              ]
            ]
          ],
          [
            [
              [
                -171.089874,
                -11.052592
              ],
              [
                -171.073635,
                -11.046934
              ],
              [
                -171.0658,
                -11.05386
              ],
              [
                -171.080865,
                -11.064603
              ],
              [
                -171.089823,
                -11.054115
              ],
              [
                -171.089874,
                -11.052592
              ]
            ]
          ]
        ]
      }
    }
  ]
}
