{
  "type": "FeatureCollection",
  "features": [
    {
      "type": "Feature",
      "id": "us-cd:118:78:98",
      "properties": {
        "boundary_id": "us-cd:118:78:98",
        "boundary_type": "congressional_district",
        "name": "Delegate District (at Large)",
        "stateFips": "78",
        "congress": 118,
        "district": "98",
        "bbox": [
          -65.085362,
          17.679349,
          -64.565594,
          18.415815
        ]
      },
      "geometry": {
        "type": "MultiPolygon",
        "coordinates": [
          [
            [
              [
                -64.62765,
                17.788571
              ],
              [
                -64.612141,
                17.787219
              ],
              [
                -64.627452,
                17.787175
              ],
              [
                -64.62765,
                17.788571
              ]
            ]
          ],
          [
            [
              [
                -64.651818,
                18.326131
              ],
              [
                -64.6507808014488,
                18.3279869530687
              ],
              [
                -64.650555,
                18.328391
              ],
              [
                -64.649555,
                18.328639
              ],
              [
                -64.64868,
                18.32808
              ],
              [
                -64.648959,
                18.326011
              ],
              [
                -64.650313,
                18.324338
              ],
              [
                -64.651604,
                18.324706
              ],
              [
                -64.651818,
                18.326131
              ]
            ]
          ],
          [
            [
              [
                -64.667258,
                17.765325
              ],
              [
                -64.665981,
                17.768468
              ],
              [
                -64.664851,
                17.768579
              ],
              [
                -64.6644984915254,
                17.7682136909384
              ],
              [
                -64.664135,
                17.767837
              ],
              [
                -64.665367,
                17.764596
              ],
              [
                -64.6660195675776,
                17.7645455378323
              ],
              [
                -64.666505,
                17.764508
              ],
              [
                -64.667258,
                17.765325
              ]
            ]
          ],
          [
            [
              [
                -64.690297,
                18.316756
              ],
              [
                -64.68979398114,
                18.3171802451797
              ],
              [
                -64.68932,
                18.31758
              ],
              [
                -64.686844,
                18.316323
              ],
              [
                -64.686481,
                18.315605
              ],
              [
                -64.687783,
                18.314829
              ],
              [
                -64.690022,
                18.316098
              ],
              [
                -64.690297,
                18.316756
              ]
            ]
          ],
          [
            [
              [
                -64.703624,
                17.750623
              ],
              [
                -64.702765,
                17.75086
              ],
              [
                -64.70222,
                17.750795
              ],
              [
                -64.70163,
                17.750302
              ],
              [
                -64.701943,
                17.748913
              ],
              [
                -64.702971,
                17.74876
              ],
              [
                -64.7034550790739,
                17.7490437899466
              ],
              [
                -64.703829,
                17.749263
              ],
              [
                -64.703624,
                17.750623
              ]
            ]
          ],
          [
            [
              [
                -64.757407,
                18.357274
              ],
              [
                -64.756658,
                18.357452
              ],
              [
                -64.755786,
                18.357293
              ],
              [
                -64.755428,
                18.356417
              ],
              [
                -64.755552784174,
                18.3562238297393
              ],
              [
                -64.755660513409,
                18.3560570611201
              ],
              [
                -64.755886,
                18.355708
              ],
              [
                -64.757002,
                18.355795
              ],
              [
                -64.757573,
                18.356509
              ],
              [
                -64.757407,
                18.357274
              ]
            ]
          ],
          [
            [
              [
                -64.75876,
                18.370521
              ],
              [
                -64.757668086008,
                18.37102957335
              ],
              [
                -64.757358,
                18.371174
              ],
              [
                -64.755521,
                18.370965
              ],
              [
                -64.755038,
                18.370519
              ],
              [
                -64.755241,
                18.369627
              ],
              [
                -64.755942,
                18.36927
              ],
              [
                -64.758574,
                18.369182
              ],
              [
                -64.759072,
                18.369777
              ],
              [
                -64.75876,
                18.370521
              ]
            ]
          ],
          [
            [
              [
                -64.762891,
                17.684497
              ],
              [
                -64.762245,
                17.685035
              ],
              [
                -64.7620040081726,
                17.6850371625739
              ],
              [
                -64.760462,
                17.685051
              ],
              [
                -64.759677,
                17.684436
              ],
              [
                -64.759355,
                17.68359
              ],
              [
                -64.759831,
                17.682852
              ],
              [
                -64.761329,
                17.68236
              ],
              [
                -64.76195,
                17.682455
              ],
              [
                -64.762737,
                17.682821
              ],
              [
                -64.762851494898,
                17.6832789795918
              ],
              [
                -64.76286,
                17.683313
              ],
              [
                -64.7628905570021,
                17.6844800803369
              ],
              [
                -64.762891,
                17.684497
              ]
            ]
          ],
          [
            [
              [
                -64.790211,
                18.3563
              ],
              [
                -64.788987,
                18.356427
              ],
              [
                -64.788089,
                18.355021
              ],
              [
                -64.788586,
                18.354163
              ],
              [
                -64.789791,
                18.3542
              ],
              [
                -64.790572,
                18.355256
              ],
              [
                -64.790211,
                18.3563
              ]
            ]
          ],
          [
            [
              [
                -64.794274,
                18.353607
              ],
              [
                -64.7935590393296,
                18.3542396372891
              ],
              [
                -64.793475,
                18.354314
              ],
              [
                -64.792763,
                18.354314
              ],
              [
                -64.792181,
                18.35387
              ],
              [
                -64.79176,
                18.352482
              ],
              [
                -64.792371,
                18.352066
              ],
              [
                -64.794231,
                18.352774
              ],
              [
                -64.794274,
                18.353607
              ]
            ]
          ],
          [
            [
              [
                -64.795245,
                18.369651
              ],
              [
                -64.794749,
                18.370464
              ],
              [
                -64.793665,
                18.37056
              ],
              [
                -64.793061,
                18.369606
              ],
              [
                -64.79372,
                18.368822
              ],
              [
                -64.794781,
                18.368778
              ],
              [
                -64.795245,
                18.369651
              ]
            ]
          ],
          [
            [
              [
                -64.797916,
                18.356009
              ],
              [
                -64.797151,
                18.356794
              ],
              [
                -64.79621,
                18.356763
              ],
              [
                -64.795832,
                18.356137
              ],
              [
                -64.796329,
                18.354968
              ],
              [
                -64.797476,
                18.355042
              ],
              [
                -64.797916,
                18.356009
              ]
            ]
          ],
          [
            [
              [
                -64.798645,
                18.328249
              ],
              [
                -64.786244,
                18.353118
              ],
              [
                -64.780458,
                18.346016
              ],
              [
                -64.777704,
                18.35356
              ],
              [
                -64.744554,
                18.357512
              ],
              [
                -64.748836,
                18.372905
              ],
              [
                -64.733962,
                18.36987
              ],
              [
                -64.737588,
                18.364249
              ],
              [
                -64.691256,
                18.361112
              ],
              [
                -64.660879,
                18.342928
              ],
              [
                -64.670941,
                18.330116
              ],
              [
                -64.681173,
                18.346763
              ],
              [
                -64.692772,
                18.340147
              ],
              [
                -64.691332,
                18.356673
              ],
              [
                -64.70411,
                18.353996
              ],
              [
                -64.70516,
                18.3407
              ],
              [
                -64.71543,
                18.346102
              ],
              [
                -64.697382,
                18.32203
              ],
              [
                -64.703118,
                18.298203
              ],
              [
                -64.705323,
                18.309055
              ],
              [
                -64.721308,
                18.307578
              ],
              [
                -64.720718,
                18.318892
              ],
              [
                -64.765692,
                18.322687
              ],
              [
                -64.765394,
                18.311562
              ],
              [
                -64.772938,
                18.320904
              ],
              [
                -64.780482,
                18.310883
              ],
              [
                -64.799493,
                18.32685
              ],
              [
                -64.798645,
                18.328249
              ]
            ]
          ],
          [
            [
              [
                -64.8064294454074,
                18.3674483198868
              ],
              [
                -64.799081,
                18.368765
              ],
              [
                -64.806502,
                18.367046
              ],
              [
                -64.8064294454074,
                18.3674483198868
              ]
            ]
          ],
          [
            [
              [
                -64.808384,
                18.33153
              ],
              [
                -64.807578,
                18.331823
              ],
              [
                -64.806883,
                18.331274
              ],
              [
                -64.806261,
                18.329209
              ],
              [
                -64.8067530299211,
                18.3287324478413
              ],
              [
                -64.806865,
                18.328624
              ],
              [
                -64.806889541768,
                18.3286276812652
              ],
              [
                -64.807905,
                18.32878
              ],
              [
                -64.80849,
                18.330716
              ],
              [
                -64.808384,
                18.33153
              ]
            ]
          ],
          [
            [
              [
                -64.812782,
                18.362053
              ],
              [
                -64.798349,
                18.363564
              ],
              [
                -64.812973,
                18.361568
              ],
              [
                -64.812782,
                18.362053
              ]
            ]
          ],
          [
            [
              [
                -64.817646,
                18.296485
              ],
              [
                -64.816951,
                18.296776
              ],
              [
                -64.814562,
                18.296201
              ],
              [
                -64.814219,
                18.295874
              ],
              [
                -64.814228,
                18.295281
              ],
              [
                -64.814627,
                18.294972
              ],
              [
                -64.816544,
                18.294591
              ],
              [
                -64.8173843837556,
                18.2950211490313
              ],
              [
                -64.817599,
                18.295131
              ],
              [
                -64.817646,
                18.296485
              ]
            ]
          ],
          [
            [
              [
                -64.824536,
                18.360667
              ],
              [
                -64.815296,
                18.359173
              ],
              [
                -64.824566,
                18.359722
              ],
              [
                -64.824536,
                18.360667
              ]
            ]
          ],
          [
            [
              [
                -64.828682,
                18.300073
              ],
              [
                -64.821738,
                18.298049
              ],
              [
                -64.829162,
                18.297974
              ],
              [
                -64.828682,
                18.300073
              ]
            ]
          ],
          [
            [
              [
                -64.832977,
                18.307213
              ],
              [
                -64.830921,
                18.315412
              ],
              [
                -64.822686,
                18.312941
              ],
              [
                -64.8332,
                18.305502
              ],
              [
                -64.832977,
                18.307213
              ]
            ]
          ],
          [
            [
              [
                -64.8393218041155,
                18.3576411928149
              ],
              [
                -64.826182,
                18.360332
              ],
              [
                -64.839345,
                18.357611
              ],
              [
                -64.8393218041155,
                18.3576411928149
              ]
            ]
          ],
          [
            [
              [
                -64.865576,
                18.313935
              ],
              [
                -64.865174,
                18.314371
              ],
              [
                -64.864085,
                18.314288
              ],
              [
                -64.863736,
                18.313667
              ],
              [
                -64.864388,
                18.312826
              ],
              [
                -64.865444,
                18.312964
              ],
              [
                -64.865576,
                18.313935
              ]
            ]
          ],
          [
            [
              [
                -64.868796,
                18.315699
              ],
              [
                -64.868339,
                18.3161
              ],
              [
                -64.86741,
                18.315974
              ],
              [
                -64.8671963892239,
                18.315703845195
              ],
              [
                -64.867070408625,
                18.3155445167904
              ],
              [
                -64.866764,
                18.315157
              ],
              [
                -64.867516,
                18.314451
              ],
              [
                -64.868558,
                18.314615
              ],
              [
                -64.868796,
                18.315699
              ]
            ]
          ],
          [
            [
              [
                -64.869205,
                18.308494
              ],
              [
                -64.862193,
                18.30725
              ],
              [
                -64.8691393540199,
                18.3079357763817
              ],
              [
                -64.869205,
                18.308494
              ]
            ]
          ],
          [
            [
              [
                -64.8746187156151,
                18.3608181316235
              ],
              [
                -64.848138,
                18.357634
              ],
              [
                -64.874978,
                18.360268
              ],
              [
                -64.8746187156151,
                18.3608181316235
              ]
            ]
          ],
          [
            [
              [
                -64.889504,
                18.275789
              ],
              [
                -64.8892,
                18.276182
              ],
              [
                -64.886665,
                18.276664
              ],
              [
                -64.885915,
                18.276539
              ],
              [
                -64.8857,
                18.275986
              ],
              [
                -64.886718,
                18.274343
              ],
              [
                -64.887147,
                18.273968
              ],
              [
                -64.887897,
                18.274057
              ],
              [
                -64.888343,
                18.274254
              ],
              [
                -64.8889681325843,
                18.2747747494382
              ],
              [
                -64.889415,
                18.275147
              ],
              [
                -64.889504,
                18.275789
              ]
            ]
          ],
          [
            [
              [
                -64.896397,
                18.27745
              ],
              [
                -64.896004,
                18.278039
              ],
              [
                -64.8958085020242,
                18.2780605638865
              ],
              [
                -64.894218,
                18.278236
              ],
              [
                -64.89354,
                18.279182
              ],
              [
                -64.892575,
                18.279468
              ],
              [
                -64.891647,
                18.278825
              ],
              [
                -64.891379,
                18.278004
              ],
              [
                -64.890915,
                18.27745
              ],
              [
                -64.890986,
                18.276914
              ],
              [
                -64.891593,
                18.276664
              ],
              [
                -64.892915,
                18.276522
              ],
              [
                -64.894254,
                18.276004
              ],
              [
                -64.894968,
                18.274682
              ],
              [
                -64.895915,
                18.274664
              ],
              [
                -64.896379,
                18.275236
              ],
              [
                -64.896058,
                18.276325
              ],
              [
                -64.896397,
                18.27745
              ]
            ]
          ],
          [
            [
              [
                -64.903557,
                17.680425
              ],
              [
                -64.883639,
                17.708003
              ],
              [
                -64.89403,
                17.747359
              ],
              [
                -64.872356,
                17.771036
              ],
              [
                -64.836517,
                17.761545
              ],
              [
                -64.778877,
                17.783846
              ],
              [
                -64.761227,
                17.781108
              ],
              [
                -64.758902,
                17.768079
              ],
              [
                -64.749024,
                17.783442
              ],
              [
                -64.708587,
                17.746825
              ],
              [
                -64.655621,
                17.76346
              ],
              [
                -64.565594,
                17.755207
              ],
              [
                -64.577208,
                17.745836
              ],
              [
                -64.602391,
                17.745789
              ],
              [
                -64.609632,
                17.733175
              ],
              [
                -64.637825,
                17.722083
              ],
              [
                -64.71776,
                17.699069
              ],
              [
                -64.733,
                17.704463
              ],
              [
                -64.741905,
                17.695778
              ],
              [
                -64.763315,
                17.69663
              ],
              [
                -64.771149,
                17.709016
              ],
              [
                -64.765292,
                17.690359
              ],
              [
                -64.784628,
                17.696476
              ],
              [
                -64.838987,
                17.67999
              ],
              [
                -64.850281,
                17.687296
              ],
              [
                -64.903564,
                17.679349
              ],
              [
                -64.903557,
                17.680425
              ]
            ]
          ],
          [
            [
              [
                -64.909073,
                18.309847
              ],
              [
                -64.908519,
                18.310576
              ],
              [
                -64.907439,
                18.310564
              ],
              [
                -64.907224,
                18.309799
              ],
              [
                -64.907586,
                18.308873
              ],
              [
                -64.908637,
                18.308852
              ],
              [
                -64.909073,
                18.309847
              ]
            ]
          ],
          [
            [
              [
                -64.909706,
                18.415361
              ],
              [
                -64.90916,
                18.415815
              ],
              [
                -64.908037,
                18.415746
              ],
              [
                -64.907719,
                18.41505
              ],
              [
                -64.9078458679342,
                18.4145871454265
              ],
              [
                -64.908046,
                18.413857
              ],
              [
                -64.908948,
                18.413776
              ],
              [
                -64.909543,
                18.414297
              ],
              [
                -64.9096616573784,
                18.4150715487764
              ],
              [
                -64.909706,
                18.415361
              ]
            ]
          ],
          [
            [
              [
                -64.910262,
                18.411315
              ],
              [
                -64.902931,
                18.408159
              ],
              [
                -64.909859,
                18.40992
              ],
              [
                -64.910262,
                18.411315
              ]
            ]
          ],
          [
            [
              [
                -64.916591,
                18.40507
              ],
              [
                -64.899338,
                18.392655
              ],
              [
                -64.907655,
                18.387575
              ],
              [
                -64.917001,
                18.404266
              ],
              [
                -64.916591,
                18.40507
              ]
            ]
          ],
          [
            [
              [
                -64.939124,
                18.334185
              ],
              [
                -64.932853,
                18.323094
              ],
              [
                -64.939264,
                18.333197
              ],
              [
                -64.939124,
                18.334185
              ]
            ]
          ],
          [
            [
              [
                -64.96089,
                18.31373
              ],
              [
                -64.942668,
                18.327846
              ],
              [
                -64.940263,
                18.318139
              ],
              [
                -64.951346,
                18.319655
              ],
              [
                -64.95555,
                18.306607
              ],
              [
                -64.960146,
                18.312823
              ],
              [
                -64.96089,
                18.31373
              ]
            ]
          ],
          [
            [
              [
                -64.974943,
                18.400446
              ],
              [
                -64.968253,
                18.392608
              ],
              [
                -64.9748126449011,
                18.3994292302289
              ],
              [
                -64.974943,
                18.400446
              ]
            ]
          ],
          [
            [
              [
                -64.975713,
                18.38615
              ],
              [
                -64.965792,
                18.376692
              ],
              [
                -64.975841,
                18.385732
              ],
              [
                -64.975713,
                18.38615
              ]
            ]
          ],
          [
            [
              [
                -64.990414,
                18.316884
              ],
              [
                -64.990218,
                18.317254
              ],
              [
                -64.9901914873022,
                18.3172673727255
              ],
              [
                -64.988965,
                18.317886
              ],
              [
                -64.9889081522972,
                18.317878009359
              ],
              [
                -64.988716,
                18.317851
              ],
              [
                -64.9886392218448,
                18.3177327576731
              ],
              [
                -64.988329,
                18.317255
              ],
              [
                -64.988396,
                18.316859
              ],
              [
                -64.989358,
                18.315729
              ],
              [
                -64.989759,
                18.315613
              ],
              [
                -64.99025,
                18.316148
              ],
              [
                -64.990414,
                18.316884
              ]
            ]
          ],
          [
            [
              [
                -65.002856,
                18.304621
              ],
              [
                -65.001403,
                18.306599
              ],
              [
                -65.0013935519268,
                18.3067234656345
              ],
              [
                -65.001236,
                18.308799
              ],
              [
                -65.0012071964563,
                18.3088271787379
              ],
              [
                -65.000775,
                18.30925
              ],
              [
                -64.999898,
                18.308994
              ],
              [
                -64.9996500639134,
                18.308353428876
              ],
              [
                -64.999007,
                18.306692
              ],
              [
                -64.9985647278705,
                18.3059334193222
              ],
              [
                -64.998217,
                18.305337
              ],
              [
                -64.999004,
                18.304312
              ],
              [
                -65.002022,
                18.30378
              ],
              [
                -65.002623,
                18.304032
              ],
              [
                -65.002856,
                18.304621
              ]
            ]
          ],
          [
            [
              [
                -65.041584,
                18.353356
              ],
              [
                -65.006005,
                18.367802
              ],
              [
                -64.994395,
                18.361321
              ],
              [
                -64.989898,
                18.371616
              ],
              [
                -64.951917,
                18.369183
              ],
              [
                -64.95206,
                18.376213
              ],
              [
                -64.927294,
                18.358823
              ],
              [
                -64.922064,
                18.366345
              ],
              [
                -64.93726,
                18.381498
              ],
              [
                -64.891584,
                18.3625
              ],
              [
                -64.88938,
                18.354217
              ],
              [
                -64.863467,
                18.350318
              ],
              [
                -64.867856,
                18.346193
              ],
              [
                -64.844976,
                18.330569
              ],
              [
                -64.854094,
                18.32234
              ],
              [
                -64.831837,
                18.324768
              ],
              [
                -64.84238,
                18.322965
              ],
              [
                -64.836815,
                18.315983
              ],
              [
                -64.845271,
                18.311759
              ],
              [
                -64.866639,
                18.321379
              ],
              [
                -64.882426,
                18.316542
              ],
              [
                -64.870403,
                18.306818
              ],
              [
                -64.877998,
                18.302809
              ],
              [
                -64.922893,
                18.319784
              ],
              [
                -64.919384,
                18.334796
              ],
              [
                -64.927415,
                18.340283
              ],
              [
                -64.962364,
                18.324569
              ],
              [
                -64.963895,
                18.335083
              ],
              [
                -64.983722,
                18.33543
              ],
              [
                -64.97575,
                18.339429
              ],
              [
                -64.987662,
                18.35007
              ],
              [
                -65.026462,
                18.341304
              ],
              [
                -65.041664,
                18.352701
              ],
              [
                -65.041584,
                18.353356
              ]
            ]
          ],
          [
            [
              [
                -65.048149,
                18.360299
              ],
              [
                -65.047498,
                18.361083
              ],
              [
                -65.046648,
                18.361021
              ],
              [
                -65.045866,
                18.360133
              ],
              [
                -65.044983,
                18.360204
              ],
              [
                -65.044153,
                18.359984
              ],
              [
                -65.043323,
                18.359252
              ],
              [
                -65.043396,
                18.358593
              ],
              [
                -65.044253,
                18.356613
              ],
              [
                -65.044794,
                18.356435
              ],
              [
                -65.046032,
                18.356665
              ],
              [
                -65.0462286826692,
                18.3569660613299
              ],
              [
                -65.046765,
                18.357787
              ],
              [
                -65.046991,
                18.359156
              ],
              [
                -65.047953,
                18.359629
              ],
              [
                -65.048149,
                18.360299
              ]
            ]
          ],
          [
            [
              [
                -65.055991,
                18.363133
              ],
              [
                -65.04962,
                18.361766
              ],
              [
                -65.055967,
                18.362523
              ],
              [
                -65.055991,
                18.363133
              ]
            ]
          ],
          [
            [
              [
                -65.05852,
                18.351434
              ],
              [
                -65.057751,
                18.351651
              ],
              [
                -65.057003,
                18.351368
              ],
              [
                -65.056586,
                18.35021
              ],
              [
                -65.057136,
                18.349519
              ],
              [
                -65.0571982514998,
                18.3495091116751
              ],
              [
                -65.05769,
                18.349431
              ],
              [
                -65.058513,
                18.349598
              ],
              [
                -65.058813,
                18.350896
              ],
              [
                -65.05852,
                18.351434
              ]
            ]
          ],
          [
            [
              [
                -65.063721,
                18.380562
              ],
              [
                -65.062149,
                18.380871
              ],
              [
                -65.06107,
                18.381668
              ],
              [
                -65.059934,
                18.381778
              ],
              [
                -65.059308,
                18.381182
              ],
              [
                -65.059421,
                18.380766
              ],
              [
                -65.060084,
                18.380476
              ],
              [
                -65.060654,
                18.379366
              ],
              [
                -65.060688,
                18.378666
              ],
              [
                -65.061483,
                18.378177
              ],
              [
                -65.062127,
                18.378195
              ],
              [
                -65.063188,
                18.378447
              ],
              [
                -65.063465090954,
                18.3788544086345
              ],
              [
                -65.064232,
                18.379982
              ],
              [
                -65.063721,
                18.380562
              ]
            ]
          ],
          [
            [
              [
                -65.085362,
                18.336817
              ],
              [
                -65.074969,
                18.346571
              ],
              [
                -65.0853612420502,
                18.3359514213429
              ],
              [
                -65.085362,
                18.336817
              ]
            ]
          ]
        ]
      }
    }
  ]
}
