{
  "type": "FeatureCollection",
  "features": [
    {
      "type": "Feature",
      "id": "us-cd:119:46:00",
      "properties": {
        "boundary_id": "us-cd:119:46:00",
        "boundary_type": "congressional_district",
        "name": "Congressional District (at Large)",
        "stateFips": "46",
        "congress": 119,
        "district": "00",
        "bbox": [
          -104.05787899992745,
          42.47970199979088,
          -96.43647199964262,
          45.94530799980371
        ]
      },
      "geometry": {
        "type": "Polygon",
        "coordinates": [
          [
            [
              -104.05787899992745,
              44.99760499975218
            ],
            [
              -104.05302800037515,
              43.00058499977365
            ],
            [
              -98.49855000021742,
              42.99855899984257
            ],
            [
              -98.46735600017975,
              42.9475560001641
            ],
            [
              -98.44414500018695,
              42.92924200016799
            ],
            [
              -98.4207400000254,
              42.93192399981169
            ],
            [
              -98.32586400010177,
              42.88650000025549
            ],
            [
              -98.2518099998431,
              42.87282399977381
            ],
            [
              -98.18981099993019,
              42.841642999982
            ],
            [
              -98.14710899989294,
              42.83963100021773
            ],
            [
              -98.05990300001977,
              42.77266299988608
            ],
            [
              -98.03507099997825,
              42.76411399995119
            ],
            [
              -97.93674600026795,
              42.7756829997297
            ],
            [
              -97.88864700015715,
              42.81717700030931
            ],
            [
              -97.87553099962933,
              42.858656000195246
            ],
            [
              -97.8419659997055,
              42.86816600015593
            ],
            [
              -97.77438099957311,
              42.84974000028145
            ],
            [
              -97.68647699974102,
              42.84221200007214
            ],
            [
              -97.61181099973716,
              42.85836700030282
            ],
            [
              -97.55789399960332,
              42.84753200013281
            ],
            [
              -97.50484699985584,
              42.85847699976964
            ],
            [
              -97.44375599996411,
              42.846018000130236
            ],
            [
              -97.40740900025033,
              42.8683910000163
            ],
            [
              -97.35956899970729,
              42.854816000227
            ],
            [
              -97.30667699977053,
              42.86760400026366
            ],
            [
              -97.28985899973604,
              42.855499000229564
            ],
            [
              -97.23786800014777,
              42.85313899973728
            ],
            [
              -97.2180459996672,
              42.84511299986855
            ],
            [
              -97.21012600026981,
              42.80929600011821
            ],
            [
              -97.15076299965861,
              42.795565999836725
            ],
            [
              -97.13025700036115,
              42.77154099973539
            ],
            [
              -96.9791200001817,
              42.76009000001935
            ],
            [
              -96.96123000009449,
              42.74062300021933
            ],
            [
              -96.9615759997009,
              42.719841000174746
            ],
            [
              -96.93758899993139,
              42.71959700004264
            ],
            [
              -96.90679699957661,
              42.73379999982058
            ],
            [
              -96.80621300013311,
              42.70415400006874
            ],
            [
              -96.8021769998173,
              42.67223499993819
            ],
            [
              -96.79323499969757,
              42.66602099974344
            ],
            [
              -96.72802700019749,
              42.66687999976873
            ],
            [
              -96.69126799985675,
              42.65619799982613
            ],
            [
              -96.68778999975774,
              42.645993000027445
            ],
            [
              -96.70948699983192,
              42.6219310003214
            ],
            [
              -96.70982400011583,
              42.60510000015564
            ],
            [
              -96.68405899993876,
              42.57646199997986
            ],
            [
              -96.64358499967256,
              42.55760699980114
            ],
            [
              -96.62818099999755,
              42.51696400007993
            ],
            [
              -96.61148799963654,
              42.506086000275225
            ],
            [
              -96.54878900011488,
              42.52054699987012
            ],
            [
              -96.52877800038674,
              42.51326700022759
            ],
            [
              -96.50131900036601,
              42.48274900022567
            ],
            [
              -96.47877600019491,
              42.47970199979088
            ],
            [
              -96.44548300025762,
              42.49062999995488
            ],
            [
              -96.4762620001936,
              42.48996899998507
            ],
            [
              -96.47604799993336,
              42.5077830001758
            ],
            [
              -96.49356999977454,
              42.51562600030672
            ],
            [
              -96.4790070001736,
              42.52639400030283
            ],
            [
              -96.4769600001525,
              42.555971999925966
            ],
            [
              -96.4985440002488,
              42.55811600018372
            ],
            [
              -96.48579699979193,
              42.57501999988099
            ],
            [
              -96.50945300002364,
              42.612704000292716
            ],
            [
              -96.52993699957979,
              42.61047100015156
            ],
            [
              -96.51608399963334,
              42.63027499992992
            ],
            [
              -96.53747199991102,
              42.645951000191914
            ],
            [
              -96.54236500019444,
              42.66093400012474
            ],
            [
              -96.55899900010589,
              42.65767900018093
            ],
            [
              -96.56696399970912,
              42.67641699971938
            ],
            [
              -96.57839899991376,
              42.671839999850846
            ],
            [
              -96.57518000028082,
              42.682756999710925
            ],
            [
              -96.59963900005344,
              42.68689299976372
            ],
            [
              -96.59361299961793,
              42.68979399973134
            ],
            [
              -96.59963700040362,
              42.6988540001056
            ],
            [
              -96.61208600003634,
              42.695579999851795
            ],
            [
              -96.60559599999367,
              42.70202000002263
            ],
            [
              -96.63015400039878,
              42.70543799968013
            ],
            [
              -96.62441400019355,
              42.72521199985366
            ],
            [
              -96.6341889999914,
              42.724305999951
            ],
            [
              -96.63948499978262,
              42.73692799997245
            ],
            [
              -96.63058600021891,
              42.73528600013895
            ],
            [
              -96.6356119996734,
              42.74189399987402
            ],
            [
              -96.61926200034239,
              42.75460899979663
            ],
            [
              -96.63638199960234,
              42.769740000015034
            ],
            [
              -96.59521399957518,
              42.79289600011976
            ],
            [
              -96.59594500004438,
              42.8149540002767
            ],
            [
              -96.57765400009917,
              42.827791000320815
            ],
            [
              -96.58147000030696,
              42.83772599987574
            ],
            [
              -96.56838200026657,
              42.837781000230024
            ],
            [
              -96.56360399961089,
              42.82817400024241
            ],
            [
              -96.5609440000197,
              42.83913399972301
            ],
            [
              -96.55032200030006,
              42.837530999722155
            ],
            [
              -96.55608300042167,
              42.84923099982213
            ],
            [
              -96.54145499962509,
              42.85686800015504
            ],
            [
              -96.55045100017148,
              42.863547999750125
            ],
            [
              -96.53767000027773,
              42.87846200028093
            ],
            [
              -96.54348499992774,
              42.883765000270515
            ],
            [
              -96.52528699986894,
              42.891909999713064
            ],
            [
              -96.54293000008394,
              42.90375600008505
            ],
            [
              -96.53646699980546,
              42.9056429998798
            ],
            [
              -96.54128300009594,
              42.923926999941436
            ],
            [
              -96.516835000194,
              42.932347000325024
            ],
            [
              -96.5198699997039,
              42.93996900010796
            ],
            [
              -96.49896299965013,
              42.9578020000326
            ],
            [
              -96.52083799999956,
              42.98031400016859
            ],
            [
              -96.49198100041117,
              43.01019699975885
            ],
            [
              -96.51203200032228,
              43.02621199975072
            ],
            [
              -96.5110480001331,
              43.03972699979438
            ],
            [
              -96.52130199960673,
              43.039660000307535
            ],
            [
              -96.46074200016766,
              43.06433700015411
            ],
            [
              -96.45407999969751,
              43.083844999744336
            ],
            [
              -96.46231999966035,
              43.09288499986804
            ],
            [
              -96.43647199964262,
              43.120165999897466
            ],
            [
              -96.46849900025673,
              43.15188700023434
            ],
            [
              -96.46485600030128,
              43.18196000016561
            ],
            [
              -96.4740090003082,
              43.18963900025925
            ],
            [
              -96.47665399983076,
              43.221941000253956
            ],
            [
              -96.51974800040347,
              43.21778499972046
            ],
            [
              -96.53591500033471,
              43.22763400006833
            ],
            [
              -96.55932600034406,
              43.222933999962606
            ],
            [
              -96.56917800013478,
              43.23270000029584
            ],
            [
              -96.56566999989855,
              43.24420099978742
            ],
            [
              -96.54919499999573,
              43.24762600011587
            ],
            [
              -96.55368800024605,
              43.25960099969637
            ],
            [
              -96.58534099986805,
              43.26886900014295
            ],
            [
              -96.57914499955324,
              43.29375699983858
            ],
            [
              -96.58927400025173,
              43.295265000144134
            ],
            [
              -96.53014499999225,
              43.30000000014254
            ],
            [
              -96.52405900018061,
              43.31138099971885
            ],
            [
              -96.53508699978114,
              43.33650199986638
            ],
            [
              -96.52427900028864,
              43.34742200005331
            ],
            [
              -96.53096099995194,
              43.36843299987502
            ],
            [
              -96.5220590000152,
              43.37218999968564
            ],
            [
              -96.5217340003252,
              43.386862000180415
            ],
            [
              -96.57355500003415,
              43.41896900003678
            ],
            [
              -96.57028899964725,
              43.428546999728695
            ],
            [
              -96.59344399956353,
              43.433226999939755
            ],
            [
              -96.60305600005309,
              43.45079299998139
            ],
            [
              -96.58241900033606,
              43.466706000233074
            ],
            [
              -96.58108399961928,
              43.48146200010212
            ],
            [
              -96.59919100033979,
              43.500456000202874
            ],
            [
              -96.45326000043818,
              43.5003899998969
            ],
            [
              -96.45309700023157,
              45.3007510000905
            ],
            [
              -96.48906499982866,
              45.35707099968809
            ],
            [
              -96.52178700002864,
              45.37564499995417
            ],
            [
              -96.61975199988882,
              45.40888400017547
            ],
            [
              -96.69254099975092,
              45.417337999926986
            ],
            [
              -96.7327389998326,
              45.45873699994856
            ],
            [
              -96.76343199955487,
              45.52000700025453
            ],
            [
              -96.85683399974285,
              45.6053779999491
            ],
            [
              -96.83864800027794,
              45.647508999782794
            ],
            [
              -96.66259500039138,
              45.738682000190444
            ],
            [
              -96.62777799959143,
              45.78623900030968
            ],
            [
              -96.58368399983432,
              45.819306999851754
            ],
            [
              -96.56367200028127,
              45.9352449998413
            ],
            [
              -104.0455469995723,
              45.94530799980371
            ],
            [
              -104.03969400028747,
              44.99806999994052
            ],
            [
              -104.05078299998736,
              44.997783000201736
            ],
            [
              -104.05787899992745,
              44.99760499975218
            ]
          ]
        ]
      }
    }
  ]
}
