{
  "type": "FeatureCollection",
  "features": [
    {
      "type": "Feature",
      "id": "us-cd:119:26:01",
      "properties": {
        "boundary_id": "us-cd:119:26:01",
        "boundary_type": "congressional_district",
        "name": "1",
        "stateFips": "26",
        "congress": 119,
        "district": "01",
        "bbox": [
          -90.41839200012036,
          43.83394800010938,
          -82.24991400026461,
          48.306062999958236
        ]
      },
      "geometry": {
        "type": "Polygon",
        "coordinates": [
          [
            [
              -90.41839200012036,
              46.566099000200886
            ],
            [
              -90.39326200015302,
              46.53243300011486
            ],
            [
              -90.35068399996435,
              46.5403249999909
            ],
            [
              -90.3322299998125,
              46.55343199995757
            ],
            [
              -90.30944099959412,
              46.53728499990318
            ],
            [
              -90.31655400015096,
              46.51689599992806
            ],
            [
              -90.27694000022538,
              46.52444700021029
            ],
            [
              -90.27255099973213,
              46.5045119998336
            ],
            [
              -90.23123600029021,
              46.50989300014626
            ],
            [
              -90.23091800027288,
              46.501528999911606
            ],
            [
              -90.21663699980593,
              46.5016370000446
            ],
            [
              -90.18883399982862,
              46.468919000264904
            ],
            [
              -90.19079200016122,
              46.45981599969995
            ],
            [
              -90.17832500008684,
              46.45740799984456
            ],
            [
              -90.1783500002012,
              46.44046499984289
            ],
            [
              -90.16741999961165,
              46.441705000015645
            ],
            [
              -90.158368999712,
              46.40945399996268
            ],
            [
              -90.11870299990788,
              46.35934500030827
            ],
            [
              -90.12057199965373,
              46.33703900025158
            ],
            [
              -89.09163800001203,
              46.13844699999744
            ],
            [
              -88.81602599998072,
              46.020585999958406
            ],
            [
              -88.7964599995932,
              46.02360599996688
            ],
            [
              -88.79649700030143,
              46.03365800021833
            ],
            [
              -88.77873899956039,
              46.031690000084744
            ],
            [
              -88.78015600029293,
              46.015394999946544
            ],
            [
              -88.77062099979628,
              46.02556099991459
            ],
            [
              -88.75896800003176,
              46.01963300028837
            ],
            [
              -88.73897999986985,
              46.02745900015203
            ],
            [
              -88.71831399984052,
              46.01318200005619
            ],
            [
              -88.67886800014443,
              46.013595000305706
            ],
            [
              -88.6634829998377,
              45.99270200025067
            ],
            [
              -88.67082700037322,
              45.98854700003789
            ],
            [
              -88.61595700001234,
              45.98789600007017
            ],
            [
              -88.60117799960301,
              46.01776999975716
            ],
            [
              -88.58827000038596,
              46.00509800018854
            ],
            [
              -88.51469200032837,
              46.020018999995465
            ],
            [
              -88.48935499977348,
              45.991367000209806
            ],
            [
              -88.45867200009697,
              45.99951400026377
            ],
            [
              -88.41638099996347,
              45.9750919997559
            ],
            [
              -88.38050299987974,
              45.99176499984076
            ],
            [
              -88.33027800010515,
              45.96583500016157
            ],
            [
              -88.3272760002072,
              45.9549570000979
            ],
            [
              -88.32030800031364,
              45.96365699984248
            ],
            [
              -88.29384900037562,
              45.95094100025925
            ],
            [
              -88.24689400028755,
              45.96353200028128
            ],
            [
              -88.23710600007094,
              45.948278000159654
            ],
            [
              -88.20990399996815,
              45.94422100024619
            ],
            [
              -88.19205800026188,
              45.95265099984359
            ],
            [
              -88.12665400004487,
              45.92179099990445
            ],
            [
              -88.10246100041104,
              45.921546000240824
            ],
            [
              -88.09492699990471,
              45.91532300016048
            ],
            [
              -88.10662400005016,
              45.902212999945746
            ],
            [
              -88.10126399978653,
              45.88228199995993
            ],
            [
              -88.06976299960218,
              45.87293800028084
            ],
            [
              -88.13451700043916,
              45.82245699989979
            ],
            [
              -88.1301289997708,
              45.8097079997687
            ],
            [
              -88.07216699999863,
              45.78008500009517
            ],
            [
              -87.99144699997018,
              45.795393000120214
            ],
            [
              -87.98086999955804,
              45.77697699972485
            ],
            [
              -87.98965600004213,
              45.772024999819756
            ],
            [
              -87.96345200037224,
              45.758220000235234
            ],
            [
              -87.87689800042723,
              45.75437900015843
            ],
            [
              -87.8554800000123,
              45.72694299970459
            ],
            [
              -87.81014400032315,
              45.71022999973078
            ],
            [
              -87.80907499974518,
              45.69971700021143
            ],
            [
              -87.7822259998198,
              45.683052999898706
            ],
            [
              -87.78162300029544,
              45.67328000025853
            ],
            [
              -87.82419100043839,
              45.66204399972286
            ],
            [
              -87.82439200027983,
              45.64771000011407
            ],
            [
              -87.7808449999706,
              45.614599000008404
            ],
            [
              -87.77719899964208,
              45.588498000198506
            ],
            [
              -87.79237200023672,
              45.56305500003462
            ],
            [
              -87.82934800031244,
              45.56877699983779
            ],
            [
              -87.8336900000517,
              45.5615559998698
            ],
            [
              -87.8033899997915,
              45.53827199977372
            ],
            [
              -87.79276899989675,
              45.4999670000331
            ],
            [
              -87.81297600034178,
              45.464159999925776
            ],
            [
              -87.86169700024352,
              45.43447300008133
            ],
            [
              -87.84932200023064,
              45.40387199975319
            ],
            [
              -87.88805200042447,
              45.3546969998267
            ],
            [
              -87.87036700037666,
              45.356267000218224
            ],
            [
              -87.87584499974275,
              45.36501700023058
            ],
            [
              -87.86916700027741,
              45.36604899974477
            ],
            [
              -87.85013300016745,
              45.34043499993416
            ],
            [
              -87.83261200015119,
              45.3522489999908
            ],
            [
              -87.75410400000025,
              45.34944200003131
            ],
            [
              -87.69395600028982,
              45.389892999795386
            ],
            [
              -87.65735000010996,
              45.368754000076315
            ],
            [
              -87.64812599995794,
              45.33939599982396
            ],
            [
              -87.6874989998591,
              45.2980550001359
            ],
            [
              -87.7104499995609,
              45.259323999974
            ],
            [
              -87.71133900021383,
              45.23996500019021
            ],
            [
              -87.72499200014376,
              45.23213999997451
            ],
            [
              -87.72619800009079,
              45.209390999757474
            ],
            [
              -87.74181000017825,
              45.19746900003295
            ],
            [
              -87.73610400030819,
              45.17224400006404
            ],
            [
              -87.6839019999344,
              45.144134999969786
            ],
            [
              -87.65995199997481,
              45.10751200031465
            ],
            [
              -87.44250799958003,
              45.07643399983069
            ],
            [
              -87.40569399988604,
              45.201969000084915
            ],
            [
              -87.31542199964251,
              45.24065699987353
            ],
            [
              -87.17117000041426,
              45.352540000132414
            ],
            [
              -87.10113300020484,
              45.44423000019731
            ],
            [
              -86.75423600018432,
              45.44360999972072
            ],
            [
              -86.2495479999101,
              45.23612499994635
            ],
            [
              -86.49993000041495,
              45.08079999981919
            ],
            [
              -86.68628799982876,
              44.88100200000284
            ],
            [
              -86.8469279998195,
              44.51942899989519
            ],
            [
              -85.75722200012831,
              44.51298399988945
            ],
            [
              -85.75891000012416,
              44.424234000263056
            ],
            [
              -85.3384040000839,
              44.425376000188194
            ],
            [
              -85.33466200039425,
              44.16483800027702
            ],
            [
              -84.16610700007026,
              44.161787999796786
            ],
            [
              -84.166377000407,
              43.996901000261786
            ],
            [
              -84.04540900006816,
              43.996974000035216
            ],
            [
              -84.04484300035374,
              43.91114600009766
            ],
            [
              -83.90760799962624,
              43.9104150002023
            ],
            [
              -83.70852500039517,
              43.83394800010938
            ],
            [
              -83.18528000003697,
              44.168403999788396
            ],
            [
              -82.24991400026461,
              44.15875100026746
            ],
            [
              -82.5206399996852,
              45.33590199980494
            ],
            [
              -83.48397400018962,
              45.77193699979073
            ],
            [
              -83.63686700013703,
              45.7739439997809
            ],
            [
              -83.43355799972102,
              45.99889500000019
            ],
            [
              -83.57146700011799,
              46.10599800030716
            ],
            [
              -83.65464699972107,
              46.122054999944986
            ],
            [
              -83.75952900031952,
              46.1031729998355
            ],
            [
              -83.82624300024064,
              46.11928800026691
            ],
            [
              -83.90347400029943,
              46.06091000016246
            ],
            [
              -83.95542399987981,
              46.05718799986059
            ],
            [
              -83.97613400029009,
              46.10255399984148
            ],
            [
              -84.00587299996039,
              46.118469000270835
            ],
            [
              -84.00568499963941,
              46.149551000208206
            ],
            [
              -84.07702700042837,
              46.18755800014491
            ],
            [
              -84.10808900022158,
              46.24123799994702
            ],
            [
              -84.09776600025266,
              46.256511999901825
            ],
            [
              -84.11556299955514,
              46.26822499972916
            ],
            [
              -84.1196290000082,
              46.315013000281645
            ],
            [
              -84.10624700023992,
              46.321962999983285
            ],
            [
              -84.1389059997924,
              46.37222099977481
            ],
            [
              -84.14617199961181,
              46.41851999974929
            ],
            [
              -84.11122500001382,
              46.504118999917
            ],
            [
              -84.12892500013022,
              46.530118999787405
            ],
            [
              -84.17742799957375,
              46.526919999885884
            ],
            [
              -84.19401999965244,
              46.54014899996715
            ],
            [
              -84.22613099993215,
              46.53392000019787
            ],
            [
              -84.25485699999928,
              46.5007900000871
            ],
            [
              -84.27581400028174,
              46.49282099978451
            ],
            [
              -84.34195900011537,
              46.50750499989056
            ],
            [
              -84.42027399992246,
              46.501076999889904
            ],
            [
              -84.44514899962168,
              46.4890160001096
            ],
            [
              -84.47559399964682,
              46.452864000222725
            ],
            [
              -84.55696200030378,
              46.46063899996194
            ],
            [
              -84.76295700025024,
              46.63432400019986
            ],
            [
              -84.8593350003969,
              46.88884300020982
            ],
            [
              -86.00014499957157,
              47.36188299972198
            ],
            [
              -86.25013899973891,
              47.47790300015438
            ],
            [
              -86.5001300004315,
              47.5683239999725
            ],
            [
              -87.06310099996993,
              47.799990999731044
            ],
            [
              -87.62509099969225,
              48.021109000114784
            ],
            [
              -88.00007799974527,
              48.15588300021187
            ],
            [
              -88.00007699992035,
              48.1640500000156
            ],
            [
              -88.3698619998935,
              48.306062999958236
            ],
            [
              -88.67744200008937,
              48.24539700021191
            ],
            [
              -89.33754999983276,
              47.97426099995918
            ],
            [
              -89.48338500037322,
              48.01371600014225
            ],
            [
              -90.4164379999857,
              46.569068999773435
            ],
            [
              -90.41839200012036,
              46.566099000200886
            ]
          ]
        ]
      }
    },
    {
      "type": "Feature",
      "id": "us-cd:119:26:02",
      "properties": {
        "boundary_id": "us-cd:119:26:02",
        "boundary_type": "congressional_district",
        "name": "2",
        "stateFips": "26",
        "congress": 119,
        "district": "02",
        "bbox": [
          -87.14716600002801,
          42.42142799986435,
          -84.16610700007026,
          44.51942899989519
        ]
      },
      "geometry": {
        "type": "Polygon",
        "coordinates": [
          [
            [
              -87.14716600002801,
              43.379859000140605
            ],
            [
              -87.10766900027828,
              43.11824300001364
            ],
            [
              -86.27191500035413,
              43.118364999963504
            ],
            [
              -86.36147399967182,
              43.26434299971791
            ],
            [
              -86.3480819998578,
              43.2448669998971
            ],
            [
              -86.28327900041363,
              43.255329000260495
            ],
            [
              -86.2730769999202,
              43.25001200024238
            ],
            [
              -86.21886699988342,
              43.27220500020914
            ],
            [
              -86.20406800028091,
              43.27210300015251
            ],
            [
              -86.20418799993152,
              43.25237600026166
            ],
            [
              -86.14438900020053,
              43.23434600010533
            ],
            [
              -86.14491300008217,
              43.20515999986627
            ],
            [
              -85.90838799972175,
              43.205920000026744
            ],
            [
              -85.90743500039304,
              43.11891099979015
            ],
            [
              -85.57816999981853,
              43.117195000228406
            ],
            [
              -85.58001699982307,
              43.13178000010762
            ],
            [
              -85.5658390001866,
              43.129659999755454
            ],
            [
              -85.56589299971496,
              43.13922600005299
            ],
            [
              -85.54879699984612,
              43.146528999701744
            ],
            [
              -85.53574099959278,
              43.13549300013684
            ],
            [
              -85.54749100033999,
              43.12828200027722
            ],
            [
              -85.54623500016423,
              43.11741399979749
            ],
            [
              -85.43118699995568,
              43.11803099997364
            ],
            [
              -85.42903199997957,
              42.85629399991605
            ],
            [
              -85.54583199975811,
              42.85449000008485
            ],
            [
              -85.5431910004335,
              42.42143299993322
            ],
            [
              -85.07160899960054,
              42.42142799986435
            ],
            [
              -85.07381299998043,
              42.50917299974609
            ],
            [
              -85.0149180000727,
              42.50943500006474
            ],
            [
              -85.01433999976437,
              42.58175500026642
            ],
            [
              -84.97501899974176,
              42.581891000295045
            ],
            [
              -84.97545300011004,
              42.597035000030374
            ],
            [
              -84.95579899985897,
              42.59718399983672
            ],
            [
              -84.9558299998211,
              42.77046000010713
            ],
            [
              -84.83708500012877,
              42.77047899975534
            ],
            [
              -84.83688900031017,
              43.118851000025884
            ],
            [
              -84.36776000027744,
              43.117941999972984
            ],
            [
              -84.36987599989551,
              43.4660439997137
            ],
            [
              -84.48868400023535,
              43.46616799989794
            ],
            [
              -84.48704399992006,
              43.72718999971055
            ],
            [
              -84.36802700024114,
              43.726484000045346
            ],
            [
              -84.3665109997744,
              43.82843399990093
            ],
            [
              -84.16731800004017,
              43.82590200000726
            ],
            [
              -84.16610700007026,
              44.161787999796786
            ],
            [
              -85.33466200039425,
              44.16483800027702
            ],
            [
              -85.3384040000839,
              44.425376000188194
            ],
            [
              -85.75891000012416,
              44.424234000263056
            ],
            [
              -85.75722200012831,
              44.51298399988945
            ],
            [
              -86.8469279998195,
              44.51942899989519
            ],
            [
              -86.85518399967587,
              44.5003389998039
            ],
            [
              -86.8476940004488,
              44.5003389998039
            ],
            [
              -87.01323400039563,
              44.13190499978231
            ],
            [
              -87.11410200041956,
              43.73411099992129
            ],
            [
              -87.14105199972894,
              43.46178000027626
            ],
            [
              -87.14716600002801,
              43.379859000140605
            ]
          ]
        ]
      }
    },
    {
      "type": "Feature",
      "id": "us-cd:119:26:03",
      "properties": {
        "boundary_id": "us-cd:119:26:03",
        "boundary_type": "congressional_district",
        "name": "3",
        "stateFips": "26",
        "congress": 119,
        "district": "03",
        "bbox": [
          -87.10766900027828,
          42.76520200003674,
          -85.42903199997957,
          43.27210300015251
        ]
      },
      "geometry": {
        "type": "Polygon",
        "coordinates": [
          [
            [
              -87.10766900027828,
              43.11824300001364
            ],
            [
              -87.05871599967465,
              42.76520200003674
            ],
            [
              -86.20921699975904,
              42.767536000053155
            ],
            [
              -86.21929600022881,
              42.942987000161686
            ],
            [
              -85.9034479995827,
              42.94328200008812
            ],
            [
              -85.89281900019033,
              42.95775699975174
            ],
            [
              -85.87610699956272,
              42.95792000004298
            ],
            [
              -85.7975270003401,
              42.911394000108274
            ],
            [
              -85.78217700019347,
              42.911322999900264
            ],
            [
              -85.78249799968552,
              42.7682000000975
            ],
            [
              -85.5455639999695,
              42.76813900007252
            ],
            [
              -85.54583199975811,
              42.85449000008485
            ],
            [
              -85.42903199997957,
              42.85629399991605
            ],
            [
              -85.43118699995568,
              43.11803099997364
            ],
            [
              -85.54623500016423,
              43.11741399979749
            ],
            [
              -85.54749100033999,
              43.12828200027722
            ],
            [
              -85.53574099959278,
              43.13549300013684
            ],
            [
              -85.54879699984612,
              43.146528999701744
            ],
            [
              -85.56589299971496,
              43.13922600005299
            ],
            [
              -85.5658390001866,
              43.129659999755454
            ],
            [
              -85.58001699982307,
              43.13178000010762
            ],
            [
              -85.57816999981853,
              43.117195000228406
            ],
            [
              -85.90743500039304,
              43.11891099979015
            ],
            [
              -85.90838799972175,
              43.205920000026744
            ],
            [
              -86.14491300008217,
              43.20515999986627
            ],
            [
              -86.14438900020053,
              43.23434600010533
            ],
            [
              -86.20418799993152,
              43.25237600026166
            ],
            [
              -86.20406800028091,
              43.27210300015251
            ],
            [
              -86.25308799993338,
              43.26376500010192
            ],
            [
              -86.2730769999202,
              43.25001200024238
            ],
            [
              -86.28327900041363,
              43.255329000260495
            ],
            [
              -86.3480819998578,
              43.2448669998971
            ],
            [
              -86.36147399967182,
              43.26434299971791
            ],
            [
              -86.27191500035413,
              43.118364999963504
            ],
            [
              -87.05392899969645,
              43.1182320003018
            ],
            [
              -87.10766900027828,
              43.11824300001364
            ]
          ]
        ]
      }
    },
    {
      "type": "Feature",
      "id": "us-cd:119:26:04",
      "properties": {
        "boundary_id": "us-cd:119:26:04",
        "boundary_type": "congressional_district",
        "name": "4",
        "stateFips": "26",
        "congress": 119,
        "district": "04",
        "bbox": [
          -87.0883380000674,
          42.03571999997991,
          -85.06115400028544,
          42.95792000004298
        ]
      },
      "geometry": {
        "type": "Polygon",
        "coordinates": [
          [
            [
              -87.08462999981464,
              42.25002899971542
            ],
            [
              -87.0883380000674,
              42.23533399986951
            ],
            [
              -86.36459899959338,
              42.24313800007039
            ],
            [
              -86.46042799974406,
              42.13972000018911
            ],
            [
              -86.4996459998345,
              42.1157190001122
            ],
            [
              -86.50151799995339,
              42.08458899999006
            ],
            [
              -86.51045000002736,
              42.08484799993881
            ],
            [
              -86.50880700023734,
              42.072618000254224
            ],
            [
              -86.5332280003751,
              42.03571999997991
            ],
            [
              -86.51418900024228,
              42.050685000283586
            ],
            [
              -86.43531799986819,
              42.05406899973562
            ],
            [
              -86.4364870000053,
              42.07258699997161
            ],
            [
              -85.76294300006695,
              42.06932700002207
            ],
            [
              -85.76460500012357,
              42.15725399969787
            ],
            [
              -85.29535100041738,
              42.15825000019917
            ],
            [
              -85.29699599985723,
              42.24607100030698
            ],
            [
              -85.06115400028544,
              42.246672000055995
            ],
            [
              -85.0648549999672,
              42.42150800025531
            ],
            [
              -85.5431910004335,
              42.42143299993322
            ],
            [
              -85.5455639999695,
              42.76813900007252
            ],
            [
              -85.78249799968552,
              42.7682000000975
            ],
            [
              -85.78217700019347,
              42.911322999900264
            ],
            [
              -85.7975270003401,
              42.911394000108274
            ],
            [
              -85.87610699956272,
              42.95792000004298
            ],
            [
              -85.89281900019033,
              42.95775699975174
            ],
            [
              -85.9034479995827,
              42.94328200008812
            ],
            [
              -86.21929600022881,
              42.942987000161686
            ],
            [
              -86.20921699975904,
              42.767536000053155
            ],
            [
              -87.05871599967465,
              42.76520200003674
            ],
            [
              -87.01986300035549,
              42.4937630000481
            ],
            [
              -87.06803899956087,
              42.314345999925216
            ],
            [
              -87.08462999981464,
              42.25002899971542
            ]
          ]
        ]
      }
    },
    {
      "type": "Feature",
      "id": "us-cd:119:26:05",
      "properties": {
        "boundary_id": "us-cd:119:26:05",
        "boundary_type": "congressional_district",
        "name": "5",
        "stateFips": "26",
        "congress": 119,
        "district": "05",
        "bbox": [
          -87.20644199970225,
          41.69611800009349,
          -83.11246000021274,
          42.42456699979345
        ]
      },
      "geometry": {
        "type": "Polygon",
        "coordinates": [
          [
            [
              -87.20644199970225,
              41.76630300023114
            ],
            [
              -84.80588500024328,
              41.760171000018
            ],
            [
              -84.80599599967304,
              41.69611800009349
            ],
            [
              -83.4158509999319,
              41.73379400011398
            ],
            [
              -83.11246000021274,
              41.959410000268015
            ],
            [
              -83.1439560003742,
              42.02792999997491
            ],
            [
              -83.19908500030286,
              42.03475999966951
            ],
            [
              -83.25481599993097,
              42.0639760003182
            ],
            [
              -83.2581330003715,
              42.07397400008111
            ],
            [
              -83.26759799964961,
              42.06908399988093
            ],
            [
              -83.29506300041643,
              42.09423700027189
            ],
            [
              -83.66157000030711,
              42.08452499969827
            ],
            [
              -83.66202499969347,
              42.070048999681745
            ],
            [
              -83.67934800024133,
              42.07345599970566
            ],
            [
              -83.67578999977638,
              42.06624100004202
            ],
            [
              -83.68482999980539,
              42.073385000037916
            ],
            [
              -83.71101799958177,
              42.068792999854615
            ],
            [
              -83.7118720000746,
              42.08363900000468
            ],
            [
              -84.13196300001319,
              42.07157699994705
            ],
            [
              -84.13113600018283,
              42.42456699979345
            ],
            [
              -85.0648549999672,
              42.42150800025531
            ],
            [
              -85.06115400028544,
              42.246672000055995
            ],
            [
              -85.29699599985723,
              42.24607100030698
            ],
            [
              -85.29535100041738,
              42.15825000019917
            ],
            [
              -85.76460500012357,
              42.15725399969787
            ],
            [
              -85.76294300006695,
              42.06932700002207
            ],
            [
              -86.4364870000053,
              42.07258699997161
            ],
            [
              -86.43531799986819,
              42.05406899973562
            ],
            [
              -86.51418900024228,
              42.050685000283586
            ],
            [
              -86.5332280003751,
              42.03571999997991
            ],
            [
              -86.50880700023734,
              42.072618000254224
            ],
            [
              -86.51045000002736,
              42.08484799993881
            ],
            [
              -86.50151799995339,
              42.08458899999006
            ],
            [
              -86.4996459998345,
              42.1157190001122
            ],
            [
              -86.46042799974406,
              42.13972000018911
            ],
            [
              -86.36459899959338,
              42.24313800007039
            ],
            [
              -87.0883380000674,
              42.23533399986951
            ],
            [
              -87.20627199982293,
              41.766984999815804
            ],
            [
              -87.20644199970225,
              41.76630300023114
            ]
          ]
        ]
      }
    },
    {
      "type": "Feature",
      "id": "us-cd:119:26:06",
      "properties": {
        "boundary_id": "us-cd:119:26:06",
        "boundary_type": "congressional_district",
        "name": "6",
        "stateFips": "26",
        "congress": 119,
        "district": "06",
        "bbox": [
          -84.13407799980632,
          42.02792999997491,
          -83.12170399955792,
          42.527113999776496
        ]
      },
      "geometry": {
        "type": "Polygon",
        "coordinates": [
          [
            [
              -84.13407799980632,
              42.160392000036346
            ],
            [
              -84.13196300001319,
              42.07157699994705
            ],
            [
              -83.7118720000746,
              42.08363900000468
            ],
            [
              -83.71101799958177,
              42.068792999854615
            ],
            [
              -83.68482999980539,
              42.073385000037916
            ],
            [
              -83.67578999977638,
              42.06624100004202
            ],
            [
              -83.67934800024133,
              42.07345599970566
            ],
            [
              -83.66202499969347,
              42.070048999681745
            ],
            [
              -83.66157000030711,
              42.08452499969827
            ],
            [
              -83.29506300041643,
              42.09423700027189
            ],
            [
              -83.26759799964961,
              42.06908399988093
            ],
            [
              -83.2581330003715,
              42.07397400008111
            ],
            [
              -83.23043300032633,
              42.04867800018766
            ],
            [
              -83.18415199990775,
              42.0284770000441
            ],
            [
              -83.1439560003742,
              42.02792999997491
            ],
            [
              -83.14944999963384,
              42.04026399967423
            ],
            [
              -83.12170399955792,
              42.12543100011937
            ],
            [
              -83.13147099985817,
              42.202772000316365
            ],
            [
              -83.14301099964479,
              42.202876999764065
            ],
            [
              -83.15441999991015,
              42.18540900009176
            ],
            [
              -83.42319100026947,
              42.17943899997966
            ],
            [
              -83.43783599988619,
              42.527113999776496
            ],
            [
              -83.47420199986652,
              42.52610000032186
            ],
            [
              -83.47651500002638,
              42.50277800020325
            ],
            [
              -83.49028000010931,
              42.49521299977205
            ],
            [
              -83.55520999977506,
              42.49316499971506
            ],
            [
              -83.55190699957825,
              42.435165999908065
            ],
            [
              -84.13113600018283,
              42.42456699979345
            ],
            [
              -84.1340760001565,
              42.160737000292244
            ],
            [
              -84.13407799980632,
              42.160392000036346
            ]
          ]
        ]
      }
    },
    {
      "type": "Feature",
      "id": "us-cd:119:26:07",
      "properties": {
        "boundary_id": "us-cd:119:26:07",
        "boundary_type": "congressional_district",
        "name": "7",
        "stateFips": "26",
        "congress": 119,
        "district": "07",
        "bbox": [
          -85.07381299998043,
          42.42142799986435,
          -83.55190699957825,
          43.132782000190225
        ]
      },
      "geometry": {
        "type": "Polygon",
        "coordinates": [
          [
            [
              -85.07381299998043,
              42.50917299974609
            ],
            [
              -85.07160899960054,
              42.42142799986435
            ],
            [
              -83.9446499998242,
              42.42414900029125
            ],
            [
              -83.55190699957825,
              42.435165999908065
            ],
            [
              -83.56027899978555,
              42.58150099984654
            ],
            [
              -83.58950699999303,
              42.579215999914304
            ],
            [
              -83.6072880003003,
              42.59151900028551
            ],
            [
              -83.64437900000372,
              42.59663999980041
            ],
            [
              -83.64359800020414,
              42.60776299976156
            ],
            [
              -83.67711500044743,
              42.60625499997103
            ],
            [
              -83.68649299968692,
              42.78326299991252
            ],
            [
              -83.89397800016083,
              42.78144999996469
            ],
            [
              -83.89473100037135,
              42.80328099968913
            ],
            [
              -83.91435499958686,
              42.8029229997243
            ],
            [
              -83.91502199958363,
              42.81519200021296
            ],
            [
              -83.92431500023095,
              42.81666399999421
            ],
            [
              -83.9290789997446,
              43.132782000190225
            ],
            [
              -84.3678909997987,
              43.12845199980392
            ],
            [
              -84.36801800002031,
              43.11793700007961
            ],
            [
              -84.83688900031017,
              43.118851000025884
            ],
            [
              -84.83708500012877,
              42.77047899975534
            ],
            [
              -84.9558299998211,
              42.77046000010713
            ],
            [
              -84.95579899985897,
              42.59718399983672
            ],
            [
              -84.97545300011004,
              42.597035000030374
            ],
            [
              -84.97501899974176,
              42.581891000295045
            ],
            [
              -85.01433999976437,
              42.58175500026642
            ],
            [
              -85.0149180000727,
              42.50943500006474
            ],
            [
              -85.06537999967377,
              42.509179000033576
            ],
            [
              -85.07381299998043,
              42.50917299974609
            ]
          ]
        ]
      }
    },
    {
      "type": "Feature",
      "id": "us-cd:119:26:08",
      "properties": {
        "boundary_id": "us-cd:119:26:08",
        "boundary_type": "congressional_district",
        "name": "8",
        "stateFips": "26",
        "congress": 119,
        "district": "08",
        "bbox": [
          -84.48883999987098,
          42.78144999996469,
          -83.4532970003609,
          43.996974000035216
        ]
      },
      "geometry": {
        "type": "Polygon",
        "coordinates": [
          [
            [
              -84.48883999987098,
              43.5316090001389
            ],
            [
              -84.48868400023535,
              43.46616799989794
            ],
            [
              -84.36987599989551,
              43.4660439997137
            ],
            [
              -84.3678909997987,
              43.12845199980392
            ],
            [
              -83.9290789997446,
              43.132782000190225
            ],
            [
              -83.92431500023095,
              42.81666399999421
            ],
            [
              -83.91502199958363,
              42.81519200021296
            ],
            [
              -83.91435499958686,
              42.8029229997243
            ],
            [
              -83.89473100037135,
              42.80328099968913
            ],
            [
              -83.89397800016083,
              42.78144999996469
            ],
            [
              -83.68649299968692,
              42.78326299991252
            ],
            [
              -83.68938400015509,
              42.87126299991599
            ],
            [
              -83.4532970003609,
              42.87630699985916
            ],
            [
              -83.46073300005962,
              43.22313100009629
            ],
            [
              -83.61110699998284,
              43.22236099996265
            ],
            [
              -83.61190000037631,
              43.25166900012242
            ],
            [
              -83.6218419996804,
              43.25165500030242
            ],
            [
              -83.62228500026951,
              43.266183000020085
            ],
            [
              -83.69575799984682,
              43.265565999772235
            ],
            [
              -83.70852500039517,
              43.83394800010938
            ],
            [
              -83.90760799962624,
              43.9104150002023
            ],
            [
              -84.04484300035374,
              43.91114600009766
            ],
            [
              -84.04540900006816,
              43.996974000035216
            ],
            [
              -84.166377000407,
              43.996901000261786
            ],
            [
              -84.16731800004017,
              43.82590200000726
            ],
            [
              -84.3665109997744,
              43.82843399990093
            ],
            [
              -84.36802700024114,
              43.726484000045346
            ],
            [
              -84.48704399992006,
              43.72718999971055
            ],
            [
              -84.48880800008392,
              43.53326399988585
            ],
            [
              -84.48883999987098,
              43.5316090001389
            ]
          ]
        ]
      }
    },
    {
      "type": "Feature",
      "id": "us-cd:119:26:09",
      "properties": {
        "boundary_id": "us-cd:119:26:09",
        "boundary_type": "congressional_district",
        "name": "9",
        "stateFips": "26",
        "congress": 119,
        "district": "09",
        "bbox": [
          -83.71229800004694,
          42.451091999745465,
          -82.12297100044222,
          44.168403999788396
        ]
      },
      "geometry": {
        "type": "Polygon",
        "coordinates": [
          [
            [
              -83.71229800004694,
              43.83166299979321
            ],
            [
              -83.69920599980858,
              43.597391999962106
            ],
            [
              -83.69575799984682,
              43.265565999772235
            ],
            [
              -83.62228500026951,
              43.266183000020085
            ],
            [
              -83.6218419996804,
              43.25165500030242
            ],
            [
              -83.61190000037631,
              43.25166900012242
            ],
            [
              -83.61110699998284,
              43.22236099996265
            ],
            [
              -83.46073300005962,
              43.22313100009629
            ],
            [
              -83.46040300034673,
              43.21529700011811
            ],
            [
              -83.4532970003609,
              42.87630699985916
            ],
            [
              -83.68938400015509,
              42.87126299991599
            ],
            [
              -83.67711500044743,
              42.60625499997103
            ],
            [
              -83.64359800020414,
              42.60776299976156
            ],
            [
              -83.64437900000372,
              42.59663999980041
            ],
            [
              -83.6072880003003,
              42.59151900028551
            ],
            [
              -83.58950699999303,
              42.579215999914304
            ],
            [
              -83.56027899978555,
              42.58150099984654
            ],
            [
              -83.5656249998055,
              42.691373999958195
            ],
            [
              -83.54934400007144,
              42.691761999797784
            ],
            [
              -83.54965000039321,
              42.69959499969892
            ],
            [
              -82.97690800035656,
              42.71590500020111
            ],
            [
              -82.97446399977713,
              42.656524999846845
            ],
            [
              -82.93713100022437,
              42.657383000066105
            ],
            [
              -82.93642599969445,
              42.642694000139905
            ],
            [
              -82.91631799988193,
              42.637135000101736
            ],
            [
              -82.91591100017615,
              42.62903500008071
            ],
            [
              -82.80063600018688,
              42.63125000006545
            ],
            [
              -82.79763199974082,
              42.61669599973916
            ],
            [
              -82.75947400000751,
              42.59262700017428
            ],
            [
              -82.75793599979947,
              42.57499399979609
            ],
            [
              -82.76951699959396,
              42.56138699999953
            ],
            [
              -82.83602300000092,
              42.5530380001992
            ],
            [
              -82.86350999961074,
              42.53041299976439
            ],
            [
              -82.871962000184,
              42.498499000318496
            ],
            [
              -82.86411399985833,
              42.45133700004706
            ],
            [
              -82.74990800044704,
              42.451091999745465
            ],
            [
              -82.6598339996719,
              42.543266000324074
            ],
            [
              -82.63372399971335,
              42.5568019998739
            ],
            [
              -82.58998099958552,
              42.55097799968482
            ],
            [
              -82.523434000069,
              42.6073440003206
            ],
            [
              -82.51003899988191,
              42.63679299978757
            ],
            [
              -82.51085099964365,
              42.66499200031264
            ],
            [
              -82.46766699955758,
              42.76190600028174
            ],
            [
              -82.48257400001341,
              42.808644000137484
            ],
            [
              -82.45602700021185,
              42.9258120002104
            ],
            [
              -82.41669799979331,
              42.966424000238014
            ],
            [
              -82.42372400031151,
              42.99851699968588
            ],
            [
              -82.12297100044222,
              43.590827000171124
            ],
            [
              -82.24991400026461,
              44.15875100026746
            ],
            [
              -83.18528000003697,
              44.168403999788396
            ],
            [
              -83.71099500001554,
              43.832452000102144
            ],
            [
              -83.71229800004694,
              43.83166299979321
            ]
          ]
        ]
      }
    },
    {
      "type": "Feature",
      "id": "us-cd:119:26:10",
      "properties": {
        "boundary_id": "us-cd:119:26:10",
        "boundary_type": "congressional_district",
        "name": "10",
        "stateFips": "26",
        "congress": 119,
        "district": "10",
        "bbox": [
          -83.21378000014829,
          42.44715300005718,
          -82.75793599979947,
          42.71590500020111
        ]
      },
      "geometry": {
        "type": "Polygon",
        "coordinates": [
          [
            [
              -83.21378000014829,
              42.70952899983486
            ],
            [
              -83.20921599975286,
              42.62099500009558
            ],
            [
              -83.0914490004019,
              42.62420800019054
            ],
            [
              -83.08339299966377,
              42.44715300005718
            ],
            [
              -82.86411399985833,
              42.45133700004706
            ],
            [
              -82.87101300015492,
              42.509485999958635
            ],
            [
              -82.85513999995156,
              42.54091799976294
            ],
            [
              -82.83602300000092,
              42.5530380001992
            ],
            [
              -82.77352100012276,
              42.55925899971837
            ],
            [
              -82.75793599979947,
              42.57499399979609
            ],
            [
              -82.7617339995656,
              42.596747999772134
            ],
            [
              -82.79763199974082,
              42.61669599973916
            ],
            [
              -82.80063600018688,
              42.63125000006545
            ],
            [
              -82.91591100017615,
              42.62903500008071
            ],
            [
              -82.91631799988193,
              42.637135000101736
            ],
            [
              -82.93642599969445,
              42.642694000139905
            ],
            [
              -82.93713100022437,
              42.657383000066105
            ],
            [
              -82.97446399977713,
              42.656524999846845
            ],
            [
              -82.97690800035656,
              42.71590500020111
            ],
            [
              -83.21330700032028,
              42.709539000101906
            ],
            [
              -83.21378000014829,
              42.70952899983486
            ]
          ]
        ]
      }
    },
    {
      "type": "Feature",
      "id": "us-cd:119:26:11",
      "properties": {
        "boundary_id": "us-cd:119:26:11",
        "boundary_type": "congressional_district",
        "name": "11",
        "stateFips": "26",
        "congress": 119,
        "district": "11",
        "bbox": [
          -83.5656249998055,
          42.43893999977834,
          -83.08339299966377,
          42.70952299967384
        ]
      },
      "geometry": {
        "type": "Polygon",
        "coordinates": [
          [
            [
              -83.5656249998055,
              42.691373999958195
            ],
            [
              -83.55520999977506,
              42.49316499971506
            ],
            [
              -83.49028000010931,
              42.49521299977205
            ],
            [
              -83.47651500002638,
              42.50277800020325
            ],
            [
              -83.47420199986652,
              42.52610000032186
            ],
            [
              -83.43758599964093,
              42.5271019999967
            ],
            [
              -83.43373400034643,
              42.43893999977834
            ],
            [
              -83.31682499988965,
              42.44203299977567
            ],
            [
              -83.32087000042631,
              42.52912199997274
            ],
            [
              -83.20438000026918,
              42.53190500007938
            ],
            [
              -83.20052200022857,
              42.44483900002391
            ],
            [
              -83.08339299966377,
              42.44715300005718
            ],
            [
              -83.0914490004019,
              42.62420800019054
            ],
            [
              -83.20921599975286,
              42.62099500009558
            ],
            [
              -83.21403000039355,
              42.70952299967384
            ],
            [
              -83.54965000039321,
              42.69959499969892
            ],
            [
              -83.54934400007144,
              42.691761999797784
            ],
            [
              -83.56515700000034,
              42.691391999759304
            ],
            [
              -83.5656249998055,
              42.691373999958195
            ]
          ]
        ]
      }
    },
    {
      "type": "Feature",
      "id": "us-cd:119:26:12",
      "properties": {
        "boundary_id": "us-cd:119:26:12",
        "boundary_type": "congressional_district",
        "name": "12",
        "stateFips": "26",
        "congress": 119,
        "district": "12",
        "bbox": [
          -83.43367200042213,
          42.26746300015552,
          -83.140780000399,
          42.53190500007938
        ]
      },
      "geometry": {
        "type": "Polygon",
        "coordinates": [
          [
            [
              -83.43367200042213,
              42.43894199991021
            ],
            [
              -83.42743599992437,
              42.28746499991735
            ],
            [
              -83.34893899964408,
              42.28918600025078
            ],
            [
              -83.34809500009531,
              42.26746300015552
            ],
            [
              -83.30899900020358,
              42.268230000173965
            ],
            [
              -83.30931100037313,
              42.275504999877455
            ],
            [
              -83.28515800002394,
              42.28141599994581
            ],
            [
              -83.21772900042548,
              42.27722199997115
            ],
            [
              -83.19959199956776,
              42.300970000075715
            ],
            [
              -83.1689199997619,
              42.28946300018172
            ],
            [
              -83.14093000018681,
              42.296509999977225
            ],
            [
              -83.140780000399,
              42.31100799987709
            ],
            [
              -83.1565509995968,
              42.327240000308805
            ],
            [
              -83.14773599969868,
              42.35191599975708
            ],
            [
              -83.16409699979867,
              42.35871600025188
            ],
            [
              -83.16455200008336,
              42.3733500002254
            ],
            [
              -83.15114199982767,
              42.373635000297334
            ],
            [
              -83.16331900037214,
              42.39347399998853
            ],
            [
              -83.1505300000825,
              42.40257799973503
            ],
            [
              -83.15094400035927,
              42.446031000132386
            ],
            [
              -83.20052200022857,
              42.44483900002391
            ],
            [
              -83.20438000026918,
              42.53190500007938
            ],
            [
              -83.32087000042631,
              42.52912199997274
            ],
            [
              -83.31682499988965,
              42.44203299977567
            ],
            [
              -83.43282799997505,
              42.438969999760545
            ],
            [
              -83.43367200042213,
              42.43894199991021
            ]
          ]
        ]
      }
    },
    {
      "type": "Feature",
      "id": "us-cd:119:26:13",
      "properties": {
        "boundary_id": "us-cd:119:26:13",
        "boundary_type": "congressional_district",
        "name": "13",
        "stateFips": "26",
        "congress": 119,
        "district": "13",
        "bbox": [
          -83.42743599992437,
          42.17943899997966,
          -82.74990800044704,
          42.451091999745465
        ]
      },
      "geometry": {
        "type": "Polygon",
        "coordinates": [
          [
            [
              -83.42743599992437,
              42.28746499991735
            ],
            [
              -83.42319100026947,
              42.17943899997966
            ],
            [
              -83.15441999991015,
              42.18540900009176
            ],
            [
              -83.14301099964479,
              42.202876999764065
            ],
            [
              -83.13147099985817,
              42.202772000316365
            ],
            [
              -83.12799899960696,
              42.2386949999907
            ],
            [
              -83.07820700037571,
              42.30856499996004
            ],
            [
              -83.02623400033079,
              42.32890999990088
            ],
            [
              -82.83025000018371,
              42.373492000034005
            ],
            [
              -82.74990800044704,
              42.451091999745465
            ],
            [
              -83.15094400035927,
              42.446031000132386
            ],
            [
              -83.1505300000825,
              42.40257799973503
            ],
            [
              -83.16331900037214,
              42.39347399998853
            ],
            [
              -83.15114199982767,
              42.373635000297334
            ],
            [
              -83.16455200008336,
              42.3733500002254
            ],
            [
              -83.16410400036969,
              42.35884300005077
            ],
            [
              -83.14773599969868,
              42.35191599975708
            ],
            [
              -83.15663099996274,
              42.3279520001687
            ],
            [
              -83.13973699976027,
              42.30884099987635
            ],
            [
              -83.14264099974893,
              42.29441499980799
            ],
            [
              -83.1689199997619,
              42.28946300018172
            ],
            [
              -83.19959199956776,
              42.300970000075715
            ],
            [
              -83.21772900042548,
              42.27722199997115
            ],
            [
              -83.28515800002394,
              42.28141599994581
            ],
            [
              -83.30931100037313,
              42.275504999877455
            ],
            [
              -83.30899900020358,
              42.268230000173965
            ],
            [
              -83.34809500009531,
              42.26746300015552
            ],
            [
              -83.34893899964408,
              42.28918600025078
            ],
            [
              -83.42546400024636,
              42.28750500008465
            ],
            [
              -83.42743599992437,
              42.28746499991735
            ]
          ]
        ]
      }
    }
  ]
}
