{
  "type": "FeatureCollection",
  "features": [
    {
      "type": "Feature",
      "id": "us-county:25:001",
      "properties": {
        "boundary_id": "us-county:25:001",
        "boundary_type": "county",
        "name": "Barnstable County",
        "stateFips": "25",
        "countyFips": "001",
        "bbox": [
          -70.7584640000523,
          41.465959999788055,
          -69.86287600023704,
          42.13146500003464
        ]
      },
      "geometry": {
        "type": "Polygon",
        "coordinates": [
          [
            [
              -70.69096400030871,
              41.66045699993634
            ],
            [
              -70.72983300041972,
              41.59156899987507
            ],
            [
              -70.7584640000523,
              41.56093099989252
            ],
            [
              -70.69136400034179,
              41.51784199985376
            ],
            [
              -70.67464599986643,
              41.51938500002679
            ],
            [
              -70.65000899981858,
              41.488009000213545
            ],
            [
              -70.60297900028579,
              41.51180199988482
            ],
            [
              -70.47247299997557,
              41.50476499997031
            ],
            [
              -70.43290400025583,
              41.522063000324195
            ],
            [
              -70.39516400009896,
              41.556722000293554
            ],
            [
              -70.3112539998516,
              41.57106199980687
            ],
            [
              -70.24946300035113,
              41.56014599985545
            ],
            [
              -70.18149999992697,
              41.593546999693345
            ],
            [
              -70.07793399977872,
              41.61252800008509
            ],
            [
              -70.06856900005971,
              41.61069699990041
            ],
            [
              -70.0633519999112,
              41.59017299988579
            ],
            [
              -70.08031600043387,
              41.56445400015246
            ],
            [
              -70.12255899998848,
              41.53783300009322
            ],
            [
              -70.12667700032009,
              41.503698000041595
            ],
            [
              -70.10150799999467,
              41.474443999858664
            ],
            [
              -70.04031300034586,
              41.465959999788055
            ],
            [
              -69.99816899962713,
              41.493398999687365
            ],
            [
              -69.95817200028523,
              41.50465999993321
            ],
            [
              -69.92899400030647,
              41.53215199999615
            ],
            [
              -69.91539900010287,
              41.58924300019492
            ],
            [
              -69.86287600023704,
              41.67315300024138
            ],
            [
              -69.86652500004027,
              41.81701099973051
            ],
            [
              -69.91770600041495,
              41.959246999731256
            ],
            [
              -70.01159099957839,
              42.073377999887924
            ],
            [
              -70.06709799979882,
              42.10532699979471
            ],
            [
              -70.15067599978515,
              42.13146500003464
            ],
            [
              -70.22917499971526,
              42.13118899984665
            ],
            [
              -70.27743000035997,
              42.114345000049525
            ],
            [
              -70.32252199965164,
              42.117914999933234
            ],
            [
              -70.35500399965213,
              42.00010400027944
            ],
            [
              -70.49947300041198,
              41.84411699983526
            ],
            [
              -70.56528099996171,
              41.786704999949556
            ],
            [
              -70.63255499974947,
              41.762903999807385
            ],
            [
              -70.62078499980909,
              41.74753000028026
            ],
            [
              -70.6766290003134,
              41.69112899993937
            ],
            [
              -70.68831899988785,
              41.66564099985234
            ],
            [
              -70.69096400030871,
              41.66045699993634
            ]
          ]
        ]
      }
    },
    {
      "type": "Feature",
      "id": "us-county:25:003",
      "properties": {
        "boundary_id": "us-county:25:003",
        "boundary_type": "county",
        "name": "Berkshire County",
        "stateFips": "25",
        "countyFips": "003",
        "bbox": [
          -73.50820999977523,
          42.03986499990265,
          -72.94867700015283,
          42.74585099972671
        ]
      },
      "geometry": {
        "type": "Polygon",
        "coordinates": [
          [
            [
              -73.16364099998317,
              42.743943999937144
            ],
            [
              -73.26482700002443,
              42.74585099972671
            ],
            [
              -73.50820999977523,
              42.08613399972491
            ],
            [
              -73.49701800014317,
              42.0496240001605
            ],
            [
              -73.05328799969132,
              42.03986499990265
            ],
            [
              -73.07308199968446,
              42.09418500032391
            ],
            [
              -73.07293400044477,
              42.11124700029167
            ],
            [
              -73.0610940001842,
              42.11870000010684
            ],
            [
              -73.07213000018065,
              42.14354799993054
            ],
            [
              -73.03491999975321,
              42.14365200006157
            ],
            [
              -73.001850000297,
              42.251016999728236
            ],
            [
              -73.00027799975376,
              42.31259699983766
            ],
            [
              -73.00877600035777,
              42.30447700013117
            ],
            [
              -73.02939800000618,
              42.308568000081166
            ],
            [
              -73.06288599993715,
              42.328950999800895
            ],
            [
              -73.06850800014159,
              42.38071999986578
            ],
            [
              -73.06577200038247,
              42.38911100020035
            ],
            [
              -73.01168299982116,
              42.379683000039286
            ],
            [
              -72.95103899981817,
              42.641006000132144
            ],
            [
              -72.95485400020107,
              42.66578999970922
            ],
            [
              -72.97578999966883,
              42.66084100009399
            ],
            [
              -72.99568599976924,
              42.673648999859644
            ],
            [
              -72.9538359996767,
              42.690481999977905
            ],
            [
              -72.94867700015283,
              42.70383999998155
            ],
            [
              -73.02370899985458,
              42.702689999680125
            ],
            [
              -73.02301500009364,
              42.741135000019185
            ],
            [
              -73.16356900001314,
              42.74394299980526
            ],
            [
              -73.16364099998317,
              42.743943999937144
            ]
          ]
        ]
      }
    },
    {
      "type": "Feature",
      "id": "us-county:25:005",
      "properties": {
        "boundary_id": "us-county:25:005",
        "boundary_type": "county",
        "name": "Bristol County",
        "stateFips": "25",
        "countyFips": "005",
        "bbox": [
          -71.38146299965057,
          41.41672899977693,
          -70.7524240002714,
          42.09553900017082
        ]
      },
      "geometry": {
        "type": "Polygon",
        "coordinates": [
          [
            [
              -70.85821200034293,
              41.68116700004578
            ],
            [
              -70.88643899974444,
              41.76023200015964
            ],
            [
              -70.9044379996116,
              41.75799999970158
            ],
            [
              -70.92178200007585,
              41.791243999759764
            ],
            [
              -71.02628800003237,
              41.7788879998786
            ],
            [
              -71.0145909998869,
              41.799567999922985
            ],
            [
              -71.03656999999342,
              41.81652500031293
            ],
            [
              -70.97371699958764,
              41.860878999823974
            ],
            [
              -70.99603700017599,
              41.926569999909354
            ],
            [
              -71.04948499978146,
              41.96309400005623
            ],
            [
              -71.08048300000056,
              42.09553900017082
            ],
            [
              -71.38129899961905,
              41.9850840000442
            ],
            [
              -71.38146299965057,
              41.89354600001753
            ],
            [
              -71.33878699955261,
              41.89859300001877
            ],
            [
              -71.33403999975737,
              41.86260399999971
            ],
            [
              -71.34255000005695,
              41.84465599971396
            ],
            [
              -71.33541700030695,
              41.83564500019505
            ],
            [
              -71.34754500044761,
              41.82324600013131
            ],
            [
              -71.32975999994238,
              41.7819580000859
            ],
            [
              -71.26106699977227,
              41.75208200018372
            ],
            [
              -71.19547900033056,
              41.67509000022768
            ],
            [
              -71.13255700032782,
              41.66036300023152
            ],
            [
              -71.14195800003183,
              41.612532999683964
            ],
            [
              -71.13161999999431,
              41.59371599989452
            ],
            [
              -71.1211160002754,
              41.49278700008756
            ],
            [
              -71.08857099962744,
              41.431314999762186
            ],
            [
              -71.05185400001781,
              41.41672899977693
            ],
            [
              -70.7524240002714,
              41.565850999767086
            ],
            [
              -70.81336700002514,
              41.60802500011508
            ],
            [
              -70.8391749998599,
              41.614760999707165
            ],
            [
              -70.85818600040365,
              41.68109100033168
            ],
            [
              -70.85821200034293,
              41.68116700004578
            ]
          ]
        ]
      }
    },
    {
      "type": "Feature",
      "id": "us-county:25:007",
      "properties": {
        "boundary_id": "us-county:25:007",
        "boundary_type": "county",
        "name": "Dukes County",
        "stateFips": "25",
        "countyFips": "007",
        "bbox": [
          -71.05185400001781,
          41.19874199974897,
          -70.23432999993948,
          41.56093099989252
        ]
      },
      "geometry": {
        "type": "Polygon",
        "coordinates": [
          [
            [
              -70.6493839996546,
              41.29654799975529
            ],
            [
              -70.51219900005414,
              41.2983130000821
            ],
            [
              -70.49330800005932,
              41.279974999726306
            ],
            [
              -70.40817099994851,
              41.308989999719756
            ],
            [
              -70.36974999955117,
              41.35741799969816
            ],
            [
              -70.32818200038926,
              41.38015900013454
            ],
            [
              -70.23432999993948,
              41.383228999875016
            ],
            [
              -70.26728300011816,
              41.39342599999152
            ],
            [
              -70.32359299987947,
              41.39160700009978
            ],
            [
              -70.38344900041017,
              41.36993299996047
            ],
            [
              -70.38587399982471,
              41.43372100007348
            ],
            [
              -70.40592800010886,
              41.457013000083855
            ],
            [
              -70.43644900030199,
              41.46891900027624
            ],
            [
              -70.48968900039331,
              41.462976999927726
            ],
            [
              -70.50860299995436,
              41.49896499984115
            ],
            [
              -70.50283199978698,
              41.50063500022165
            ],
            [
              -70.53927899995819,
              41.50812599970512
            ],
            [
              -70.60297900028579,
              41.51180199988482
            ],
            [
              -70.65000899981858,
              41.488009000213545
            ],
            [
              -70.67464599986643,
              41.51938500002679
            ],
            [
              -70.69136400034179,
              41.51784199985376
            ],
            [
              -70.7584640000523,
              41.56093099989252
            ],
            [
              -71.05185400001781,
              41.41672899977693
            ],
            [
              -71.03360400008047,
              41.414085000185636
            ],
            [
              -71.03991800039607,
              41.39825899996903
            ],
            [
              -71.02610300008445,
              41.37169299967534
            ],
            [
              -70.99074800005745,
              41.35128900012414
            ],
            [
              -70.95575200005568,
              41.3501609998456
            ],
            [
              -70.8960169998988,
              41.37014800019951
            ],
            [
              -70.90100499971844,
              41.33461300016776
            ],
            [
              -70.87002699959082,
              41.29706799994866
            ],
            [
              -70.89033699996801,
              41.27736199993487
            ],
            [
              -70.89054100018252,
              41.24309100020124
            ],
            [
              -70.84774600025885,
              41.20581400009508
            ],
            [
              -70.80594999969468,
              41.19874199974897
            ],
            [
              -70.76783700016722,
              41.206489999841516
            ],
            [
              -70.7443070003322,
              41.226029999885704
            ],
            [
              -70.73484299998067,
              41.25923099999235
            ],
            [
              -70.70310599979479,
              41.28904000026538
            ],
            [
              -70.65508700004992,
              41.29616499994299
            ],
            [
              -70.6493839996546,
              41.29654799975529
            ]
          ]
        ]
      }
    },
    {
      "type": "Feature",
      "id": "us-county:25:009",
      "properties": {
        "boundary_id": "us-county:25:009",
        "boundary_type": "county",
        "name": "Essex County",
        "stateFips": "25",
        "countyFips": "009",
        "bbox": [
          -71.25618799973256,
          42.38679799973114,
          -70.5021430000489,
          42.886778000316056
        ]
      },
      "geometry": {
        "type": "Polygon",
        "coordinates": [
          [
            [
              -70.85143600006995,
              42.393208999722944
            ],
            [
              -70.64807200030069,
              42.40562800029661
            ],
            [
              -70.6062899999802,
              42.53122000026482
            ],
            [
              -70.54537399999066,
              42.57011900005886
            ],
            [
              -70.5021430000489,
              42.624578999720114
            ],
            [
              -70.51393399990567,
              42.68059400024674
            ],
            [
              -70.52965499977309,
              42.7070479999741
            ],
            [
              -70.5493059996511,
              42.72416400009981
            ],
            [
              -70.62594300040637,
              42.73972399985762
            ],
            [
              -70.70258000026332,
              42.72416199985789
            ],
            [
              -70.71432400026443,
              42.731911000126566
            ],
            [
              -70.7372249997375,
              42.7879559998839
            ],
            [
              -70.7348739999428,
              42.82447699990263
            ],
            [
              -70.74882999982145,
              42.85883099975284
            ],
            [
              -70.73500500036238,
              42.87468500021481
            ],
            [
              -70.82023799983433,
              42.871786999801124
            ],
            [
              -70.84771799977145,
              42.860866999724095
            ],
            [
              -70.90353299996345,
              42.886778000316056
            ],
            [
              -71.03120100040726,
              42.8590869998415
            ],
            [
              -71.0449199995611,
              42.8486669999432
            ],
            [
              -71.06441599962844,
              42.80627499979891
            ],
            [
              -71.13280500002493,
              42.8214759998798
            ],
            [
              -71.16664699995823,
              42.808881000230166
            ],
            [
              -71.18613999965251,
              42.79093500010305
            ],
            [
              -71.18178600021767,
              42.73734100016633
            ],
            [
              -71.22382999958064,
              42.74648399979196
            ],
            [
              -71.25514699964198,
              42.73655400023374
            ],
            [
              -71.23817899981967,
              42.66941900016639
            ],
            [
              -71.25618799973256,
              42.65714500016151
            ],
            [
              -71.17175799980153,
              42.61654499991837
            ],
            [
              -71.18204599961034,
              42.60844900016079
            ],
            [
              -71.16487899959641,
              42.59802099981378
            ],
            [
              -71.15441900025844,
              42.61526800000054
            ],
            [
              -71.13540500023998,
              42.599080000039336
            ],
            [
              -71.05876599983489,
              42.60907700017873
            ],
            [
              -71.0339980002658,
              42.58549300002912
            ],
            [
              -71.02831199958891,
              42.574082000138276
            ],
            [
              -71.05712499969468,
              42.57404100029885
            ],
            [
              -71.07097799964113,
              42.55588899972104
            ],
            [
              -71.07515000039942,
              42.53103500000735
            ],
            [
              -71.03868999980942,
              42.52425900011384
            ],
            [
              -71.03490000043921,
              42.50675799983309
            ],
            [
              -71.05421400003333,
              42.47690299975101
            ],
            [
              -71.02583600012075,
              42.44470900024204
            ],
            [
              -71.0187569998991,
              42.45011800021218
            ],
            [
              -71.01077700022725,
              42.434567999837654
            ],
            [
              -70.99571400013579,
              42.43085500021493
            ],
            [
              -70.95079299965003,
              42.44429600006307
            ],
            [
              -70.95949399974532,
              42.40749799980174
            ],
            [
              -70.92459300017809,
              42.38679799973114
            ],
            [
              -70.8743259996724,
              42.389024999756714
            ],
            [
              -70.85143600006995,
              42.393208999722944
            ]
          ]
        ]
      }
    },
    {
      "type": "Feature",
      "id": "us-county:25:011",
      "properties": {
        "boundary_id": "us-county:25:011",
        "boundary_type": "county",
        "name": "Franklin County",
        "stateFips": "25",
        "countyFips": "011",
        "bbox": [
          -73.02370899985458,
          42.3032829998904,
          -72.22531400032075,
          42.741135000019185
        ]
      },
      "geometry": {
        "type": "Polygon",
        "coordinates": [
          [
            [
              -73.02370899985458,
              42.702689999680125
            ],
            [
              -72.9488379998113,
              42.704262999788654
            ],
            [
              -72.9538359996767,
              42.690481999977905
            ],
            [
              -72.99568599976924,
              42.673648999859644
            ],
            [
              -72.97578999966883,
              42.66084100009399
            ],
            [
              -72.95462999989508,
              42.66530599996814
            ],
            [
              -72.95103899981817,
              42.641006000132144
            ],
            [
              -72.97540899990233,
              42.556037000089106
            ],
            [
              -72.87684900001538,
              42.541197000175295
            ],
            [
              -72.87113599957432,
              42.48404099978089
            ],
            [
              -72.76379199975142,
              42.46366500023933
            ],
            [
              -72.7577579998183,
              42.44588300031995
            ],
            [
              -72.70087700031966,
              42.452920000191874
            ],
            [
              -72.7043920002286,
              42.405550000080225
            ],
            [
              -72.4898910001805,
              42.43381600001149
            ],
            [
              -72.48369599969061,
              42.40748099976787
            ],
            [
              -72.37502200007212,
              42.42081899976738
            ],
            [
              -72.35104500034835,
              42.33516600022051
            ],
            [
              -72.3560180000994,
              42.3032829998904
            ],
            [
              -72.32811700021279,
              42.31874599993223
            ],
            [
              -72.31479300017082,
              42.33984499981785
            ],
            [
              -72.3137150002703,
              42.40644900020355
            ],
            [
              -72.28325900037451,
              42.44118899998874
            ],
            [
              -72.29128799955184,
              42.47952500003991
            ],
            [
              -72.2448680001144,
              42.51343899984396
            ],
            [
              -72.26911099997696,
              42.533424999808084
            ],
            [
              -72.27643399969776,
              42.57737399989146
            ],
            [
              -72.26133299997147,
              42.575921999777286
            ],
            [
              -72.26706399995587,
              42.60081299967903
            ],
            [
              -72.22920499997333,
              42.61459599995375
            ],
            [
              -72.22531400032075,
              42.6304260001607
            ],
            [
              -72.22948000033294,
              42.662665999784245
            ],
            [
              -72.27188400044435,
              42.67441799974144
            ],
            [
              -72.28304500011427,
              42.72161500014021
            ],
            [
              -73.02301500009364,
              42.741135000019185
            ],
            [
              -73.02336099970005,
              42.72189499999705
            ],
            [
              -73.02370899985458,
              42.702689999680125
            ]
          ]
        ]
      }
    },
    {
      "type": "Feature",
      "id": "us-county:25:013",
      "properties": {
        "boundary_id": "us-county:25:013",
        "boundary_type": "county",
        "name": "Hampden County",
        "stateFips": "25",
        "countyFips": "013",
        "bbox": [
          -73.07308199968446,
          41.997685000102855,
          -72.1350110001151,
          42.3438599999439
        ]
      },
      "geometry": {
        "type": "Polygon",
        "coordinates": [
          [
            [
              -72.60797800009692,
              42.0310830001198
            ],
            [
              -72.58216299969114,
              42.02474099975854
            ],
            [
              -72.53154899975411,
              42.034578000228784
            ],
            [
              -72.13571499992179,
              42.03022200011957
            ],
            [
              -72.1350110001151,
              42.1617840002238
            ],
            [
              -72.19934800030224,
              42.15370700014021
            ],
            [
              -72.20062600021929,
              42.1612869999372
            ],
            [
              -72.26392399996568,
              42.18383099993876
            ],
            [
              -72.26249000041301,
              42.20305900025667
            ],
            [
              -72.22121799973048,
              42.245251999791094
            ],
            [
              -72.24701300004477,
              42.24209399997444
            ],
            [
              -72.25761399984805,
              42.229874000100864
            ],
            [
              -72.27054799990267,
              42.237126000286274
            ],
            [
              -72.34271599979874,
              42.21901100016757
            ],
            [
              -72.36488800024908,
              42.20702100005338
            ],
            [
              -72.35810899960308,
              42.189816000267435
            ],
            [
              -72.39547800003918,
              42.18573700027491
            ],
            [
              -72.40394700033086,
              42.231847000216284
            ],
            [
              -72.60073300019391,
              42.212791000110926
            ],
            [
              -72.62365600030662,
              42.23165600015135
            ],
            [
              -72.59907399961205,
              42.26771800022221
            ],
            [
              -72.601209000395,
              42.281258999703724
            ],
            [
              -72.61313800034402,
              42.28626499970238
            ],
            [
              -72.63458500017296,
              42.27394299970453
            ],
            [
              -72.65653599979203,
              42.227739000171894
            ],
            [
              -72.69051499999267,
              42.213075999772315
            ],
            [
              -72.68686100016659,
              42.183389999705746
            ],
            [
              -72.78103900013129,
              42.19974899972056
            ],
            [
              -72.79341400014417,
              42.236853999905996
            ],
            [
              -72.81257600030065,
              42.234954000292284
            ],
            [
              -72.81342200039758,
              42.24500399978193
            ],
            [
              -72.85763400015544,
              42.240479999758165
            ],
            [
              -72.87218000003796,
              42.21643900004781
            ],
            [
              -72.91230199995165,
              42.239132999895006
            ],
            [
              -72.88060199957567,
              42.2653820003159
            ],
            [
              -72.88518400041276,
              42.332615000280015
            ],
            [
              -72.89478799960808,
              42.33149100027987
            ],
            [
              -72.89563799990296,
              42.34070199989403
            ],
            [
              -72.95382499980603,
              42.3438599999439
            ],
            [
              -73.00027799975376,
              42.31259699983766
            ],
            [
              -73.001850000297,
              42.251016999728236
            ],
            [
              -73.03491999975321,
              42.14365200006157
            ],
            [
              -73.07213000018065,
              42.14354799993054
            ],
            [
              -73.0610940001842,
              42.11870000010684
            ],
            [
              -73.07293400044477,
              42.11124700029167
            ],
            [
              -73.07308199968446,
              42.09418500032391
            ],
            [
              -73.05328799969132,
              42.03986499990265
            ],
            [
              -72.8137839998975,
              42.03674400029586
            ],
            [
              -72.81705299975913,
              41.997685000102855
            ],
            [
              -72.7667330004483,
              42.003266000225935
            ],
            [
              -72.75589400009532,
              42.03634900028546
            ],
            [
              -72.6085399996134,
              42.03108099969778
            ],
            [
              -72.60797800009692,
              42.0310830001198
            ]
          ]
        ]
      }
    },
    {
      "type": "Feature",
      "id": "us-county:25:015",
      "properties": {
        "boundary_id": "us-county:25:015",
        "boundary_type": "county",
        "name": "Hampshire County",
        "stateFips": "25",
        "countyFips": "015",
        "bbox": [
          -73.06850800014159,
          42.183389999705746,
          -72.2032809997876,
          42.556037000089106
        ]
      },
      "geometry": {
        "type": "Polygon",
        "coordinates": [
          [
            [
              -72.3359680000132,
              42.2201589996978
            ],
            [
              -72.27054799990267,
              42.237126000286274
            ],
            [
              -72.25761399984805,
              42.229874000100864
            ],
            [
              -72.24701300004477,
              42.24209399997444
            ],
            [
              -72.21045999956836,
              42.247205000041866
            ],
            [
              -72.21781800034759,
              42.270180000244906
            ],
            [
              -72.2032809997876,
              42.29118200022873
            ],
            [
              -72.21674499957163,
              42.294055999717976
            ],
            [
              -72.21079500020242,
              42.3113800000332
            ],
            [
              -72.27463899957178,
              42.30196300001951
            ],
            [
              -72.27849099976459,
              42.33646500017704
            ],
            [
              -72.29028800036745,
              42.35210900019783
            ],
            [
              -72.31477800010221,
              42.34349600001248
            ],
            [
              -72.32811700021279,
              42.31874599993223
            ],
            [
              -72.3566750000504,
              42.303429000153464
            ],
            [
              -72.35104500034835,
              42.33516600022051
            ],
            [
              -72.37502200007212,
              42.42081899976738
            ],
            [
              -72.48369599969061,
              42.40748099976787
            ],
            [
              -72.4898910001805,
              42.43381600001149
            ],
            [
              -72.7043920002286,
              42.405550000080225
            ],
            [
              -72.70087700031966,
              42.452920000191874
            ],
            [
              -72.7577579998183,
              42.44588300031995
            ],
            [
              -72.76379199975142,
              42.46366500023933
            ],
            [
              -72.87113599957432,
              42.48404099978089
            ],
            [
              -72.87684900001538,
              42.541197000175295
            ],
            [
              -72.97540899990233,
              42.556037000089106
            ],
            [
              -72.97903599996424,
              42.54161700023148
            ],
            [
              -72.96858300029896,
              42.540012000316715
            ],
            [
              -73.01168299982116,
              42.379683000039286
            ],
            [
              -73.06577200038247,
              42.38911100020035
            ],
            [
              -73.06850800014159,
              42.38071999986578
            ],
            [
              -73.06288599993715,
              42.328950999800895
            ],
            [
              -73.02939800000618,
              42.308568000081166
            ],
            [
              -73.00535400033527,
              42.305199999726064
            ],
            [
              -72.95382499980603,
              42.3438599999439
            ],
            [
              -72.89563799990296,
              42.34070199989403
            ],
            [
              -72.89478799960808,
              42.33149100027987
            ],
            [
              -72.88518400041276,
              42.332615000280015
            ],
            [
              -72.88060199957567,
              42.2653820003159
            ],
            [
              -72.91230199995165,
              42.239132999895006
            ],
            [
              -72.87218000003796,
              42.21643900004781
            ],
            [
              -72.85763400015544,
              42.240479999758165
            ],
            [
              -72.81342200039758,
              42.24500399978193
            ],
            [
              -72.81257600030065,
              42.234954000292284
            ],
            [
              -72.79341400014417,
              42.236853999905996
            ],
            [
              -72.78103900013129,
              42.19974899972056
            ],
            [
              -72.68686100016659,
              42.183389999705746
            ],
            [
              -72.69051499999267,
              42.213075999772315
            ],
            [
              -72.65653599979203,
              42.227739000171894
            ],
            [
              -72.63458500017296,
              42.27394299970453
            ],
            [
              -72.61313800034402,
              42.28626499970238
            ],
            [
              -72.601209000395,
              42.281258999703724
            ],
            [
              -72.59907399961205,
              42.26771800022221
            ],
            [
              -72.62365600030662,
              42.23165600015135
            ],
            [
              -72.59948100021613,
              42.21247400008346
            ],
            [
              -72.40394700033086,
              42.231847000216284
            ],
            [
              -72.39547800003918,
              42.18573700027491
            ],
            [
              -72.35810899960308,
              42.189816000267435
            ],
            [
              -72.36488800024908,
              42.20702100005338
            ],
            [
              -72.33602099971665,
              42.21992699985055
            ],
            [
              -72.3359680000132,
              42.2201589996978
            ]
          ]
        ]
      }
    },
    {
      "type": "Feature",
      "id": "us-county:25:017",
      "properties": {
        "boundary_id": "us-county:25:017",
        "boundary_type": "county",
        "name": "Middlesex County",
        "stateFips": "25",
        "countyFips": "017",
        "bbox": [
          -71.89877299980986,
          42.156873000259104,
          -71.0203770001229,
          42.73655400023374
        ]
      },
      "geometry": {
        "type": "Polygon",
        "coordinates": [
          [
            [
              -71.32732700013193,
              42.313746000032786
            ],
            [
              -71.2529370003126,
              42.32675599986998
            ],
            [
              -71.22849100006046,
              42.31913199995006
            ],
            [
              -71.22700300008113,
              42.30849100002709
            ],
            [
              -71.21294500009525,
              42.30594900001933
            ],
            [
              -71.19124700019616,
              42.282992000145505
            ],
            [
              -71.1647020000444,
              42.30383000018053
            ],
            [
              -71.17893499993247,
              42.314316000132884
            ],
            [
              -71.156887000229,
              42.330241000032274
            ],
            [
              -71.17485000011115,
              42.350336999825494
            ],
            [
              -71.16760799968289,
              42.36009499993178
            ],
            [
              -71.12962499985176,
              42.3739440003252
            ],
            [
              -71.11769199970476,
              42.368146000003236
            ],
            [
              -71.11653000013867,
              42.35502799993152
            ],
            [
              -71.10340699993817,
              42.35244899989043
            ],
            [
              -71.06398399980829,
              42.36893199989434
            ],
            [
              -71.08097099989718,
              42.38232300010467
            ],
            [
              -71.06736700037106,
              42.39529600010558
            ],
            [
              -71.07089599962536,
              42.38899600029029
            ],
            [
              -71.05529500030688,
              42.387096999708845
            ],
            [
              -71.0203770001229,
              42.438250000201535
            ],
            [
              -71.05421400003333,
              42.47690299975101
            ],
            [
              -71.03490000043921,
              42.50675799983309
            ],
            [
              -71.03868999980942,
              42.52425900011384
            ],
            [
              -71.07515000039942,
              42.53103500000735
            ],
            [
              -71.07097799964113,
              42.55588899972104
            ],
            [
              -71.05712499969468,
              42.57404100029885
            ],
            [
              -71.02831199958891,
              42.574082000138276
            ],
            [
              -71.0339980002658,
              42.58549300002912
            ],
            [
              -71.05876599983489,
              42.60907700017873
            ],
            [
              -71.13540500023998,
              42.599080000039336
            ],
            [
              -71.15441900025844,
              42.61526800000054
            ],
            [
              -71.16487899959641,
              42.59802099981378
            ],
            [
              -71.18204599961034,
              42.60844900016079
            ],
            [
              -71.17175799980153,
              42.61654499991837
            ],
            [
              -71.25618799973256,
              42.65714500016151
            ],
            [
              -71.23817899981967,
              42.66941900016639
            ],
            [
              -71.25514699964198,
              42.73655400023374
            ],
            [
              -71.294636999719,
              42.697041999738616
            ],
            [
              -71.89877299980986,
              42.71131200020014
            ],
            [
              -71.85775700011868,
              42.67498199967817
            ],
            [
              -71.85848299966668,
              42.633815000024605
            ],
            [
              -71.77532499980491,
              42.636662999893936
            ],
            [
              -71.7757549999752,
              42.644230000119244
            ],
            [
              -71.66460099979228,
              42.611598000287444
            ],
            [
              -71.67896900029787,
              42.530430000205676
            ],
            [
              -71.63586899987737,
              42.524024000218624
            ],
            [
              -71.6358849997709,
              42.54000099981164
            ],
            [
              -71.61992700007703,
              42.55250199998665
            ],
            [
              -71.59464800014678,
              42.543376000197156
            ],
            [
              -71.58028700021218,
              42.55046700010238
            ],
            [
              -71.53878000025131,
              42.54302999973796
            ],
            [
              -71.52984099960635,
              42.519841000239275
            ],
            [
              -71.56036699982232,
              42.47434999995033
            ],
            [
              -71.54339399997716,
              42.46645199975319
            ],
            [
              -71.55909999977592,
              42.41194299967995
            ],
            [
              -71.60425100041547,
              42.39770300033152
            ],
            [
              -71.58013499987621,
              42.38695299967987
            ],
            [
              -71.62582499956768,
              42.34972400017146
            ],
            [
              -71.58520999973449,
              42.310952000206036
            ],
            [
              -71.51652699961011,
              42.33033599985544
            ],
            [
              -71.48679700016065,
              42.33018900010325
            ],
            [
              -71.48594799969067,
              42.311228000285055
            ],
            [
              -71.50609099966329,
              42.264393000120364
            ],
            [
              -71.55665799974464,
              42.2681309998234
            ],
            [
              -71.58675899981321,
              42.25954499994534
            ],
            [
              -71.60222100011283,
              42.218101000046964
            ],
            [
              -71.58290999999343,
              42.195559000043836
            ],
            [
              -71.55678199959321,
              42.19245000008572
            ],
            [
              -71.55573800002789,
              42.18250300022208
            ],
            [
              -71.50262599998308,
              42.1914159997568
            ],
            [
              -71.49737799987243,
              42.16664300014211
            ],
            [
              -71.47802699957006,
              42.165870999992656
            ],
            [
              -71.47274400019765,
              42.156873000259104
            ],
            [
              -71.43017400040488,
              42.17938600017625
            ],
            [
              -71.40229500025957,
              42.178793999818005
            ],
            [
              -71.40442699977116,
              42.18843300014386
            ],
            [
              -71.34417000028077,
              42.200703000206886
            ],
            [
              -71.35154300023031,
              42.21131600025778
            ],
            [
              -71.3385050004186,
              42.215229999982085
            ],
            [
              -71.33249599970155,
              42.24907500021442
            ],
            [
              -71.30292199988769,
              42.24827400013627
            ],
            [
              -71.32756099958534,
              42.31366000003563
            ],
            [
              -71.32732700013193,
              42.313746000032786
            ]
          ]
        ]
      }
    },
    {
      "type": "Feature",
      "id": "us-county:25:019",
      "properties": {
        "boundary_id": "us-county:25:019",
        "boundary_type": "county",
        "name": "Nantucket County",
        "stateFips": "25",
        "countyFips": "019",
        "bbox": [
          -70.49330800005932,
          41.1871019999871,
          -69.89220900002648,
          41.44380100009852
        ]
      },
      "geometry": {
        "type": "Polygon",
        "coordinates": [
          [
            [
              -70.49330800005932,
              41.279974999726306
            ],
            [
              -70.45985100009048,
              41.26525300015181
            ],
            [
              -70.40873300036331,
              41.277293999821815
            ],
            [
              -70.37446600028258,
              41.26945799982833
            ],
            [
              -70.34408300018171,
              41.27614600004654
            ],
            [
              -70.28573600044506,
              41.242346000054624
            ],
            [
              -70.17885100020646,
              41.204530999762035
            ],
            [
              -70.10968400038341,
              41.18980299994938
            ],
            [
              -70.02570200016602,
              41.1871019999871
            ],
            [
              -69.97318199977491,
              41.193544999824184
            ],
            [
              -69.9309529995657,
              41.21054299979777
            ],
            [
              -69.91031900022172,
              41.22684899980805
            ],
            [
              -69.89220900002648,
              41.27132299977177
            ],
            [
              -69.90621099993587,
              41.31079999980774
            ],
            [
              -69.96963400025402,
              41.40351100013025
            ],
            [
              -70.0064670002146,
              41.43389800016319
            ],
            [
              -70.04427199977049,
              41.44380100009852
            ],
            [
              -70.07884699982279,
              41.43801499980649
            ],
            [
              -70.1058189997718,
              41.419865999691474
            ],
            [
              -70.11643999966655,
              41.38616499976571
            ],
            [
              -70.09784400012282,
              41.353583999864654
            ],
            [
              -70.14869900008428,
              41.34521599991978
            ],
            [
              -70.21511500007955,
              41.36027500002971
            ],
            [
              -70.23432999993948,
              41.383228999875016
            ],
            [
              -70.3158159996989,
              41.38322700008701
            ],
            [
              -70.3610219996917,
              41.36427000020124
            ],
            [
              -70.39481900031748,
              41.31966400030822
            ],
            [
              -70.43684500013711,
              41.29905400025885
            ],
            [
              -70.49330800005932,
              41.279974999726306
            ]
          ]
        ]
      }
    },
    {
      "type": "Feature",
      "id": "us-county:25:021",
      "properties": {
        "boundary_id": "us-county:25:021",
        "boundary_type": "county",
        "name": "Norfolk County",
        "stateFips": "25",
        "countyFips": "021",
        "bbox": [
          -71.50307799989471,
          41.9850840000442,
          -70.67569000033008,
          42.375097999906515
        ]
      },
      "geometry": {
        "type": "MultiPolygon",
        "coordinates": [
          [
            [
              [
                -70.93769100026424,
                42.27749899999913
              ],
              [
                -70.98869299964045,
                42.31359800030468
              ],
              [
                -71.03709399987505,
                42.306597999817384
              ],
              [
                -71.04243300022229,
                42.27732899986232
              ],
              [
                -71.11146000030325,
                42.26076900031751
              ],
              [
                -71.10934700015993,
                42.24798999987771
              ],
              [
                -71.13074899978304,
                42.227910999858594
              ],
              [
                -71.14268100010513,
                42.235998000135524
              ],
              [
                -71.14664200007788,
                42.25575500022503
              ],
              [
                -71.15858400044571,
                42.25515499991582
              ],
              [
                -71.17497200030988,
                42.27600400000871
              ],
              [
                -71.20495700002748,
                42.289303999806535
              ],
              [
                -71.23114399997895,
                42.32084100019372
              ],
              [
                -71.26995799983835,
                42.32808600024493
              ],
              [
                -71.32974999989665,
                42.31299099969099
              ],
              [
                -71.30292199988769,
                42.24827400013627
              ],
              [
                -71.33249599970155,
                42.24907500021442
              ],
              [
                -71.3385050004186,
                42.215229999982085
              ],
              [
                -71.35154300023031,
                42.21131600025778
              ],
              [
                -71.34417000028077,
                42.200703000206886
              ],
              [
                -71.40442699977116,
                42.18843300014386
              ],
              [
                -71.40229500025957,
                42.178793999818005
              ],
              [
                -71.43017400040488,
                42.17938600017625
              ],
              [
                -71.47811899963159,
                42.15678200017963
              ],
              [
                -71.47852200003771,
                42.13137799992417
              ],
              [
                -71.50307799989471,
                42.11045900021634
              ],
              [
                -71.49528200034587,
                42.09995800000012
              ],
              [
                -71.49825900012945,
                42.01727199988229
              ],
              [
                -71.3814009997263,
                42.0187979997801
              ],
              [
                -71.38129899961905,
                41.9850840000442
              ],
              [
                -71.36434400021552,
                41.98529300003092
              ],
              [
                -70.92487699986022,
                42.157580000312024
              ],
              [
                -70.91473200016654,
                42.22519600021483
              ],
              [
                -70.92349000016321,
                42.22590000005298
              ],
              [
                -70.93349099991687,
                42.24999999995509
              ],
              [
                -70.90209000018996,
                42.26749899983646
              ],
              [
                -70.91409100010901,
                42.288800000002105
              ],
              [
                -70.92549100015356,
                42.28959900005468
              ],
              [
                -70.93769100026424,
                42.27749899999913
              ]
            ]
          ],
          [
            [
              [
                -71.17884700006893,
                42.3143790002117
              ],
              [
                -71.15211299977128,
                42.29458799981659
              ],
              [
                -71.11653699981136,
                42.32393900032137
              ],
              [
                -71.1065700003929,
                42.34991200024714
              ],
              [
                -71.12858299993626,
                42.34983300001188
              ],
              [
                -71.17760199976382,
                42.31526899970055
              ],
              [
                -71.17884700006893,
                42.3143790002117
              ]
            ]
          ],
          [
            [
              [
                -70.8533800001589,
                42.239606999727904
              ],
              [
                -70.82701499993219,
                42.20078600006893
              ],
              [
                -70.78508100017406,
                42.22527599973007
              ],
              [
                -70.78048599981649,
                42.25841199994567
              ],
              [
                -70.67569000033008,
                42.375097999906515
              ],
              [
                -70.72921199955539,
                42.37384799991878
              ],
              [
                -70.82563800028093,
                42.26463300020671
              ],
              [
                -70.84462700018504,
                42.260425999998375
              ],
              [
                -70.84927699989589,
                42.24733100008406
              ],
              [
                -70.84115199956078,
                42.243345999860324
              ],
              [
                -70.8528329998127,
                42.23977500000947
              ],
              [
                -70.8533800001589,
                42.239606999727904
              ]
            ]
          ]
        ]
      }
    },
    {
      "type": "Feature",
      "id": "us-county:25:023",
      "properties": {
        "boundary_id": "us-county:25:023",
        "boundary_type": "county",
        "name": "Plymouth County",
        "stateFips": "25",
        "countyFips": "023",
        "bbox": [
          -71.08048300000056,
          41.565850999767086,
          -70.32252199965164,
          42.375097999906515
        ]
      },
      "geometry": {
        "type": "Polygon",
        "coordinates": [
          [
            [
              -70.85119099984759,
              42.37249900007093
            ],
            [
              -70.89429200009299,
              42.37239900024715
            ],
            [
              -70.90569200013752,
              42.31699899993881
            ],
            [
              -70.96019199970424,
              42.29949800005
            ],
            [
              -70.96039199972077,
              42.28769900030306
            ],
            [
              -70.93769100026424,
              42.27749899999913
            ],
            [
              -70.91409100010901,
              42.288800000002105
            ],
            [
              -70.90209000018996,
              42.26749899983646
            ],
            [
              -70.93349099991687,
              42.24999999995509
            ],
            [
              -70.92349000016321,
              42.22590000005298
            ],
            [
              -70.91473200016654,
              42.22519600021483
            ],
            [
              -70.92487699986022,
              42.157580000312024
            ],
            [
              -71.08048300000056,
              42.09553900017082
            ],
            [
              -71.04948499978146,
              41.96309400005623
            ],
            [
              -70.99603700017599,
              41.926569999909354
            ],
            [
              -70.97371699958764,
              41.860878999823974
            ],
            [
              -71.03656999999342,
              41.81652500031293
            ],
            [
              -71.0145909998869,
              41.799567999922985
            ],
            [
              -71.02628800003237,
              41.7788879998786
            ],
            [
              -70.92178200007585,
              41.791243999759764
            ],
            [
              -70.9044379996116,
              41.75799999970158
            ],
            [
              -70.88643899974444,
              41.76023200015964
            ],
            [
              -70.8391749998599,
              41.614760999707165
            ],
            [
              -70.81336700002514,
              41.60802500011508
            ],
            [
              -70.7524240002714,
              41.565850999767086
            ],
            [
              -70.70913300005519,
              41.625105999797874
            ],
            [
              -70.6766290003134,
              41.69112899993937
            ],
            [
              -70.62078499980909,
              41.74753000028026
            ],
            [
              -70.63255499974947,
              41.762903999807385
            ],
            [
              -70.56528099996171,
              41.786704999949556
            ],
            [
              -70.49947300041198,
              41.84411699983526
            ],
            [
              -70.35500399965213,
              42.00010400027944
            ],
            [
              -70.32252199965164,
              42.117914999933234
            ],
            [
              -70.60838100038221,
              42.13847900005962
            ],
            [
              -70.64294600038878,
              42.178184999782374
            ],
            [
              -70.64011299964693,
              42.228371999944464
            ],
            [
              -70.68870399985231,
              42.263468000063604
            ],
            [
              -70.65872300033267,
              42.375097999906515
            ],
            [
              -70.67569000033008,
              42.375097999906515
            ],
            [
              -70.74948699977247,
              42.29535599998632
            ],
            [
              -70.78048599981649,
              42.25841199994567
            ],
            [
              -70.78508100017406,
              42.22527599973007
            ],
            [
              -70.82701499993219,
              42.20078600006893
            ],
            [
              -70.8533800001589,
              42.239606999727904
            ],
            [
              -70.84115199956078,
              42.243345999860324
            ],
            [
              -70.8487980002201,
              42.25253799969883
            ],
            [
              -70.82563800028093,
              42.26463300020671
            ],
            [
              -70.72921199955539,
              42.37384799991878
            ],
            [
              -70.75145599997575,
              42.37333999972204
            ],
            [
              -70.85119099984759,
              42.37249900007093
            ]
          ]
        ]
      }
    },
    {
      "type": "Feature",
      "id": "us-county:25:025",
      "properties": {
        "boundary_id": "us-county:25:025",
        "boundary_type": "county",
        "name": "Suffolk County",
        "stateFips": "25",
        "countyFips": "025",
        "bbox": [
          -71.19124700019616,
          42.227910999858594,
          -70.64807200030069,
          42.45011800021218
        ]
      },
      "geometry": {
        "type": "Polygon",
        "coordinates": [
          [
            [
              -71.0330140000766,
              42.414611000010034
            ],
            [
              -71.05529500030688,
              42.387096999708845
            ],
            [
              -71.07349599984042,
              42.39179599991712
            ],
            [
              -71.08070099956045,
              42.38103900014453
            ],
            [
              -71.06398399980829,
              42.36893199989434
            ],
            [
              -71.0779520002808,
              42.35873500025381
            ],
            [
              -71.11283399958145,
              42.35300199967163
            ],
            [
              -71.13016899982489,
              42.37396100015375
            ],
            [
              -71.17391600015067,
              42.35346500014107
            ],
            [
              -71.16756500002516,
              42.33344099988507
            ],
            [
              -71.15703600019192,
              42.330389999935655
            ],
            [
              -71.12858299993626,
              42.34983300001188
            ],
            [
              -71.1065700003929,
              42.34991200024714
            ],
            [
              -71.11653699981136,
              42.32393900032137
            ],
            [
              -71.1400959999587,
              42.30217300027972
            ],
            [
              -71.15211299977128,
              42.29458799981659
            ],
            [
              -71.1647020000444,
              42.30383000018053
            ],
            [
              -71.19124700019616,
              42.282992000145505
            ],
            [
              -71.15858400044571,
              42.25515499991582
            ],
            [
              -71.14664200007788,
              42.25575500022503
            ],
            [
              -71.14268100010513,
              42.235998000135524
            ],
            [
              -71.13074899978304,
              42.227910999858594
            ],
            [
              -71.10934700015993,
              42.24798999987771
            ],
            [
              -71.11146000030325,
              42.26076900031751
            ],
            [
              -71.04243300022229,
              42.27732899986232
            ],
            [
              -71.03529399972618,
              42.288797999736424
            ],
            [
              -71.04169400025549,
              42.30529799976819
            ],
            [
              -70.98869299964045,
              42.31359800030468
            ],
            [
              -70.97599200011267,
              42.30009800021409
            ],
            [
              -70.96019199970424,
              42.29949800005
            ],
            [
              -70.90569200013752,
              42.31699899993881
            ],
            [
              -70.89429200009299,
              42.37239900024715
            ],
            [
              -70.65872300033267,
              42.375097999906515
            ],
            [
              -70.64807200030069,
              42.40562800029661
            ],
            [
              -70.92459300017809,
              42.38679799973114
            ],
            [
              -70.96209300013544,
              42.41239700002632
            ],
            [
              -70.95079299965003,
              42.44429600006307
            ],
            [
              -70.99571400013579,
              42.43085500021493
            ],
            [
              -71.01077700022725,
              42.434567999837654
            ],
            [
              -71.0187569998991,
              42.45011800021218
            ],
            [
              -71.03281700043311,
              42.41508000001455
            ],
            [
              -71.0330140000766,
              42.414611000010034
            ]
          ]
        ]
      }
    },
    {
      "type": "Feature",
      "id": "us-county:25:027",
      "properties": {
        "boundary_id": "us-county:25:027",
        "boundary_type": "county",
        "name": "Worcester County",
        "stateFips": "25",
        "countyFips": "027",
        "bbox": [
          -72.31425300039567,
          42.008052999761894,
          -71.47802699957006,
          42.72161500014021
        ]
      },
      "geometry": {
        "type": "Polygon",
        "coordinates": [
          [
            [
              -71.98143100007945,
              42.71322899987542
            ],
            [
              -72.28304500011427,
              42.72161500014021
            ],
            [
              -72.27188400044435,
              42.67441799974144
            ],
            [
              -72.22948000033294,
              42.662665999784245
            ],
            [
              -72.22531400032075,
              42.6304260001607
            ],
            [
              -72.22920499997333,
              42.61459599995375
            ],
            [
              -72.26706399995587,
              42.60081299967903
            ],
            [
              -72.26133299997147,
              42.575921999777286
            ],
            [
              -72.27643399969776,
              42.57737399989146
            ],
            [
              -72.26911099997696,
              42.533424999808084
            ],
            [
              -72.2448680001144,
              42.51343899984396
            ],
            [
              -72.29128799955184,
              42.47952500003991
            ],
            [
              -72.28325900037451,
              42.44118899998874
            ],
            [
              -72.3137150002703,
              42.40644900020355
            ],
            [
              -72.31425300039567,
              42.34368799982303
            ],
            [
              -72.28423099996982,
              42.35201000023837
            ],
            [
              -72.27463899957178,
              42.30196300001951
            ],
            [
              -72.21079500020242,
              42.3113800000332
            ],
            [
              -72.21674499957163,
              42.294055999717976
            ],
            [
              -72.2032809997876,
              42.29118200022873
            ],
            [
              -72.21781800034759,
              42.270180000244906
            ],
            [
              -72.21045999956836,
              42.247205000041866
            ],
            [
              -72.26101900015212,
              42.20500300007936
            ],
            [
              -72.26392399996568,
              42.18383099993876
            ],
            [
              -72.20062600021929,
              42.1612869999372
            ],
            [
              -72.19934800030224,
              42.15370700014021
            ],
            [
              -72.1350110001151,
              42.1617840002238
            ],
            [
              -72.13571499992179,
              42.03022200011957
            ],
            [
              -71.80067099968231,
              42.02351400030542
            ],
            [
              -71.79918799972585,
              42.008052999761894
            ],
            [
              -71.49825900012945,
              42.01727199988229
            ],
            [
              -71.49528200034587,
              42.09995800000012
            ],
            [
              -71.50307799989471,
              42.11045900021634
            ],
            [
              -71.47852200003771,
              42.13137799992417
            ],
            [
              -71.47802699957006,
              42.165870999992656
            ],
            [
              -71.49737799987243,
              42.16664300014211
            ],
            [
              -71.50262599998308,
              42.1914159997568
            ],
            [
              -71.55573800002789,
              42.18250300022208
            ],
            [
              -71.55678199959321,
              42.19245000008572
            ],
            [
              -71.58290999999343,
              42.195559000043836
            ],
            [
              -71.60222100011283,
              42.218101000046964
            ],
            [
              -71.58675899981321,
              42.25954499994534
            ],
            [
              -71.55665799974464,
              42.2681309998234
            ],
            [
              -71.50609099966329,
              42.264393000120364
            ],
            [
              -71.48594799969067,
              42.311228000285055
            ],
            [
              -71.48679700016065,
              42.33018900010325
            ],
            [
              -71.55112599995188,
              42.32639499982132
            ],
            [
              -71.58520999973449,
              42.310952000206036
            ],
            [
              -71.62582499956768,
              42.34972400017146
            ],
            [
              -71.58013499987621,
              42.38695299967987
            ],
            [
              -71.60425100041547,
              42.39770300033152
            ],
            [
              -71.55909999977592,
              42.41194299967995
            ],
            [
              -71.54339399997716,
              42.46645199975319
            ],
            [
              -71.56036699982232,
              42.47434999995033
            ],
            [
              -71.52984099960635,
              42.519841000239275
            ],
            [
              -71.53878000025131,
              42.54302999973796
            ],
            [
              -71.58028700021218,
              42.55046700010238
            ],
            [
              -71.59464800014678,
              42.543376000197156
            ],
            [
              -71.61992700007703,
              42.55250199998665
            ],
            [
              -71.6358849997709,
              42.54000099981164
            ],
            [
              -71.63586899987737,
              42.524024000218624
            ],
            [
              -71.67896900029787,
              42.530430000205676
            ],
            [
              -71.66460099979228,
              42.611598000287444
            ],
            [
              -71.7757549999752,
              42.644230000119244
            ],
            [
              -71.77532499980491,
              42.636662999893936
            ],
            [
              -71.85848299966668,
              42.633815000024605
            ],
            [
              -71.85775700011868,
              42.67498199967817
            ],
            [
              -71.89877299980986,
              42.71131200020014
            ],
            [
              -71.98057300028697,
              42.713210999803685
            ],
            [
              -71.98143100007945,
              42.71322899987542
            ]
          ]
        ]
      }
    },
    {
      "type": "Feature",
      "id": "us-state:25",
      "properties": {
        "boundary_id": "us-state:25",
        "boundary_type": "state",
        "name": "Massachusetts",
        "stateFips": "25",
        "bbox": [
          -73.50820999977523,
          41.188305000331056,
          -69.85913000034942,
          42.886778000316056
        ]
      },
      "geometry": {
        "type": "Polygon",
        "coordinates": [
          [
            [
              -71.25514699964198,
              42.73655400023374
            ],
            [
              -71.294636999719,
              42.697041999738616
            ],
            [
              -73.26482700002443,
              42.74585099972671
            ],
            [
              -73.50820999977523,
              42.08613399972491
            ],
            [
              -73.49701800014317,
              42.0496240001605
            ],
            [
              -72.8137839998975,
              42.03674400029586
            ],
            [
              -72.81705299975913,
              41.997685000102855
            ],
            [
              -72.7667330004483,
              42.003266000225935
            ],
            [
              -72.75589400009532,
              42.03634900028546
            ],
            [
              -72.58216299969114,
              42.02474099975854
            ],
            [
              -72.53154899975411,
              42.034578000228784
            ],
            [
              -71.80067099968231,
              42.02351400030542
            ],
            [
              -71.79918799972585,
              42.008052999761894
            ],
            [
              -71.3814009997263,
              42.0187979997801
            ],
            [
              -71.38146299965057,
              41.89354600001753
            ],
            [
              -71.33878699955261,
              41.89859300001877
            ],
            [
              -71.33403999975737,
              41.86260399999971
            ],
            [
              -71.34255000005695,
              41.84465599971396
            ],
            [
              -71.33541700030695,
              41.83564500019505
            ],
            [
              -71.34754500044761,
              41.82324600013131
            ],
            [
              -71.34048100029456,
              41.79703300001129
            ],
            [
              -71.3284719999796,
              41.7806940001221
            ],
            [
              -71.26106699977227,
              41.75208200018372
            ],
            [
              -71.19547900033056,
              41.67509000022768
            ],
            [
              -71.13255700032782,
              41.66036300023152
            ],
            [
              -71.14195800003183,
              41.612532999683964
            ],
            [
              -71.13161999999431,
              41.59371599989452
            ],
            [
              -71.1211160002754,
              41.49278700008756
            ],
            [
              -71.08857099962744,
              41.431314999762186
            ],
            [
              -71.03360400008047,
              41.414085000185636
            ],
            [
              -71.03991800039607,
              41.39825899996903
            ],
            [
              -71.03270100008216,
              41.38027300007018
            ],
            [
              -70.99074800005745,
              41.35128900012414
            ],
            [
              -70.95575200005568,
              41.3501609998456
            ],
            [
              -70.8960169998988,
              41.37014800019951
            ],
            [
              -70.90100499971844,
              41.33461300016776
            ],
            [
              -70.87002699959082,
              41.29706799994866
            ],
            [
              -70.89033699996801,
              41.27736199993487
            ],
            [
              -70.89245699978402,
              41.250112000213406
            ],
            [
              -70.86634299962749,
              41.21539700006565
            ],
            [
              -70.82364499978821,
              41.200648999818185
            ],
            [
              -70.78358200032407,
              41.20121899995307
            ],
            [
              -70.74947300042709,
              41.22017299987451
            ],
            [
              -70.73484299998067,
              41.25923099999235
            ],
            [
              -70.70310599979479,
              41.28904000026538
            ],
            [
              -70.57184799999729,
              41.300093999733605
            ],
            [
              -70.51219900005414,
              41.2983130000821
            ],
            [
              -70.45985100009048,
              41.26525300015181
            ],
            [
              -70.40873300036331,
              41.277293999821815
            ],
            [
              -70.37446600028258,
              41.26945799982833
            ],
            [
              -70.34408300018171,
              41.27614600004654
            ],
            [
              -70.28573600044506,
              41.242346000054624
            ],
            [
              -70.10968400038341,
              41.18980299994938
            ],
            [
              -69.99945699958992,
              41.188305000331056
            ],
            [
              -69.95358600014848,
              41.19967199996319
            ],
            [
              -69.91584199979366,
              41.22093899978936
            ],
            [
              -69.89447199995762,
              41.25924000030685
            ],
            [
              -69.8948850004095,
              41.29037200026292
            ],
            [
              -69.96963400025402,
              41.40351100013025
            ],
            [
              -70.0064670002146,
              41.43389800016319
            ],
            [
              -70.04427199977049,
              41.44380100009852
            ],
            [
              -70.09441200005458,
              41.43081000025903
            ],
            [
              -70.1165409999489,
              41.39513200027849
            ],
            [
              -70.09784400012282,
              41.353583999864654
            ],
            [
              -70.13794000009726,
              41.34637100018911
            ],
            [
              -70.21511500007955,
              41.36027500002971
            ],
            [
              -70.23814199994932,
              41.386204999772616
            ],
            [
              -70.26728300011816,
              41.39342599999152
            ],
            [
              -70.32359299987947,
              41.39160700009978
            ],
            [
              -70.38344900041017,
              41.36993299996047
            ],
            [
              -70.38080700036234,
              41.41199600021507
            ],
            [
              -70.39289199994698,
              41.44548000023978
            ],
            [
              -70.43644900030199,
              41.46891900027624
            ],
            [
              -70.48968900039331,
              41.462976999927726
            ],
            [
              -70.50860299995436,
              41.49896499984115
            ],
            [
              -70.4485670003969,
              41.51309299975788
            ],
            [
              -70.39516400009896,
              41.556722000293554
            ],
            [
              -70.3112539998516,
              41.57106199980687
            ],
            [
              -70.24946300035113,
              41.56014599985545
            ],
            [
              -70.18149999992697,
              41.593546999693345
            ],
            [
              -70.07793399977872,
              41.61252800008509
            ],
            [
              -70.06856900005971,
              41.61069699990041
            ],
            [
              -70.0633519999112,
              41.59017299988579
            ],
            [
              -70.08031600043387,
              41.56445400015246
            ],
            [
              -70.12255899998848,
              41.53783300009322
            ],
            [
              -70.12667700032009,
              41.503698000041595
            ],
            [
              -70.1143940003687,
              41.48408299977197
            ],
            [
              -70.08490400022043,
              41.46749300028061
            ],
            [
              -70.02367699988625,
              41.47194799968611
            ],
            [
              -69.99816899962713,
              41.493398999687365
            ],
            [
              -69.95817200028523,
              41.50465999993321
            ],
            [
              -69.92899400030647,
              41.53215199999615
            ],
            [
              -69.91539900010287,
              41.58924300019492
            ],
            [
              -69.8681250001726,
              41.65679099971215
            ],
            [
              -69.85913000034942,
              41.73649999975626
            ],
            [
              -69.86652500004027,
              41.81701099973051
            ],
            [
              -69.91770600041495,
              41.959246999731256
            ],
            [
              -69.9962789999649,
              42.059687000053096
            ],
            [
              -70.04030199957688,
              42.0916340002055
            ],
            [
              -70.12069100006754,
              42.125101000256315
            ],
            [
              -70.17254199991375,
              42.134515000135266
            ],
            [
              -70.22917499971526,
              42.13118899984665
            ],
            [
              -70.27743000035997,
              42.114345000049525
            ],
            [
              -70.60838100038221,
              42.13847900005962
            ],
            [
              -70.64294600038878,
              42.178184999782374
            ],
            [
              -70.64011299964693,
              42.228371999944464
            ],
            [
              -70.68406099981416,
              42.253836000176186
            ],
            [
              -70.6903929996731,
              42.2789989998625
            ],
            [
              -70.6062899999802,
              42.53122000026482
            ],
            [
              -70.54537399999066,
              42.57011900005886
            ],
            [
              -70.5021430000489,
              42.624578999720114
            ],
            [
              -70.51393399990567,
              42.68059400024674
            ],
            [
              -70.52965499977309,
              42.7070479999741
            ],
            [
              -70.5493059996511,
              42.72416400009981
            ],
            [
              -70.62594300040637,
              42.73972399985762
            ],
            [
              -70.70258000026332,
              42.72416199985789
            ],
            [
              -70.71432400026443,
              42.731911000126566
            ],
            [
              -70.7372249997375,
              42.7879559998839
            ],
            [
              -70.7348739999428,
              42.82447699990263
            ],
            [
              -70.74882999982145,
              42.85883099975284
            ],
            [
              -70.73500500036238,
              42.87468500021481
            ],
            [
              -70.82023799983433,
              42.871786999801124
            ],
            [
              -70.84771799977145,
              42.860866999724095
            ],
            [
              -70.90353299996345,
              42.886778000316056
            ],
            [
              -71.03120100040726,
              42.8590869998415
            ],
            [
              -71.0449199995611,
              42.8486669999432
            ],
            [
              -71.06441599962844,
              42.80627499979891
            ],
            [
              -71.13280500002493,
              42.8214759998798
            ],
            [
              -71.16664699995823,
              42.808881000230166
            ],
            [
              -71.18613999965251,
              42.79093500010305
            ],
            [
              -71.18178600021767,
              42.73734100016633
            ],
            [
              -71.22382999958064,
              42.74648399979196
            ],
            [
              -71.25509999978631,
              42.73659199986558
            ],
            [
              -71.25514699964198,
              42.73655400023374
            ]
          ]
        ]
      }
    }
  ]
}
