{
  "type": "FeatureCollection",
  "features": [
    {
      "type": "Feature",
      "id": "us-county:60:010",
      "properties": {
        "boundary_id": "us-county:60:010",
        "boundary_type": "county",
        "name": "Eastern District",
        "stateFips": "60",
        "countyFips": "010",
        "bbox": [
          -170.79715600036553,
          -14.375776000074207,
          -170.49034100007572,
          -14.175947000399097
        ]
      },
      "geometry": {
        "type": "Polygon",
        "coordinates": [
          [
            [
              -170.53809000038214,
              -14.336128999626613
            ],
            [
              -170.50943899975977,
              -14.328762999629713
            ],
            [
              -170.4914950001442,
              -14.301690999962668
            ],
            [
              -170.49034100007572,
              -14.282475000064226
            ],
            [
              -170.51059799985114,
              -14.232129999830825
            ],
            [
              -170.5367780001299,
              -14.20433999982959
            ],
            [
              -170.60222800037766,
              -14.200369999693185
            ],
            [
              -170.63662599997966,
              -14.178740000399962
            ],
            [
              -170.66519999971078,
              -14.175947000399097
            ],
            [
              -170.6870919997787,
              -14.182239999787816
            ],
            [
              -170.75000000043602,
              -14.241235000282359
            ],
            [
              -170.79715600036553,
              -14.24663699996999
            ],
            [
              -170.73214999963346,
              -14.2975950004139
            ],
            [
              -170.6663310002131,
              -14.375776000074207
            ],
            [
              -170.63746299985576,
              -14.336914000207878
            ],
            [
              -170.58650199958907,
              -14.331033999693233
            ],
            [
              -170.54848299977297,
              -14.3372799998808
            ],
            [
              -170.53809000038214,
              -14.336128999626613
            ]
          ]
        ]
      }
    },
    {
      "type": "Feature",
      "id": "us-county:60:020",
      "properties": {
        "boundary_id": "us-county:60:020",
        "boundary_type": "county",
        "name": "Manu'a District",
        "stateFips": "60",
        "countyFips": "020",
        "bbox": [
          -169.7228040001206,
          -14.317248999685532,
          -169.36689600038338,
          -14.105391999843272
        ]
      },
      "geometry": {
        "type": "Polygon",
        "coordinates": [
          [
            [
              -169.44603399982284,
              -14.304870000394525
            ],
            [
              -169.39739800030992,
              -14.307178999860556
            ],
            [
              -169.37067400005802,
              -14.279525000240712
            ],
            [
              -169.36689600038338,
              -14.202075000280747
            ],
            [
              -169.38564300043817,
              -14.174606000214627
            ],
            [
              -169.50000000036047,
              -14.16605199959548
            ],
            [
              -169.54700899997692,
              -14.184332999620208
            ],
            [
              -169.56236599979624,
              -14.125000000164269
            ],
            [
              -169.5992420003128,
              -14.105391999843272
            ],
            [
              -169.6780209997271,
              -14.111521999802068
            ],
            [
              -169.72045300032593,
              -14.137714999656039
            ],
            [
              -169.7228040001206,
              -14.189369999864722
            ],
            [
              -169.6803520003286,
              -14.230597000424591
            ],
            [
              -169.6313510000444,
              -14.22796599986506
            ],
            [
              -169.6086460003899,
              -14.237914999951228
            ],
            [
              -169.56684700035098,
              -14.221478999683868
            ],
            [
              -169.5588719998037,
              -14.258916999621205
            ],
            [
              -169.53290199958724,
              -14.274007000024524
            ],
            [
              -169.5133970001974,
              -14.307785000297898
            ],
            [
              -169.48269199988124,
              -14.317248999685532
            ],
            [
              -169.44653299959012,
              -14.305192000014232
            ],
            [
              -169.44603399982284,
              -14.304870000394525
            ]
          ]
        ]
      }
    },
    {
      "type": "Feature",
      "id": "us-county:60:030",
      "properties": {
        "boundary_id": "us-county:60:030",
        "boundary_type": "county",
        "name": "Rose Island",
        "stateFips": "60",
        "countyFips": "030",
        "bbox": [
          -168.22527299982542,
          -14.601338999679104,
          -168.10222900005152,
          -14.477847999909448
        ]
      },
      "geometry": {
        "type": "Polygon",
        "coordinates": [
          [
            [
              -168.22527299982542,
              -14.535906000064916
            ],
            [
              -168.22348000024755,
              -14.561343000276329
            ],
            [
              -168.20675699974933,
              -14.590091999675815
            ],
            [
              -168.1735380003302,
              -14.601338999679104
            ],
            [
              -168.1291020002663,
              -14.597259000270915
            ],
            [
              -168.11039899969416,
              -14.579165999609677
            ],
            [
              -168.10222900005152,
              -14.554034000211553
            ],
            [
              -168.115941000431,
              -14.50022500038028
            ],
            [
              -168.1522279998703,
              -14.477847999909448
            ],
            [
              -168.19952699991495,
              -14.490126000372879
            ],
            [
              -168.22452899983577,
              -14.524510000288116
            ],
            [
              -168.22527299982542,
              -14.535906000064916
            ]
          ]
        ]
      }
    },
    {
      "type": "Feature",
      "id": "us-county:60:040",
      "properties": {
        "boundary_id": "us-county:60:040",
        "boundary_type": "county",
        "name": "Swains Island",
        "stateFips": "60",
        "countyFips": "040",
        "bbox": [
          -171.14118100018445,
          -11.107868999671174,
          -171.01137799985602,
          -10.997202999610991
        ]
      },
      "geometry": {
        "type": "Polygon",
        "coordinates": [
          [
            [
              -171.14118100018445,
              -11.046607999749419
            ],
            [
              -171.1338709999841,
              -11.090533999644016
            ],
            [
              -171.098344000428,
              -11.107868999671174
            ],
            [
              -171.03217299975682,
              -11.105087999844612
            ],
            [
              -171.01137799985602,
              -11.07814300021046
            ],
            [
              -171.01407099995748,
              -11.02370099997208
            ],
            [
              -171.03633799994407,
              -11.002910999743277
            ],
            [
              -171.0746320001198,
              -10.997202999610991
            ],
            [
              -171.11139999978306,
              -11.003791999742562
            ],
            [
              -171.13745399966513,
              -11.030090999711604
            ],
            [
              -171.14116199991787,
              -11.046223000231125
            ],
            [
              -171.14118100018445,
              -11.046607999749419
            ]
          ]
        ]
      }
    },
    {
      "type": "Feature",
      "id": "us-county:60:050",
      "properties": {
        "boundary_id": "us-county:60:050",
        "boundary_type": "county",
        "name": "Western District",
        "stateFips": "60",
        "countyFips": "050",
        "bbox": [
          -170.8902909996915,
          -14.41813600008879,
          -170.6663310002131,
          -14.24663699996999
        ]
      },
      "geometry": {
        "type": "Polygon",
        "coordinates": [
          [
            [
              -170.8902909996915,
              -14.317193999908143
            ],
            [
              -170.88369799971665,
              -14.342694000380371
            ],
            [
              -170.86594300024697,
              -14.358575999670562
            ],
            [
              -170.82309899991952,
              -14.37178700006552
            ],
            [
              -170.8039579996794,
              -14.395747000303587
            ],
            [
              -170.75985200022674,
              -14.41813600008879
            ],
            [
              -170.72575500002537,
              -14.41594200011458
            ],
            [
              -170.6663310002131,
              -14.375776000074207
            ],
            [
              -170.73214999963346,
              -14.2975950004139
            ],
            [
              -170.79715600036553,
              -14.24663699996999
            ],
            [
              -170.85045400018316,
              -14.264711999824875
            ],
            [
              -170.88846399977848,
              -14.312975999615851
            ],
            [
              -170.8902909996915,
              -14.317193999908143
            ]
          ]
        ]
      }
    },
    {
      "type": "Feature",
      "id": "us-state:60",
      "properties": {
        "boundary_id": "us-state:60",
        "boundary_type": "state",
        "name": "American Samoa",
        "stateFips": "60",
        "bbox": [
          -171.14118100018445,
          -14.601338999679104,
          -168.10222900005152,
          -10.997202999610991
        ]
      },
      "geometry": {
        "type": "MultiPolygon",
        "coordinates": [
          [
            [
              [
                -170.53809000038214,
                -14.336128999626613
              ],
              [
                -170.50943899975977,
                -14.328762999629713
              ],
              [
                -170.4914950001442,
                -14.301690999962668
              ],
              [
                -170.49471999962492,
                -14.265964000071039
              ],
              [
                -170.51059799985114,
                -14.232129999830825
              ],
              [
                -170.5367780001299,
                -14.20433999982959
              ],
              [
                -170.60222800037766,
                -14.200369999693185
              ],
              [
                -170.65531500030812,
                -14.175544999741765
              ],
              [
                -170.6870919997787,
                -14.182239999787816
              ],
              [
                -170.75000000043602,
                -14.241235000282359
              ],
              [
                -170.84027099995632,
                -14.258017999680803
              ],
              [
                -170.87499999999443,
                -14.287596999775877
              ],
              [
                -170.8902909996915,
                -14.317193999908143
              ],
              [
                -170.88369799971665,
                -14.342694000380371
              ],
              [
                -170.86594300024697,
                -14.358575999670562
              ],
              [
                -170.82309899991952,
                -14.37178700006552
              ],
              [
                -170.7743439996826,
                -14.413141999609302
              ],
              [
                -170.73901999961774,
                -14.419949999641435
              ],
              [
                -170.6603900001664,
                -14.371381000415786
              ],
              [
                -170.63746299985576,
                -14.336914000207878
              ],
              [
                -170.58650199958907,
                -14.331033999693233
              ],
              [
                -170.54848299977297,
                -14.3372799998808
              ],
              [
                -170.53809000038214,
                -14.336128999626613
              ]
            ]
          ],
          [
            [
              [
                -168.22527299982542,
                -14.535906000064916
              ],
              [
                -168.22348000024755,
                -14.561343000276329
              ],
              [
                -168.20675699974933,
                -14.590091999675815
              ],
              [
                -168.1735380003302,
                -14.601338999679104
              ],
              [
                -168.1291020002663,
                -14.597259000270915
              ],
              [
                -168.11039899969416,
                -14.579165999609677
              ],
              [
                -168.10222900005152,
                -14.554034000211553
              ],
              [
                -168.115941000431,
                -14.50022500038028
              ],
              [
                -168.1522279998703,
                -14.477847999909448
              ],
              [
                -168.19952699991495,
                -14.490126000372879
              ],
              [
                -168.22452899983577,
                -14.524510000288116
              ],
              [
                -168.22527299982542,
                -14.535906000064916
              ]
            ]
          ],
          [
            [
              [
                -171.14118100018445,
                -11.046607999749419
              ],
              [
                -171.1338709999841,
                -11.090533999644016
              ],
              [
                -171.098344000428,
                -11.107868999671174
              ],
              [
                -171.03217299975682,
                -11.105087999844612
              ],
              [
                -171.01137799985602,
                -11.07814300021046
              ],
              [
                -171.01407099995748,
                -11.02370099997208
              ],
              [
                -171.03633799994407,
                -11.002910999743277
              ],
              [
                -171.0746320001198,
                -10.997202999610991
              ],
              [
                -171.11139999978306,
                -11.003791999742562
              ],
              [
                -171.13745399966513,
                -11.030090999711604
              ],
              [
                -171.14116199991787,
                -11.046223000231125
              ],
              [
                -171.14118100018445,
                -11.046607999749419
              ]
            ]
          ],
          [
            [
              [
                -169.44603399982284,
                -14.304870000394525
              ],
              [
                -169.39739800030992,
                -14.307178999860556
              ],
              [
                -169.37067400005802,
                -14.279525000240712
              ],
              [
                -169.36689600038338,
                -14.202075000280747
              ],
              [
                -169.38564300043817,
                -14.174606000214627
              ],
              [
                -169.50000000036047,
                -14.16605199959548
              ],
              [
                -169.54700899997692,
                -14.184332999620208
              ],
              [
                -169.56236599979624,
                -14.125000000164269
              ],
              [
                -169.5992420003128,
                -14.105391999843272
              ],
              [
                -169.6780209997271,
                -14.111521999802068
              ],
              [
                -169.72045300032593,
                -14.137714999656039
              ],
              [
                -169.7228040001206,
                -14.189369999864722
              ],
              [
                -169.6803520003286,
                -14.230597000424591
              ],
              [
                -169.6313510000444,
                -14.22796599986506
              ],
              [
                -169.6086460003899,
                -14.237914999951228
              ],
              [
                -169.56684700035098,
                -14.221478999683868
              ],
              [
                -169.5588719998037,
                -14.258916999621205
              ],
              [
                -169.53290199958724,
                -14.274007000024524
              ],
              [
                -169.5133970001974,
                -14.307785000297898
              ],
              [
                -169.48269199988124,
                -14.317248999685532
              ],
              [
                -169.44653299959012,
                -14.305192000014232
              ],
              [
                -169.44603399982284,
                -14.304870000394525
              ]
            ]
          ]
        ]
      }
    }
  ]
}
