{
  "type": "FeatureCollection",
  "features": [
    {
      "type": "Feature",
      "id": "us-cd:119:11:98",
      "properties": {
        "boundary_id": "us-cd:119:11:98",
        "boundary_type": "congressional_district",
        "name": "Delegate District (at Large)",
        "stateFips": "11",
        "congress": 119,
        "district": "98",
        "bbox": [
          -77.11975099978395,
          38.791644999914155,
          -76.90939300018182,
          38.99584500030949
        ]
      },
      "geometry": {
        "type": "Polygon",
        "coordinates": [
          [
            [
              -77.11975099978395,
              38.934349999851975
            ],
            [
              -77.10203200029929,
              38.911916000092965
            ],
            [
              -77.06864099955438,
              38.90028799985988
            ],
            [
              -77.05914100011614,
              38.88091399965045
            ],
            [
              -77.03946400029886,
              38.86973200028027
            ],
            [
              -77.03306600031767,
              38.8445489997831
            ],
            [
              -77.04801999973088,
              38.8412610002234
            ],
            [
              -77.0377550003866,
              38.83013799975093
            ],
            [
              -77.03900599964115,
              38.791644999914155
            ],
            [
              -76.90939300018182,
              38.89285200026212
            ],
            [
              -77.04088199995799,
              38.99584500030949
            ],
            [
              -77.1188610002044,
              38.935355999833924
            ],
            [
              -77.11975099978395,
              38.934349999851975
            ]
          ]
        ]
      }
    }
  ]
}
