{
  "type": "FeatureCollection",
  "features": [
    {
      "type": "Feature",
      "id": "us-cd:118:46:00",
      "properties": {
        "boundary_id": "us-cd:118:46:00",
        "boundary_type": "congressional_district",
        "name": "Congressional District (at Large)",
        "stateFips": "46",
        "congress": 118,
        "district": "00",
        "bbox": [
          -104.057879,
          42.480036,
          -96.436589,
          45.94531
        ]
      },
      "geometry": {
        "type": "Polygon",
        "coordinates": [
          [
            [
              -104.057879,
              44.997605
            ],
            [
              -104.039694,
              44.99807
            ],
            [
              -104.045443,
              45.94531
            ],
            [
              -96.563672,
              45.935239
            ],
            [
              -96.583085,
              45.820024
            ],
            [
              -96.627778,
              45.786239
            ],
            [
              -96.662595,
              45.738682
            ],
            [
              -96.835769,
              45.649648
            ],
            [
              -96.857751,
              45.605962
            ],
            [
              -96.76528,
              45.521414
            ],
            [
              -96.732739,
              45.458737
            ],
            [
              -96.692541,
              45.417338
            ],
            [
              -96.617726,
              45.408092
            ],
            [
              -96.521787,
              45.375645
            ],
            [
              -96.489065,
              45.357071
            ],
            [
              -96.453067,
              45.298115
            ],
            [
              -96.45326,
              43.50039
            ],
            [
              -96.598928,
              43.500457
            ],
            [
              -96.580997,
              43.481384
            ],
            [
              -96.582475,
              43.467051
            ],
            [
              -96.602608,
              43.449649
            ],
            [
              -96.594254,
              43.434153
            ],
            [
              -96.570224,
              43.428601
            ],
            [
              -96.573579,
              43.419228
            ],
            [
              -96.537116,
              43.395063
            ],
            [
              -96.525453,
              43.396317
            ],
            [
              -96.521572,
              43.38564
            ],
            [
              -96.524289,
              43.347214
            ],
            [
              -96.534913,
              43.336473
            ],
            [
              -96.525564,
              43.312467
            ],
            [
              -96.530392,
              43.300034
            ],
            [
              -96.588492,
              43.296339
            ],
            [
              -96.577819,
              43.279938
            ],
            [
              -96.58522,
              43.268878
            ],
            [
              -96.552591,
              43.257769
            ],
            [
              -96.552963,
              43.247281
            ],
            [
              -96.571194,
              43.238961
            ],
            [
              -96.568505,
              43.231554
            ],
            [
              -96.519273,
              43.21769
            ],
            [
              -96.476697,
              43.222014
            ],
            [
              -96.473834,
              43.189804
            ],
            [
              -96.464896,
              43.182034
            ],
            [
              -96.466537,
              43.150281
            ],
            [
              -96.436589,
              43.120842
            ],
            [
              -96.462855,
              43.091419
            ],
            [
              -96.454088,
              43.084197
            ],
            [
              -96.46085,
              43.064033
            ],
            [
              -96.518431,
              43.042068
            ],
            [
              -96.49167,
              43.009707
            ],
            [
              -96.520773,
              42.980385
            ],
            [
              -96.500308,
              42.959391
            ],
            [
              -96.519994,
              42.93976
            ],
            [
              -96.516888,
              42.932512
            ],
            [
              -96.525536,
              42.935511
            ],
            [
              -96.541689,
              42.922576
            ],
            [
              -96.536564,
              42.905656
            ],
            [
              -96.542847,
              42.903737
            ],
            [
              -96.526357,
              42.891852
            ],
            [
              -96.540116,
              42.889678
            ],
            [
              -96.537851,
              42.878475
            ],
            [
              -96.549659,
              42.870281
            ],
            [
              -96.54146,
              42.857682
            ],
            [
              -96.554709,
              42.846142
            ],
            [
              -96.551285,
              42.836606
            ],
            [
              -96.560572,
              42.839373
            ],
            [
              -96.565605,
              42.830434
            ],
            [
              -96.581604,
              42.837521
            ],
            [
              -96.577937,
              42.827645
            ],
            [
              -96.596008,
              42.815044
            ],
            [
              -96.597036,
              42.791888
            ],
            [
              -96.634934,
              42.770735
            ],
            [
              -96.619494,
              42.754792
            ],
            [
              -96.638621,
              42.734921
            ],
            [
              -96.63352,
              42.724188
            ],
            [
              -96.624704,
              42.725497
            ],
            [
              -96.630617,
              42.70588
            ],
            [
              -96.605596,
              42.70202
            ],
            [
              -96.611795,
              42.69513
            ],
            [
              -96.600313,
              42.698024
            ],
            [
              -96.598076,
              42.686637
            ],
            [
              -96.575295,
              42.682823
            ],
            [
              -96.576538,
              42.670771
            ],
            [
              -96.566684,
              42.675942
            ],
            [
              -96.559962,
              42.658543
            ],
            [
              -96.541754,
              42.660378
            ],
            [
              -96.537881,
              42.646446
            ],
            [
              -96.516338,
              42.630435
            ],
            [
              -96.529894,
              42.610432
            ],
            [
              -96.509468,
              42.61273
            ],
            [
              -96.485796,
              42.575001
            ],
            [
              -96.498544,
              42.558116
            ],
            [
              -96.476952,
              42.556079
            ],
            [
              -96.479909,
              42.524195
            ],
            [
              -96.49297,
              42.517282
            ],
            [
              -96.473339,
              42.503537
            ],
            [
              -96.475413,
              42.489621
            ],
            [
              -96.445508,
              42.49063
            ],
            [
              -96.475565,
              42.480036
            ],
            [
              -96.501321,
              42.482749
            ],
            [
              -96.528753,
              42.513273
            ],
            [
              -96.548791,
              42.520547
            ],
            [
              -96.611489,
              42.506088
            ],
            [
              -96.628179,
              42.516963
            ],
            [
              -96.643589,
              42.557604
            ],
            [
              -96.681369,
              42.574486
            ],
            [
              -96.7093,
              42.603753
            ],
            [
              -96.709485,
              42.621932
            ],
            [
              -96.687788,
              42.645992
            ],
            [
              -96.691269,
              42.6562
            ],
            [
              -96.728024,
              42.666882
            ],
            [
              -96.793238,
              42.666024
            ],
            [
              -96.802178,
              42.672237
            ],
            [
              -96.806223,
              42.704154
            ],
            [
              -96.906797,
              42.7338
            ],
            [
              -96.937589,
              42.719597
            ],
            [
              -96.963531,
              42.720643
            ],
            [
              -96.96123,
              42.740623
            ],
            [
              -96.97912,
              42.76009
            ],
            [
              -97.131331,
              42.771929
            ],
            [
              -97.150763,
              42.795566
            ],
            [
              -97.210126,
              42.809296
            ],
            [
              -97.218825,
              42.845848
            ],
            [
              -97.237868,
              42.853139
            ],
            [
              -97.289859,
              42.855499
            ],
            [
              -97.306677,
              42.867604
            ],
            [
              -97.359569,
              42.854816
            ],
            [
              -97.408315,
              42.868334
            ],
            [
              -97.442279,
              42.846224
            ],
            [
              -97.504847,
              42.858477
            ],
            [
              -97.561928,
              42.847552
            ],
            [
              -97.611811,
              42.858367
            ],
            [
              -97.686506,
              42.842435
            ],
            [
              -97.774456,
              42.849774
            ],
            [
              -97.84527,
              42.867734
            ],
            [
              -97.875345,
              42.858724
            ],
            [
              -97.888562,
              42.817251
            ],
            [
              -97.936716,
              42.775754
            ],
            [
              -98.035034,
              42.764205
            ],
            [
              -98.059838,
              42.772772
            ],
            [
              -98.146933,
              42.839823
            ],
            [
              -98.189765,
              42.841628
            ],
            [
              -98.25181,
              42.872824
            ],
            [
              -98.325864,
              42.8865
            ],
            [
              -98.42074,
              42.931924
            ],
            [
              -98.444145,
              42.929242
            ],
            [
              -98.467356,
              42.947556
            ],
            [
              -98.49855,
              42.99856
            ],
            [
              -104.053028,
              43.000587
            ],
            [
              -104.056649,
              44.933934
            ],
            [
              -104.057879,
              44.997605
            ]
          ]
        ]
      }
    }
  ]
}
