{
  "type": "FeatureCollection",
  "features": [
    {
      "type": "Feature",
      "id": "us-cd:118:20:01",
      "properties": {
        "boundary_id": "us-cd:118:20:01",
        "boundary_type": "congressional_district",
        "name": "Congressional District 1",
        "stateFips": "20",
        "congress": 118,
        "district": "01",
        "bbox": [
          -102.051744,
          36.993016,
          -95.176754,
          40.003078
        ]
      },
      "geometry": {
        "type": "Polygon",
        "coordinates": [
          [
            [
              -102.051744,
              40.003078
            ],
            [
              -96.2392078816029,
              40.0006909657961
            ],
            [
              -96.238969,
              39.56622
            ],
            [
              -95.71861,
              39.565939
            ],
            [
              -95.570131,
              39.525528
            ],
            [
              -95.570351,
              39.41905
            ],
            [
              -95.180891,
              39.419218
            ],
            [
              -95.186189,
              38.964542
            ],
            [
              -95.211859,
              38.962816
            ],
            [
              -95.176836,
              38.949996
            ],
            [
              -95.176754,
              38.941823
            ],
            [
              -95.211166,
              38.926409
            ],
            [
              -95.245228,
              38.928256
            ],
            [
              -95.257827,
              38.915154
            ],
            [
              -95.293198,
              38.935358
            ],
            [
              -95.298789,
              38.930179
            ],
            [
              -95.335282,
              38.942526
            ],
            [
              -95.325523,
              38.956958
            ],
            [
              -95.336237,
              38.956876
            ],
            [
              -95.332055,
              38.971473
            ],
            [
              -95.344507,
              38.971355
            ],
            [
              -95.333861,
              38.978735
            ],
            [
              -95.343829,
              38.996546
            ],
            [
              -95.316483,
              38.998027
            ],
            [
              -95.343826,
              38.99671
            ],
            [
              -95.335268,
              39.000558
            ],
            [
              -95.335604,
              39.029582
            ],
            [
              -95.419439,
              39.067205
            ],
            [
              -95.456659,
              39.068259
            ],
            [
              -95.493821,
              39.053954
            ],
            [
              -95.513902,
              39.067151
            ],
            [
              -95.542847,
              39.069103
            ],
            [
              -95.57696,
              39.054384
            ],
            [
              -95.589337,
              39.058433
            ],
            [
              -95.598348,
              39.073514
            ],
            [
              -95.589472,
              39.216081
            ],
            [
              -96.035573,
              39.21652
            ],
            [
              -96.03906,
              39.126527
            ],
            [
              -96.041165,
              39.139809
            ],
            [
              -96.091054,
              39.15471
            ],
            [
              -96.083867,
              39.163263
            ],
            [
              -96.05682,
              39.16119
            ],
            [
              -96.083557,
              39.193504
            ],
            [
              -96.108547,
              39.201086
            ],
            [
              -96.122757,
              39.187124
            ],
            [
              -96.176741,
              39.188616
            ],
            [
              -96.181567,
              39.206333
            ],
            [
              -96.212995,
              39.199935
            ],
            [
              -96.234956,
              39.212132
            ],
            [
              -96.269382,
              39.178963
            ],
            [
              -96.311317,
              39.195896
            ],
            [
              -96.324729,
              39.186051
            ],
            [
              -96.328377,
              39.160887
            ],
            [
              -96.346639,
              39.153906
            ],
            [
              -96.358292,
              39.156525
            ],
            [
              -96.357625,
              39.173022
            ],
            [
              -96.377787,
              39.164137
            ],
            [
              -96.389046,
              39.172878
            ],
            [
              -96.390796,
              39.043257
            ],
            [
              -96.482442,
              39.043511
            ],
            [
              -96.501166,
              39.043666
            ],
            [
              -96.500962,
              39.072681
            ],
            [
              -96.706122,
              39.073077
            ],
            [
              -96.706257,
              39.09116
            ],
            [
              -96.73606,
              39.079957
            ],
            [
              -96.743439,
              39.087659
            ],
            [
              -96.851409,
              39.088176
            ],
            [
              -96.851269,
              39.10074
            ],
            [
              -96.832239,
              39.119645
            ],
            [
              -96.830985,
              39.139228
            ],
            [
              -96.84967,
              39.13928
            ],
            [
              -96.849879,
              39.219012
            ],
            [
              -96.961693,
              39.220076
            ],
            [
              -96.96347,
              38.964901
            ],
            [
              -96.950058,
              38.976895
            ],
            [
              -96.947627,
              38.970603
            ],
            [
              -96.926209,
              38.978941
            ],
            [
              -96.92671,
              38.87035
            ],
            [
              -96.890245,
              38.870067
            ],
            [
              -96.890065,
              38.812255
            ],
            [
              -96.927234,
              38.81216
            ],
            [
              -96.930286,
              38.609362
            ],
            [
              -97.371911,
              38.609353
            ],
            [
              -97.37175,
              38.173673
            ],
            [
              -97.701841,
              38.173814
            ],
            [
              -97.698692,
              37.735056
            ],
            [
              -98.464804,
              37.732675
            ],
            [
              -98.464899,
              37.824512
            ],
            [
              -98.472257,
              37.824497
            ],
            [
              -98.472437,
              38.260741
            ],
            [
              -99.022472,
              38.261208
            ],
            [
              -99.022361,
              38.238086
            ],
            [
              -99.083635,
              38.188857
            ],
            [
              -99.131821,
              38.181625
            ],
            [
              -99.131741,
              38.174337
            ],
            [
              -99.569927,
              38.174902
            ],
            [
              -99.570576,
              37.825634
            ],
            [
              -99.560272,
              37.825587
            ],
            [
              -99.555774,
              37.381112
            ],
            [
              -99.543189,
              37.381124
            ],
            [
              -99.5411159015717,
              36.9995725260596
            ],
            [
              -102.042089,
              36.993016
            ],
            [
              -102.05171567539,
              39.9782700117882
            ],
            [
              -102.051744,
              40.003078
            ]
          ]
        ]
      }
    },
    {
      "type": "Feature",
      "id": "us-cd:118:20:02",
      "properties": {
        "boundary_id": "us-cd:118:20:02",
        "boundary_type": "congressional_district",
        "name": "Congressional District 2",
        "stateFips": "20",
        "congress": 118,
        "district": "02",
        "bbox": [
          -97.371932,
          36.998905,
          -94.589898,
          40.0006909657961
        ]
      },
      "geometry": {
        "type": "Polygon",
        "coordinates": [
          [
            [
              -97.371932,
              38.522161
            ],
            [
              -97.371911,
              38.609353
            ],
            [
              -96.930286,
              38.609362
            ],
            [
              -96.927234,
              38.81216
            ],
            [
              -96.890065,
              38.812255
            ],
            [
              -96.890245,
              38.870067
            ],
            [
              -96.92671,
              38.87035
            ],
            [
              -96.926209,
              38.978941
            ],
            [
              -96.947627,
              38.970603
            ],
            [
              -96.950058,
              38.976895
            ],
            [
              -96.96347,
              38.964901
            ],
            [
              -96.961693,
              39.220076
            ],
            [
              -96.849879,
              39.219012
            ],
            [
              -96.84967,
              39.13928
            ],
            [
              -96.830985,
              39.139228
            ],
            [
              -96.832239,
              39.119645
            ],
            [
              -96.851269,
              39.10074
            ],
            [
              -96.851409,
              39.088176
            ],
            [
              -96.743439,
              39.087659
            ],
            [
              -96.73606,
              39.079957
            ],
            [
              -96.706257,
              39.09116
            ],
            [
              -96.706122,
              39.073077
            ],
            [
              -96.500962,
              39.072681
            ],
            [
              -96.501166,
              39.043666
            ],
            [
              -96.482442,
              39.043511
            ],
            [
              -96.390796,
              39.043257
            ],
            [
              -96.389046,
              39.172878
            ],
            [
              -96.377787,
              39.164137
            ],
            [
              -96.357625,
              39.173022
            ],
            [
              -96.358292,
              39.156525
            ],
            [
              -96.346639,
              39.153906
            ],
            [
              -96.328377,
              39.160887
            ],
            [
              -96.324729,
              39.186051
            ],
            [
              -96.311317,
              39.195896
            ],
            [
              -96.269382,
              39.178963
            ],
            [
              -96.234956,
              39.212132
            ],
            [
              -96.212995,
              39.199935
            ],
            [
              -96.181567,
              39.206333
            ],
            [
              -96.176741,
              39.188616
            ],
            [
              -96.122757,
              39.187124
            ],
            [
              -96.108547,
              39.201086
            ],
            [
              -96.083557,
              39.193504
            ],
            [
              -96.05682,
              39.16119
            ],
            [
              -96.083867,
              39.163263
            ],
            [
              -96.091054,
              39.15471
            ],
            [
              -96.041165,
              39.139809
            ],
            [
              -96.03906,
              39.126527
            ],
            [
              -96.035573,
              39.21652
            ],
            [
              -95.589472,
              39.216081
            ],
            [
              -95.598348,
              39.073514
            ],
            [
              -95.589337,
              39.058433
            ],
            [
              -95.57696,
              39.054384
            ],
            [
              -95.542847,
              39.069103
            ],
            [
              -95.513902,
              39.067151
            ],
            [
              -95.493821,
              39.053954
            ],
            [
              -95.456659,
              39.068259
            ],
            [
              -95.419439,
              39.067205
            ],
            [
              -95.335604,
              39.029582
            ],
            [
              -95.335268,
              39.000558
            ],
            [
              -95.343826,
              38.99671
            ],
            [
              -95.316483,
              38.998027
            ],
            [
              -95.343829,
              38.996546
            ],
            [
              -95.333861,
              38.978735
            ],
            [
              -95.344507,
              38.971355
            ],
            [
              -95.332055,
              38.971473
            ],
            [
              -95.336237,
              38.956876
            ],
            [
              -95.325523,
              38.956958
            ],
            [
              -95.335282,
              38.942526
            ],
            [
              -95.298789,
              38.930179
            ],
            [
              -95.293198,
              38.935358
            ],
            [
              -95.257827,
              38.915154
            ],
            [
              -95.245228,
              38.928256
            ],
            [
              -95.211166,
              38.926409
            ],
            [
              -95.176754,
              38.941823
            ],
            [
              -95.176836,
              38.949996
            ],
            [
              -95.211859,
              38.962816
            ],
            [
              -95.186189,
              38.964542
            ],
            [
              -95.180891,
              39.419218
            ],
            [
              -95.570351,
              39.41905
            ],
            [
              -95.570131,
              39.525528
            ],
            [
              -95.71861,
              39.565939
            ],
            [
              -96.238969,
              39.56622
            ],
            [
              -96.2392078816029,
              40.0006909657961
            ],
            [
              -95.30829,
              39.999998
            ],
            [
              -95.302507,
              39.984357
            ],
            [
              -95.269886,
              39.969396
            ],
            [
              -95.250254,
              39.948644
            ],
            [
              -95.204428,
              39.938949
            ],
            [
              -95.201935,
              39.904053
            ],
            [
              -95.149657,
              39.905948
            ],
            [
              -95.137092,
              39.878351
            ],
            [
              -95.090158,
              39.86314
            ],
            [
              -95.037767,
              39.865542
            ],
            [
              -95.013152,
              39.899953
            ],
            [
              -94.959276,
              39.901671
            ],
            [
              -94.934493,
              39.893366
            ],
            [
              -94.927252,
              39.880258
            ],
            [
              -94.942407,
              39.861066
            ],
            [
              -94.939767,
              39.85193
            ],
            [
              -94.916918,
              39.836138
            ],
            [
              -94.886933,
              39.833098
            ],
            [
              -94.875944,
              39.813294
            ],
            [
              -94.884084,
              39.794234
            ],
            [
              -94.929654,
              39.788282
            ],
            [
              -94.935302,
              39.77561
            ],
            [
              -94.912293,
              39.759338
            ],
            [
              -94.869644,
              39.772894
            ],
            [
              -94.860743,
              39.763094
            ],
            [
              -94.862943,
              39.742994
            ],
            [
              -94.899316,
              39.724042
            ],
            [
              -94.948726,
              39.745593
            ],
            [
              -94.965318,
              39.739065
            ],
            [
              -94.971317,
              39.68641
            ],
            [
              -95.027644,
              39.665454
            ],
            [
              -95.054925,
              39.624995
            ],
            [
              -95.049277,
              39.589583
            ],
            [
              -95.064519,
              39.577115
            ],
            [
              -95.103228,
              39.577783
            ],
            [
              -95.113077,
              39.559133
            ],
            [
              -95.109304,
              39.542285
            ],
            [
              -95.052177,
              39.499996
            ],
            [
              -95.0375,
              39.463689
            ],
            [
              -94.982144,
              39.440552
            ],
            [
              -94.972952,
              39.421705
            ],
            [
              -94.947864,
              39.408604
            ],
            [
              -94.942039,
              39.389499
            ],
            [
              -94.885026,
              39.389801
            ],
            [
              -94.88136,
              39.370383
            ],
            [
              -94.910017,
              39.352543
            ],
            [
              -94.905329,
              39.311952
            ],
            [
              -94.887056,
              39.28648
            ],
            [
              -94.831471,
              39.256273
            ],
            [
              -94.831679,
              39.215938
            ],
            [
              -94.781518,
              39.206146
            ],
            [
              -94.763138,
              39.179903
            ],
            [
              -94.741938,
              39.170203
            ],
            [
              -94.669135,
              39.182003
            ],
            [
              -94.655787,
              39.15568
            ],
            [
              -94.601733,
              39.159603
            ],
            [
              -94.590661,
              39.154767
            ],
            [
              -94.589898,
              39.138979
            ],
            [
              -94.60829,
              39.117944
            ],
            [
              -94.6072345427118,
              39.0897118187523
            ],
            [
              -94.632311,
              39.073718
            ],
            [
              -94.688454,
              39.102575
            ],
            [
              -94.710038,
              39.093298
            ],
            [
              -94.739358,
              39.106323
            ],
            [
              -94.80039,
              39.100466
            ],
            [
              -94.85372,
              39.115805
            ],
            [
              -94.908465,
              39.116001
            ],
            [
              -94.913796,
              38.986484
            ],
            [
              -94.921748,
              38.985786
            ],
            [
              -94.916243,
              38.9969
            ],
            [
              -94.923349,
              39.002633
            ],
            [
              -94.956545,
              38.981972
            ],
            [
              -95.014057,
              39.000858
            ],
            [
              -95.035092,
              38.97489
            ],
            [
              -95.056258,
              38.98212
            ],
            [
              -95.056412,
              38.738587
            ],
            [
              -95.500738,
              38.738808
            ],
            [
              -95.509014,
              38.658965
            ],
            [
              -95.507474,
              38.259248
            ],
            [
              -95.516757,
              38.259296
            ],
            [
              -95.51897,
              38.03823
            ],
            [
              -95.077876,
              38.037706
            ],
            [
              -95.065831,
              38.389945
            ],
            [
              -94.613275403738,
              38.3887183678658
            ],
            [
              -94.617964,
              36.998905
            ],
            [
              -95.9642699335572,
              36.9990936072442
            ],
            [
              -95.958862,
              38.170939
            ],
            [
              -96.357277,
              38.17266
            ],
            [
              -96.358099,
              38.085817
            ],
            [
              -97.152913,
              38.087704
            ],
            [
              -97.153093,
              38.174634
            ],
            [
              -97.37175,
              38.173673
            ],
            [
              -97.371924,
              38.507624
            ],
            [
              -97.371932,
              38.522161
            ]
          ]
        ]
      }
    },
    {
      "type": "Feature",
      "id": "us-cd:118:20:03",
      "properties": {
        "boundary_id": "us-cd:118:20:03",
        "boundary_type": "congressional_district",
        "name": "Congressional District 3",
        "stateFips": "20",
        "congress": 118,
        "district": "03",
        "bbox": [
          -95.51897,
          38.037706,
          -94.6072345427118,
          39.116001
        ]
      },
      "geometry": {
        "type": "Polygon",
        "coordinates": [
          [
            [
              -95.518728,
              38.103718
            ],
            [
              -95.516757,
              38.259296
            ],
            [
              -95.507474,
              38.259248
            ],
            [
              -95.509014,
              38.658965
            ],
            [
              -95.500738,
              38.738808
            ],
            [
              -95.056412,
              38.738587
            ],
            [
              -95.056258,
              38.98212
            ],
            [
              -95.035092,
              38.97489
            ],
            [
              -95.014057,
              39.000858
            ],
            [
              -94.956545,
              38.981972
            ],
            [
              -94.923349,
              39.002633
            ],
            [
              -94.916243,
              38.9969
            ],
            [
              -94.921748,
              38.985786
            ],
            [
              -94.913796,
              38.986484
            ],
            [
              -94.908465,
              39.116001
            ],
            [
              -94.85372,
              39.115805
            ],
            [
              -94.80039,
              39.100466
            ],
            [
              -94.739358,
              39.106323
            ],
            [
              -94.710038,
              39.093298
            ],
            [
              -94.688454,
              39.102575
            ],
            [
              -94.639993,
              39.073538
            ],
            [
              -94.6072345427118,
              39.0897118187523
            ],
            [
              -94.613275403738,
              38.3887183678658
            ],
            [
              -95.065831,
              38.389945
            ],
            [
              -95.077876,
              38.037706
            ],
            [
              -95.51897,
              38.03823
            ],
            [
              -95.518728,
              38.103718
            ]
          ]
        ]
      }
    },
    {
      "type": "Feature",
      "id": "us-cd:118:20:04",
      "properties": {
        "boundary_id": "us-cd:118:20:04",
        "boundary_type": "congressional_district",
        "name": "Congressional District 4",
        "stateFips": "20",
        "congress": 118,
        "district": "04",
        "bbox": [
          -99.570576,
          36.9990936072442,
          -95.958862,
          38.261208
        ]
      },
      "geometry": {
        "type": "Polygon",
        "coordinates": [
          [
            [
              -99.569879,
              37.913016
            ],
            [
              -99.569927,
              38.174902
            ],
            [
              -99.131741,
              38.174337
            ],
            [
              -99.131821,
              38.181625
            ],
            [
              -99.083635,
              38.188857
            ],
            [
              -99.022361,
              38.238086
            ],
            [
              -99.022472,
              38.261208
            ],
            [
              -98.472437,
              38.260741
            ],
            [
              -98.472257,
              37.824497
            ],
            [
              -98.464899,
              37.824512
            ],
            [
              -98.464804,
              37.732675
            ],
            [
              -97.698692,
              37.735056
            ],
            [
              -97.701841,
              38.173814
            ],
            [
              -97.153093,
              38.174634
            ],
            [
              -97.152913,
              38.087704
            ],
            [
              -96.882365,
              38.085682
            ],
            [
              -96.358099,
              38.085817
            ],
            [
              -96.357277,
              38.17266
            ],
            [
              -95.958862,
              38.170939
            ],
            [
              -95.9642699335572,
              36.9990936072442
            ],
            [
              -99.5411159015717,
              36.9995725260596
            ],
            [
              -99.543189,
              37.381124
            ],
            [
              -99.555774,
              37.381112
            ],
            [
              -99.560272,
              37.825587
            ],
            [
              -99.570576,
              37.825634
            ],
            [
              -99.569879,
              37.913016
            ]
          ]
        ]
      }
    }
  ]
}
