{
  "type": "FeatureCollection",
  "features": [
    {
      "type": "Feature",
      "id": "us-cd:119:09:01",
      "properties": {
        "boundary_id": "us-cd:119:09:01",
        "boundary_type": "congressional_district",
        "name": "1",
        "stateFips": "09",
        "congress": 119,
        "district": "01",
        "bbox": [
          -73.20182999967861,
          41.54427899972331,
          -72.46389900022274,
          42.04212700021005
        ]
      },
      "geometry": {
        "type": "Polygon",
        "coordinates": [
          [
            [
              -73.20182999967861,
              41.79004599981924
            ],
            [
              -73.16318099967563,
              41.793992999789594
            ],
            [
              -73.1541380001719,
              41.7837049998865
            ],
            [
              -73.14016600039976,
              41.789240999770804
            ],
            [
              -73.14265600011161,
              41.80850899981653
            ],
            [
              -73.09318100017447,
              41.81540400017941
            ],
            [
              -73.08250800040118,
              41.79838899995184
            ],
            [
              -72.94902399958413,
              41.80643099992675
            ],
            [
              -72.9363480001707,
              41.839798000219155
            ],
            [
              -72.95384900009549,
              41.848452999845186
            ],
            [
              -72.94064700025226,
              41.89519599990143
            ],
            [
              -72.91534599968237,
              41.8967969999008
            ],
            [
              -72.90594499997836,
              41.92169599973499
            ],
            [
              -72.76815399958215,
              41.91771900004488
            ],
            [
              -72.75859600041761,
              41.907196000236944
            ],
            [
              -72.7844400002374,
              41.85569800003443
            ],
            [
              -72.78333600039763,
              41.82690700005599
            ],
            [
              -72.79855199975164,
              41.82488500030575
            ],
            [
              -72.8000420002791,
              41.79182699986187
            ],
            [
              -72.79497300026861,
              41.74746800015979
            ],
            [
              -72.78219900004756,
              41.74822399983383
            ],
            [
              -72.77906400008024,
              41.73022200011749
            ],
            [
              -72.76247100017665,
              41.737702000235636
            ],
            [
              -72.75035700027969,
              41.650167000273186
            ],
            [
              -72.88338000006594,
              41.64942699996288
            ],
            [
              -72.89826999990504,
              41.72317699997577
            ],
            [
              -72.99854999957492,
              41.712497999848104
            ],
            [
              -72.98308399997565,
              41.639515999771874
            ],
            [
              -72.93850099959869,
              41.64431100025262
            ],
            [
              -72.9336440001986,
              41.607793999952435
            ],
            [
              -72.94634999974927,
              41.55679699992589
            ],
            [
              -72.883884999681,
              41.56381200013889
            ],
            [
              -72.86780999981127,
              41.54902800019635
            ],
            [
              -72.84427999997627,
              41.54472499975392
            ],
            [
              -72.848541000423,
              41.567329000103
            ],
            [
              -72.82764400041496,
              41.570999000237585
            ],
            [
              -72.81914499998605,
              41.554298000297955
            ],
            [
              -72.80124300020329,
              41.57309799982123
            ],
            [
              -72.75218099981969,
              41.57889399984668
            ],
            [
              -72.74887799962286,
              41.54427899972331
            ],
            [
              -72.65586399977241,
              41.56064799966653
            ],
            [
              -72.65033299980453,
              41.55258699968294
            ],
            [
              -72.64131299986701,
              41.56135999970296
            ],
            [
              -72.60945600003052,
              41.56285200004019
            ],
            [
              -72.56080200007594,
              41.55404900032205
            ],
            [
              -72.5576739997813,
              41.578037000318204
            ],
            [
              -72.54299400000448,
              41.59642399991128
            ],
            [
              -72.54448899965654,
              41.61581800025661
            ],
            [
              -72.53122800026206,
              41.62111200033348
            ],
            [
              -72.54423000008875,
              41.64269599986647
            ],
            [
              -72.63052399974276,
              41.633282000107094
            ],
            [
              -72.6280209996121,
              41.66603699983245
            ],
            [
              -72.55015799971666,
              41.67828499971535
            ],
            [
              -72.54041999972873,
              41.6909340001614
            ],
            [
              -72.61360799979899,
              41.72815699987529
            ],
            [
              -72.46389900022274,
              41.74557200023332
            ],
            [
              -72.47602900001321,
              41.812997000240074
            ],
            [
              -72.50753100002248,
              41.809697999772766
            ],
            [
              -72.49680999967029,
              41.86061599993096
            ],
            [
              -72.51853199985882,
              41.857173999797425
            ],
            [
              -72.51333700034996,
              41.94534600017127
            ],
            [
              -72.62343399965047,
              41.93429700008289
            ],
            [
              -72.6139459999078,
              41.94354199987343
            ],
            [
              -72.71616899984168,
              41.949803999839105
            ],
            [
              -72.70852200025577,
              41.97382900014113
            ],
            [
              -72.77841200015207,
              41.98944000004692
            ],
            [
              -72.77469100037884,
              42.002385000143235
            ],
            [
              -72.81705299975913,
              41.997685000102855
            ],
            [
              -72.8137839998975,
              42.03674400029586
            ],
            [
              -73.12722800014717,
              42.04212700021005
            ],
            [
              -73.20181499961,
              41.79014600005124
            ],
            [
              -73.20182999967861,
              41.79004599981924
            ]
          ]
        ]
      }
    },
    {
      "type": "Feature",
      "id": "us-cd:119:09:02",
      "properties": {
        "boundary_id": "us-cd:119:09:02",
        "boundary_type": "congressional_district",
        "name": "2",
        "stateFips": "09",
        "congress": 119,
        "district": "02",
        "bbox": [
          -72.77841200015207,
          41.247794999960824,
          -71.78821299982876,
          42.03634900028546
        ]
      },
      "geometry": {
        "type": "MultiPolygon",
        "coordinates": [
          [
            [
              [
                -72.77612300028166,
                41.99734900014737
              ],
              [
                -72.77841200015207,
                41.98944000004692
              ],
              [
                -72.70762199973218,
                41.973353000271764
              ],
              [
                -72.71616899984168,
                41.949803999839105
              ],
              [
                -72.6139459999078,
                41.94354199987343
              ],
              [
                -72.62343399965047,
                41.93429700008289
              ],
              [
                -72.51333700034996,
                41.94534600017127
              ],
              [
                -72.51853199985882,
                41.857173999797425
              ],
              [
                -72.49680999967029,
                41.86061599993096
              ],
              [
                -72.50753100002248,
                41.809697999772766
              ],
              [
                -72.47602900001321,
                41.812997000240074
              ],
              [
                -72.46389900022274,
                41.74557200023332
              ],
              [
                -72.61360799979899,
                41.72815699987529
              ],
              [
                -72.54013299967356,
                41.688200000021205
              ],
              [
                -72.55015799971666,
                41.67828499971535
              ],
              [
                -72.6245359998404,
                41.6683610002017
              ],
              [
                -72.63052399974276,
                41.633282000107094
              ],
              [
                -72.54423000008875,
                41.64269599986647
              ],
              [
                -72.52929000002094,
                41.617434999818435
              ],
              [
                -72.54448899965654,
                41.61581800025661
              ],
              [
                -72.54299400000448,
                41.59642399991128
              ],
              [
                -72.56276700008125,
                41.558427999918685
              ],
              [
                -72.55112799966211,
                41.542994000146706
              ],
              [
                -72.55491200008288,
                41.51104999986419
              ],
              [
                -72.6337010004412,
                41.50020100030488
              ],
              [
                -72.62790299961135,
                41.485414999967894
              ],
              [
                -72.6370389998998,
                41.463829000138894
              ],
              [
                -72.60895999973796,
                41.44308999986936
              ],
              [
                -72.67873900020452,
                41.43379700028526
              ],
              [
                -72.67496099963155,
                41.348565999869784
              ],
              [
                -72.63171200014645,
                41.30932500032506
              ],
              [
                -72.6490499998646,
                41.289205999901846
              ],
              [
                -72.6444319999408,
                41.280933000328595
              ],
              [
                -72.65450700021262,
                41.265696999807545
              ],
              [
                -72.58281999964217,
                41.27199499983721
              ],
              [
                -72.5446419998174,
                41.24871299997247
              ],
              [
                -72.52631800026022,
                41.25561900030564
              ],
              [
                -72.50174200031175,
                41.247794999960824
              ],
              [
                -72.48339399956683,
                41.262344000298754
              ],
              [
                -72.48704900011614,
                41.250142999841366
              ],
              [
                -72.38502899967355,
                41.253898000327126
              ],
              [
                -72.33932499973837,
                41.26196900013852
              ],
              [
                -72.33352699980681,
                41.27219799973436
              ],
              [
                -72.05005800012734,
                41.27661400019567
              ],
              [
                -71.92945100036182,
                41.31038699999655
              ],
              [
                -71.9072579999951,
                41.30448300028953
              ],
              [
                -71.89206699985712,
                41.330075000201894
              ],
              [
                -71.85745800036793,
                41.32078899970279
              ],
              [
                -71.82936499996238,
                41.342432000211026
              ],
              [
                -71.83787299971384,
                41.36014500017307
              ],
              [
                -71.83063700003166,
                41.37877199985332
              ],
              [
                -71.84359100017777,
                41.40533100030391
              ],
              [
                -71.82032999995627,
                41.419381999964514
              ],
              [
                -71.79774499995236,
                41.416726999672186
              ],
              [
                -71.78821299982876,
                41.62101699970599
              ],
              [
                -71.80067099968231,
                42.02351400030542
              ],
              [
                -72.53154899975411,
                42.034578000228784
              ],
              [
                -72.58216299969114,
                42.02474099975854
              ],
              [
                -72.75589400009532,
                42.03634900028546
              ],
              [
                -72.75674600004004,
                42.02160399980507
              ],
              [
                -72.76534199965504,
                42.022077999903885
              ],
              [
                -72.76150100023118,
                42.009302000017016
              ],
              [
                -72.7749859999316,
                42.00128000019642
              ],
              [
                -72.77612300028166,
                41.99734900014737
              ]
            ]
          ],
          [
            [
              [
                -72.60272099976545,
                41.266584000192665
              ],
              [
                -72.60274199968185,
                41.266457999717446
              ],
              [
                -72.60247999974104,
                41.26617799996647
              ],
              [
                -72.6024289996874,
                41.266106999667564
              ],
              [
                -72.60213699960936,
                41.26594400003972
              ],
              [
                -72.6019559998594,
                41.26584299990462
              ],
              [
                -72.60168700024587,
                41.26575599975659
              ],
              [
                -72.60144000037367,
                41.26572300008919
              ],
              [
                -72.6010980000669,
                41.26576099980702
              ],
              [
                -72.60100400035557,
                41.265811000290505
              ],
              [
                -72.60091599959371,
                41.26588200023604
              ],
              [
                -72.60089499967731,
                41.26598100029748
              ],
              [
                -72.60093099966232,
                41.266102000318824
              ],
              [
                -72.60101299967809,
                41.266188000002366
              ],
              [
                -72.6010620000819,
                41.2662390001616
              ],
              [
                -72.60122199991545,
                41.26647499970461
              ],
              [
                -72.60132400002271,
                41.26655700025603
              ],
              [
                -72.60158599996353,
                41.26667799988516
              ],
              [
                -72.6017099998121,
                41.26673300031768
              ],
              [
                -72.60205899979154,
                41.26674400026359
              ],
              [
                -72.60250300020556,
                41.266732000322534
              ],
              [
                -72.60260600013773,
                41.26667599989311
              ],
              [
                -72.6026549996432,
                41.26664999999094
              ],
              [
                -72.60272099976545,
                41.266584000192665
              ]
            ]
          ]
        ]
      }
    },
    {
      "type": "Feature",
      "id": "us-cd:119:09:03",
      "properties": {
        "boundary_id": "us-cd:119:09:03",
        "boundary_type": "congressional_district",
        "name": "3",
        "stateFips": "09",
        "congress": 119,
        "district": "03",
        "bbox": [
          -73.16548600033788,
          41.14659700028201,
          -72.55439300022411,
          41.56284199986607
        ]
      },
      "geometry": {
        "type": "Polygon",
        "coordinates": [
          [
            [
              -73.16548600033788,
              41.15502900022667
            ],
            [
              -73.09535200004409,
              41.14659700028201
            ],
            [
              -73.10777899993552,
              41.1686050001553
            ],
            [
              -73.08821699974595,
              41.187789999907785
            ],
            [
              -73.07364599974909,
              41.19656599980142
            ],
            [
              -73.05785000043693,
              41.18539700000227
            ],
            [
              -73.03754900028056,
              41.1950970000246
            ],
            [
              -73.0523010000274,
              41.210105999666055
            ],
            [
              -73.01622899977492,
              41.204283000260034
            ],
            [
              -73.00631400023501,
              41.21598000002822
            ],
            [
              -72.98434699982408,
              41.21889699970945
            ],
            [
              -72.9790469998349,
              41.23039700018467
            ],
            [
              -72.9867210000833,
              41.23542500012591
            ],
            [
              -72.97550199978873,
              41.23350499988692
            ],
            [
              -72.96200500039274,
              41.2514289996807
            ],
            [
              -72.92100700024491,
              41.269620000185526
            ],
            [
              -72.9310530002044,
              41.26642199972989
            ],
            [
              -72.93784899967052,
              41.281997000137075
            ],
            [
              -72.9059550000241,
              41.28270000005257
            ],
            [
              -72.89343199987323,
              41.258376999693354
            ],
            [
              -72.90508100033809,
              41.23912099971755
            ],
            [
              -72.86204000036713,
              41.23924899972261
            ],
            [
              -72.84669600006828,
              41.255072000084255
            ],
            [
              -72.83655100037458,
              41.2471039998667
            ],
            [
              -72.82655100044585,
              41.25580800021992
            ],
            [
              -72.8161509995857,
              41.23969599972135
            ],
            [
              -72.7842140002816,
              41.25539200019321
            ],
            [
              -72.76746099964612,
              41.25376000006392
            ],
            [
              -72.75942900009575,
              41.2397439997525
            ],
            [
              -72.73524099958647,
              41.25209600010283
            ],
            [
              -72.70625599995158,
              41.24368900030316
            ],
            [
              -72.68452799991525,
              41.25513800003667
            ],
            [
              -72.6786460003181,
              41.24450599987862
            ],
            [
              -72.67051099993726,
              41.248125000019634
            ],
            [
              -72.66685100026336,
              41.2597449998374
            ],
            [
              -72.67464599998729,
              41.26651300033527
            ],
            [
              -72.65450700021262,
              41.265696999807545
            ],
            [
              -72.6444319999408,
              41.280933000328595
            ],
            [
              -72.6490499998646,
              41.289205999901846
            ],
            [
              -72.63171200014645,
              41.30932500032506
            ],
            [
              -72.67496099963155,
              41.348565999869784
            ],
            [
              -72.67873900020452,
              41.43379700028526
            ],
            [
              -72.60895999973796,
              41.44308999986936
            ],
            [
              -72.6370389998998,
              41.463829000138894
            ],
            [
              -72.62790299961135,
              41.485414999967894
            ],
            [
              -72.6337010004412,
              41.50020100030488
            ],
            [
              -72.55491200008288,
              41.51104999986419
            ],
            [
              -72.55439300022411,
              41.55064600020498
            ],
            [
              -72.60990100026945,
              41.56284199986607
            ],
            [
              -72.74887799962286,
              41.54427899972331
            ],
            [
              -72.74478000028107,
              41.498182999840644
            ],
            [
              -72.85029899984075,
              41.515730999859755
            ],
            [
              -72.84633200002021,
              41.50275600008777
            ],
            [
              -72.88666700036923,
              41.447957000254
            ],
            [
              -72.95239200007829,
              41.46458899972344
            ],
            [
              -72.93464699975604,
              41.501245999916826
            ],
            [
              -72.94896199965987,
              41.52268199970717
            ],
            [
              -72.97831399971588,
              41.53392600022062
            ],
            [
              -73.00214999987266,
              41.52475400031796
            ],
            [
              -73.0264279998953,
              41.5462899997897
            ],
            [
              -73.04033600009336,
              41.54760799977824
            ],
            [
              -73.0636490001934,
              41.528296000003735
            ],
            [
              -73.08017000012694,
              41.534914999714644
            ],
            [
              -73.07011400012172,
              41.51430099989623
            ],
            [
              -73.09468500004732,
              41.513805000175175
            ],
            [
              -73.10462999972448,
              41.49139300019942
            ],
            [
              -73.10335500018049,
              41.48173699977016
            ],
            [
              -73.07736599969742,
              41.465189000012046
            ],
            [
              -73.0926980003007,
              41.413450000298226
            ],
            [
              -73.08358499957845,
              41.40376599985085
            ],
            [
              -73.11052599956533,
              41.398103999820506
            ],
            [
              -73.14755500024279,
              41.36769599991907
            ],
            [
              -73.12313199955688,
              41.33886099988778
            ],
            [
              -73.14923599966767,
              41.33358199975103
            ],
            [
              -73.14529399996147,
              41.320718999965194
            ],
            [
              -73.15413300014903,
              41.31325799992257
            ],
            [
              -73.1459719998289,
              41.29682699995782
            ],
            [
              -73.15856500029997,
              41.27844799990371
            ],
            [
              -73.14065099992332,
              41.23798700028209
            ],
            [
              -73.16266600001482,
              41.22083999971244
            ],
            [
              -73.1537719995757,
              41.1927160001879
            ],
            [
              -73.16467799987579,
              41.157227999914866
            ],
            [
              -73.16548600033788,
              41.15502900022667
            ]
          ]
        ]
      }
    },
    {
      "type": "Feature",
      "id": "us-cd:119:09:04",
      "properties": {
        "boundary_id": "us-cd:119:09:04",
        "boundary_type": "congressional_district",
        "name": "4",
        "stateFips": "09",
        "congress": 119,
        "district": "04",
        "bbox": [
          -73.72777499981095,
          40.95094299982573,
          -73.07736599969742,
          41.48940899989708
        ]
      },
      "geometry": {
        "type": "Polygon",
        "coordinates": [
          [
            [
              -73.72777499981095,
              41.10069600029421
            ],
            [
              -73.65525499956236,
              41.012246000096084
            ],
            [
              -73.6596709998198,
              40.98790900031883
            ],
            [
              -73.61288499978615,
              40.95094299982573
            ],
            [
              -73.45646000021138,
              40.98383599996151
            ],
            [
              -73.45645900038647,
              41.020448999779845
            ],
            [
              -73.39028100004259,
              41.02096100032946
            ],
            [
              -73.36846099994474,
              41.04729700008033
            ],
            [
              -73.3613609998067,
              41.07539599993935
            ],
            [
              -73.29555900010473,
              41.07959699974357
            ],
            [
              -73.29770900005799,
              41.12382300008179
            ],
            [
              -73.26425799993693,
              41.11449600018967
            ],
            [
              -73.23263499955385,
              41.14252200003068
            ],
            [
              -73.1657549999514,
              41.1542970000819
            ],
            [
              -73.1537719995757,
              41.1927160001879
            ],
            [
              -73.16266600001482,
              41.22083999971244
            ],
            [
              -73.14065099992332,
              41.23798700028209
            ],
            [
              -73.15856500029997,
              41.27844799990371
            ],
            [
              -73.1459719998289,
              41.29682699995782
            ],
            [
              -73.15413300014903,
              41.31325799992257
            ],
            [
              -73.14529399996147,
              41.320718999965194
            ],
            [
              -73.14923599966767,
              41.33358199975103
            ],
            [
              -73.12313199955688,
              41.33886099988778
            ],
            [
              -73.14755500024279,
              41.36769599991907
            ],
            [
              -73.11052599956533,
              41.398103999820506
            ],
            [
              -73.08358499957845,
              41.40376599985085
            ],
            [
              -73.0926980003007,
              41.413450000298226
            ],
            [
              -73.07736599969742,
              41.465189000012046
            ],
            [
              -73.10423399988936,
              41.4893959999786
            ],
            [
              -73.15788999990728,
              41.48940899989708
            ],
            [
              -73.16418499995629,
              41.448194000252784
            ],
            [
              -73.20768799988463,
              41.42054400025247
            ],
            [
              -73.18485699983344,
              41.40629599974968
            ],
            [
              -73.18326900029498,
              41.3917109998531
            ],
            [
              -73.1956190001935,
              41.38785700033187
            ],
            [
              -73.2022809997653,
              41.37205699968321
            ],
            [
              -73.22115800041476,
              41.364001999840454
            ],
            [
              -73.22907600016232,
              41.37032399984441
            ],
            [
              -73.33333699989643,
              41.31834300010091
            ],
            [
              -73.3470550001237,
              41.3504259997006
            ],
            [
              -73.47010200027066,
              41.3264209998114
            ],
            [
              -73.50644399996155,
              41.37740899993303
            ],
            [
              -73.54341599983931,
              41.376753999712356
            ],
            [
              -73.5509620000412,
              41.295420999998456
            ],
            [
              -73.48269499984343,
              41.21277200025087
            ],
            [
              -73.71376500040395,
              41.10724400009762
            ],
            [
              -73.72777499981095,
              41.10069600029421
            ]
          ]
        ]
      }
    },
    {
      "type": "Feature",
      "id": "us-cd:119:09:05",
      "properties": {
        "boundary_id": "us-cd:119:09:05",
        "boundary_type": "congressional_district",
        "name": "5",
        "stateFips": "09",
        "congress": 119,
        "district": "05",
        "bbox": [
          -73.54326400040165,
          41.31834300010091,
          -72.74478000028107,
          42.04952500007871
        ]
      },
      "geometry": {
        "type": "Polygon",
        "coordinates": [
          [
            [
              -73.54326400040165,
              41.37916900027283
            ],
            [
              -73.50644399996155,
              41.37740899993303
            ],
            [
              -73.47010200027066,
              41.3264209998114
            ],
            [
              -73.3470550001237,
              41.3504259997006
            ],
            [
              -73.33333699989643,
              41.31834300010091
            ],
            [
              -73.22907600016232,
              41.37032399984441
            ],
            [
              -73.22115800041476,
              41.364001999840454
            ],
            [
              -73.20236899962886,
              41.37197800017124
            ],
            [
              -73.1956190001935,
              41.38785700033187
            ],
            [
              -73.18326900029498,
              41.3917109998531
            ],
            [
              -73.18485699983344,
              41.40629599974968
            ],
            [
              -73.20768799988463,
              41.42054400025247
            ],
            [
              -73.16418499995629,
              41.448194000252784
            ],
            [
              -73.15788999990728,
              41.48940899989708
            ],
            [
              -73.10423399988936,
              41.4893959999786
            ],
            [
              -73.09468500004732,
              41.513805000175175
            ],
            [
              -73.07011400012172,
              41.51430099989623
            ],
            [
              -73.08358700012658,
              41.53167899969704
            ],
            [
              -73.0636490001934,
              41.528296000003735
            ],
            [
              -73.04347600008354,
              41.54754500019945
            ],
            [
              -73.0264279998953,
              41.5462899997897
            ],
            [
              -73.00214999987266,
              41.52475400031796
            ],
            [
              -72.97831399971588,
              41.53392600022062
            ],
            [
              -72.94896199965987,
              41.52268199970717
            ],
            [
              -72.93464699975604,
              41.501245999916826
            ],
            [
              -72.95239200007829,
              41.46458899972344
            ],
            [
              -72.88666700036923,
              41.447957000254
            ],
            [
              -72.84633200002021,
              41.50275600008777
            ],
            [
              -72.85029899984075,
              41.515730999859755
            ],
            [
              -72.74478000028107,
              41.498182999840644
            ],
            [
              -72.75218099981969,
              41.57889399984668
            ],
            [
              -72.80124300020329,
              41.57309799982123
            ],
            [
              -72.81914499998605,
              41.554298000297955
            ],
            [
              -72.82764400041496,
              41.570999000237585
            ],
            [
              -72.848541000423,
              41.567329000103
            ],
            [
              -72.84427999997627,
              41.54472499975392
            ],
            [
              -72.86780999981127,
              41.54902800019635
            ],
            [
              -72.883884999681,
              41.56381200013889
            ],
            [
              -72.94634999974927,
              41.55679699992589
            ],
            [
              -72.9336440001986,
              41.607793999952435
            ],
            [
              -72.93850099959869,
              41.64431100025262
            ],
            [
              -72.98308399997565,
              41.639515999771874
            ],
            [
              -72.99854999957492,
              41.712497999848104
            ],
            [
              -72.89826999990504,
              41.72317699997577
            ],
            [
              -72.88338000006594,
              41.64942699996288
            ],
            [
              -72.75035700027969,
              41.650167000273186
            ],
            [
              -72.76247100017665,
              41.737702000235636
            ],
            [
              -72.77906400008024,
              41.73022200011749
            ],
            [
              -72.78219900004756,
              41.74822399983383
            ],
            [
              -72.79497300026861,
              41.74746800015979
            ],
            [
              -72.8000420002791,
              41.79182699986187
            ],
            [
              -72.79855199975164,
              41.82488500030575
            ],
            [
              -72.78333600039763,
              41.82690700005599
            ],
            [
              -72.7844400002374,
              41.85569800003443
            ],
            [
              -72.75892899960522,
              41.908145000112896
            ],
            [
              -72.77058700029094,
              41.9180479997804
            ],
            [
              -72.90594499997836,
              41.92169599973499
            ],
            [
              -72.91534599968237,
              41.8967969999008
            ],
            [
              -72.94064700025226,
              41.89519599990143
            ],
            [
              -72.95384900009549,
              41.848452999845186
            ],
            [
              -72.9363480001707,
              41.839798000219155
            ],
            [
              -72.94902399958413,
              41.80643099992675
            ],
            [
              -73.08250800040118,
              41.79838899995184
            ],
            [
              -73.09318100017447,
              41.81540400017941
            ],
            [
              -73.14265600011161,
              41.80850899981653
            ],
            [
              -73.14016600039976,
              41.789240999770804
            ],
            [
              -73.1541380001719,
              41.7837049998865
            ],
            [
              -73.16318099967563,
              41.793992999789594
            ],
            [
              -73.2018360004247,
              41.79001399989959
            ],
            [
              -73.12722800014717,
              42.04212700021005
            ],
            [
              -73.487318999615,
              42.04952500007871
            ],
            [
              -73.54280900011699,
              41.38641799978247
            ],
            [
              -73.54326400040165,
              41.37916900027283
            ]
          ]
        ]
      }
    }
  ]
}
