{
  "type": "FeatureCollection",
  "features": [
    {
      "type": "Feature",
      "id": "us-cd:118:30:01",
      "properties": {
        "boundary_id": "us-cd:118:30:01",
        "boundary_type": "congressional_district",
        "name": "Congressional District 1",
        "stateFips": "30",
        "congress": 118,
        "district": "01",
        "bbox": [
          -116.049155,
          44.35997,
          -110.783833,
          49.000846
        ]
      },
      "geometry": {
        "type": "Polygon",
        "coordinates": [
          [
            [
              -116.049140153119,
              48.5020457243821
            ],
            [
              -116.049086,
              49.000846
            ],
            [
              -112.193409074978,
              48.9988999207963
            ],
            [
              -112.184784,
              48.477578
            ],
            [
              -112.159605,
              48.463641
            ],
            [
              -112.152396,
              48.471397
            ],
            [
              -112.133736,
              48.466861
            ],
            [
              -112.077584,
              48.435369
            ],
            [
              -112.073026,
              48.444071
            ],
            [
              -112.061146,
              48.442923
            ],
            [
              -112.07668,
              48.434973
            ],
            [
              -112.11289,
              48.448038
            ],
            [
              -112.134138,
              48.466646
            ],
            [
              -112.152528,
              48.471017
            ],
            [
              -112.16065,
              48.463442
            ],
            [
              -112.180268,
              48.47719
            ],
            [
              -112.228769,
              48.481885
            ],
            [
              -112.229207,
              48.457356
            ],
            [
              -112.267259,
              48.440133
            ],
            [
              -112.256869,
              48.429678
            ],
            [
              -112.295825,
              48.400546
            ],
            [
              -112.314558,
              48.403064
            ],
            [
              -112.312859,
              48.391067
            ],
            [
              -112.327823,
              48.390587
            ],
            [
              -112.323724,
              48.38446
            ],
            [
              -112.33837,
              48.370254
            ],
            [
              -112.331796,
              48.362088
            ],
            [
              -112.342638,
              48.357451
            ],
            [
              -112.142805,
              48.351464
            ],
            [
              -112.141469,
              48.342756
            ],
            [
              -112.099166,
              48.336869
            ],
            [
              -112.09174,
              48.308258
            ],
            [
              -112.047723,
              48.307736
            ],
            [
              -112.055551,
              48.303148
            ],
            [
              -112.055882,
              48.249811
            ],
            [
              -112.012405,
              48.235245
            ],
            [
              -112.005511,
              48.221077
            ],
            [
              -112.054857,
              48.234026
            ],
            [
              -112.070085,
              48.250196
            ],
            [
              -112.134563,
              48.252899
            ],
            [
              -112.150549,
              48.235548
            ],
            [
              -112.175447,
              48.236173
            ],
            [
              -112.213933,
              48.212916
            ],
            [
              -112.269338,
              48.199317
            ],
            [
              -112.269474,
              48.175018
            ],
            [
              -112.260254,
              48.163423
            ],
            [
              -112.264252,
              48.131346
            ],
            [
              -113.014811,
              48.13103
            ],
            [
              -112.983366,
              48.117761
            ],
            [
              -112.996088,
              48.106093
            ],
            [
              -112.978987,
              48.088847
            ],
            [
              -112.981771,
              48.07376
            ],
            [
              -112.963711,
              48.07491
            ],
            [
              -112.93777,
              48.060926
            ],
            [
              -112.950716,
              48.049976
            ],
            [
              -112.950029,
              48.033527
            ],
            [
              -112.90767,
              48.02959
            ],
            [
              -112.878701,
              47.977163
            ],
            [
              -112.897897,
              47.972453
            ],
            [
              -112.912591,
              47.946407
            ],
            [
              -112.951631,
              47.944814
            ],
            [
              -112.981758,
              47.955287
            ],
            [
              -113.013791,
              47.941483
            ],
            [
              -113.022115,
              47.927097
            ],
            [
              -113.086634,
              47.918182
            ],
            [
              -113.092519,
              47.896129
            ],
            [
              -113.063275,
              47.88564
            ],
            [
              -113.05813,
              47.870819
            ],
            [
              -113.058188,
              47.842496
            ],
            [
              -113.069335,
              47.829247
            ],
            [
              -113.059974,
              47.80806
            ],
            [
              -113.066451,
              47.776214
            ],
            [
              -113.082592,
              47.773063
            ],
            [
              -113.08527,
              47.747754
            ],
            [
              -113.137986,
              47.745786
            ],
            [
              -113.165555,
              47.727963
            ],
            [
              -113.157814,
              47.695788
            ],
            [
              -113.12847,
              47.661047
            ],
            [
              -113.130286,
              47.641577
            ],
            [
              -113.144481,
              47.637216
            ],
            [
              -113.135758,
              47.620321
            ],
            [
              -113.1472,
              47.602465
            ],
            [
              -113.117746,
              47.570473
            ],
            [
              -113.12583,
              47.541813
            ],
            [
              -113.118359,
              47.497896
            ],
            [
              -113.09172,
              47.48063
            ],
            [
              -113.059199,
              47.488599
            ],
            [
              -113.059053,
              47.17957
            ],
            [
              -112.795808,
              47.177004
            ],
            [
              -112.795642,
              46.831665
            ],
            [
              -112.535748,
              46.834234
            ],
            [
              -112.535597,
              46.699482
            ],
            [
              -112.410846,
              46.699505
            ],
            [
              -112.410638,
              46.656011
            ],
            [
              -112.320871,
              46.655927
            ],
            [
              -112.298531,
              46.625973
            ],
            [
              -112.293214,
              46.604389
            ],
            [
              -112.316705,
              46.574923
            ],
            [
              -112.293709,
              46.531128
            ],
            [
              -112.293443,
              46.51813
            ],
            [
              -112.30629,
              46.510393
            ],
            [
              -112.304536,
              46.450097
            ],
            [
              -112.320961,
              46.443545
            ],
            [
              -112.323443,
              46.43331
            ],
            [
              -112.312528,
              46.418388
            ],
            [
              -112.35006,
              46.385068
            ],
            [
              -112.403784,
              46.386566
            ],
            [
              -112.426093,
              46.36898
            ],
            [
              -112.426005,
              46.357464
            ],
            [
              -112.450408,
              46.351263
            ],
            [
              -112.454085,
              46.328932
            ],
            [
              -112.490621,
              46.3423
            ],
            [
              -112.503954,
              46.330196
            ],
            [
              -112.532675,
              46.335147
            ],
            [
              -112.556296,
              46.30747
            ],
            [
              -112.570046,
              46.304972
            ],
            [
              -112.559268,
              46.263318
            ],
            [
              -112.579659,
              46.241824
            ],
            [
              -112.598092,
              46.236547
            ],
            [
              -112.574278,
              46.214848
            ],
            [
              -112.582112,
              46.198686
            ],
            [
              -112.577106,
              46.178981
            ],
            [
              -112.540217,
              46.174792
            ],
            [
              -112.526201,
              46.184928
            ],
            [
              -112.505377,
              46.184317
            ],
            [
              -112.520093,
              46.137265
            ],
            [
              -112.503097,
              46.113672
            ],
            [
              -112.466304,
              46.092727
            ],
            [
              -112.470796,
              46.082497
            ],
            [
              -112.461793,
              46.07575
            ],
            [
              -112.476952,
              46.051715
            ],
            [
              -112.473131,
              46.039864
            ],
            [
              -112.444971,
              46.03378
            ],
            [
              -112.435848,
              46.014276
            ],
            [
              -112.445454,
              45.997803
            ],
            [
              -112.429902,
              45.958362
            ],
            [
              -112.436223,
              45.938992
            ],
            [
              -112.416328,
              45.922189
            ],
            [
              -112.421306,
              45.910998
            ],
            [
              -112.404349,
              45.888049
            ],
            [
              -112.430512,
              45.853859
            ],
            [
              -112.414212,
              45.836684
            ],
            [
              -112.273454,
              45.790899
            ],
            [
              -112.256343,
              45.771754
            ],
            [
              -112.214605,
              45.765553
            ],
            [
              -112.18538,
              45.747368
            ],
            [
              -112.136621,
              45.771722
            ],
            [
              -112.133236,
              45.788036
            ],
            [
              -112.112238,
              45.805518
            ],
            [
              -112.11796,
              45.83411
            ],
            [
              -112.095857,
              45.83847
            ],
            [
              -112.085801,
              45.851101
            ],
            [
              -112.046667,
              45.849547
            ],
            [
              -112.038751,
              45.858232
            ],
            [
              -111.984039,
              45.846493
            ],
            [
              -111.930143,
              45.857621
            ],
            [
              -111.90958,
              45.839006
            ],
            [
              -111.910327,
              45.828563
            ],
            [
              -111.884542,
              45.830597
            ],
            [
              -111.872147,
              45.818027
            ],
            [
              -111.810637,
              45.812938
            ],
            [
              -111.801743,
              45.79536
            ],
            [
              -111.755855,
              45.804233
            ],
            [
              -111.705467,
              45.795738
            ],
            [
              -111.680834,
              45.821582
            ],
            [
              -111.662479,
              45.826869
            ],
            [
              -111.650467,
              45.850933
            ],
            [
              -111.637365,
              45.84872
            ],
            [
              -111.636982,
              45.861396
            ],
            [
              -111.625736,
              45.861772
            ],
            [
              -111.587696,
              45.906682
            ],
            [
              -111.54497,
              45.910777
            ],
            [
              -111.53474,
              45.924144
            ],
            [
              -111.507261,
              45.925855
            ],
            [
              -111.471285,
              45.951475
            ],
            [
              -111.458936,
              45.99828
            ],
            [
              -111.442899,
              45.990694
            ],
            [
              -111.419618,
              45.996322
            ],
            [
              -111.42158,
              46.015707
            ],
            [
              -111.429596,
              46.018975
            ],
            [
              -111.423831,
              46.061951
            ],
            [
              -111.391238,
              46.092087
            ],
            [
              -111.398521,
              46.105849
            ],
            [
              -111.38408,
              46.104219
            ],
            [
              -111.349372,
              46.122607
            ],
            [
              -111.346652,
              46.187785
            ],
            [
              -110.783833,
              46.192699
            ],
            [
              -110.784031,
              46.141826
            ],
            [
              -110.790767,
              46.141846
            ],
            [
              -110.794774,
              45.590682
            ],
            [
              -110.857382,
              45.59065
            ],
            [
              -110.858252,
              45.524879
            ],
            [
              -110.919222,
              45.524861
            ],
            [
              -110.917899,
              45.351273
            ],
            [
              -111.038169,
              45.351391
            ],
            [
              -111.045066048714,
              45.0009308540398
            ],
            [
              -111.054556,
              45.000955
            ],
            [
              -111.052434,
              44.478411
            ],
            [
              -111.127383,
              44.49762
            ],
            [
              -111.138618,
              44.516854
            ],
            [
              -111.131382,
              44.532429
            ],
            [
              -111.173755,
              44.549333
            ],
            [
              -111.18103,
              44.569231
            ],
            [
              -111.227504,
              44.577172
            ],
            [
              -111.240332,
              44.613687
            ],
            [
              -111.220145,
              44.622996
            ],
            [
              -111.253183,
              44.651173
            ],
            [
              -111.278477,
              44.651265
            ],
            [
              -111.266804,
              44.667512
            ],
            [
              -111.322484,
              44.718776
            ],
            [
              -111.323052,
              44.728555
            ],
            [
              -111.355153,
              44.727195
            ],
            [
              -111.385106,
              44.754898
            ],
            [
              -111.397362,
              44.746847
            ],
            [
              -111.397759,
              44.724077
            ],
            [
              -111.414273,
              44.710739
            ],
            [
              -111.442733,
              44.720232
            ],
            [
              -111.488784,
              44.705643
            ],
            [
              -111.484898,
              44.687578
            ],
            [
              -111.468514,
              44.678733
            ],
            [
              -111.476511,
              44.673724
            ],
            [
              -111.472255,
              44.666896
            ],
            [
              -111.491934,
              44.643134
            ],
            [
              -111.516167,
              44.644059
            ],
            [
              -111.502489,
              44.62682
            ],
            [
              -111.521585,
              44.615021
            ],
            [
              -111.522646,
              44.59025
            ],
            [
              -111.50134,
              44.57249
            ],
            [
              -111.507408,
              44.562079
            ],
            [
              -111.469318,
              44.557552
            ],
            [
              -111.468269,
              44.538976
            ],
            [
              -111.51527,
              44.537016
            ],
            [
              -111.547052,
              44.557176
            ],
            [
              -111.586507,
              44.562657
            ],
            [
              -111.612669,
              44.548768
            ],
            [
              -111.701745,
              44.559952
            ],
            [
              -111.715648,
              44.543369
            ],
            [
              -111.746401,
              44.540766
            ],
            [
              -111.761601,
              44.5268
            ],
            [
              -111.801119,
              44.525985
            ],
            [
              -111.808102,
              44.511177
            ],
            [
              -111.82153,
              44.508941
            ],
            [
              -111.868756,
              44.565834
            ],
            [
              -111.947047,
              44.556978
            ],
            [
              -111.977455,
              44.535837
            ],
            [
              -112.032707,
              44.546642
            ],
            [
              -112.032386,
              44.528725
            ],
            [
              -112.069583,
              44.536901
            ],
            [
              -112.106755,
              44.520829
            ],
            [
              -112.137075,
              44.539767
            ],
            [
              -112.183937,
              44.533067
            ],
            [
              -112.221698,
              44.543519
            ],
            [
              -112.229342,
              44.564108
            ],
            [
              -112.242785,
              44.568091
            ],
            [
              -112.286041,
              44.568605
            ],
            [
              -112.312899,
              44.553536
            ],
            [
              -112.319198,
              44.53911
            ],
            [
              -112.35421,
              44.535638
            ],
            [
              -112.358483,
              44.485736
            ],
            [
              -112.387339,
              44.447597
            ],
            [
              -112.406709,
              44.457251
            ],
            [
              -112.432982,
              44.454452
            ],
            [
              -112.472041,
              44.4791
            ],
            [
              -112.500189,
              44.462963
            ],
            [
              -112.541712,
              44.483771
            ],
            [
              -112.66357,
              44.486249
            ],
            [
              -112.71911,
              44.504344
            ],
            [
              -112.744163,
              44.488241
            ],
            [
              -112.779844,
              44.484613
            ],
            [
              -112.839427,
              44.425119
            ],
            [
              -112.811106,
              44.398878
            ],
            [
              -112.813153,
              44.376697
            ],
            [
              -112.855086,
              44.35997
            ],
            [
              -112.88152,
              44.379629
            ],
            [
              -112.889154,
              44.405205
            ],
            [
              -112.902662,
              44.399101
            ],
            [
              -112.93958,
              44.412502
            ],
            [
              -113.005059,
              44.45372
            ],
            [
              -113.006702,
              44.471651
            ],
            [
              -113.0265,
              44.494593
            ],
            [
              -113.007952,
              44.52718
            ],
            [
              -113.04422,
              44.54337
            ],
            [
              -113.037792,
              44.565083
            ],
            [
              -113.087542,
              44.59951
            ],
            [
              -113.049808,
              44.629066
            ],
            [
              -113.065589,
              44.649253
            ],
            [
              -113.067761,
              44.678786
            ],
            [
              -113.097833,
              44.698868
            ],
            [
              -113.101597,
              44.729388
            ],
            [
              -113.13428,
              44.752267
            ],
            [
              -113.131831,
              44.773038
            ],
            [
              -113.163409,
              44.778779
            ],
            [
              -113.190334,
              44.79979
            ],
            [
              -113.247603,
              44.822861
            ],
            [
              -113.341822,
              44.784944
            ],
            [
              -113.354435,
              44.793032
            ],
            [
              -113.3461,
              44.800611
            ],
            [
              -113.356062,
              44.819798
            ],
            [
              -113.377115,
              44.834829
            ],
            [
              -113.421579,
              44.837554
            ],
            [
              -113.42875,
              44.854213
            ],
            [
              -113.455071,
              44.865424
            ],
            [
              -113.4612,
              44.886754
            ],
            [
              -113.477988,
              44.895222
            ],
            [
              -113.471948,
              44.909456
            ],
            [
              -113.498373,
              44.941685
            ],
            [
              -113.444388,
              44.958745
            ],
            [
              -113.44663,
              44.99782
            ],
            [
              -113.437882,
              45.007343
            ],
            [
              -113.45579,
              45.040169
            ],
            [
              -113.452044,
              45.059174
            ],
            [
              -113.485308,
              45.063547
            ],
            [
              -113.487097,
              45.074652
            ],
            [
              -113.522502,
              45.091736
            ],
            [
              -113.506908,
              45.106918
            ],
            [
              -113.510262,
              45.115476
            ],
            [
              -113.550071,
              45.113043
            ],
            [
              -113.569821,
              45.124299
            ],
            [
              -113.576632,
              45.131518
            ],
            [
              -113.565407,
              45.148743
            ],
            [
              -113.590707,
              45.155886
            ],
            [
              -113.591911,
              45.184187
            ],
            [
              -113.692485,
              45.26344
            ],
            [
              -113.680834,
              45.279304
            ],
            [
              -113.738056,
              45.328372
            ],
            [
              -113.740172,
              45.343993
            ],
            [
              -113.729651,
              45.355717
            ],
            [
              -113.738879,
              45.36813
            ],
            [
              -113.734402,
              45.392353
            ],
            [
              -113.776043,
              45.408477
            ],
            [
              -113.760146,
              45.427436
            ],
            [
              -113.776809,
              45.435049
            ],
            [
              -113.774777,
              45.447178
            ],
            [
              -113.783541,
              45.451978
            ],
            [
              -113.776364,
              45.47042
            ],
            [
              -113.759986,
              45.480735
            ],
            [
              -113.772669,
              45.514255
            ],
            [
              -113.766555,
              45.520906
            ],
            [
              -113.834459,
              45.521092
            ],
            [
              -113.820873,
              45.56606
            ],
            [
              -113.797133,
              45.582115
            ],
            [
              -113.807405,
              45.602783
            ],
            [
              -113.861232,
              45.623589
            ],
            [
              -113.903684,
              45.621591
            ],
            [
              -113.895237,
              45.643391
            ],
            [
              -113.91948,
              45.65786
            ],
            [
              -113.93526,
              45.694341
            ],
            [
              -113.96188,
              45.689718
            ],
            [
              -113.971507,
              45.702712
            ],
            [
              -113.988075,
              45.705721
            ],
            [
              -114.015482,
              45.695901
            ],
            [
              -114.014824,
              45.683508
            ],
            [
              -114.027399,
              45.675753
            ],
            [
              -114.015327,
              45.663421
            ],
            [
              -114.018783,
              45.648496
            ],
            [
              -114.066962,
              45.627967
            ],
            [
              -114.086584,
              45.59118
            ],
            [
              -114.121607,
              45.584319
            ],
            [
              -114.136182,
              45.557019
            ],
            [
              -114.180652,
              45.550695
            ],
            [
              -114.192226,
              45.537081
            ],
            [
              -114.248354,
              45.545408
            ],
            [
              -114.247064,
              45.525156
            ],
            [
              -114.270449,
              45.484423
            ],
            [
              -114.329578,
              45.459973
            ],
            [
              -114.344184,
              45.459683
            ],
            [
              -114.366138,
              45.490982
            ],
            [
              -114.424683,
              45.509911
            ],
            [
              -114.430574,
              45.52951
            ],
            [
              -114.463942,
              45.545365
            ],
            [
              -114.457824,
              45.561711
            ],
            [
              -114.49826,
              45.555488
            ],
            [
              -114.52756,
              45.570824
            ],
            [
              -114.564974,
              45.557807
            ],
            [
              -114.552956,
              45.576603
            ],
            [
              -114.558325,
              45.584278
            ],
            [
              -114.538471,
              45.605764
            ],
            [
              -114.563987,
              45.637621
            ],
            [
              -114.509065,
              45.656806
            ],
            [
              -114.499049,
              45.67874
            ],
            [
              -114.514993,
              45.685032
            ],
            [
              -114.495385,
              45.703055
            ],
            [
              -114.504175,
              45.721659
            ],
            [
              -114.546527,
              45.742991
            ],
            [
              -114.5441,
              45.758447
            ],
            [
              -114.566465,
              45.77331
            ],
            [
              -114.5144,
              45.827131
            ],
            [
              -114.509303,
              45.845531
            ],
            [
              -114.474891,
              45.846585
            ],
            [
              -114.438348,
              45.862555
            ],
            [
              -114.410706,
              45.851824
            ],
            [
              -114.3873,
              45.88775
            ],
            [
              -114.431396,
              45.93604
            ],
            [
              -114.402524,
              45.957944
            ],
            [
              -114.411755,
              45.97787
            ],
            [
              -114.457496,
              45.997369
            ],
            [
              -114.479992,
              45.992902
            ],
            [
              -114.487783,
              46.003646
            ],
            [
              -114.473474,
              46.013057
            ],
            [
              -114.480505,
              46.030424
            ],
            [
              -114.507419,
              46.031861
            ],
            [
              -114.493475,
              46.052402
            ],
            [
              -114.469438,
              46.06183
            ],
            [
              -114.460475,
              46.09779
            ],
            [
              -114.475178,
              46.113179
            ],
            [
              -114.520513,
              46.12491
            ],
            [
              -114.527096,
              46.146218
            ],
            [
              -114.514676,
              46.153581
            ],
            [
              -114.514977,
              46.167415
            ],
            [
              -114.475953,
              46.160606
            ],
            [
              -114.444091,
              46.169273
            ],
            [
              -114.448564,
              46.232964
            ],
            [
              -114.468254,
              46.248796
            ],
            [
              -114.47072,
              46.266041
            ],
            [
              -114.425441,
              46.287856
            ],
            [
              -114.432796,
              46.3061
            ],
            [
              -114.414259,
              46.335483
            ],
            [
              -114.410493,
              46.365143
            ],
            [
              -114.422212,
              46.387331
            ],
            [
              -114.38503,
              46.411229
            ],
            [
              -114.381377,
              46.433879
            ],
            [
              -114.368541,
              46.437959
            ],
            [
              -114.384052,
              46.446517
            ],
            [
              -114.379799,
              46.460719
            ],
            [
              -114.400672,
              46.477813
            ],
            [
              -114.40255,
              46.500207
            ],
            [
              -114.359683,
              46.504925
            ],
            [
              -114.342794,
              46.518257
            ],
            [
              -114.347221,
              46.552421
            ],
            [
              -114.329788,
              46.57722
            ],
            [
              -114.343733,
              46.590456
            ],
            [
              -114.322537,
              46.611284
            ],
            [
              -114.321118,
              46.647514
            ],
            [
              -114.358528,
              46.670697
            ],
            [
              -114.424424,
              46.660648
            ],
            [
              -114.453477,
              46.649209
            ],
            [
              -114.467095,
              46.631764
            ],
            [
              -114.541304,
              46.649656
            ],
            [
              -114.583385,
              46.633227
            ],
            [
              -114.605269,
              46.635822
            ],
            [
              -114.61415,
              46.639059
            ],
            [
              -114.614464,
              46.654677
            ],
            [
              -114.635779,
              46.659476
            ],
            [
              -114.633468,
              46.672354
            ],
            [
              -114.642246,
              46.673618
            ],
            [
              -114.623169,
              46.691638
            ],
            [
              -114.621526,
              46.707879
            ],
            [
              -114.664572,
              46.739084
            ],
            [
              -114.698594,
              46.740451
            ],
            [
              -114.713923,
              46.715061
            ],
            [
              -114.767272,
              46.697195
            ],
            [
              -114.788555,
              46.713661
            ],
            [
              -114.765578,
              46.745623
            ],
            [
              -114.76519,
              46.758254
            ],
            [
              -114.783634,
              46.768666
            ],
            [
              -114.784838,
              46.780019
            ],
            [
              -114.829613,
              46.782967
            ],
            [
              -114.865779,
              46.814529
            ],
            [
              -114.895189,
              46.80163
            ],
            [
              -114.898236,
              46.822001
            ],
            [
              -114.920731,
              46.827083
            ],
            [
              -114.928853,
              46.854935
            ],
            [
              -114.948039,
              46.85964
            ],
            [
              -114.931608,
              46.876799
            ],
            [
              -114.936724,
              46.897329
            ],
            [
              -114.925295,
              46.918749
            ],
            [
              -114.960964,
              46.930408
            ],
            [
              -115.001274,
              46.971901
            ],
            [
              -115.048383,
              46.969819
            ],
            [
              -115.067301,
              46.994989
            ],
            [
              -115.071728,
              47.025855
            ],
            [
              -115.087602,
              47.045789
            ],
            [
              -115.131134,
              47.068956
            ],
            [
              -115.144341,
              47.101977
            ],
            [
              -115.172175,
              47.107151
            ],
            [
              -115.199059,
              47.139622
            ],
            [
              -115.245265,
              47.151751
            ],
            [
              -115.262422,
              47.181687
            ],
            [
              -115.300504,
              47.188139
            ],
            [
              -115.291579,
              47.210001
            ],
            [
              -115.324369,
              47.244724
            ],
            [
              -115.320147,
              47.2567
            ],
            [
              -115.412079,
              47.264602
            ],
            [
              -115.425967,
              47.280278
            ],
            [
              -115.453683,
              47.277391
            ],
            [
              -115.466691,
              47.287173
            ],
            [
              -115.483637,
              47.282134
            ],
            [
              -115.528511,
              47.299314
            ],
            [
              -115.538835,
              47.329059
            ],
            [
              -115.550179,
              47.333741
            ],
            [
              -115.549074,
              47.347205
            ],
            [
              -115.575047,
              47.355875
            ],
            [
              -115.577639,
              47.367404
            ],
            [
              -115.615401,
              47.381943
            ],
            [
              -115.642921,
              47.377367
            ],
            [
              -115.657304,
              47.400208
            ],
            [
              -115.712021,
              47.415406
            ],
            [
              -115.721435,
              47.425714
            ],
            [
              -115.759304,
              47.423862
            ],
            [
              -115.747933,
              47.441675
            ],
            [
              -115.717039,
              47.452575
            ],
            [
              -115.640133,
              47.459714
            ],
            [
              -115.629974,
              47.479633
            ],
            [
              -115.686264,
              47.48494
            ],
            [
              -115.690064,
              47.500794
            ],
            [
              -115.711398,
              47.516771
            ],
            [
              -115.698724,
              47.531653
            ],
            [
              -115.755663,
              47.5483
            ],
            [
              -115.68855,
              47.594333
            ],
            [
              -115.697217,
              47.603741
            ],
            [
              -115.694444,
              47.623761
            ],
            [
              -115.730393,
              47.642331
            ],
            [
              -115.736497,
              47.654738
            ],
            [
              -115.723803,
              47.696096
            ],
            [
              -115.753026,
              47.71695
            ],
            [
              -115.773957,
              47.717904
            ],
            [
              -115.784258,
              47.729963
            ],
            [
              -115.780853,
              47.742472
            ],
            [
              -115.797332,
              47.757128
            ],
            [
              -115.831944,
              47.755983
            ],
            [
              -115.847487,
              47.785227
            ],
            [
              -115.852312,
              47.827857
            ],
            [
              -115.88123,
              47.84935
            ],
            [
              -115.901401,
              47.843097
            ],
            [
              -115.918772,
              47.853656
            ],
            [
              -116.019758,
              47.96324
            ],
            [
              -116.049108,
              47.976842
            ],
            [
              -116.049155,
              48.481247
            ],
            [
              -116.049140153119,
              48.5020457243821
            ]
          ]
        ]
      }
    },
    {
      "type": "Feature",
      "id": "us-cd:118:30:02",
      "properties": {
        "boundary_id": "us-cd:118:30:02",
        "boundary_type": "congressional_district",
        "name": "Congressional District 2",
        "stateFips": "30",
        "congress": 118,
        "district": "02",
        "bbox": [
          -113.165811,
          44.992174,
          -104.039694,
          48.999877
        ]
      },
      "geometry": {
        "type": "Polygon",
        "coordinates": [
          [
            [
              -113.165339,
              47.7224
            ],
            [
              -113.137986,
              47.745786
            ],
            [
              -113.080997,
              47.749917
            ],
            [
              -113.082592,
              47.773063
            ],
            [
              -113.066451,
              47.776214
            ],
            [
              -113.061498,
              47.78816
            ],
            [
              -113.069335,
              47.829247
            ],
            [
              -113.058188,
              47.842496
            ],
            [
              -113.05813,
              47.870819
            ],
            [
              -113.063275,
              47.88564
            ],
            [
              -113.092519,
              47.896129
            ],
            [
              -113.086634,
              47.918182
            ],
            [
              -113.022115,
              47.927097
            ],
            [
              -113.013791,
              47.941483
            ],
            [
              -112.981758,
              47.955287
            ],
            [
              -112.951631,
              47.944814
            ],
            [
              -112.912591,
              47.946407
            ],
            [
              -112.897897,
              47.972453
            ],
            [
              -112.878931,
              47.975713
            ],
            [
              -112.90767,
              48.02959
            ],
            [
              -112.950029,
              48.033527
            ],
            [
              -112.950716,
              48.049976
            ],
            [
              -112.93777,
              48.060926
            ],
            [
              -112.963711,
              48.07491
            ],
            [
              -112.981771,
              48.07376
            ],
            [
              -112.978987,
              48.088847
            ],
            [
              -112.996088,
              48.106093
            ],
            [
              -112.984927,
              48.120455
            ],
            [
              -113.014811,
              48.13103
            ],
            [
              -112.264252,
              48.131346
            ],
            [
              -112.260254,
              48.163423
            ],
            [
              -112.269474,
              48.175018
            ],
            [
              -112.269338,
              48.199317
            ],
            [
              -112.213933,
              48.212916
            ],
            [
              -112.175447,
              48.236173
            ],
            [
              -112.150549,
              48.235548
            ],
            [
              -112.134563,
              48.252899
            ],
            [
              -112.070085,
              48.250196
            ],
            [
              -112.054857,
              48.234026
            ],
            [
              -112.005511,
              48.221077
            ],
            [
              -112.012405,
              48.235245
            ],
            [
              -112.055882,
              48.249811
            ],
            [
              -112.055551,
              48.303148
            ],
            [
              -112.047723,
              48.307736
            ],
            [
              -112.09174,
              48.308258
            ],
            [
              -112.099166,
              48.336869
            ],
            [
              -112.141469,
              48.342756
            ],
            [
              -112.142805,
              48.351464
            ],
            [
              -112.342638,
              48.357451
            ],
            [
              -112.331796,
              48.362088
            ],
            [
              -112.33837,
              48.370254
            ],
            [
              -112.323724,
              48.38446
            ],
            [
              -112.327823,
              48.390587
            ],
            [
              -112.312859,
              48.391067
            ],
            [
              -112.314558,
              48.403064
            ],
            [
              -112.295825,
              48.400546
            ],
            [
              -112.256869,
              48.429678
            ],
            [
              -112.267259,
              48.440133
            ],
            [
              -112.229207,
              48.457356
            ],
            [
              -112.228769,
              48.481885
            ],
            [
              -112.180268,
              48.47719
            ],
            [
              -112.16065,
              48.463442
            ],
            [
              -112.152528,
              48.471017
            ],
            [
              -112.134138,
              48.466646
            ],
            [
              -112.11289,
              48.448038
            ],
            [
              -112.07668,
              48.434973
            ],
            [
              -112.061146,
              48.442923
            ],
            [
              -112.073026,
              48.444071
            ],
            [
              -112.077584,
              48.435369
            ],
            [
              -112.133736,
              48.466861
            ],
            [
              -112.152396,
              48.471397
            ],
            [
              -112.159605,
              48.463641
            ],
            [
              -112.184784,
              48.477578
            ],
            [
              -112.193409074978,
              48.9988999207963
            ],
            [
              -104.048736,
              48.999877
            ],
            [
              -104.039694,
              44.99807
            ],
            [
              -105.913149,
              45.000238
            ],
            [
              -105.928174,
              44.993487
            ],
            [
              -106.085879,
              44.993463
            ],
            [
              -109.082849,
              44.999551
            ],
            [
              -109.103228,
              45.005815
            ],
            [
              -110.105776,
              45.003533
            ],
            [
              -110.704476,
              44.992174
            ],
            [
              -110.790119,
              45.000883
            ],
            [
              -111.045066048714,
              45.0009308540398
            ],
            [
              -111.038169,
              45.351391
            ],
            [
              -110.917899,
              45.351273
            ],
            [
              -110.919222,
              45.524861
            ],
            [
              -110.858252,
              45.524879
            ],
            [
              -110.857382,
              45.59065
            ],
            [
              -110.794774,
              45.590682
            ],
            [
              -110.790767,
              46.141846
            ],
            [
              -110.784031,
              46.141826
            ],
            [
              -110.783833,
              46.192699
            ],
            [
              -111.346652,
              46.187785
            ],
            [
              -111.349372,
              46.122607
            ],
            [
              -111.38408,
              46.104219
            ],
            [
              -111.398521,
              46.105849
            ],
            [
              -111.391238,
              46.092087
            ],
            [
              -111.423831,
              46.061951
            ],
            [
              -111.429596,
              46.018975
            ],
            [
              -111.42158,
              46.015707
            ],
            [
              -111.419618,
              45.996322
            ],
            [
              -111.442899,
              45.990694
            ],
            [
              -111.458936,
              45.99828
            ],
            [
              -111.471285,
              45.951475
            ],
            [
              -111.507261,
              45.925855
            ],
            [
              -111.53474,
              45.924144
            ],
            [
              -111.54497,
              45.910777
            ],
            [
              -111.587696,
              45.906682
            ],
            [
              -111.625736,
              45.861772
            ],
            [
              -111.636982,
              45.861396
            ],
            [
              -111.637365,
              45.84872
            ],
            [
              -111.650467,
              45.850933
            ],
            [
              -111.662479,
              45.826869
            ],
            [
              -111.680834,
              45.821582
            ],
            [
              -111.705467,
              45.795738
            ],
            [
              -111.755855,
              45.804233
            ],
            [
              -111.801743,
              45.79536
            ],
            [
              -111.810637,
              45.812938
            ],
            [
              -111.872147,
              45.818027
            ],
            [
              -111.884542,
              45.830597
            ],
            [
              -111.910327,
              45.828563
            ],
            [
              -111.90958,
              45.839006
            ],
            [
              -111.930143,
              45.857621
            ],
            [
              -111.984039,
              45.846493
            ],
            [
              -112.038751,
              45.858232
            ],
            [
              -112.046667,
              45.849547
            ],
            [
              -112.085801,
              45.851101
            ],
            [
              -112.095857,
              45.83847
            ],
            [
              -112.11796,
              45.83411
            ],
            [
              -112.112238,
              45.805518
            ],
            [
              -112.133236,
              45.788036
            ],
            [
              -112.136621,
              45.771722
            ],
            [
              -112.18538,
              45.747368
            ],
            [
              -112.214605,
              45.765553
            ],
            [
              -112.256343,
              45.771754
            ],
            [
              -112.273454,
              45.790899
            ],
            [
              -112.426464,
              45.843725
            ],
            [
              -112.430512,
              45.853859
            ],
            [
              -112.404349,
              45.888049
            ],
            [
              -112.421306,
              45.910998
            ],
            [
              -112.416328,
              45.922189
            ],
            [
              -112.436223,
              45.938992
            ],
            [
              -112.429902,
              45.958362
            ],
            [
              -112.445454,
              45.997803
            ],
            [
              -112.435848,
              46.014276
            ],
            [
              -112.441988,
              46.029479
            ],
            [
              -112.472255,
              46.039063
            ],
            [
              -112.476952,
              46.051715
            ],
            [
              -112.461793,
              46.07575
            ],
            [
              -112.470796,
              46.082497
            ],
            [
              -112.466304,
              46.092727
            ],
            [
              -112.503097,
              46.113672
            ],
            [
              -112.520093,
              46.137265
            ],
            [
              -112.505377,
              46.184317
            ],
            [
              -112.526201,
              46.184928
            ],
            [
              -112.540217,
              46.174792
            ],
            [
              -112.577106,
              46.178981
            ],
            [
              -112.582112,
              46.198686
            ],
            [
              -112.574278,
              46.214848
            ],
            [
              -112.598092,
              46.236547
            ],
            [
              -112.579659,
              46.241824
            ],
            [
              -112.559268,
              46.263318
            ],
            [
              -112.570046,
              46.304972
            ],
            [
              -112.556296,
              46.30747
            ],
            [
              -112.532675,
              46.335147
            ],
            [
              -112.503954,
              46.330196
            ],
            [
              -112.490621,
              46.3423
            ],
            [
              -112.454085,
              46.328932
            ],
            [
              -112.450408,
              46.351263
            ],
            [
              -112.426005,
              46.357464
            ],
            [
              -112.426093,
              46.36898
            ],
            [
              -112.403784,
              46.386566
            ],
            [
              -112.35006,
              46.385068
            ],
            [
              -112.312528,
              46.418388
            ],
            [
              -112.323443,
              46.43331
            ],
            [
              -112.320961,
              46.443545
            ],
            [
              -112.304536,
              46.450097
            ],
            [
              -112.30629,
              46.510393
            ],
            [
              -112.293443,
              46.51813
            ],
            [
              -112.293709,
              46.531128
            ],
            [
              -112.316705,
              46.574923
            ],
            [
              -112.293214,
              46.604389
            ],
            [
              -112.298531,
              46.625973
            ],
            [
              -112.320871,
              46.655927
            ],
            [
              -112.410638,
              46.656011
            ],
            [
              -112.410846,
              46.699505
            ],
            [
              -112.535597,
              46.699482
            ],
            [
              -112.535748,
              46.834234
            ],
            [
              -112.795642,
              46.831665
            ],
            [
              -112.795808,
              47.177004
            ],
            [
              -113.059053,
              47.17957
            ],
            [
              -113.059199,
              47.488599
            ],
            [
              -113.09172,
              47.48063
            ],
            [
              -113.118359,
              47.497896
            ],
            [
              -113.12583,
              47.541813
            ],
            [
              -113.117746,
              47.570473
            ],
            [
              -113.1472,
              47.602465
            ],
            [
              -113.135758,
              47.620321
            ],
            [
              -113.144481,
              47.637216
            ],
            [
              -113.130286,
              47.641577
            ],
            [
              -113.12847,
              47.661047
            ],
            [
              -113.146412,
              47.676472
            ],
            [
              -113.165811,
              47.719764
            ],
            [
              -113.165339,
              47.7224
            ]
          ]
        ]
      }
    }
  ]
}
