{
  "type": "FeatureCollection",
  "features": [
    {
      "type": "Feature",
      "id": "us-cd:119:32:01",
      "properties": {
        "boundary_id": "us-cd:119:32:01",
        "boundary_type": "congressional_district",
        "name": "1",
        "stateFips": "32",
        "congress": 119,
        "district": "01",
        "bbox": [
          -115.21638799999789,
          35.588319000138576,
          -114.65392700009737,
          36.21820799964128
        ]
      },
      "geometry": {
        "type": "Polygon",
        "coordinates": [
          [
            [
              -115.21638799999789,
              35.897284000271455
            ],
            [
              -115.20704900021813,
              35.89728799969821
            ],
            [
              -115.20727799964867,
              35.590276000050785
            ],
            [
              -114.65882399968041,
              35.588319000138576
            ],
            [
              -114.65392700009737,
              35.61173899992506
            ],
            [
              -114.68950700025526,
              35.65142899999577
            ],
            [
              -114.6809969999557,
              35.68592899967073
            ],
            [
              -114.70559700019359,
              35.708274000304655
            ],
            [
              -114.69426699957094,
              35.75663299993846
            ],
            [
              -114.6993180000381,
              35.790479999703
            ],
            [
              -114.71202600013693,
              35.80552899973275
            ],
            [
              -114.69527699969942,
              35.8310909998345
            ],
            [
              -114.70585599976137,
              35.850508000345044
            ],
            [
              -114.66163599960757,
              35.871232999750745
            ],
            [
              -114.70811200001982,
              35.90993299978652
            ],
            [
              -114.70760300020679,
              35.92795000028146
            ],
            [
              -114.74053600029397,
              35.97554500006092
            ],
            [
              -114.74300500008945,
              36.00844999989724
            ],
            [
              -114.72209600038587,
              36.028951999879226
            ],
            [
              -114.74126199984198,
              36.03804399964776
            ],
            [
              -114.73507999977087,
              36.054434999845085
            ],
            [
              -114.7411289997726,
              36.06545399965511
            ],
            [
              -114.87474900013373,
              36.13248299964181
            ],
            [
              -114.90638699968713,
              36.12177999986778
            ],
            [
              -114.90368899956279,
              36.09938499969303
            ],
            [
              -114.91251400040497,
              36.08792900011475
            ],
            [
              -114.93946600026248,
              36.07759200016669
            ],
            [
              -114.93845299976098,
              36.10213299981295
            ],
            [
              -114.97535000019397,
              36.08983100027846
            ],
            [
              -114.97681300005897,
              36.159151000055715
            ],
            [
              -114.99104099992417,
              36.159073999638494
            ],
            [
              -114.99047600003462,
              36.20198499973303
            ],
            [
              -115.02693900009933,
              36.20250999984787
            ],
            [
              -115.0253239998984,
              36.21820799964128
            ],
            [
              -115.04367599994298,
              36.20354400029006
            ],
            [
              -115.07117500014667,
              36.20334300028513
            ],
            [
              -115.07078500015932,
              36.188466000230115
            ],
            [
              -115.13394999983632,
              36.18844099965216
            ],
            [
              -115.15733099970842,
              36.14371899977456
            ],
            [
              -115.17114400037025,
              36.14431400028854
            ],
            [
              -115.17980299973443,
              36.1334790001856
            ],
            [
              -115.18054199970122,
              36.076658000074886
            ],
            [
              -115.11868699972834,
              36.07156700000198
            ],
            [
              -115.11881300012503,
              36.08618100003999
            ],
            [
              -115.07770000034945,
              36.08365699982982
            ],
            [
              -115.1003010002469,
              36.053381000178746
            ],
            [
              -115.11815600017398,
              36.04953900004934
            ],
            [
              -115.11838299995472,
              36.033106000134474
            ],
            [
              -115.1004639995552,
              36.027786999959886
            ],
            [
              -115.10062400028708,
              36.02051299977816
            ],
            [
              -115.11860499971257,
              36.02048099974666
            ],
            [
              -115.11890500018654,
              36.0033750001645
            ],
            [
              -115.1369119995513,
              35.999103999807964
            ],
            [
              -115.14532599959142,
              35.9847400001218
            ],
            [
              -115.14584699999833,
              35.99375000030612
            ],
            [
              -115.154829000301,
              35.992946999897626
            ],
            [
              -115.15472700019376,
              35.97801899993667
            ],
            [
              -115.18159200001264,
              35.961884000020405
            ],
            [
              -115.18461999984986,
              35.94260699978285
            ],
            [
              -115.21361799990355,
              35.90120400009569
            ],
            [
              -115.21638799999789,
              35.897284000271455
            ]
          ]
        ]
      }
    },
    {
      "type": "Feature",
      "id": "us-cd:119:32:02",
      "properties": {
        "boundary_id": "us-cd:119:32:02",
        "boundary_type": "congressional_district",
        "name": "2",
        "stateFips": "32",
        "congress": 119,
        "district": "02",
        "bbox": [
          -120.00645599977193,
          38.53596099974761,
          -114.04147700042382,
          42.001841999931585
        ]
      },
      "geometry": {
        "type": "Polygon",
        "coordinates": [
          [
            [
              -120.00645599977193,
              39.27772899991903
            ],
            [
              -120.00101400039082,
              38.9995739998671
            ],
            [
              -119.33005200022588,
              38.53596099974761
            ],
            [
              -119.329638999774,
              38.5880659996494
            ],
            [
              -119.3038300001143,
              38.58365600027745
            ],
            [
              -119.28837500038568,
              38.569758000059835
            ],
            [
              -119.28142000001259,
              38.61293900029382
            ],
            [
              -119.26445100036538,
              38.63393000010959
            ],
            [
              -119.32494600040543,
              38.722986000065816
            ],
            [
              -119.32886700019525,
              38.78825600016431
            ],
            [
              -119.34494899973767,
              38.781858999910405
            ],
            [
              -119.34755700034863,
              38.802047999909504
            ],
            [
              -119.22365400005899,
              38.80747099990077
            ],
            [
              -119.17673400013103,
              38.837753999689625
            ],
            [
              -119.15373599967526,
              38.83038699968161
            ],
            [
              -119.14476199976849,
              38.845020999748634
            ],
            [
              -119.07363599978791,
              38.84693800014343
            ],
            [
              -119.03236700037675,
              38.8384110002901
            ],
            [
              -119.0001959998226,
              38.852030000228076
            ],
            [
              -119.01449900003084,
              38.851951000139685
            ],
            [
              -119.01485800005605,
              38.944140000030025
            ],
            [
              -118.92306000019833,
              39.06937700020899
            ],
            [
              -118.94008900012003,
              39.06966899976014
            ],
            [
              -118.94809399990623,
              39.08392900025254
            ],
            [
              -118.99562700030259,
              39.08393100008954
            ],
            [
              -118.99569300042484,
              39.11155900013322
            ],
            [
              -119.01357599994104,
              39.112600000235574
            ],
            [
              -119.01461200000874,
              39.12227999974762
            ],
            [
              -119.11669500020054,
              39.127976000122125
            ],
            [
              -119.11227599957004,
              39.14141000009048
            ],
            [
              -119.08790200018628,
              39.153308000291084
            ],
            [
              -119.1020689999521,
              39.1542970003372
            ],
            [
              -119.10727500022995,
              39.16512599968771
            ],
            [
              -119.04980600037726,
              39.1650359998983
            ],
            [
              -119.04901100033396,
              39.241055999705885
            ],
            [
              -119.03977299993824,
              39.26794000024858
            ],
            [
              -118.98153800035458,
              39.24518700014213
            ],
            [
              -118.98008600036026,
              39.232548999766315
            ],
            [
              -118.9671280000162,
              39.225989999864126
            ],
            [
              -118.90914100012964,
              39.23460099982373
            ],
            [
              -118.90903099962647,
              39.22719099985038
            ],
            [
              -118.89066299968836,
              39.22720000029651
            ],
            [
              -118.89083099991785,
              39.19821799987456
            ],
            [
              -118.8667570001097,
              39.198210000275
            ],
            [
              -118.86673700001822,
              39.18533699969614
            ],
            [
              -118.84810299994136,
              39.18531399984916
            ],
            [
              -118.84809100024579,
              39.17123000027962
            ],
            [
              -118.79241499997096,
              39.17139699969245
            ],
            [
              -118.79273800001114,
              39.141548000216744
            ],
            [
              -118.57017799975019,
              39.14194099985139
            ],
            [
              -118.5703329995609,
              39.127275999663546
            ],
            [
              -118.5333220002234,
              39.126938000027714
            ],
            [
              -118.53321099989533,
              39.1122470001617
            ],
            [
              -118.47768799978135,
              39.11276199975059
            ],
            [
              -118.47750500038158,
              39.073681999973026
            ],
            [
              -117.86511599990908,
              39.073654000275305
            ],
            [
              -117.33185700027677,
              39.16342999980306
            ],
            [
              -115.90707100036109,
              39.16184800003208
            ],
            [
              -115.00084599985922,
              38.67732199985637
            ],
            [
              -114.83633299975928,
              38.677334999757264
            ],
            [
              -114.8170300000358,
              38.64582300004822
            ],
            [
              -114.80113500009114,
              38.641180999896605
            ],
            [
              -114.79807600029177,
              38.626422999798145
            ],
            [
              -114.75877399963741,
              38.58803899986104
            ],
            [
              -114.69859400013992,
              38.59779899979375
            ],
            [
              -114.64773400015561,
              38.5859610003338
            ],
            [
              -114.62952400040125,
              38.677399999927445
            ],
            [
              -114.04980699990003,
              38.67736499973523
            ],
            [
              -114.04147700042382,
              41.993872999699974
            ],
            [
              -114.82349099976616,
              42.001841999931585
            ],
            [
              -119.99923400033343,
              41.9949440002954
            ],
            [
              -119.99570500018083,
              40.375829999779135
            ],
            [
              -120.00645199957397,
              39.278897000174204
            ],
            [
              -120.00645599977193,
              39.27772899991903
            ]
          ]
        ]
      }
    },
    {
      "type": "Feature",
      "id": "us-cd:119:32:03",
      "properties": {
        "boundary_id": "us-cd:119:32:03",
        "boundary_type": "congressional_district",
        "name": "3",
        "stateFips": "32",
        "congress": 119,
        "district": "03",
        "bbox": [
          -115.84599399981472,
          35.00185699992408,
          -114.56875999984936,
          36.323701000144695
        ]
      },
      "geometry": {
        "type": "Polygon",
        "coordinates": [
          [
            [
              -115.84553699988024,
              35.986418000083574
            ],
            [
              -115.84599399981472,
              35.96370700033581
            ],
            [
              -114.63348700002383,
              35.00185699992408
            ],
            [
              -114.63473200032892,
              35.03373399993712
            ],
            [
              -114.60290800010439,
              35.0685879999082
            ],
            [
              -114.64676400021014,
              35.10186799976946
            ],
            [
              -114.62842700023417,
              35.11894299969341
            ],
            [
              -114.57826299966065,
              35.128810000001394
            ],
            [
              -114.56875999984936,
              35.17219500011262
            ],
            [
              -114.59977099958893,
              35.341110000196444
            ],
            [
              -114.62570200034568,
              35.407976000015346
            ],
            [
              -114.66289599998126,
              35.446448999705474
            ],
            [
              -114.67864199996302,
              35.49762800019905
            ],
            [
              -114.67568500027093,
              35.51562999989211
            ],
            [
              -114.65676999998666,
              35.534964000021354
            ],
            [
              -114.67566699982928,
              35.58003300010464
            ],
            [
              -114.65882399968041,
              35.588319000138576
            ],
            [
              -115.20727799964867,
              35.590276000050785
            ],
            [
              -115.20704900021813,
              35.89728799969821
            ],
            [
              -115.21638799999789,
              35.897284000271455
            ],
            [
              -115.18461999984986,
              35.94260699978285
            ],
            [
              -115.18159200001264,
              35.961884000020405
            ],
            [
              -115.15472700019376,
              35.97801899993667
            ],
            [
              -115.154829000301,
              35.992946999897626
            ],
            [
              -115.14584699999833,
              35.99375000030612
            ],
            [
              -115.14532599959142,
              35.9847400001218
            ],
            [
              -115.1369119995513,
              35.999103999807964
            ],
            [
              -115.11890500018654,
              36.0033750001645
            ],
            [
              -115.11860499971257,
              36.02048099974666
            ],
            [
              -115.10062400028708,
              36.02051299977816
            ],
            [
              -115.1004639995552,
              36.027786999959886
            ],
            [
              -115.11838299995472,
              36.033106000134474
            ],
            [
              -115.11815600017398,
              36.04953900004934
            ],
            [
              -115.1003010002469,
              36.053381000178746
            ],
            [
              -115.07761800033369,
              36.085618999641234
            ],
            [
              -115.11881300012503,
              36.08618100003999
            ],
            [
              -115.11868699972834,
              36.07156700000198
            ],
            [
              -115.18054199970122,
              36.076658000074886
            ],
            [
              -115.17745100011484,
              36.13712599989634
            ],
            [
              -115.24303299970875,
              36.14422699988425
            ],
            [
              -115.2469719999402,
              36.22563999980381
            ],
            [
              -115.27894699977747,
              36.22619100008398
            ],
            [
              -115.27873300041554,
              36.26298099971395
            ],
            [
              -115.3309630003784,
              36.262583999731355
            ],
            [
              -115.33346700033398,
              36.320896000148636
            ],
            [
              -115.34692299972211,
              36.323701000144695
            ],
            [
              -115.42403400013029,
              36.29313600028847
            ],
            [
              -115.42348099993633,
              36.18850899992954
            ],
            [
              -115.41440599974725,
              36.18890700032645
            ],
            [
              -115.4136020003814,
              36.16780599996571
            ],
            [
              -115.38828400009311,
              36.15368100013323
            ],
            [
              -115.3877690004323,
              36.14496600007195
            ],
            [
              -115.4263869995748,
              36.12924900000687
            ],
            [
              -115.50848900017569,
              36.1626139997874
            ],
            [
              -115.52281999997305,
              36.15408599990031
            ],
            [
              -115.53250799973226,
              36.130546999754614
            ],
            [
              -115.57352699979651,
              36.10887300000793
            ],
            [
              -115.57142299987402,
              36.155237999970204
            ],
            [
              -115.57886500031881,
              36.167145000227386
            ],
            [
              -115.65614499988308,
              36.165226000028305
            ],
            [
              -115.68216899962793,
              36.14767900026527
            ],
            [
              -115.7284759999858,
              36.14760200018896
            ],
            [
              -115.78217800003449,
              36.125028000006665
            ],
            [
              -115.84580300001902,
              36.12204800010536
            ],
            [
              -115.84553000020753,
              35.986585000007274
            ],
            [
              -115.84553699988024,
              35.986418000083574
            ]
          ]
        ]
      }
    },
    {
      "type": "Feature",
      "id": "us-cd:119:32:04",
      "properties": {
        "boundary_id": "us-cd:119:32:04",
        "boundary_type": "congressional_district",
        "name": "4",
        "stateFips": "32",
        "congress": 119,
        "district": "04",
        "bbox": [
          -119.34758900013566,
          35.96370700033581,
          -114.04394399967116,
          39.26794000024858
        ]
      },
      "geometry": {
        "type": "Polygon",
        "coordinates": [
          [
            [
              -119.34758900013566,
              38.80106099995512
            ],
            [
              -119.34494899973767,
              38.781858999910405
            ],
            [
              -119.32886700019525,
              38.78825600016431
            ],
            [
              -119.32494600040543,
              38.722986000065816
            ],
            [
              -119.26445100036538,
              38.63393000010959
            ],
            [
              -119.28142000001259,
              38.61293900029382
            ],
            [
              -119.28837500038568,
              38.569758000059835
            ],
            [
              -119.3038300001143,
              38.58365600027745
            ],
            [
              -119.329638999774,
              38.5880659996494
            ],
            [
              -119.33005899989857,
              38.53511399965432
            ],
            [
              -118.5009640000715,
              37.9490230002776
            ],
            [
              -117.50011700008923,
              37.2203799998619
            ],
            [
              -115.84599399981472,
              35.96370700033581
            ],
            [
              -115.84580300001902,
              36.12204800010536
            ],
            [
              -115.78217800003449,
              36.125028000006665
            ],
            [
              -115.7284759999858,
              36.14760200018896
            ],
            [
              -115.68175699989929,
              36.14777799983783
            ],
            [
              -115.65639699977818,
              36.165183999966054
            ],
            [
              -115.60446800011418,
              36.16756200003445
            ],
            [
              -115.57396000033985,
              36.16223799985244
            ],
            [
              -115.57352699979651,
              36.10887300000793
            ],
            [
              -115.53250799973226,
              36.130546999754614
            ],
            [
              -115.52281999997305,
              36.15408599990031
            ],
            [
              -115.50848900017569,
              36.1626139997874
            ],
            [
              -115.43122899980457,
              36.13060000024677
            ],
            [
              -115.41260499977346,
              36.13377099978445
            ],
            [
              -115.3877690004323,
              36.14496600007195
            ],
            [
              -115.38828400009311,
              36.15368100013323
            ],
            [
              -115.4136020003814,
              36.16780599996571
            ],
            [
              -115.41440599974725,
              36.18890700032645
            ],
            [
              -115.42348099993633,
              36.18850899992954
            ],
            [
              -115.42403400013029,
              36.29313600028847
            ],
            [
              -115.34692299972211,
              36.323701000144695
            ],
            [
              -115.33346700033398,
              36.320896000148636
            ],
            [
              -115.3309630003784,
              36.262583999731355
            ],
            [
              -115.27873300041554,
              36.26298099971395
            ],
            [
              -115.27894699977747,
              36.22619100008398
            ],
            [
              -115.2469719999402,
              36.22563999980381
            ],
            [
              -115.24303299970875,
              36.14422699988425
            ],
            [
              -115.17871899998615,
              36.13623099976177
            ],
            [
              -115.15733099970842,
              36.14371899977456
            ],
            [
              -115.13394999983632,
              36.18844099965216
            ],
            [
              -115.07078500015932,
              36.188466000230115
            ],
            [
              -115.07117500014667,
              36.20334300028513
            ],
            [
              -115.04367599994298,
              36.20354400029006
            ],
            [
              -115.0253239998984,
              36.21820799964128
            ],
            [
              -115.02693900009933,
              36.20250999984787
            ],
            [
              -114.99047600003462,
              36.20198499973303
            ],
            [
              -114.99104099992417,
              36.159073999638494
            ],
            [
              -114.97681300005897,
              36.159151000055715
            ],
            [
              -114.97535000019397,
              36.08983100027846
            ],
            [
              -114.93770799994641,
              36.102020999998565
            ],
            [
              -114.93946600026248,
              36.07759200016669
            ],
            [
              -114.91067400007312,
              36.08908499990989
            ],
            [
              -114.90638699968713,
              36.12177999986778
            ],
            [
              -114.87874199989355,
              36.13262100030546
            ],
            [
              -114.7411289997726,
              36.06545399965511
            ],
            [
              -114.75468100031848,
              36.085051999841006
            ],
            [
              -114.74891299962586,
              36.09518299968458
            ],
            [
              -114.73408499971103,
              36.10467200024297
            ],
            [
              -114.6805120004321,
              36.109532000092784
            ],
            [
              -114.63047400025525,
              36.142218000081236
            ],
            [
              -114.6154549996464,
              36.129652999858045
            ],
            [
              -114.57108999972766,
              36.15109899974367
            ],
            [
              -114.51121800020174,
              36.150576000129625
            ],
            [
              -114.50023599973363,
              36.143225999722844
            ],
            [
              -114.50471499974027,
              36.12718799978345
            ],
            [
              -114.46260000023217,
              36.139643999971604
            ],
            [
              -114.44504200040598,
              36.12534600011315
            ],
            [
              -114.40562400029897,
              36.14698300024855
            ],
            [
              -114.37018100040844,
              36.14262399993292
            ],
            [
              -114.32581399994156,
              36.10393300022608
            ],
            [
              -114.30417100029403,
              36.075579999936075
            ],
            [
              -114.31190400009366,
              36.057661000240934
            ],
            [
              -114.2708619995649,
              36.045522999746055
            ],
            [
              -114.26437999991813,
              36.02791099968178
            ],
            [
              -114.24386500039985,
              36.015266000223654
            ],
            [
              -114.21354900024615,
              36.014615000027156
            ],
            [
              -114.14698900031082,
              36.02606099978302
            ],
            [
              -114.11199800033191,
              36.09491000011726
            ],
            [
              -114.12086500010854,
              36.1108499996413
            ],
            [
              -114.09699399979168,
              36.12082299973032
            ],
            [
              -114.0667980001869,
              36.17908700007748
            ],
            [
              -114.04394399967116,
              36.19335000002779
            ],
            [
              -114.05254100000937,
              37.11288099970166
            ],
            [
              -114.04980699990003,
              38.67736499973523
            ],
            [
              -114.62952400040125,
              38.677399999927445
            ],
            [
              -114.64773400015561,
              38.5859610003338
            ],
            [
              -114.69859400013992,
              38.59779899979375
            ],
            [
              -114.75877399963741,
              38.58803899986104
            ],
            [
              -114.79807600029177,
              38.626422999798145
            ],
            [
              -114.80113500009114,
              38.641180999896605
            ],
            [
              -114.8170300000358,
              38.64582300004822
            ],
            [
              -114.83633299975928,
              38.677334999757264
            ],
            [
              -115.00084599985922,
              38.67732199985637
            ],
            [
              -115.90707100036109,
              39.16184800003208
            ],
            [
              -117.33185700027677,
              39.16342999980306
            ],
            [
              -117.86511599990908,
              39.073654000275305
            ],
            [
              -118.47750500038158,
              39.073681999973026
            ],
            [
              -118.47768799978135,
              39.11276199975059
            ],
            [
              -118.53321099989533,
              39.1122470001617
            ],
            [
              -118.5333220002234,
              39.126938000027714
            ],
            [
              -118.5703329995609,
              39.127275999663546
            ],
            [
              -118.57017799975019,
              39.14194099985139
            ],
            [
              -118.79273800001114,
              39.141548000216744
            ],
            [
              -118.79241499997096,
              39.17139699969245
            ],
            [
              -118.84809100024579,
              39.17123000027962
            ],
            [
              -118.84810299994136,
              39.18531399984916
            ],
            [
              -118.86673700001822,
              39.18533699969614
            ],
            [
              -118.8667570001097,
              39.198210000275
            ],
            [
              -118.89083099991785,
              39.19821799987456
            ],
            [
              -118.89066299968836,
              39.22720000029651
            ],
            [
              -118.90903099962647,
              39.22719099985038
            ],
            [
              -118.90914100012964,
              39.23460099982373
            ],
            [
              -118.9671280000162,
              39.225989999864126
            ],
            [
              -118.98008600036026,
              39.232548999766315
            ],
            [
              -118.98153800035458,
              39.24518700014213
            ],
            [
              -119.03977299993824,
              39.26794000024858
            ],
            [
              -119.04901100033396,
              39.241055999705885
            ],
            [
              -119.04980600037726,
              39.1650359998983
            ],
            [
              -119.10727500022995,
              39.16512599968771
            ],
            [
              -119.1020689999521,
              39.1542970003372
            ],
            [
              -119.08790200018628,
              39.153308000291084
            ],
            [
              -119.11227599957004,
              39.14141000009048
            ],
            [
              -119.11669500020054,
              39.127976000122125
            ],
            [
              -119.01461200000874,
              39.12227999974762
            ],
            [
              -119.01357599994104,
              39.112600000235574
            ],
            [
              -118.99569300042484,
              39.11155900013322
            ],
            [
              -118.99562700030259,
              39.08393100008954
            ],
            [
              -118.94809399990623,
              39.08392900025254
            ],
            [
              -118.94008900012003,
              39.06966899976014
            ],
            [
              -118.92306000019833,
              39.06937700020899
            ],
            [
              -119.01485800005605,
              38.944140000030025
            ],
            [
              -119.01449900003084,
              38.851951000139685
            ],
            [
              -119.0001959998226,
              38.852030000228076
            ],
            [
              -119.03236700037675,
              38.8384110002901
            ],
            [
              -119.07363599978791,
              38.84693800014343
            ],
            [
              -119.14476199976849,
              38.845020999748634
            ],
            [
              -119.15373599967526,
              38.83038699968161
            ],
            [
              -119.17673400013103,
              38.837753999689625
            ],
            [
              -119.22365400005899,
              38.80747099990077
            ],
            [
              -119.34758499993771,
              38.80150199977726
            ],
            [
              -119.34758900013566,
              38.80106099995512
            ]
          ]
        ]
      }
    }
  ]
}
