{
  "type": "FeatureCollection",
  "features": [
    {
      "type": "Feature",
      "id": "us-cd:118:10:00",
      "properties": {
        "boundary_id": "us-cd:118:10:00",
        "boundary_type": "congressional_district",
        "name": "Congressional District (at Large)",
        "stateFips": "10",
        "congress": 118,
        "district": "00",
        "bbox": [
          -75.788658,
          38.451263,
          -75.048939,
          39.838211
        ]
      },
      "geometry": {
        "type": "MultiPolygon",
        "coordinates": [
          [
            [
              [
                -75.567522,
                39.510205
              ],
              [
                -75.561325,
                39.519471
              ],
              [
                -75.566813,
                39.509189
              ],
              [
                -75.567522,
                39.510205
              ]
            ]
          ],
          [
            [
              [
                -75.570798,
                39.626768
              ],
              [
                -75.559446,
                39.629812
              ],
              [
                -75.55617,
                39.606386
              ],
              [
                -75.571054,
                39.621318
              ],
              [
                -75.570798,
                39.626768
              ]
            ]
          ],
          [
            [
              [
                -75.579709,
                39.597892
              ],
              [
                -75.564883,
                39.588983
              ],
              [
                -75.57916,
                39.594705
              ],
              [
                -75.579709,
                39.597892
              ]
            ]
          ],
          [
            [
              [
                -75.7886554614804,
                39.6595727948766
              ],
              [
                -75.788596,
                39.722199
              ],
              [
                -75.773786,
                39.7222
              ],
              [
                -75.727049,
                39.784126
              ],
              [
                -75.662822,
                39.82115
              ],
              [
                -75.593666,
                39.837455
              ],
              [
                -75.539346,
                39.838211
              ],
              [
                -75.481242,
                39.829112
              ],
              [
                -75.423416,
                39.806615
              ],
              [
                -75.468502,
                39.786474
              ],
              [
                -75.562246,
                39.656712
              ],
              [
                -75.587147,
                39.651012
              ],
              [
                -75.613153,
                39.62096
              ],
              [
                -75.611873,
                39.597408
              ],
              [
                -75.563034,
                39.56224
              ],
              [
                -75.592329,
                39.467578
              ],
              [
                -75.57183,
                39.438897
              ],
              [
                -75.538512,
                39.416502
              ],
              [
                -75.491688,
                39.343963
              ],
              [
                -75.439027,
                39.313384
              ],
              [
                -75.434775,
                39.290593
              ],
              [
                -75.408996,
                39.264133
              ],
              [
                -75.397085,
                39.20453
              ],
              [
                -75.413357,
                39.153296
              ],
              [
                -75.399809,
                39.099088
              ],
              [
                -75.402035,
                39.066885
              ],
              [
                -75.345763,
                39.024857
              ],
              [
                -75.318354,
                38.988191
              ],
              [
                -75.311607,
                38.967637
              ],
              [
                -75.317096,
                38.93344
              ],
              [
                -75.304078,
                38.91316
              ],
              [
                -75.190552,
                38.806861
              ],
              [
                -75.159022,
                38.790193
              ],
              [
                -75.113331,
                38.782998
              ],
              [
                -75.097103,
                38.788703
              ],
              [
                -75.099144,
                38.803531
              ],
              [
                -75.092014,
                38.803902
              ],
              [
                -75.06551,
                38.66103
              ],
              [
                -75.048939,
                38.451263
              ],
              [
                -75.69367,
                38.46008
              ],
              [
                -75.788658,
                39.658211
              ],
              [
                -75.7886554614804,
                39.6595727948766
              ]
            ]
          ]
        ]
      }
    }
  ]
}
