{
  "type": "FeatureCollection",
  "features": [
    {
      "type": "Feature",
      "id": "us-cd:119:10:00",
      "properties": {
        "boundary_id": "us-cd:119:10:00",
        "boundary_type": "congressional_district",
        "name": "Congressional District (at Large)",
        "stateFips": "10",
        "congress": 119,
        "district": "00",
        "bbox": [
          -75.78902300018237,
          38.45163199977536,
          -74.98517100030053,
          39.83784699990254
        ]
      },
      "geometry": {
        "type": "Polygon",
        "coordinates": [
          [
            [
              -75.78902300018237,
              39.65978999979865
            ],
            [
              -75.69367000023277,
              38.46007999979123
            ],
            [
              -74.98628199981302,
              38.45163199977536
            ],
            [
              -74.98517100030053,
              38.52817100029974
            ],
            [
              -75.01610900024518,
              38.79053000025501
            ],
            [
              -75.1684620004174,
              39.05617899999779
            ],
            [
              -75.32102099955566,
              39.2513790001993
            ],
            [
              -75.56053799976824,
              39.45564499965932
            ],
            [
              -75.55908999997187,
              39.495805999785276
            ],
            [
              -75.52697399966931,
              39.49916800007501
            ],
            [
              -75.53401400043121,
              39.540701999701156
            ],
            [
              -75.51195999998167,
              39.56729000003944
            ],
            [
              -75.51474699979444,
              39.5808840001613
            ],
            [
              -75.55351200014837,
              39.60181900000794
            ],
            [
              -75.55877299977948,
              39.62998699985212
            ],
            [
              -75.5155329996169,
              39.66632600032675
            ],
            [
              -75.50987399960253,
              39.693915000008744
            ],
            [
              -75.47643800044841,
              39.71619900015685
            ],
            [
              -75.46219799998933,
              39.763197000181016
            ],
            [
              -75.4382999999083,
              39.78440199979942
            ],
            [
              -75.40541399967677,
              39.79639600027121
            ],
            [
              -75.46178399971257,
              39.82345499999105
            ],
            [
              -75.52541500044319,
              39.83761600018517
            ],
            [
              -75.59194100004332,
              39.83784699990254
            ],
            [
              -75.65528700036859,
              39.82415399985335
            ],
            [
              -75.7196019999161,
              39.7902890000078
            ],
            [
              -75.77378600001364,
              39.72220000018924
            ],
            [
              -75.7885960003851,
              39.72219899970666
            ],
            [
              -75.78892199990003,
              39.66456899967726
            ],
            [
              -75.78902300018237,
              39.65978999979865
            ]
          ]
        ]
      }
    }
  ]
}
