{
  "type": "FeatureCollection",
  "features": [
    {
      "type": "Feature",
      "id": "us-cd:118:41:01",
      "properties": {
        "boundary_id": "us-cd:118:41:01",
        "boundary_type": "congressional_district",
        "name": "Congressional District 1",
        "stateFips": "41",
        "congress": 118,
        "district": "01",
        "bbox": [
          -124.036174,
          45.044432,
          -122.622824,
          46.290834
        ]
      },
      "geometry": {
        "type": "MultiPolygon",
        "coordinates": [
          [
            [
              [
                -123.664749,
                46.24431
              ],
              [
                -123.64134,
                46.247981
              ],
              [
                -123.664993,
                46.242691
              ],
              [
                -123.664749,
                46.24431
              ]
            ]
          ],
          [
            [
              [
                -124.012634,
                46.23685
              ],
              [
                -123.988866,
                46.22715
              ],
              [
                -123.995997,
                46.219092
              ],
              [
                -123.989817,
                46.209224
              ],
              [
                -123.953971,
                46.207159
              ],
              [
                -123.905277,
                46.18069
              ],
              [
                -123.902501,
                46.168704
              ],
              [
                -123.854801,
                46.157342
              ],
              [
                -123.839603,
                46.162163
              ],
              [
                -123.838415,
                46.171051
              ],
              [
                -123.864209,
                46.189527
              ],
              [
                -123.783204,
                46.19854
              ],
              [
                -123.757589,
                46.213001
              ],
              [
                -123.718149,
                46.188989
              ],
              [
                -123.69343,
                46.189812
              ],
              [
                -123.674178,
                46.198203
              ],
              [
                -123.67538,
                46.212401
              ],
              [
                -123.666751,
                46.218228
              ],
              [
                -123.619512,
                46.21531
              ],
              [
                -123.548156,
                46.249018
              ],
              [
                -123.547659,
                46.259109
              ],
              [
                -123.479644,
                46.269131
              ],
              [
                -123.427629,
                46.229348
              ],
              [
                -123.430987,
                46.181571
              ],
              [
                -123.371433,
                46.146372
              ],
              [
                -123.280166,
                46.144843
              ],
              [
                -123.166414,
                46.188973
              ],
              [
                -123.115904,
                46.185268
              ],
              [
                -123.004233,
                46.133823
              ],
              [
                -122.962681,
                46.104817
              ],
              [
                -122.904119,
                46.083734
              ],
              [
                -122.884478,
                46.06028
              ],
              [
                -122.878092,
                46.031281
              ],
              [
                -122.813998,
                45.960984
              ],
              [
                -122.806193,
                45.932416
              ],
              [
                -122.81151,
                45.912725
              ],
              [
                -122.785026,
                45.867699
              ],
              [
                -122.795605,
                45.81
              ],
              [
                -122.769532,
                45.780583
              ],
              [
                -122.760108,
                45.734413
              ],
              [
                -122.774511,
                45.680437
              ],
              [
                -122.762414110309,
                45.6564319354118
              ],
              [
                -122.78871,
                45.633006
              ],
              [
                -122.789487,
                45.615878
              ],
              [
                -122.764308,
                45.585316
              ],
              [
                -122.669003,
                45.527626
              ],
              [
                -122.622932,
                45.533049
              ],
              [
                -122.622824,
                45.512043
              ],
              [
                -122.633768,
                45.512069
              ],
              [
                -122.633558,
                45.496968
              ],
              [
                -122.665103,
                45.501184
              ],
              [
                -122.666484,
                45.464334
              ],
              [
                -122.688089,
                45.470265
              ],
              [
                -122.731079,
                45.445364
              ],
              [
                -122.743703,
                45.442944
              ],
              [
                -122.743745,
                45.487084
              ],
              [
                -122.792829,
                45.486548
              ],
              [
                -122.785936,
                45.469393
              ],
              [
                -122.836273,
                45.465646
              ],
              [
                -122.836283,
                45.452994
              ],
              [
                -122.851671,
                45.447673
              ],
              [
                -122.849219,
                45.426791
              ],
              [
                -122.836326,
                45.426528
              ],
              [
                -122.841361,
                45.40432
              ],
              [
                -122.831183,
                45.401685
              ],
              [
                -122.851823,
                45.389564
              ],
              [
                -122.863353,
                45.36772
              ],
              [
                -122.90675,
                45.367853
              ],
              [
                -122.916054,
                45.348868
              ],
              [
                -122.928873,
                45.34628
              ],
              [
                -122.967278,
                45.346834
              ],
              [
                -122.9703,
                45.36077
              ],
              [
                -122.991396,
                45.361096
              ],
              [
                -122.991388,
                45.375468
              ],
              [
                -123.011653,
                45.376348
              ],
              [
                -123.01129,
                45.390905
              ],
              [
                -123.032294,
                45.390891
              ],
              [
                -123.032161,
                45.404962
              ],
              [
                -123.114641,
                45.404383
              ],
              [
                -123.114696,
                45.418957
              ],
              [
                -123.134658,
                45.418937
              ],
              [
                -123.135427,
                45.433459
              ],
              [
                -123.46488,
                45.433332
              ],
              [
                -123.463518,
                45.216312
              ],
              [
                -123.78454,
                45.216294
              ],
              [
                -123.784016,
                45.076657
              ],
              [
                -123.724362,
                45.076777
              ],
              [
                -123.724663,
                45.044432
              ],
              [
                -124.015011,
                45.047969
              ],
              [
                -124.012163,
                45.076921
              ],
              [
                -123.989529,
                45.094045
              ],
              [
                -123.975425,
                45.145476
              ],
              [
                -123.968187,
                45.201217
              ],
              [
                -123.976507,
                45.21933
              ],
              [
                -123.958061,
                45.278013
              ],
              [
                -123.972899,
                45.33689
              ],
              [
                -124.007494,
                45.33974
              ],
              [
                -123.979715,
                45.347724
              ],
              [
                -123.965728,
                45.386242
              ],
              [
                -123.962035,
                45.443207
              ],
              [
                -123.974665,
                45.467333
              ],
              [
                -123.970121,
                45.481634
              ],
              [
                -123.97865,
                45.486854
              ],
              [
                -123.957568,
                45.510399
              ],
              [
                -123.94944,
                45.545389
              ],
              [
                -123.956711,
                45.571303
              ],
              [
                -123.937272,
                45.656384
              ],
              [
                -123.943121,
                45.727031
              ],
              [
                -123.962908,
                45.74362
              ],
              [
                -123.964335,
                45.758296
              ],
              [
                -123.983029,
                45.768044
              ],
              [
                -123.969302,
                45.779837
              ],
              [
                -123.962736,
                45.869974
              ],
              [
                -123.96763,
                45.907807
              ],
              [
                -123.993703,
                45.946431
              ],
              [
                -123.969991,
                45.969139
              ],
              [
                -123.937471,
                45.977306
              ],
              [
                -123.927891,
                46.009564
              ],
              [
                -123.947531,
                46.116131
              ],
              [
                -123.996766,
                46.20399
              ],
              [
                -124.021428,
                46.230109
              ],
              [
                -124.012634,
                46.23685
              ]
            ]
          ],
          [
            [
              [
                -124.035223,
                46.285137
              ],
              [
                -124.02402,
                46.290834
              ],
              [
                -124.008929,
                46.26557
              ],
              [
                -124.036174,
                46.281523
              ],
              [
                -124.035223,
                46.285137
              ]
            ]
          ]
        ]
      }
    },
    {
      "type": "Feature",
      "id": "us-cd:118:41:02",
      "properties": {
        "boundary_id": "us-cd:118:41:02",
        "boundary_type": "congressional_district",
        "name": "Congressional District 2",
        "stateFips": "41",
        "congress": 118,
        "district": "02",
        "bbox": [
          -124.041983,
          41.993023,
          -116.463504,
          45.999855
        ]
      },
      "geometry": {
        "type": "Polygon",
        "coordinates": [
          [
            [
              -124.041983,
              42.387656
            ],
            [
              -124.009392,
              42.418667
            ],
            [
              -124.014755,
              42.434222
            ],
            [
              -124.001381,
              42.453996
            ],
            [
              -124.008397,
              42.496352
            ],
            [
              -123.945943,
              42.501334
            ],
            [
              -123.919321,
              42.494737
            ],
            [
              -123.875164,
              42.513244
            ],
            [
              -123.87914,
              42.522885
            ],
            [
              -123.854785,
              42.550614
            ],
            [
              -123.860937,
              42.560389
            ],
            [
              -123.849558,
              42.583718
            ],
            [
              -123.819403,
              42.612446
            ],
            [
              -123.831264,
              42.632313
            ],
            [
              -123.716492,
              42.784061
            ],
            [
              -123.732315,
              42.780131
            ],
            [
              -123.783304,
              42.799426
            ],
            [
              -123.811553,
              42.788837
            ],
            [
              -123.811789,
              42.824101
            ],
            [
              -123.820439,
              42.824112
            ],
            [
              -123.821121,
              42.965284
            ],
            [
              -123.747896,
              42.973796
            ],
            [
              -123.694402,
              43.011845
            ],
            [
              -123.649849,
              43.064856
            ],
            [
              -123.597672,
              43.07106
            ],
            [
              -123.561165,
              43.097742
            ],
            [
              -123.502483,
              43.115956
            ],
            [
              -123.479536,
              43.101251
            ],
            [
              -123.440816,
              43.107581
            ],
            [
              -123.398672,
              43.078732
            ],
            [
              -123.3755,
              43.091998
            ],
            [
              -123.367486,
              43.072812
            ],
            [
              -123.355576,
              43.072002
            ],
            [
              -123.367755,
              43.090604
            ],
            [
              -123.366465,
              43.103465
            ],
            [
              -123.3546,
              43.109944
            ],
            [
              -123.363961,
              43.127248
            ],
            [
              -123.364759,
              43.180982
            ],
            [
              -123.337555,
              43.198749
            ],
            [
              -123.284664,
              43.207295
            ],
            [
              -123.170921,
              43.206158
            ],
            [
              -123.137008,
              43.21975
            ],
            [
              -123.075296,
              43.271407
            ],
            [
              -123.013776,
              43.262077
            ],
            [
              -122.981129,
              43.269287
            ],
            [
              -122.945049,
              43.298816
            ],
            [
              -123.005095,
              43.333432
            ],
            [
              -123.01483,
              43.329573
            ],
            [
              -122.996121,
              43.339809
            ],
            [
              -122.992848,
              43.357663
            ],
            [
              -123.018718,
              43.374453
            ],
            [
              -123.013696,
              43.385316
            ],
            [
              -122.988199,
              43.38768
            ],
            [
              -122.988536,
              43.416817
            ],
            [
              -122.97012,
              43.416965
            ],
            [
              -122.969249,
              43.43348
            ],
            [
              -122.9493,
              43.432656
            ],
            [
              -122.949277,
              43.443694
            ],
            [
              -122.936,
              43.446091
            ],
            [
              -122.93373,
              43.476278
            ],
            [
              -122.922468,
              43.476719
            ],
            [
              -122.923123,
              43.491466
            ],
            [
              -122.911148,
              43.492195
            ],
            [
              -122.910727,
              43.506252
            ],
            [
              -122.893366,
              43.50622
            ],
            [
              -122.893316,
              43.517426
            ],
            [
              -122.741914,
              43.517582
            ],
            [
              -122.741716,
              43.437395
            ],
            [
              -122.132034,
              43.440221
            ],
            [
              -122.15296,
              43.447662
            ],
            [
              -122.136912,
              43.456339
            ],
            [
              -122.130937,
              43.485057
            ],
            [
              -122.129797,
              43.505694
            ],
            [
              -122.149534,
              43.520693
            ],
            [
              -122.131009,
              43.557284
            ],
            [
              -122.010965,
              43.609274
            ],
            [
              -122.000095,
              43.626357
            ],
            [
              -121.964918,
              43.627045
            ],
            [
              -121.98691,
              43.653858
            ],
            [
              -121.966917,
              43.702821
            ],
            [
              -121.981248,
              43.742964
            ],
            [
              -121.961437,
              43.763745
            ],
            [
              -121.969609,
              43.769542
            ],
            [
              -121.960507,
              43.78124
            ],
            [
              -121.964537,
              43.808235
            ],
            [
              -121.896052,
              43.794399
            ],
            [
              -121.879795,
              43.798804
            ],
            [
              -121.883454,
              43.806128
            ],
            [
              -121.861289,
              43.802917
            ],
            [
              -121.798323,
              43.826317
            ],
            [
              -121.727479,
              43.836137
            ],
            [
              -121.702367,
              43.826505
            ],
            [
              -121.671564,
              43.834351
            ],
            [
              -121.600171,
              43.826007
            ],
            [
              -121.588637,
              43.841036
            ],
            [
              -121.574537,
              43.836519
            ],
            [
              -121.520294,
              43.856702
            ],
            [
              -121.508207,
              43.838889
            ],
            [
              -121.489775,
              43.846001
            ],
            [
              -121.484369,
              43.858262
            ],
            [
              -121.458094,
              43.854593
            ],
            [
              -121.452062,
              43.863143
            ],
            [
              -121.46578,
              43.846329
            ],
            [
              -121.455641,
              43.837473
            ],
            [
              -121.462667,
              43.81942
            ],
            [
              -121.428877,
              43.819474
            ],
            [
              -121.399125,
              43.875485
            ],
            [
              -121.350666,
              43.912939
            ],
            [
              -121.347702,
              43.962277
            ],
            [
              -121.334252,
              43.963128
            ],
            [
              -121.325315,
              43.995992
            ],
            [
              -121.29413,
              44.000647
            ],
            [
              -121.284103,
              44.011583
            ],
            [
              -121.243747,
              44.007762
            ],
            [
              -121.25362,
              44.087483
            ],
            [
              -121.229498,
              44.094671
            ],
            [
              -121.224489,
              44.118387
            ],
            [
              -121.173741,
              44.159568
            ],
            [
              -121.116904,
              44.160206
            ],
            [
              -121.102781,
              44.169238
            ],
            [
              -121.107534,
              44.3906
            ],
            [
              -121.674928,
              44.393387
            ],
            [
              -121.713488,
              44.429543
            ],
            [
              -121.765701,
              44.418407
            ],
            [
              -121.847561,
              44.428753
            ],
            [
              -121.841128,
              44.444912
            ],
            [
              -121.848875,
              44.486706
            ],
            [
              -121.809382,
              44.514425
            ],
            [
              -121.816317,
              44.537376
            ],
            [
              -121.793895,
              44.594056
            ],
            [
              -121.811566,
              44.615767
            ],
            [
              -121.797945,
              44.640313
            ],
            [
              -121.800402,
              44.683013
            ],
            [
              -121.787179,
              44.689291
            ],
            [
              -121.802975,
              44.709506
            ],
            [
              -121.794385,
              44.725896
            ],
            [
              -121.804597,
              44.729236
            ],
            [
              -121.788525,
              44.747845
            ],
            [
              -121.783621,
              44.772641
            ],
            [
              -121.812542,
              44.781716
            ],
            [
              -121.820278,
              44.800134
            ],
            [
              -121.812221,
              44.811574
            ],
            [
              -121.775926,
              44.819846
            ],
            [
              -121.752417,
              44.93057
            ],
            [
              -121.764083,
              44.941952
            ],
            [
              -121.79511,
              44.935668
            ],
            [
              -121.785593,
              44.950377
            ],
            [
              -121.803345,
              44.977103
            ],
            [
              -121.805269,
              45.011496
            ],
            [
              -121.781177,
              45.01572
            ],
            [
              -121.778672,
              45.037277
            ],
            [
              -121.740994,
              45.034428
            ],
            [
              -121.734628,
              45.045727
            ],
            [
              -121.723212,
              45.136982
            ],
            [
              -121.748283,
              45.161946
            ],
            [
              -121.731438,
              45.170633
            ],
            [
              -121.747973,
              45.188995
            ],
            [
              -121.748245,
              45.2051
            ],
            [
              -121.682607,
              45.228988
            ],
            [
              -121.680898,
              45.250581
            ],
            [
              -121.696479,
              45.25792
            ],
            [
              -121.481888,
              45.258128
            ],
            [
              -121.482168,
              45.519604
            ],
            [
              -121.440646,
              45.519394
            ],
            [
              -121.441224595532,
              45.6973034385521
            ],
            [
              -121.401739,
              45.692887
            ],
            [
              -121.33777,
              45.704949
            ],
            [
              -121.215779,
              45.671238
            ],
            [
              -121.200367,
              45.649829
            ],
            [
              -121.196556,
              45.616689
            ],
            [
              -121.167852,
              45.606098
            ],
            [
              -121.131953,
              45.609762
            ],
            [
              -121.084933,
              45.647893
            ],
            [
              -121.06437,
              45.652549
            ],
            [
              -120.983478,
              45.648344
            ],
            [
              -120.943977,
              45.656445
            ],
            [
              -120.913476,
              45.640045
            ],
            [
              -120.895575,
              45.642945
            ],
            [
              -120.855674,
              45.671545
            ],
            [
              -120.68937,
              45.715847
            ],
            [
              -120.634968,
              45.745847
            ],
            [
              -120.559465,
              45.738348
            ],
            [
              -120.505863,
              45.700048
            ],
            [
              -120.482362,
              45.694449
            ],
            [
              -120.40396,
              45.699249
            ],
            [
              -120.210754,
              45.725951
            ],
            [
              -120.170453,
              45.761951
            ],
            [
              -120.07015,
              45.785152
            ],
            [
              -119.965744,
              45.824365
            ],
            [
              -119.669877,
              45.856867
            ],
            [
              -119.600549,
              45.919581
            ],
            [
              -119.571584,
              45.925456
            ],
            [
              -119.487829,
              45.906307
            ],
            [
              -119.25715,
              45.939926
            ],
            [
              -119.19553,
              45.92787
            ],
            [
              -119.12612,
              45.932859
            ],
            [
              -119.027056,
              45.969134
            ],
            [
              -118.987129,
              45.999855
            ],
            [
              -116.940681,
              45.996274
            ],
            [
              -116.915989,
              45.995413
            ],
            [
              -116.892861,
              45.976373
            ],
            [
              -116.859795,
              45.907264
            ],
            [
              -116.796051,
              45.858473
            ],
            [
              -116.782676,
              45.825376
            ],
            [
              -116.759787,
              45.816167
            ],
            [
              -116.711822,
              45.826267
            ],
            [
              -116.665344,
              45.781998
            ],
            [
              -116.593004,
              45.778541
            ],
            [
              -116.546643,
              45.750972
            ],
            [
              -116.535698,
              45.734231
            ],
            [
              -116.535396,
              45.691734
            ],
            [
              -116.463504,
              45.615785
            ],
            [
              -116.481943,
              45.577898
            ],
            [
              -116.528558,
              45.551078
            ],
            [
              -116.535482,
              45.525079
            ],
            [
              -116.557587,
              45.503217
            ],
            [
              -116.554829,
              45.46293
            ],
            [
              -116.588195,
              45.44292
            ],
            [
              -116.597447,
              45.41277
            ],
            [
              -116.619057,
              45.39821
            ],
            [
              -116.673793,
              45.321511
            ],
            [
              -116.674493,
              45.276349
            ],
            [
              -116.703181,
              45.2408
            ],
            [
              -116.729607,
              45.142091
            ],
            [
              -116.754643,
              45.113972
            ],
            [
              -116.774847,
              45.105536
            ],
            [
              -116.797329,
              45.060267
            ],
            [
              -116.847944,
              45.022602
            ],
            [
              -116.844625,
              45.001435
            ],
            [
              -116.856964,
              44.975173
            ],
            [
              -116.826271,
              44.982493
            ],
            [
              -116.850737,
              44.958113
            ],
            [
              -116.832176,
              44.931373
            ],
            [
              -116.852427,
              44.887577
            ],
            [
              -116.865338,
              44.870599
            ],
            [
              -116.898153,
              44.854319
            ],
            [
              -116.900146,
              44.836672
            ],
            [
              -116.931099,
              44.804781
            ],
            [
              -116.9347,
              44.783881
            ],
            [
              -117.03827,
              44.748179
            ],
            [
              -117.062273,
              44.727143
            ],
            [
              -117.061799,
              44.706654
            ],
            [
              -117.095868,
              44.664737
            ],
            [
              -117.098221,
              44.640689
            ],
            [
              -117.120522,
              44.614658
            ],
            [
              -117.124754,
              44.583834
            ],
            [
              -117.148255,
              44.564371
            ],
            [
              -117.149242,
              44.536151
            ],
            [
              -117.181583,
              44.52296
            ],
            [
              -117.200237,
              44.492027
            ],
            [
              -117.225076,
              44.482346
            ],
            [
              -117.215072,
              44.427162
            ],
            [
              -117.242675,
              44.396548
            ],
            [
              -117.235117,
              44.373853
            ],
            [
              -117.189769,
              44.336585
            ],
            [
              -117.222647,
              44.297578
            ],
            [
              -117.198147,
              44.273828
            ],
            [
              -117.170342,
              44.25889
            ],
            [
              -117.143394,
              44.258262
            ],
            [
              -117.121037,
              44.277585
            ],
            [
              -117.104208,
              44.27994
            ],
            [
              -117.05303,
              44.229076
            ],
            [
              -117.031862,
              44.248635
            ],
            [
              -116.975905,
              44.242844
            ],
            [
              -116.971675,
              44.197256
            ],
            [
              -116.925392,
              44.191544
            ],
            [
              -116.900103,
              44.176851
            ],
            [
              -116.894083,
              44.160191
            ],
            [
              -116.933704,
              44.100039
            ],
            [
              -116.977351,
              44.085364
            ],
            [
              -116.973185,
              44.049425
            ],
            [
              -116.937342,
              44.029376
            ],
            [
              -116.943742,
              44.003189
            ],
            [
              -116.935584,
              43.986874
            ],
            [
              -116.97618,
              43.974719
            ],
            [
              -116.959206,
              43.96636
            ],
            [
              -116.972331,
              43.958357
            ],
            [
              -116.960415,
              43.954564
            ],
            [
              -116.968931,
              43.937007
            ],
            [
              -116.958752,
              43.923246
            ],
            [
              -116.981919,
              43.912478
            ],
            [
              -116.976114,
              43.894759
            ],
            [
              -116.98294,
              43.86771
            ],
            [
              -117.020035,
              43.858956
            ],
            [
              -117.010383,
              43.844803
            ],
            [
              -117.032881,
              43.830025
            ],
            [
              -117.02155,
              43.819402
            ],
            [
              -117.026197,
              41.99989
            ],
            [
              -120.980416,
              41.993023
            ],
            [
              -122.378511,
              42.009485
            ],
            [
              -123.145735,
              42.008761
            ],
            [
              -123.822037891998,
              41.9956172960188
            ],
            [
              -123.84964,
              42.044643
            ],
            [
              -123.821973,
              42.086567
            ],
            [
              -123.839241,
              42.124671
            ],
            [
              -123.858487,
              42.134858
            ],
            [
              -123.812603,
              42.169651
            ],
            [
              -123.820471,
              42.198974
            ],
            [
              -123.808796,
              42.216961
            ],
            [
              -123.790462,
              42.220457
            ],
            [
              -123.7922,
              42.237623
            ],
            [
              -123.812203,
              42.24399
            ],
            [
              -123.814997,
              42.262603
            ],
            [
              -123.847315,
              42.299219
            ],
            [
              -123.839496,
              42.312202
            ],
            [
              -123.869582,
              42.322796
            ],
            [
              -123.888026,
              42.351454
            ],
            [
              -123.920408,
              42.346469
            ],
            [
              -123.936538,
              42.361625
            ],
            [
              -124.026947,
              42.359199
            ],
            [
              -124.041579,
              42.385912
            ],
            [
              -124.041983,
              42.387656
            ]
          ]
        ]
      }
    },
    {
      "type": "Feature",
      "id": "us-cd:118:41:03",
      "properties": {
        "boundary_id": "us-cd:118:41:03",
        "boundary_type": "congressional_district",
        "name": "Congressional District 3",
        "stateFips": "41",
        "congress": 118,
        "district": "03",
        "bbox": [
          -122.791065,
          45.200844,
          -121.440646,
          45.726541
        ]
      },
      "geometry": {
        "type": "Polygon",
        "coordinates": [
          [
            [
              -122.791065,
              45.626451
            ],
            [
              -122.762414110309,
              45.6564319354118
            ],
            [
              -122.643907,
              45.609739
            ],
            [
              -122.548149,
              45.596768
            ],
            [
              -122.438674,
              45.563585
            ],
            [
              -122.380302,
              45.575941
            ],
            [
              -122.352802,
              45.569441
            ],
            [
              -122.331502,
              45.548241
            ],
            [
              -122.266701,
              45.543841
            ],
            [
              -122.183695,
              45.577696
            ],
            [
              -122.101675,
              45.583516
            ],
            [
              -122.044374,
              45.609516
            ],
            [
              -121.983038,
              45.622812
            ],
            [
              -121.955734,
              45.643559
            ],
            [
              -121.908267,
              45.654399
            ],
            [
              -121.901855,
              45.670716
            ],
            [
              -121.867167,
              45.693277
            ],
            [
              -121.811304,
              45.706761
            ],
            [
              -121.707358,
              45.694809
            ],
            [
              -121.533106,
              45.726541
            ],
            [
              -121.499153,
              45.720846
            ],
            [
              -121.441224595532,
              45.6973034385521
            ],
            [
              -121.440646,
              45.519394
            ],
            [
              -121.482168,
              45.519604
            ],
            [
              -121.481888,
              45.258128
            ],
            [
              -121.696479,
              45.25792
            ],
            [
              -121.680898,
              45.250581
            ],
            [
              -121.682607,
              45.228988
            ],
            [
              -121.698375,
              45.226448
            ],
            [
              -121.700417,
              45.240638
            ],
            [
              -121.739403,
              45.218533
            ],
            [
              -121.78389,
              45.214478
            ],
            [
              -121.824554,
              45.226501
            ],
            [
              -121.859291,
              45.220684
            ],
            [
              -121.938202,
              45.272171
            ],
            [
              -121.946634,
              45.261045
            ],
            [
              -122.002966,
              45.260859
            ],
            [
              -122.002329,
              45.203321
            ],
            [
              -122.022682,
              45.200844
            ],
            [
              -122.029358,
              45.208122
            ],
            [
              -122.023912,
              45.220171
            ],
            [
              -122.160642,
              45.202873
            ],
            [
              -122.207493,
              45.207392
            ],
            [
              -122.230516,
              45.230188
            ],
            [
              -122.230516,
              45.215626
            ],
            [
              -122.238274,
              45.215266
            ],
            [
              -122.264378,
              45.23607
            ],
            [
              -122.291638,
              45.229502
            ],
            [
              -122.332908,
              45.261963
            ],
            [
              -122.332609,
              45.269496
            ],
            [
              -122.314281,
              45.267045
            ],
            [
              -122.324368,
              45.280553
            ],
            [
              -122.342621,
              45.28647
            ],
            [
              -122.351219,
              45.30022
            ],
            [
              -122.367027,
              45.296726
            ],
            [
              -122.361549,
              45.308533
            ],
            [
              -122.387093,
              45.315647
            ],
            [
              -122.381407,
              45.355216
            ],
            [
              -122.398193,
              45.373214
            ],
            [
              -122.422531,
              45.389099
            ],
            [
              -122.468496,
              45.384236
            ],
            [
              -122.502068,
              45.395477
            ],
            [
              -122.517511,
              45.408403
            ],
            [
              -122.514921,
              45.424872
            ],
            [
              -122.527722,
              45.428038
            ],
            [
              -122.527748,
              45.436075
            ],
            [
              -122.538101,
              45.431983
            ],
            [
              -122.530923,
              45.44695
            ],
            [
              -122.543627,
              45.459973
            ],
            [
              -122.571309,
              45.461392
            ],
            [
              -122.565928,
              45.478331
            ],
            [
              -122.608727,
              45.479163
            ],
            [
              -122.637172,
              45.464285
            ],
            [
              -122.666484,
              45.464334
            ],
            [
              -122.665103,
              45.501184
            ],
            [
              -122.633558,
              45.496968
            ],
            [
              -122.633768,
              45.512069
            ],
            [
              -122.622824,
              45.512043
            ],
            [
              -122.622932,
              45.533049
            ],
            [
              -122.669003,
              45.527626
            ],
            [
              -122.764308,
              45.585316
            ],
            [
              -122.79101,
              45.620025
            ],
            [
              -122.791065,
              45.626451
            ]
          ]
        ]
      }
    },
    {
      "type": "Feature",
      "id": "us-cd:118:41:04",
      "properties": {
        "boundary_id": "us-cd:118:41:04",
        "boundary_type": "congressional_district",
        "name": "Congressional District 4",
        "stateFips": "41",
        "congress": 118,
        "district": "04",
        "bbox": [
          -124.566244,
          41.9956172960188,
          -121.772426,
          45.0449987048377
        ]
      },
      "geometry": {
        "type": "MultiPolygon",
        "coordinates": [
          [
            [
              [
                -124.323889,
                42.066648
              ],
              [
                -124.323214,
                42.067318
              ],
              [
                -124.322417,
                42.067459
              ],
              [
                -124.321769,
                42.067305
              ],
              [
                -124.321536,
                42.066766
              ],
              [
                -124.32138,
                42.066016
              ],
              [
                -124.321173,
                42.065612
              ],
              [
                -124.321095,
                42.065034
              ],
              [
                -124.321432,
                42.064573
              ],
              [
                -124.322087,
                42.064226
              ],
              [
                -124.322719,
                42.064104
              ],
              [
                -124.323287,
                42.064124
              ],
              [
                -124.323765,
                42.064438
              ],
              [
                -124.323739,
                42.065188
              ],
              [
                -124.32405,
                42.065785
              ],
              [
                -124.323889,
                42.066648
              ]
            ]
          ],
          [
            [
              [
                -124.427244,
                42.314462
              ],
              [
                -124.426878,
                42.315107
              ],
              [
                -124.426074,
                42.315529
              ],
              [
                -124.425349,
                42.315299
              ],
              [
                -124.424934,
                42.314781
              ],
              [
                -124.42496,
                42.314091
              ],
              [
                -124.424856,
                42.313325
              ],
              [
                -124.425038,
                42.312826
              ],
              [
                -124.425556,
                42.312673
              ],
              [
                -124.426126,
                42.312596
              ],
              [
                -124.42693,
                42.312846
              ],
              [
                -124.427251,
                42.313704
              ],
              [
                -124.427244,
                42.314462
              ]
            ]
          ],
          [
            [
              [
                -124.47709,
                42.66717
              ],
              [
                -124.476357,
                42.667622
              ],
              [
                -124.476278,
                42.667957
              ],
              [
                -124.475922,
                42.668452
              ],
              [
                -124.475545,
                42.668554
              ],
              [
                -124.474892,
                42.668029
              ],
              [
                -124.475088,
                42.667505
              ],
              [
                -124.474951,
                42.666748
              ],
              [
                -124.474793,
                42.666384
              ],
              [
                -124.475644,
                42.665743
              ],
              [
                -124.475862,
                42.665495
              ],
              [
                -124.476397,
                42.665888
              ],
              [
                -124.476971,
                42.666151
              ],
              [
                -124.477268,
                42.666602
              ],
              [
                -124.47709,
                42.66717
              ]
            ]
          ],
          [
            [
              [
                -124.564595,
                42.840876
              ],
              [
                -124.552441,
                42.840568
              ],
              [
                -124.53648,
                42.862354
              ],
              [
                -124.462619,
                42.99143
              ],
              [
                -124.436198,
                43.071312
              ],
              [
                -124.43785,
                43.114016
              ],
              [
                -124.424113,
                43.126859
              ],
              [
                -124.401726,
                43.184896
              ],
              [
                -124.38246,
                43.270167
              ],
              [
                -124.402814,
                43.305872
              ],
              [
                -124.384603,
                43.332848
              ],
              [
                -124.343247,
                43.351517
              ],
              [
                -124.286896,
                43.436296
              ],
              [
                -124.232025,
                43.562393
              ],
              [
                -124.177685,
                43.767228
              ],
              [
                -124.138326,
                43.995325
              ],
              [
                -124.123975,
                44.105834
              ],
              [
                -124.128882,
                44.137549
              ],
              [
                -124.111054,
                44.235071
              ],
              [
                -124.1152,
                44.286486
              ],
              [
                -124.086872,
                44.405185
              ],
              [
                -124.083601,
                44.501123
              ],
              [
                -124.058281,
                44.658866
              ],
              [
                -124.063498,
                44.672442
              ],
              [
                -124.079249,
                44.6772
              ],
              [
                -124.068445,
                44.683094
              ],
              [
                -124.057901,
                44.735163
              ],
              [
                -124.075473,
                44.771403
              ],
              [
                -124.074066,
                44.798107
              ],
              [
                -124.063735,
                44.80531
              ],
              [
                -124.066622,
                44.830563
              ],
              [
                -124.054151,
                44.838233
              ],
              [
                -124.032296,
                44.900809
              ],
              [
                -124.008880714497,
                45.0449987048377
              ],
              [
                -123.724663,
                45.044432
              ],
              [
                -123.725001,
                44.739046
              ],
              [
                -123.704578,
                44.73898
              ],
              [
                -123.704467,
                44.721154
              ],
              [
                -123.149025,
                44.720225
              ],
              [
                -123.116892,
                44.676966
              ],
              [
                -123.088338,
                44.674243
              ],
              [
                -123.074122,
                44.65836
              ],
              [
                -123.078206,
                44.646585
              ],
              [
                -123.164752,
                44.637829
              ],
              [
                -123.171626,
                44.621011
              ],
              [
                -123.198028,
                44.602857
              ],
              [
                -123.181784,
                44.581736
              ],
              [
                -123.183184,
                44.567234
              ],
              [
                -123.202861,
                44.564057
              ],
              [
                -123.20281,
                44.533771
              ],
              [
                -123.210045,
                44.534004
              ],
              [
                -123.203623,
                44.52695
              ],
              [
                -123.221019,
                44.484751
              ],
              [
                -123.206866,
                44.429716
              ],
              [
                -123.221321,
                44.433411
              ],
              [
                -123.219258,
                44.414401
              ],
              [
                -123.23329,
                44.41101
              ],
              [
                -123.223614,
                44.393452
              ],
              [
                -123.244952,
                44.384143
              ],
              [
                -123.219011,
                44.362497
              ],
              [
                -123.235048,
                44.356979
              ],
              [
                -123.228518,
                44.342591
              ],
              [
                -123.245678,
                44.332099
              ],
              [
                -123.220295,
                44.32943
              ],
              [
                -123.216178,
                44.310808
              ],
              [
                -123.193766,
                44.306974
              ],
              [
                -123.193575,
                44.290742
              ],
              [
                -123.175133,
                44.275152
              ],
              [
                -123.178411,
                44.250918
              ],
              [
                -123.1512,
                44.228779
              ],
              [
                -123.165428,
                44.200071
              ],
              [
                -122.905755,
                44.200736
              ],
              [
                -122.903999,
                44.259129
              ],
              [
                -122.865545,
                44.25898
              ],
              [
                -122.865465,
                44.287317
              ],
              [
                -122.823015,
                44.27432
              ],
              [
                -122.807502,
                44.284053
              ],
              [
                -122.731121,
                44.28823
              ],
              [
                -122.657909,
                44.271093
              ],
              [
                -122.639699,
                44.249263
              ],
              [
                -122.593471,
                44.244427
              ],
              [
                -122.5754,
                44.235358
              ],
              [
                -122.577232,
                44.228044
              ],
              [
                -122.535382,
                44.23486
              ],
              [
                -122.503182,
                44.22167
              ],
              [
                -122.404748,
                44.22058
              ],
              [
                -122.379589,
                44.20944
              ],
              [
                -122.327313,
                44.231189
              ],
              [
                -122.32715,
                44.252841
              ],
              [
                -121.799426,
                44.25828
              ],
              [
                -121.789648,
                44.249326
              ],
              [
                -121.777905,
                44.218877
              ],
              [
                -121.785631,
                44.207811
              ],
              [
                -121.773407,
                44.185623
              ],
              [
                -121.779738,
                44.17565
              ],
              [
                -121.772426,
                44.16353
              ],
              [
                -121.78402,
                44.148462
              ],
              [
                -121.772735,
                44.139831
              ],
              [
                -121.772481,
                44.091034
              ],
              [
                -121.802225,
                44.052691
              ],
              [
                -121.834472,
                44.039744
              ],
              [
                -121.822016,
                44.012359
              ],
              [
                -121.828402,
                43.988727
              ],
              [
                -121.845087,
                43.976239
              ],
              [
                -121.836722,
                43.971232
              ],
              [
                -121.859711,
                43.961526
              ],
              [
                -121.869385,
                43.911859
              ],
              [
                -121.928213,
                43.909181
              ],
              [
                -121.939333,
                43.900866
              ],
              [
                -121.932415,
                43.894213
              ],
              [
                -121.975113,
                43.85757
              ],
              [
                -121.97546,
                43.811768
              ],
              [
                -121.963754,
                43.809736
              ],
              [
                -121.96739,
                43.78699
              ],
              [
                -121.960507,
                43.78124
              ],
              [
                -121.969609,
                43.769542
              ],
              [
                -121.961437,
                43.763745
              ],
              [
                -121.981248,
                43.742964
              ],
              [
                -121.966917,
                43.702821
              ],
              [
                -121.98691,
                43.653858
              ],
              [
                -121.964918,
                43.627045
              ],
              [
                -122.000095,
                43.626357
              ],
              [
                -122.010965,
                43.609274
              ],
              [
                -122.131009,
                43.557284
              ],
              [
                -122.149534,
                43.520693
              ],
              [
                -122.129797,
                43.505694
              ],
              [
                -122.130937,
                43.485057
              ],
              [
                -122.136912,
                43.456339
              ],
              [
                -122.15296,
                43.447662
              ],
              [
                -122.132034,
                43.440221
              ],
              [
                -122.741716,
                43.437395
              ],
              [
                -122.741914,
                43.517582
              ],
              [
                -122.893316,
                43.517426
              ],
              [
                -122.893366,
                43.50622
              ],
              [
                -122.910727,
                43.506252
              ],
              [
                -122.911148,
                43.492195
              ],
              [
                -122.923123,
                43.491466
              ],
              [
                -122.922468,
                43.476719
              ],
              [
                -122.93373,
                43.476278
              ],
              [
                -122.936,
                43.446091
              ],
              [
                -122.949277,
                43.443694
              ],
              [
                -122.9493,
                43.432656
              ],
              [
                -122.969249,
                43.43348
              ],
              [
                -122.97012,
                43.416965
              ],
              [
                -122.988536,
                43.416817
              ],
              [
                -122.988199,
                43.38768
              ],
              [
                -123.013696,
                43.385316
              ],
              [
                -123.018718,
                43.374453
              ],
              [
                -122.992848,
                43.357663
              ],
              [
                -122.996121,
                43.339809
              ],
              [
                -123.01483,
                43.329573
              ],
              [
                -123.005095,
                43.333432
              ],
              [
                -122.945049,
                43.298816
              ],
              [
                -122.981129,
                43.269287
              ],
              [
                -123.013776,
                43.262077
              ],
              [
                -123.075296,
                43.271407
              ],
              [
                -123.137008,
                43.21975
              ],
              [
                -123.170921,
                43.206158
              ],
              [
                -123.284664,
                43.207295
              ],
              [
                -123.337555,
                43.198749
              ],
              [
                -123.364759,
                43.180982
              ],
              [
                -123.363961,
                43.127248
              ],
              [
                -123.3546,
                43.109944
              ],
              [
                -123.366465,
                43.103465
              ],
              [
                -123.367755,
                43.090604
              ],
              [
                -123.355576,
                43.072002
              ],
              [
                -123.367486,
                43.072812
              ],
              [
                -123.3755,
                43.091998
              ],
              [
                -123.398672,
                43.078732
              ],
              [
                -123.440816,
                43.107581
              ],
              [
                -123.479536,
                43.101251
              ],
              [
                -123.502483,
                43.115956
              ],
              [
                -123.561165,
                43.097742
              ],
              [
                -123.597672,
                43.07106
              ],
              [
                -123.649849,
                43.064856
              ],
              [
                -123.694402,
                43.011845
              ],
              [
                -123.747896,
                42.973796
              ],
              [
                -123.821121,
                42.965284
              ],
              [
                -123.820439,
                42.824112
              ],
              [
                -123.811789,
                42.824101
              ],
              [
                -123.811553,
                42.788837
              ],
              [
                -123.783304,
                42.799426
              ],
              [
                -123.732315,
                42.780131
              ],
              [
                -123.716492,
                42.784061
              ],
              [
                -123.831264,
                42.632313
              ],
              [
                -123.819403,
                42.612446
              ],
              [
                -123.849558,
                42.583718
              ],
              [
                -123.860937,
                42.560389
              ],
              [
                -123.854785,
                42.550614
              ],
              [
                -123.87914,
                42.522885
              ],
              [
                -123.875164,
                42.513244
              ],
              [
                -123.919321,
                42.494737
              ],
              [
                -123.945943,
                42.501334
              ],
              [
                -124.008397,
                42.496352
              ],
              [
                -124.001381,
                42.453996
              ],
              [
                -124.014755,
                42.434222
              ],
              [
                -124.009392,
                42.418667
              ],
              [
                -124.041983,
                42.387656
              ],
              [
                -124.026947,
                42.359199
              ],
              [
                -123.936538,
                42.361625
              ],
              [
                -123.920408,
                42.346469
              ],
              [
                -123.888026,
                42.351454
              ],
              [
                -123.869582,
                42.322796
              ],
              [
                -123.839496,
                42.312202
              ],
              [
                -123.847315,
                42.299219
              ],
              [
                -123.814997,
                42.262603
              ],
              [
                -123.812203,
                42.24399
              ],
              [
                -123.7922,
                42.237623
              ],
              [
                -123.790462,
                42.220457
              ],
              [
                -123.808796,
                42.216961
              ],
              [
                -123.820471,
                42.198974
              ],
              [
                -123.812603,
                42.169651
              ],
              [
                -123.858487,
                42.134858
              ],
              [
                -123.839241,
                42.124671
              ],
              [
                -123.821973,
                42.086567
              ],
              [
                -123.84964,
                42.044643
              ],
              [
                -123.822037891998,
                41.9956172960188
              ],
              [
                -124.211605,
                41.99846
              ],
              [
                -124.270464,
                42.045553
              ],
              [
                -124.291269,
                42.043979
              ],
              [
                -124.354027,
                42.103539
              ],
              [
                -124.351784,
                42.134965
              ],
              [
                -124.366832,
                42.15845
              ],
              [
                -124.361009,
                42.180752
              ],
              [
                -124.376215,
                42.196381
              ],
              [
                -124.383633,
                42.22716
              ],
              [
                -124.414149,
                42.252164
              ],
              [
                -124.411815,
                42.307393
              ],
              [
                -124.433063,
                42.323976
              ],
              [
                -124.424759,
                42.376993
              ],
              [
                -124.43512,
                42.441926
              ],
              [
                -124.422038,
                42.461226
              ],
              [
                -124.422195,
                42.496427
              ],
              [
                -124.389977,
                42.574758
              ],
              [
                -124.408289,
                42.594815
              ],
              [
                -124.401177,
                42.627192
              ],
              [
                -124.416774,
                42.661594
              ],
              [
                -124.45074,
                42.675798
              ],
              [
                -124.449417,
                42.689819
              ],
              [
                -124.473864,
                42.732671
              ],
              [
                -124.491679,
                42.741789
              ],
              [
                -124.513663,
                42.732949
              ],
              [
                -124.536073,
                42.814175
              ],
              [
                -124.566244,
                42.836392
              ],
              [
                -124.564595,
                42.840876
              ]
            ]
          ]
        ]
      }
    },
    {
      "type": "Feature",
      "id": "us-cd:118:41:05",
      "properties": {
        "boundary_id": "us-cd:118:41:05",
        "boundary_type": "congressional_district",
        "name": "Congressional District 5",
        "stateFips": "41",
        "congress": 118,
        "district": "05",
        "bbox": [
          -123.245678,
          43.794714,
          -121.102781,
          45.479163
        ]
      },
      "geometry": {
        "type": "Polygon",
        "coordinates": [
          [
            [
              -123.245334,
              44.33363
            ],
            [
              -123.228518,
              44.342591
            ],
            [
              -123.235048,
              44.356979
            ],
            [
              -123.219011,
              44.362497
            ],
            [
              -123.244952,
              44.384143
            ],
            [
              -123.223614,
              44.393452
            ],
            [
              -123.23329,
              44.41101
            ],
            [
              -123.219258,
              44.414401
            ],
            [
              -123.221321,
              44.433411
            ],
            [
              -123.206866,
              44.429716
            ],
            [
              -123.221019,
              44.484751
            ],
            [
              -123.203623,
              44.52695
            ],
            [
              -123.210045,
              44.534004
            ],
            [
              -123.20281,
              44.533771
            ],
            [
              -123.202861,
              44.564057
            ],
            [
              -123.183184,
              44.567234
            ],
            [
              -123.181784,
              44.581736
            ],
            [
              -123.198028,
              44.602857
            ],
            [
              -123.171626,
              44.621011
            ],
            [
              -123.164752,
              44.637829
            ],
            [
              -123.105311,
              44.639202
            ],
            [
              -123.073574,
              44.650495
            ],
            [
              -123.088338,
              44.674243
            ],
            [
              -123.116892,
              44.676966
            ],
            [
              -123.145982,
              44.711407
            ],
            [
              -123.150429,
              44.727611
            ],
            [
              -123.132445,
              44.741157
            ],
            [
              -123.143843,
              44.748914
            ],
            [
              -123.113025,
              44.759483
            ],
            [
              -123.10009,
              44.74631
            ],
            [
              -123.062154,
              44.748042
            ],
            [
              -123.060106,
              44.737684
            ],
            [
              -123.039988,
              44.735833
            ],
            [
              -123.03941,
              44.723498
            ],
            [
              -123.018153,
              44.723642
            ],
            [
              -123.01921,
              44.698027
            ],
            [
              -123.000013,
              44.686916
            ],
            [
              -122.996175,
              44.695699
            ],
            [
              -122.974427,
              44.698606
            ],
            [
              -122.956902,
              44.721372
            ],
            [
              -122.93408,
              44.71578
            ],
            [
              -122.864965,
              44.7583
            ],
            [
              -122.874894,
              44.791902
            ],
            [
              -122.8349,
              44.79138
            ],
            [
              -122.855177,
              44.796368
            ],
            [
              -122.843528,
              44.802487
            ],
            [
              -122.854415,
              44.846024
            ],
            [
              -122.950453,
              44.905968
            ],
            [
              -122.960921,
              44.9618
            ],
            [
              -122.953207,
              45.00447
            ],
            [
              -122.97648,
              45.00456
            ],
            [
              -122.975969,
              45.02089
            ],
            [
              -122.937352,
              45.068196
            ],
            [
              -122.881984,
              45.109731
            ],
            [
              -122.840224,
              45.127963
            ],
            [
              -122.800061,
              45.186362
            ],
            [
              -122.747151,
              45.223337
            ],
            [
              -122.751948,
              45.242542
            ],
            [
              -122.738988,
              45.259532
            ],
            [
              -122.746475,
              45.263489
            ],
            [
              -122.716713,
              45.28471
            ],
            [
              -122.723061,
              45.30162
            ],
            [
              -122.743954,
              45.299353
            ],
            [
              -122.731306,
              45.311154
            ],
            [
              -122.74375,
              45.317548
            ],
            [
              -122.743923,
              45.372181
            ],
            [
              -122.72285,
              45.37623
            ],
            [
              -122.719348,
              45.395191
            ],
            [
              -122.721991,
              45.410822
            ],
            [
              -122.744029,
              45.415311
            ],
            [
              -122.743703,
              45.442944
            ],
            [
              -122.688089,
              45.470265
            ],
            [
              -122.637172,
              45.464285
            ],
            [
              -122.608727,
              45.479163
            ],
            [
              -122.568612,
              45.479123
            ],
            [
              -122.561126,
              45.474163
            ],
            [
              -122.571309,
              45.461392
            ],
            [
              -122.543627,
              45.459973
            ],
            [
              -122.530923,
              45.44695
            ],
            [
              -122.538101,
              45.431983
            ],
            [
              -122.527748,
              45.436075
            ],
            [
              -122.527722,
              45.428038
            ],
            [
              -122.514921,
              45.424872
            ],
            [
              -122.517511,
              45.408403
            ],
            [
              -122.502068,
              45.395477
            ],
            [
              -122.468496,
              45.384236
            ],
            [
              -122.422531,
              45.389099
            ],
            [
              -122.398193,
              45.373214
            ],
            [
              -122.381407,
              45.355216
            ],
            [
              -122.387093,
              45.315647
            ],
            [
              -122.361549,
              45.308533
            ],
            [
              -122.367027,
              45.296726
            ],
            [
              -122.351219,
              45.30022
            ],
            [
              -122.342621,
              45.28647
            ],
            [
              -122.324368,
              45.280553
            ],
            [
              -122.314281,
              45.267045
            ],
            [
              -122.332609,
              45.269496
            ],
            [
              -122.332908,
              45.261963
            ],
            [
              -122.291638,
              45.229502
            ],
            [
              -122.264378,
              45.23607
            ],
            [
              -122.238274,
              45.215266
            ],
            [
              -122.230516,
              45.215626
            ],
            [
              -122.230516,
              45.230188
            ],
            [
              -122.207493,
              45.207392
            ],
            [
              -122.160642,
              45.202873
            ],
            [
              -122.023912,
              45.220171
            ],
            [
              -122.029358,
              45.208122
            ],
            [
              -122.022682,
              45.200844
            ],
            [
              -122.002329,
              45.203321
            ],
            [
              -122.002966,
              45.260859
            ],
            [
              -121.946634,
              45.261045
            ],
            [
              -121.938202,
              45.272171
            ],
            [
              -121.854698,
              45.219612
            ],
            [
              -121.824554,
              45.226501
            ],
            [
              -121.78389,
              45.214478
            ],
            [
              -121.739403,
              45.218533
            ],
            [
              -121.700417,
              45.240638
            ],
            [
              -121.698375,
              45.226448
            ],
            [
              -121.712953,
              45.212368
            ],
            [
              -121.748245,
              45.2051
            ],
            [
              -121.747973,
              45.188995
            ],
            [
              -121.731438,
              45.170633
            ],
            [
              -121.748283,
              45.161946
            ],
            [
              -121.723212,
              45.136982
            ],
            [
              -121.734628,
              45.045727
            ],
            [
              -121.740994,
              45.034428
            ],
            [
              -121.778672,
              45.037277
            ],
            [
              -121.781177,
              45.01572
            ],
            [
              -121.805269,
              45.011496
            ],
            [
              -121.803345,
              44.977103
            ],
            [
              -121.785593,
              44.950377
            ],
            [
              -121.79511,
              44.935668
            ],
            [
              -121.764083,
              44.941952
            ],
            [
              -121.752417,
              44.93057
            ],
            [
              -121.775926,
              44.819846
            ],
            [
              -121.812221,
              44.811574
            ],
            [
              -121.820278,
              44.800134
            ],
            [
              -121.812542,
              44.781716
            ],
            [
              -121.783621,
              44.772641
            ],
            [
              -121.788525,
              44.747845
            ],
            [
              -121.804597,
              44.729236
            ],
            [
              -121.794385,
              44.725896
            ],
            [
              -121.802975,
              44.709506
            ],
            [
              -121.787179,
              44.689291
            ],
            [
              -121.800402,
              44.683013
            ],
            [
              -121.797945,
              44.640313
            ],
            [
              -121.811566,
              44.615767
            ],
            [
              -121.793895,
              44.594056
            ],
            [
              -121.816317,
              44.537376
            ],
            [
              -121.809382,
              44.514425
            ],
            [
              -121.84938,
              44.484523
            ],
            [
              -121.84552,
              44.424733
            ],
            [
              -121.765701,
              44.418407
            ],
            [
              -121.713488,
              44.429543
            ],
            [
              -121.674928,
              44.393387
            ],
            [
              -121.107534,
              44.3906
            ],
            [
              -121.102781,
              44.169238
            ],
            [
              -121.116904,
              44.160206
            ],
            [
              -121.173741,
              44.159568
            ],
            [
              -121.224489,
              44.118387
            ],
            [
              -121.229498,
              44.094671
            ],
            [
              -121.25362,
              44.087483
            ],
            [
              -121.243747,
              44.007762
            ],
            [
              -121.284103,
              44.011583
            ],
            [
              -121.29413,
              44.000647
            ],
            [
              -121.325315,
              43.995992
            ],
            [
              -121.334252,
              43.963128
            ],
            [
              -121.347702,
              43.962277
            ],
            [
              -121.350666,
              43.912939
            ],
            [
              -121.399125,
              43.875485
            ],
            [
              -121.428877,
              43.819474
            ],
            [
              -121.462667,
              43.81942
            ],
            [
              -121.455641,
              43.837473
            ],
            [
              -121.46578,
              43.846329
            ],
            [
              -121.45331,
              43.85453
            ],
            [
              -121.456186,
              43.863021
            ],
            [
              -121.458094,
              43.854593
            ],
            [
              -121.484369,
              43.858262
            ],
            [
              -121.489775,
              43.846001
            ],
            [
              -121.508207,
              43.838889
            ],
            [
              -121.520294,
              43.856702
            ],
            [
              -121.574537,
              43.836519
            ],
            [
              -121.588637,
              43.841036
            ],
            [
              -121.600171,
              43.826007
            ],
            [
              -121.671564,
              43.834351
            ],
            [
              -121.702367,
              43.826505
            ],
            [
              -121.727479,
              43.836137
            ],
            [
              -121.912788,
              43.794714
            ],
            [
              -121.97546,
              43.811768
            ],
            [
              -121.975113,
              43.85757
            ],
            [
              -121.932415,
              43.894213
            ],
            [
              -121.939333,
              43.900866
            ],
            [
              -121.928213,
              43.909181
            ],
            [
              -121.869385,
              43.911859
            ],
            [
              -121.859711,
              43.961526
            ],
            [
              -121.836722,
              43.971232
            ],
            [
              -121.845087,
              43.976239
            ],
            [
              -121.828402,
              43.988727
            ],
            [
              -121.822016,
              44.012359
            ],
            [
              -121.834472,
              44.039744
            ],
            [
              -121.802225,
              44.052691
            ],
            [
              -121.772481,
              44.091034
            ],
            [
              -121.772735,
              44.139831
            ],
            [
              -121.78402,
              44.148462
            ],
            [
              -121.771647,
              44.167583
            ],
            [
              -121.785631,
              44.207811
            ],
            [
              -121.778226,
              44.221483
            ],
            [
              -121.799426,
              44.25828
            ],
            [
              -122.32715,
              44.252841
            ],
            [
              -122.327313,
              44.231189
            ],
            [
              -122.379589,
              44.20944
            ],
            [
              -122.404748,
              44.22058
            ],
            [
              -122.503182,
              44.22167
            ],
            [
              -122.535382,
              44.23486
            ],
            [
              -122.577232,
              44.228044
            ],
            [
              -122.5754,
              44.235358
            ],
            [
              -122.593471,
              44.244427
            ],
            [
              -122.639699,
              44.249263
            ],
            [
              -122.657909,
              44.271093
            ],
            [
              -122.731121,
              44.28823
            ],
            [
              -122.807502,
              44.284053
            ],
            [
              -122.823015,
              44.27432
            ],
            [
              -122.865465,
              44.287317
            ],
            [
              -122.865545,
              44.25898
            ],
            [
              -122.903999,
              44.259129
            ],
            [
              -122.905755,
              44.200736
            ],
            [
              -123.165428,
              44.200071
            ],
            [
              -123.15034,
              44.226627
            ],
            [
              -123.178411,
              44.250918
            ],
            [
              -123.175133,
              44.275152
            ],
            [
              -123.193575,
              44.290742
            ],
            [
              -123.193766,
              44.306974
            ],
            [
              -123.216178,
              44.310808
            ],
            [
              -123.220295,
              44.32943
            ],
            [
              -123.245678,
              44.332099
            ],
            [
              -123.245334,
              44.33363
            ]
          ]
        ]
      }
    },
    {
      "type": "Feature",
      "id": "us-cd:118:41:06",
      "properties": {
        "boundary_id": "us-cd:118:41:06",
        "boundary_type": "congressional_district",
        "name": "Congressional District 6",
        "stateFips": "41",
        "congress": 118,
        "district": "06",
        "bbox": [
          -123.785567,
          44.686916,
          -122.716713,
          45.487084
        ]
      },
      "geometry": {
        "type": "Polygon",
        "coordinates": [
          [
            [
              -123.785332,
              45.166922
            ],
            [
              -123.78454,
              45.216294
            ],
            [
              -123.463518,
              45.216312
            ],
            [
              -123.46488,
              45.433332
            ],
            [
              -123.135427,
              45.433459
            ],
            [
              -123.134658,
              45.418937
            ],
            [
              -123.114696,
              45.418957
            ],
            [
              -123.114641,
              45.404383
            ],
            [
              -123.032161,
              45.404962
            ],
            [
              -123.032294,
              45.390891
            ],
            [
              -123.01129,
              45.390905
            ],
            [
              -123.011653,
              45.376348
            ],
            [
              -122.991388,
              45.375468
            ],
            [
              -122.991396,
              45.361096
            ],
            [
              -122.9703,
              45.36077
            ],
            [
              -122.967278,
              45.346834
            ],
            [
              -122.928873,
              45.34628
            ],
            [
              -122.916054,
              45.348868
            ],
            [
              -122.90675,
              45.367853
            ],
            [
              -122.863353,
              45.36772
            ],
            [
              -122.851823,
              45.389564
            ],
            [
              -122.831183,
              45.401685
            ],
            [
              -122.841361,
              45.40432
            ],
            [
              -122.836326,
              45.426528
            ],
            [
              -122.849219,
              45.426791
            ],
            [
              -122.851671,
              45.447673
            ],
            [
              -122.836283,
              45.452994
            ],
            [
              -122.836273,
              45.465646
            ],
            [
              -122.785936,
              45.469393
            ],
            [
              -122.792829,
              45.486548
            ],
            [
              -122.743745,
              45.487084
            ],
            [
              -122.744029,
              45.415311
            ],
            [
              -122.721991,
              45.410822
            ],
            [
              -122.72285,
              45.37623
            ],
            [
              -122.743923,
              45.372181
            ],
            [
              -122.74375,
              45.317548
            ],
            [
              -122.731306,
              45.311154
            ],
            [
              -122.743954,
              45.299353
            ],
            [
              -122.723061,
              45.30162
            ],
            [
              -122.716713,
              45.28471
            ],
            [
              -122.746475,
              45.263489
            ],
            [
              -122.738988,
              45.259532
            ],
            [
              -122.751948,
              45.242542
            ],
            [
              -122.747151,
              45.223337
            ],
            [
              -122.800061,
              45.186362
            ],
            [
              -122.840224,
              45.127963
            ],
            [
              -122.902472,
              45.095713
            ],
            [
              -122.975685,
              45.022826
            ],
            [
              -122.97648,
              45.00456
            ],
            [
              -122.953207,
              45.00447
            ],
            [
              -122.960921,
              44.9618
            ],
            [
              -122.950453,
              44.905968
            ],
            [
              -122.854415,
              44.846024
            ],
            [
              -122.843528,
              44.802487
            ],
            [
              -122.855177,
              44.796368
            ],
            [
              -122.8349,
              44.79138
            ],
            [
              -122.874894,
              44.791902
            ],
            [
              -122.864965,
              44.7583
            ],
            [
              -122.93408,
              44.71578
            ],
            [
              -122.956902,
              44.721372
            ],
            [
              -122.974427,
              44.698606
            ],
            [
              -122.996175,
              44.695699
            ],
            [
              -123.000013,
              44.686916
            ],
            [
              -123.01921,
              44.698027
            ],
            [
              -123.019999,
              44.725376
            ],
            [
              -123.034095,
              44.720551
            ],
            [
              -123.039988,
              44.735833
            ],
            [
              -123.060106,
              44.737684
            ],
            [
              -123.062154,
              44.748042
            ],
            [
              -123.10009,
              44.74631
            ],
            [
              -123.113025,
              44.759483
            ],
            [
              -123.143843,
              44.748914
            ],
            [
              -123.132445,
              44.741157
            ],
            [
              -123.149025,
              44.720225
            ],
            [
              -123.704467,
              44.721154
            ],
            [
              -123.704578,
              44.73898
            ],
            [
              -123.725001,
              44.739046
            ],
            [
              -123.724362,
              45.076777
            ],
            [
              -123.784016,
              45.076657
            ],
            [
              -123.785567,
              45.159712
            ],
            [
              -123.785332,
              45.166922
            ]
          ]
        ]
      }
    }
  ]
}
