{
  "type": "FeatureCollection",
  "features": [
    {
      "type": "Feature",
      "id": "us-cd:119:55:01",
      "properties": {
        "boundary_id": "us-cd:119:55:01",
        "boundary_type": "congressional_district",
        "name": "1",
        "stateFips": "55",
        "congress": 119,
        "district": "01",
        "bbox": [
          -89.13108600025625,
          42.4937630000481,
          -87.01986300035549,
          43.04232299991159
        ]
      },
      "geometry": {
        "type": "Polygon",
        "coordinates": [
          [
            [
              -89.13108600025625,
              42.7522410003161
            ],
            [
              -89.13099199964661,
              42.725440000057226
            ],
            [
              -89.12166000043787,
              42.71589000001844
            ],
            [
              -89.10403300011637,
              42.7157529996785
            ],
            [
              -89.10446099973855,
              42.73031899987239
            ],
            [
              -89.08000399961577,
              42.73021999995481
            ],
            [
              -89.0797669997893,
              42.72185299996708
            ],
            [
              -89.06193899962638,
              42.71879700027981
            ],
            [
              -89.07222300013555,
              42.720438999746214
            ],
            [
              -89.07669799994422,
              42.69009899978388
            ],
            [
              -89.06927700031412,
              42.68639100000965
            ],
            [
              -89.08072300038938,
              42.67594900000765
            ],
            [
              -89.0647289998122,
              42.67180600008881
            ],
            [
              -89.07127300028155,
              42.664330000319
            ],
            [
              -89.05998700003984,
              42.66055500006529
            ],
            [
              -89.08039100012837,
              42.62806399968317
            ],
            [
              -89.07048699956079,
              42.62749699971198
            ],
            [
              -89.06554700032002,
              42.63893200008356
            ],
            [
              -89.06816199970537,
              42.626980000251635
            ],
            [
              -89.05063599966623,
              42.621699999791716
            ],
            [
              -89.05253700009743,
              42.60761000007144
            ],
            [
              -89.02584399980768,
              42.60614000001337
            ],
            [
              -89.02615900035026,
              42.630941000140304
            ],
            [
              -88.99519899976599,
              42.634234999724015
            ],
            [
              -88.98271300032334,
              42.62298099973922
            ],
            [
              -88.97477299993618,
              42.54667500024522
            ],
            [
              -88.94778900029159,
              42.5384699998436
            ],
            [
              -88.98549799958799,
              42.53585099976598
            ],
            [
              -88.98744300040013,
              42.546953000085196
            ],
            [
              -89.00263299981489,
              42.539331999989066
            ],
            [
              -89.00255800037014,
              42.56497600032348
            ],
            [
              -89.01124199984866,
              42.5685290000091
            ],
            [
              -89.01162199979026,
              42.54671000020985
            ],
            [
              -89.03037600041606,
              42.54826400003997
            ],
            [
              -89.04000800009878,
              42.540161000047654
            ],
            [
              -89.03735199980724,
              42.52519300005005
            ],
            [
              -89.05579699973822,
              42.526373999776034
            ],
            [
              -89.04399500001081,
              42.53271000005351
            ],
            [
              -89.05150699987749,
              42.53254200010404
            ],
            [
              -89.04506700006353,
              42.54714600011019
            ],
            [
              -89.0707760001641,
              42.55469099984652
            ],
            [
              -89.08084800006287,
              42.52558699968294
            ],
            [
              -89.06744399965496,
              42.49624800008397
            ],
            [
              -87.01986300035549,
              42.4937630000481
            ],
            [
              -87.09753000043237,
              43.042316999851806
            ],
            [
              -87.87812199991761,
              43.04232299991159
            ],
            [
              -87.88842399997014,
              43.03369200031121
            ],
            [
              -87.88774399955457,
              43.019326000085265
            ],
            [
              -87.85325100041635,
              42.986463999875724
            ],
            [
              -87.8939969997708,
              42.97327900011324
            ],
            [
              -87.88325000037764,
              42.95912799984721
            ],
            [
              -87.8891319999748,
              42.92268799993256
            ],
            [
              -87.89032700005117,
              42.93003599985517
            ],
            [
              -87.9299519998474,
              42.93027700029256
            ],
            [
              -87.93059799992778,
              42.9208230001938
            ],
            [
              -87.9404969995742,
              42.92089599978988
            ],
            [
              -87.94014900031796,
              42.93030900022517
            ],
            [
              -87.96924699993076,
              42.93038999973354
            ],
            [
              -87.972678999999,
              42.94489400023142
            ],
            [
              -87.98864099989082,
              42.95213400015147
            ],
            [
              -88.06928999977416,
              42.95237400018735
            ],
            [
              -88.06992400015899,
              42.84332299993456
            ],
            [
              -88.30638400022205,
              42.842095000248925
            ],
            [
              -88.31040999959384,
              42.75550600010616
            ],
            [
              -88.42601699984412,
              42.7562370000099
            ],
            [
              -88.42407000028047,
              42.84258700003911
            ],
            [
              -89.0135180001986,
              42.84762800032008
            ],
            [
              -89.01364799989494,
              42.76018199998626
            ],
            [
              -89.13100099986742,
              42.755829000068516
            ],
            [
              -89.13108600025625,
              42.7522410003161
            ]
          ]
        ]
      }
    },
    {
      "type": "Feature",
      "id": "us-cd:119:55:02",
      "properties": {
        "boundary_id": "us-cd:119:55:02",
        "boundary_type": "congressional_district",
        "name": "2",
        "stateFips": "55",
        "congress": 119,
        "district": "02",
        "bbox": [
          -90.43000100040227,
          42.49624800008397,
          -88.94780299963698,
          43.64172900015973
        ]
      },
      "geometry": {
        "type": "Polygon",
        "coordinates": [
          [
            [
              -90.43000100040227,
              43.129842000074596
            ],
            [
              -90.42637799963998,
              42.507076000074036
            ],
            [
              -89.06744399965496,
              42.49624800008397
            ],
            [
              -89.08084800006287,
              42.52558699968294
            ],
            [
              -89.0707760001641,
              42.55469099984652
            ],
            [
              -89.04506700006353,
              42.54714600011019
            ],
            [
              -89.05150699987749,
              42.53254200010404
            ],
            [
              -89.04399500001081,
              42.53271000005351
            ],
            [
              -89.05579699973822,
              42.526373999776034
            ],
            [
              -89.03735199980724,
              42.52519300005005
            ],
            [
              -89.04000800009878,
              42.540161000047654
            ],
            [
              -89.03037600041606,
              42.54826400003997
            ],
            [
              -89.01162199979026,
              42.54671000020985
            ],
            [
              -89.01124199984866,
              42.5685290000091
            ],
            [
              -89.00255800037014,
              42.56497600032348
            ],
            [
              -89.00263299981489,
              42.539331999989066
            ],
            [
              -88.98744300040013,
              42.546953000085196
            ],
            [
              -88.98549799958799,
              42.53585099976598
            ],
            [
              -88.94780299963698,
              42.538372000196304
            ],
            [
              -88.97477299993618,
              42.54667500024522
            ],
            [
              -88.98271300032334,
              42.62298099973922
            ],
            [
              -88.99519899976599,
              42.634234999724015
            ],
            [
              -89.02615900035026,
              42.630941000140304
            ],
            [
              -89.02584399980768,
              42.60614000001337
            ],
            [
              -89.05253700009743,
              42.60761000007144
            ],
            [
              -89.05063599966623,
              42.621699999791716
            ],
            [
              -89.06816199970537,
              42.626980000251635
            ],
            [
              -89.06554700032002,
              42.63893200008356
            ],
            [
              -89.07048699956079,
              42.62749699971198
            ],
            [
              -89.08039100012837,
              42.62806399968317
            ],
            [
              -89.05998700003984,
              42.66055500006529
            ],
            [
              -89.07127300028155,
              42.664330000319
            ],
            [
              -89.0647289998122,
              42.67180600008881
            ],
            [
              -89.08072300038938,
              42.67594900000765
            ],
            [
              -89.06927700031412,
              42.68639100000965
            ],
            [
              -89.07669799994422,
              42.69009899978388
            ],
            [
              -89.07222300013555,
              42.720438999746214
            ],
            [
              -89.06193899962638,
              42.71879700027981
            ],
            [
              -89.0797669997893,
              42.72185299996708
            ],
            [
              -89.08000399961577,
              42.73021999995481
            ],
            [
              -89.10446099973855,
              42.73031899987239
            ],
            [
              -89.10403300011637,
              42.7157529996785
            ],
            [
              -89.13099199964661,
              42.725440000057226
            ],
            [
              -89.13108100023337,
              42.7595509997485
            ],
            [
              -89.01364799989494,
              42.76018199998626
            ],
            [
              -89.0091389997511,
              43.28482999992188
            ],
            [
              -89.36239500029306,
              43.28129599969209
            ],
            [
              -89.36315900037421,
              43.29403599974004
            ],
            [
              -89.72046300002927,
              43.293084000226834
            ],
            [
              -89.72363200033179,
              43.3144510001809
            ],
            [
              -89.67926900006285,
              43.36018500020842
            ],
            [
              -89.63137300034164,
              43.36539500015089
            ],
            [
              -89.60072999994976,
              43.38066600009367
            ],
            [
              -89.59935699959816,
              43.55804100003622
            ],
            [
              -89.73054699962358,
              43.570436999741815
            ],
            [
              -89.73444700039529,
              43.57876700014643
            ],
            [
              -89.71764500025435,
              43.597607000190614
            ],
            [
              -89.76746099977503,
              43.606309000312685
            ],
            [
              -89.78580899962164,
              43.64104900008378
            ],
            [
              -90.07239200025039,
              43.64172900015973
            ],
            [
              -90.073168999852,
              43.482158000153476
            ],
            [
              -90.11131599971465,
              43.482203000268534
            ],
            [
              -90.10296399959881,
              43.488004999991944
            ],
            [
              -90.10341499968551,
              43.50395700032501
            ],
            [
              -90.10998000007127,
              43.50396499967611
            ],
            [
              -90.13286300000102,
              43.489011999798784
            ],
            [
              -90.14753699993004,
              43.46036499987595
            ],
            [
              -90.19178100037328,
              43.46738299982402
            ],
            [
              -90.19381400015067,
              43.16446399986021
            ],
            [
              -90.25871600022732,
              43.19722999979462
            ],
            [
              -90.28355499994153,
              43.19527499983617
            ],
            [
              -90.2978020000733,
              43.20821099989952
            ],
            [
              -90.42982499977686,
              43.200940000149906
            ],
            [
              -90.42997799993772,
              43.132750000105105
            ],
            [
              -90.43000100040227,
              43.129842000074596
            ]
          ]
        ]
      }
    },
    {
      "type": "Feature",
      "id": "us-cd:119:55:03",
      "properties": {
        "boundary_id": "us-cd:119:55:03",
        "boundary_type": "congressional_district",
        "name": "3",
        "stateFips": "55",
        "congress": 119,
        "district": "03",
        "bbox": [
          -92.8084149997232,
          42.507172999848464,
          -89.22374500027946,
          45.20955400009256
        ]
      },
      "geometry": {
        "type": "Polygon",
        "coordinates": [
          [
            [
              -92.8084149997232,
              44.751860000069264
            ],
            [
              -92.6320210002531,
              44.649186999955084
            ],
            [
              -92.62021500032772,
              44.63419400004061
            ],
            [
              -92.62164200020769,
              44.614929000208015
            ],
            [
              -92.58621600003559,
              44.60008800003348
            ],
            [
              -92.56894600008948,
              44.6033719998859
            ],
            [
              -92.5488890003306,
              44.568251999763085
            ],
            [
              -92.51921800043236,
              44.57527499968985
            ],
            [
              -92.43862599955212,
              44.5526390000174
            ],
            [
              -92.41567499985032,
              44.560506000000096
            ],
            [
              -92.33611399991322,
              44.55400399985991
            ],
            [
              -92.31407100023264,
              44.538013999885415
            ],
            [
              -92.2910050000048,
              44.48546400023262
            ],
            [
              -92.23085599957115,
              44.444496000023435
            ],
            [
              -92.0564859996576,
              44.40272899997856
            ],
            [
              -91.96680900033911,
              44.363986000308685
            ],
            [
              -91.91862499983951,
              44.32267100019306
            ],
            [
              -91.91357400027067,
              44.31039200011726
            ],
            [
              -91.92461299974187,
              44.29181500021648
            ],
            [
              -91.89638799999017,
              44.27468999996861
            ],
            [
              -91.88703999998958,
              44.25177200017315
            ],
            [
              -91.89269800017904,
              44.231105000232596
            ],
            [
              -91.8751579998962,
              44.200575000013394
            ],
            [
              -91.8080640000335,
              44.1592620000754
            ],
            [
              -91.72155199992129,
              44.130341999930366
            ],
            [
              -91.70749099956234,
              44.10390599981942
            ],
            [
              -91.68152999956669,
              44.09740000023129
            ],
            [
              -91.64787299958134,
              44.06410900003621
            ],
            [
              -91.61048700032512,
              44.04931000029134
            ],
            [
              -91.59206999998321,
              44.0313719999982
            ],
            [
              -91.43926499989936,
              44.00098800018589
            ],
            [
              -91.36664199971861,
              43.937462999702596
            ],
            [
              -91.3574250001376,
              43.91723099979557
            ],
            [
              -91.28413800033316,
              43.847064999836704
            ],
            [
              -91.26243299986304,
              43.7921699996905
            ],
            [
              -91.24413500024514,
              43.77466699974752
            ],
            [
              -91.26845500010059,
              43.70982400003118
            ],
            [
              -91.27325200012451,
              43.66662299993697
            ],
            [
              -91.26239699987802,
              43.641760000023744
            ],
            [
              -91.26874800000354,
              43.61534800010485
            ],
            [
              -91.23186499981425,
              43.58182200017388
            ],
            [
              -91.24318299984301,
              43.54030900031795
            ],
            [
              -91.21735300026693,
              43.51247399983535
            ],
            [
              -91.2160350001669,
              43.4811419998452
            ],
            [
              -91.2333670000373,
              43.45516799988607
            ],
            [
              -91.20314399977,
              43.41980500004604
            ],
            [
              -91.19766999970356,
              43.39533399987053
            ],
            [
              -91.21476999977033,
              43.36587399981738
            ],
            [
              -91.20396399992765,
              43.349852000064885
            ],
            [
              -91.10723699980153,
              43.313644999901754
            ],
            [
              -91.07371000041083,
              43.274746000095476
            ],
            [
              -91.07264900022875,
              43.26212900001983
            ],
            [
              -91.05791800039832,
              43.25536600002259
            ],
            [
              -91.06639799966236,
              43.23929300005809
            ],
            [
              -91.12217000019666,
              43.19725500023596
            ],
            [
              -91.14619999962386,
              43.15240499967719
            ],
            [
              -91.17793199978688,
              43.128874999903886
            ],
            [
              -91.17945699957613,
              43.06742700031004
            ],
            [
              -91.14593500020831,
              42.96076999988506
            ],
            [
              -91.1447939996603,
              42.90599699977146
            ],
            [
              -91.10056500018396,
              42.883078000216855
            ],
            [
              -91.09406000007267,
              42.830812999805794
            ],
            [
              -91.07866499972019,
              42.82767799993532
            ],
            [
              -91.06954900042152,
              42.76962800011304
            ],
            [
              -91.0602609997971,
              42.761846999680664
            ],
            [
              -91.06578300044242,
              42.75338699995389
            ],
            [
              -91.05373300011956,
              42.738238000322234
            ],
            [
              -91.03541799988493,
              42.73733999992793
            ],
            [
              -91.02678600028491,
              42.724227999887084
            ],
            [
              -90.94921000044462,
              42.685569000321074
            ],
            [
              -90.70920399961216,
              42.636078000316175
            ],
            [
              -90.68697500015872,
              42.591774000168925
            ],
            [
              -90.64468700039828,
              42.54131699991232
            ],
            [
              -90.63582899994415,
              42.517927999713635
            ],
            [
              -90.64284299986848,
              42.508481000028475
            ],
            [
              -90.42637699981509,
              42.507172999848464
            ],
            [
              -90.42982499977686,
              43.200940000149906
            ],
            [
              -90.2978020000733,
              43.20821099989952
            ],
            [
              -90.28355499994153,
              43.19527499983617
            ],
            [
              -90.25871600022732,
              43.19722999979462
            ],
            [
              -90.19381400015067,
              43.16446399986021
            ],
            [
              -90.19178100037328,
              43.46738299982402
            ],
            [
              -90.14753699993004,
              43.46036499987595
            ],
            [
              -90.13286300000102,
              43.489011999798784
            ],
            [
              -90.10998000007127,
              43.50396499967611
            ],
            [
              -90.10341499968551,
              43.50395700032501
            ],
            [
              -90.10296399959881,
              43.488004999991944
            ],
            [
              -90.11131599971465,
              43.482203000268534
            ],
            [
              -90.073168999852,
              43.482158000153476
            ],
            [
              -90.07239200025039,
              43.64172900015973
            ],
            [
              -89.59954699956897,
              43.642635999927684
            ],
            [
              -89.59797999994692,
              44.24572500005862
            ],
            [
              -89.22481300013423,
              44.24339299981046
            ],
            [
              -89.22374500027946,
              44.68136499974689
            ],
            [
              -89.96401300018466,
              44.6848289996968
            ],
            [
              -89.96428400034631,
              44.48911699997828
            ],
            [
              -89.97919099990384,
              44.48891799983058
            ],
            [
              -89.97902900042045,
              44.47440900008686
            ],
            [
              -89.96396799997882,
              44.47086799995279
            ],
            [
              -89.96360200028093,
              44.42356399978135
            ],
            [
              -90.07952699965023,
              44.42429200008915
            ],
            [
              -90.08082300000892,
              44.249040999869685
            ],
            [
              -89.90278300037573,
              44.249473000048056
            ],
            [
              -89.89764300022013,
              44.228110000225236
            ],
            [
              -89.92483299972905,
              44.21353299986986
            ],
            [
              -89.90501299979661,
              44.20160399971326
            ],
            [
              -89.92702200004032,
              44.193674000000456
            ],
            [
              -89.90359500013747,
              44.19143399993186
            ],
            [
              -89.9028140003379,
              44.17868200009031
            ],
            [
              -89.92403799968575,
              44.17747399985821
            ],
            [
              -89.92868400009695,
              44.15030399978014
            ],
            [
              -89.9417129996878,
              44.16343400004018
            ],
            [
              -89.97048200031094,
              44.16711399968202
            ],
            [
              -89.97377299991389,
              44.13457000024137
            ],
            [
              -89.98469500010754,
              44.129251000306645
            ],
            [
              -89.97572899969836,
              44.12391499981333
            ],
            [
              -90.00705599980543,
              44.12160700030545
            ],
            [
              -90.00404300003683,
              44.10334799988775
            ],
            [
              -90.02595299964804,
              44.09174799984557
            ],
            [
              -90.01813500035792,
              44.046031999872426
            ],
            [
              -89.99846900041128,
              44.022551000123066
            ],
            [
              -90.00588699966832,
              44.008390999782755
            ],
            [
              -89.96630100023016,
              43.989249999705436
            ],
            [
              -89.95210099995406,
              43.92419700020693
            ],
            [
              -89.98095599989261,
              43.917691999935876
            ],
            [
              -89.98067600040845,
              43.905623000312666
            ],
            [
              -90.02683200025524,
              43.907288000149215
            ],
            [
              -90.03445200007698,
              43.9308459997394
            ],
            [
              -90.07249600000746,
              43.92046999990501
            ],
            [
              -90.11265100043141,
              43.92301300001812
            ],
            [
              -90.15169000042174,
              43.88582200007624
            ],
            [
              -90.19174000036539,
              43.90043700011922
            ],
            [
              -90.19183200042693,
              43.98126699977757
            ],
            [
              -90.4402470003783,
              43.98673399982101
            ],
            [
              -90.47316399967364,
              43.99842399979192
            ],
            [
              -90.49483499980856,
              44.01214300015004
            ],
            [
              -90.48997199966239,
              44.02289799993905
            ],
            [
              -90.50477600018607,
              44.02634699970345
            ],
            [
              -90.51510300035295,
              44.018994999884065
            ],
            [
              -90.50949200001915,
              44.01178899993833
            ],
            [
              -90.52500299982427,
              44.00420799994592
            ],
            [
              -90.50483999976016,
              43.9936289998169
            ],
            [
              -90.55278499988518,
              43.98586499987971
            ],
            [
              -90.55874600002335,
              44.42221000028872
            ],
            [
              -90.80185400031287,
              44.42244700002046
            ],
            [
              -90.80216800013221,
              44.40679199971156
            ],
            [
              -90.8224559998698,
              44.4062509998133
            ],
            [
              -90.84194100006647,
              44.42803799975156
            ],
            [
              -90.81202400012093,
              44.429579000189236
            ],
            [
              -90.81206299958066,
              44.43696400003891
            ],
            [
              -90.83135399960858,
              44.44049599990537
            ],
            [
              -90.82712499984721,
              44.45021099983153
            ],
            [
              -90.84130000000896,
              44.4539260000033
            ],
            [
              -90.84276399969885,
              44.473069999758614
            ],
            [
              -90.8550669997417,
              44.47296599999699
            ],
            [
              -90.84239100032826,
              44.433102999703564
            ],
            [
              -90.89803499991773,
              44.433381000096155
            ],
            [
              -90.90259099991722,
              44.444132999686936
            ],
            [
              -90.9230050000515,
              44.444302000187804
            ],
            [
              -90.92307600019662,
              44.42261999994076
            ],
            [
              -91.04407200012454,
              44.422570999740884
            ],
            [
              -91.0438150002066,
              44.59664000019347
            ],
            [
              -90.9223499997503,
              44.596292999767684
            ],
            [
              -90.92266899959253,
              44.944428000192396
            ],
            [
              -91.10576899991368,
              44.94430899988096
            ],
            [
              -91.1051220000084,
              44.85707099984632
            ],
            [
              -91.14082900038787,
              44.856907000106695
            ],
            [
              -91.22682900031404,
              44.856930000292486
            ],
            [
              -91.22770999967274,
              44.948997000213595
            ],
            [
              -91.25204399977187,
              44.943606999841876
            ],
            [
              -91.26507300026105,
              44.95374999997987
            ],
            [
              -91.27058499996232,
              44.946343000204514
            ],
            [
              -91.30447299992639,
              44.966653999904665
            ],
            [
              -91.31997100021101,
              44.964784999985824
            ],
            [
              -91.33675699956014,
              44.93696200019838
            ],
            [
              -91.36295500028056,
              44.94596099983679
            ],
            [
              -91.34620699966797,
              44.955662000000714
            ],
            [
              -91.35788700009498,
              44.9660170001788
            ],
            [
              -91.3719409998829,
              44.95656599990137
            ],
            [
              -91.3782769999398,
              44.966223999790955
            ],
            [
              -91.38742099972588,
              44.951756000305174
            ],
            [
              -91.40754699998004,
              44.96612799992554
            ],
            [
              -91.40389900000174,
              44.9516999998963
            ],
            [
              -91.41787499997184,
              44.95524099975597
            ],
            [
              -91.42044599987456,
              44.944385000263274
            ],
            [
              -91.52873200005385,
              44.94445800010908
            ],
            [
              -91.52897899992607,
              45.03090599984327
            ],
            [
              -91.6513900000384,
              45.02978099981384
            ],
            [
              -91.65149700016853,
              45.1206329997512
            ],
            [
              -91.66640200007622,
              45.120823000144824
            ],
            [
              -91.66564700021591,
              45.20799099995036
            ],
            [
              -92.15646499992688,
              45.20955400009256
            ],
            [
              -92.15707199964922,
              45.1216079997176
            ],
            [
              -92.13611299971691,
              45.12138800019592
            ],
            [
              -92.13634799989356,
              44.85784800006822
            ],
            [
              -92.76950100030469,
              44.86200100013429
            ],
            [
              -92.76593199996908,
              44.835630999856804
            ],
            [
              -92.80836200001974,
              44.75222199974831
            ],
            [
              -92.8084149997232,
              44.751860000069264
            ]
          ]
        ]
      }
    },
    {
      "type": "Feature",
      "id": "us-cd:119:55:04",
      "properties": {
        "boundary_id": "us-cd:119:55:04",
        "boundary_type": "congressional_district",
        "name": "4",
        "stateFips": "55",
        "congress": 119,
        "district": "04",
        "bbox": [
          -88.06698699966003,
          42.9208230001938,
          -87.09753000043237,
          43.19211699979515
        ]
      },
      "geometry": {
        "type": "Polygon",
        "coordinates": [
          [
            [
              -88.06698699966003,
              43.0309110001652
            ],
            [
              -88.02926499994484,
              43.025007999835445
            ],
            [
              -88.0271140001667,
              43.01187400002846
            ],
            [
              -88.0171390003523,
              43.010669000315694
            ],
            [
              -88.03579900036846,
              43.00261500012875
            ],
            [
              -88.02746399997106,
              42.988199000148185
            ],
            [
              -88.03768700038088,
              42.98810299989727
            ],
            [
              -88.03768400000783,
              42.97363000003001
            ],
            [
              -87.98827299964478,
              42.969592000013904
            ],
            [
              -87.98224799993251,
              42.98095000026802
            ],
            [
              -87.98825799957619,
              42.96663000001997
            ],
            [
              -87.97769199993301,
              42.96665299978691
            ],
            [
              -87.97016099979973,
              42.97498200012346
            ],
            [
              -87.98108700019134,
              42.9806740002765
            ],
            [
              -87.97402700023625,
              42.98531899968508
            ],
            [
              -87.9682500002211,
              42.97270000003546
            ],
            [
              -87.95326400012254,
              42.980698000296336
            ],
            [
              -87.94908899988953,
              42.943681000191724
            ],
            [
              -87.96450699980822,
              42.94488499999985
            ],
            [
              -87.96467699968754,
              42.93835699990737
            ],
            [
              -87.9492420000504,
              42.93761700019757
            ],
            [
              -87.9404969995742,
              42.92089599978988
            ],
            [
              -87.93059799992778,
              42.9208230001938
            ],
            [
              -87.9299519998474,
              42.93027700029256
            ],
            [
              -87.89032700005117,
              42.93003599985517
            ],
            [
              -87.8891319999748,
              42.92268799993256
            ],
            [
              -87.88325000037764,
              42.95912799984721
            ],
            [
              -87.8939969997708,
              42.97327900011324
            ],
            [
              -87.85325100041635,
              42.986463999875724
            ],
            [
              -87.88774399955457,
              43.019326000085265
            ],
            [
              -87.88842399997014,
              43.03369200031121
            ],
            [
              -87.87812199991761,
              43.04232299991159
            ],
            [
              -87.09753000043237,
              43.042316999851806
            ],
            [
              -87.11900800022343,
              43.19081599975808
            ],
            [
              -88.06335299992544,
              43.19211699979515
            ],
            [
              -88.06696099972078,
              43.032299000071255
            ],
            [
              -88.06698699966003,
              43.0309110001652
            ]
          ]
        ]
      }
    },
    {
      "type": "Feature",
      "id": "us-cd:119:55:05",
      "properties": {
        "boundary_id": "us-cd:119:55:05",
        "boundary_type": "congressional_district",
        "name": "5",
        "stateFips": "55",
        "congress": 119,
        "district": "05",
        "bbox": [
          -89.01358400032083,
          42.75550600010616,
          -87.94908899988953,
          43.557415999999805
        ]
      },
      "geometry": {
        "type": "Polygon",
        "coordinates": [
          [
            [
              -89.01358400032083,
              42.84942099988514
            ],
            [
              -88.42407000028047,
              42.84258700003911
            ],
            [
              -88.42589999966826,
              42.7562360000764
            ],
            [
              -88.31040999959384,
              42.75550600010616
            ],
            [
              -88.30638400022205,
              42.842095000248925
            ],
            [
              -88.06992400015899,
              42.84332299993456
            ],
            [
              -88.06928999977416,
              42.95237400018735
            ],
            [
              -87.98864099989082,
              42.95213400015147
            ],
            [
              -87.972678999999,
              42.94489400023142
            ],
            [
              -87.96924699993076,
              42.93038999973354
            ],
            [
              -87.94938099996756,
              42.93037200029051
            ],
            [
              -87.9492420000504,
              42.93761700019757
            ],
            [
              -87.96467699968754,
              42.93835699990737
            ],
            [
              -87.96450699980822,
              42.94488499999985
            ],
            [
              -87.94908899988953,
              42.943681000191724
            ],
            [
              -87.95326400012254,
              42.980698000296336
            ],
            [
              -87.9682500002211,
              42.97270000003546
            ],
            [
              -87.97402700023625,
              42.98531899968508
            ],
            [
              -87.98108700019134,
              42.9806740002765
            ],
            [
              -87.97016099979973,
              42.97498200012346
            ],
            [
              -87.97769199993301,
              42.96665299978691
            ],
            [
              -87.98825799957619,
              42.96663000001997
            ],
            [
              -87.98224799993251,
              42.98095000026802
            ],
            [
              -87.98827299964478,
              42.969592000013904
            ],
            [
              -88.03768400000783,
              42.97363000003001
            ],
            [
              -88.03768700038088,
              42.98810299989727
            ],
            [
              -88.02746399997106,
              42.988199000148185
            ],
            [
              -88.03579900036846,
              43.00261500012875
            ],
            [
              -88.0171390003523,
              43.010669000315694
            ],
            [
              -88.0271140001667,
              43.01187400002846
            ],
            [
              -88.02926499994484,
              43.025007999835445
            ],
            [
              -88.06699300040616,
              43.03088499988165
            ],
            [
              -88.06242599963767,
              43.36728899984302
            ],
            [
              -88.0399910003199,
              43.36770699970641
            ],
            [
              -88.04052799972202,
              43.54236099995958
            ],
            [
              -88.41147000013669,
              43.543576000130656
            ],
            [
              -88.42986200036424,
              43.557415999999805
            ],
            [
              -88.44247699967832,
              43.543785000192884
            ],
            [
              -88.52128600012813,
              43.5439390003234
            ],
            [
              -88.5212359998994,
              43.5294710001897
            ],
            [
              -88.48992600040908,
              43.536613999760156
            ],
            [
              -88.48992100038623,
              43.50043500011333
            ],
            [
              -88.4711299999505,
              43.50287100022322
            ],
            [
              -88.456844000359,
              43.52658200012839
            ],
            [
              -88.44548299977421,
              43.52554699990425
            ],
            [
              -88.45029400004185,
              43.456893000215395
            ],
            [
              -88.6246480000619,
              43.45849400021983
            ],
            [
              -88.62121199979568,
              43.4672640001197
            ],
            [
              -88.6278819997634,
              43.45849400021983
            ],
            [
              -88.76476799961314,
              43.45883399973377
            ],
            [
              -88.76538299973139,
              43.50240900005977
            ],
            [
              -88.80521400029025,
              43.502668000221576
            ],
            [
              -88.8100049995681,
              43.49112099982418
            ],
            [
              -88.8000089998373,
              43.48077799990425
            ],
            [
              -88.8075559998641,
              43.48446799990985
            ],
            [
              -88.81473299999504,
              43.466241000087244
            ],
            [
              -88.80466199992122,
              43.4589149997521
            ],
            [
              -88.81584500023075,
              43.45892299985271
            ],
            [
              -88.82947600041939,
              43.437732999844954
            ],
            [
              -88.84446699964248,
              43.44068900008575
            ],
            [
              -88.85624900017676,
              43.429422999713495
            ],
            [
              -88.86414900038098,
              43.43495699981631
            ],
            [
              -88.8493320003368,
              43.440807999914895
            ],
            [
              -88.8609680003829,
              43.44390299991717
            ],
            [
              -88.85556399973831,
              43.480633999802144
            ],
            [
              -88.8675529999618,
              43.491623999780295
            ],
            [
              -88.86996300020606,
              43.47356899992678
            ],
            [
              -88.8885319999856,
              43.45910600031576
            ],
            [
              -89.00611699976167,
              43.45875899986148
            ],
            [
              -89.01357699974984,
              42.84986400026125
            ],
            [
              -89.01358400032083,
              42.84942099988514
            ]
          ]
        ]
      }
    },
    {
      "type": "Feature",
      "id": "us-cd:119:55:06",
      "properties": {
        "boundary_id": "us-cd:119:55:06",
        "boundary_type": "congressional_district",
        "name": "6",
        "stateFips": "55",
        "congress": 119,
        "district": "06",
        "bbox": [
          -89.7855459998559,
          43.19081599975808,
          -86.92340300019306,
          44.328824999936984
        ]
      },
      "geometry": {
        "type": "Polygon",
        "coordinates": [
          [
            [
              -89.7855459998559,
              43.641052000252095
            ],
            [
              -89.76746099977503,
              43.606309000312685
            ],
            [
              -89.71764500025435,
              43.597607000190614
            ],
            [
              -89.73444700039529,
              43.57876700014643
            ],
            [
              -89.73054699962358,
              43.570436999741815
            ],
            [
              -89.59935699959816,
              43.55804100003622
            ],
            [
              -89.60072999994976,
              43.38066600009367
            ],
            [
              -89.63137300034164,
              43.36539500015089
            ],
            [
              -89.67926900006285,
              43.36018500020842
            ],
            [
              -89.72363200033179,
              43.3144510001809
            ],
            [
              -89.72046300002927,
              43.293084000226834
            ],
            [
              -89.36315900037421,
              43.29403599974004
            ],
            [
              -89.36239500029306,
              43.28129599969209
            ],
            [
              -89.0091389997511,
              43.28482999992188
            ],
            [
              -89.00611699976167,
              43.45875899986148
            ],
            [
              -88.8885319999856,
              43.45910600031576
            ],
            [
              -88.86996300020606,
              43.47356899992678
            ],
            [
              -88.8675529999618,
              43.491623999780295
            ],
            [
              -88.85556399973831,
              43.480633999802144
            ],
            [
              -88.8609680003829,
              43.44390299991717
            ],
            [
              -88.8493320003368,
              43.440807999914895
            ],
            [
              -88.86414900038098,
              43.43495699981631
            ],
            [
              -88.85624900017676,
              43.429422999713495
            ],
            [
              -88.84446699964248,
              43.44068900008575
            ],
            [
              -88.82947600041939,
              43.437732999844954
            ],
            [
              -88.81584500023075,
              43.45892299985271
            ],
            [
              -88.80466199992122,
              43.4589149997521
            ],
            [
              -88.81473299999504,
              43.466241000087244
            ],
            [
              -88.8075559998641,
              43.48446799990985
            ],
            [
              -88.8000089998373,
              43.48077799990425
            ],
            [
              -88.8100049995681,
              43.49112099982418
            ],
            [
              -88.80521400029025,
              43.502668000221576
            ],
            [
              -88.76538299973139,
              43.50240900005977
            ],
            [
              -88.76476799961314,
              43.45883399973377
            ],
            [
              -88.6278819997634,
              43.45849400021983
            ],
            [
              -88.62121199979568,
              43.4672640001197
            ],
            [
              -88.6246480000619,
              43.45849400021983
            ],
            [
              -88.45029400004185,
              43.456893000215395
            ],
            [
              -88.44548299977421,
              43.52554699990425
            ],
            [
              -88.456844000359,
              43.52658200012839
            ],
            [
              -88.4711299999505,
              43.50287100022322
            ],
            [
              -88.48992100038623,
              43.50043500011333
            ],
            [
              -88.48992600040908,
              43.536613999760156
            ],
            [
              -88.5212359998994,
              43.5294710001897
            ],
            [
              -88.52128600012813,
              43.5439390003234
            ],
            [
              -88.44247699967832,
              43.543785000192884
            ],
            [
              -88.42986200036424,
              43.557415999999805
            ],
            [
              -88.41147000013669,
              43.543576000130656
            ],
            [
              -88.04052799972202,
              43.54236099995958
            ],
            [
              -88.0399849995738,
              43.36775500015312
            ],
            [
              -88.06242599963767,
              43.36728899984302
            ],
            [
              -88.06335299992544,
              43.19211699979515
            ],
            [
              -87.11900800022343,
              43.19081599975808
            ],
            [
              -87.14716600002801,
              43.379859000140605
            ],
            [
              -87.12507899996648,
              43.670445000246986
            ],
            [
              -87.01323400039563,
              44.13190499978231
            ],
            [
              -86.92340300019306,
              44.328824999936984
            ],
            [
              -87.88752599999468,
              44.32758899979744
            ],
            [
              -87.88808699968625,
              44.24046099994161
            ],
            [
              -88.04324000009005,
              44.241018000128676
            ],
            [
              -88.04213799990009,
              43.979181000173604
            ],
            [
              -88.15081300024183,
              43.978876000032905
            ],
            [
              -88.15117300009193,
              44.0002429999392
            ],
            [
              -88.40350999965803,
              44.00128599973302
            ],
            [
              -88.404070000423,
              44.24410199984619
            ],
            [
              -88.56498099967706,
              44.243710000263555
            ],
            [
              -88.56468500029936,
              44.19963699986609
            ],
            [
              -88.60525499992673,
              44.199141000052315
            ],
            [
              -88.60455100012003,
              44.17002499999949
            ],
            [
              -88.63493800041884,
              44.1698060002592
            ],
            [
              -88.63435900028561,
              44.15527900031455
            ],
            [
              -88.66526299989508,
              44.155152999710296
            ],
            [
              -88.6653349998651,
              44.169643000268856
            ],
            [
              -88.70466799958328,
              44.1696239998651
            ],
            [
              -88.70480300020083,
              44.176814000304
            ],
            [
              -88.7249229997089,
              44.17680200022031
            ],
            [
              -88.7250220003414,
              44.18781099999863
            ],
            [
              -88.73911499958908,
              44.1871820000259
            ],
            [
              -88.7498040001542,
              44.16971599983002
            ],
            [
              -88.76521799987495,
              44.169457999943546
            ],
            [
              -88.76620000041432,
              44.243366000198414
            ],
            [
              -89.59797999994692,
              44.24572500005862
            ],
            [
              -89.59954699956897,
              43.642635999927684
            ],
            [
              -89.78490099960045,
              43.64105099976259
            ],
            [
              -89.7855459998559,
              43.641052000252095
            ]
          ]
        ]
      }
    },
    {
      "type": "Feature",
      "id": "us-cd:119:55:07",
      "properties": {
        "boundary_id": "us-cd:119:55:07",
        "boundary_type": "congressional_district",
        "name": "7",
        "stateFips": "55",
        "congress": 119,
        "district": "07",
        "bbox": [
          -92.88943299967748,
          43.88582200007624,
          -88.0582460002801,
          47.30982200019525
        ]
      },
      "geometry": {
        "type": "Polygon",
        "coordinates": [
          [
            [
              -92.88943299967748,
              45.64120199999306
            ],
            [
              -92.88374900044705,
              45.57548299996591
            ],
            [
              -92.82330899976026,
              45.56093400004966
            ],
            [
              -92.77022299965472,
              45.56693900008903
            ],
            [
              -92.72608200004194,
              45.54111199986002
            ],
            [
              -92.7266770000687,
              45.51446199991597
            ],
            [
              -92.64660200029572,
              45.44163500021831
            ],
            [
              -92.65042000015333,
              45.39850999984103
            ],
            [
              -92.70272299991116,
              45.35846800023376
            ],
            [
              -92.69896699997781,
              45.33637400018176
            ],
            [
              -92.7086749998285,
              45.32252499993609
            ],
            [
              -92.76200399960828,
              45.28821299995284
            ],
            [
              -92.75192000001394,
              45.26587700021159
            ],
            [
              -92.76026399973387,
              45.25171700025237
            ],
            [
              -92.75170800030183,
              45.21866600001898
            ],
            [
              -92.76680800020323,
              45.18546600018004
            ],
            [
              -92.75240399971261,
              45.173915999795895
            ],
            [
              -92.75219600019848,
              45.142494999761894
            ],
            [
              -92.73958299963591,
              45.11559799997733
            ],
            [
              -92.80312399995485,
              45.062573000286164
            ],
            [
              -92.76205999968478,
              45.02432000022205
            ],
            [
              -92.76944500022819,
              44.972149999761854
            ],
            [
              -92.75064499957165,
              44.93729899998399
            ],
            [
              -92.75870100030977,
              44.90897899994505
            ],
            [
              -92.77457100014009,
              44.89808399990537
            ],
            [
              -92.76341100029508,
              44.87414000004994
            ],
            [
              -92.76950100030469,
              44.86200100013429
            ],
            [
              -92.13634799989356,
              44.85784800006822
            ],
            [
              -92.13611299971691,
              45.12138800019592
            ],
            [
              -92.15707199964922,
              45.1216079997176
            ],
            [
              -92.15646499992688,
              45.20955400009256
            ],
            [
              -91.66564700021591,
              45.20799099995036
            ],
            [
              -91.66640200007622,
              45.120823000144824
            ],
            [
              -91.65149700016853,
              45.1206329997512
            ],
            [
              -91.6513900000384,
              45.02978099981384
            ],
            [
              -91.52897899992607,
              45.03090599984327
            ],
            [
              -91.52873200005385,
              44.94445800010908
            ],
            [
              -91.42044599987456,
              44.944385000263274
            ],
            [
              -91.41787499997184,
              44.95524099975597
            ],
            [
              -91.40389900000174,
              44.9516999998963
            ],
            [
              -91.40754699998004,
              44.96612799992554
            ],
            [
              -91.38742099972588,
              44.951756000305174
            ],
            [
              -91.3782769999398,
              44.966223999790955
            ],
            [
              -91.3719409998829,
              44.95656599990137
            ],
            [
              -91.35788700009498,
              44.9660170001788
            ],
            [
              -91.34620699966797,
              44.955662000000714
            ],
            [
              -91.36295500028056,
              44.94596099983679
            ],
            [
              -91.33675699956014,
              44.93696200019838
            ],
            [
              -91.31300499996728,
              44.96843699992896
            ],
            [
              -91.27058499996232,
              44.946343000204514
            ],
            [
              -91.26507300026105,
              44.95374999997987
            ],
            [
              -91.25204399977187,
              44.943606999841876
            ],
            [
              -91.22770999967274,
              44.948997000213595
            ],
            [
              -91.22682900031404,
              44.856930000292486
            ],
            [
              -91.1051220000084,
              44.85707099984632
            ],
            [
              -91.10576899991368,
              44.94430899988096
            ],
            [
              -90.92266899959253,
              44.944428000192396
            ],
            [
              -90.9223499997503,
              44.596292999767684
            ],
            [
              -91.0438150002066,
              44.59664000019347
            ],
            [
              -91.04407200012454,
              44.422570999740884
            ],
            [
              -90.92307600019662,
              44.42261999994076
            ],
            [
              -90.9230050000515,
              44.444302000187804
            ],
            [
              -90.90259099991722,
              44.444132999686936
            ],
            [
              -90.89803499991773,
              44.433381000096155
            ],
            [
              -90.84239100032826,
              44.433102999703564
            ],
            [
              -90.8550669997417,
              44.47296599999699
            ],
            [
              -90.84276399969885,
              44.473069999758614
            ],
            [
              -90.84130000000896,
              44.4539260000033
            ],
            [
              -90.82712499984721,
              44.45021099983153
            ],
            [
              -90.83135399960858,
              44.44049599990537
            ],
            [
              -90.81206299958066,
              44.43696400003891
            ],
            [
              -90.81202400012093,
              44.429579000189236
            ],
            [
              -90.84194100006647,
              44.42803799975156
            ],
            [
              -90.8224559998698,
              44.4062509998133
            ],
            [
              -90.80216800013221,
              44.40679199971156
            ],
            [
              -90.80185400031287,
              44.42244700002046
            ],
            [
              -90.55874600002335,
              44.42221000028872
            ],
            [
              -90.55278499988518,
              43.98586499987971
            ],
            [
              -90.50483999976016,
              43.9936289998169
            ],
            [
              -90.52500299982427,
              44.00420799994592
            ],
            [
              -90.50949200001915,
              44.01178899993833
            ],
            [
              -90.51510300035295,
              44.018994999884065
            ],
            [
              -90.50477600018607,
              44.02634699970345
            ],
            [
              -90.48997199966239,
              44.02289799993905
            ],
            [
              -90.49483499980856,
              44.01214300015004
            ],
            [
              -90.47316399967364,
              43.99842399979192
            ],
            [
              -90.4402470003783,
              43.98673399982101
            ],
            [
              -90.19183200042693,
              43.98126699977757
            ],
            [
              -90.19174000036539,
              43.90043700011922
            ],
            [
              -90.15169000042174,
              43.88582200007624
            ],
            [
              -90.11265100043141,
              43.92301300001812
            ],
            [
              -90.07249600000746,
              43.92046999990501
            ],
            [
              -90.03445200007698,
              43.9308459997394
            ],
            [
              -90.02683200025524,
              43.907288000149215
            ],
            [
              -89.98067600040845,
              43.905623000312666
            ],
            [
              -89.98095599989261,
              43.917691999935876
            ],
            [
              -89.95119999960556,
              43.92658700011888
            ],
            [
              -89.96630100023016,
              43.989249999705436
            ],
            [
              -90.00588699966832,
              44.008390999782755
            ],
            [
              -89.99846900041128,
              44.022551000123066
            ],
            [
              -90.01813500035792,
              44.046031999872426
            ],
            [
              -90.02595299964804,
              44.09174799984557
            ],
            [
              -90.00404300003683,
              44.10334799988775
            ],
            [
              -90.00705599980543,
              44.12160700030545
            ],
            [
              -89.97572899969836,
              44.12391499981333
            ],
            [
              -89.98469500010754,
              44.129251000306645
            ],
            [
              -89.97377299991389,
              44.13457000024137
            ],
            [
              -89.97048200031094,
              44.16711399968202
            ],
            [
              -89.9417129996878,
              44.16343400004018
            ],
            [
              -89.92868400009695,
              44.15030399978014
            ],
            [
              -89.92403799968575,
              44.17747399985821
            ],
            [
              -89.9028140003379,
              44.17868200009031
            ],
            [
              -89.90359500013747,
              44.19143399993186
            ],
            [
              -89.92702200004032,
              44.193674000000456
            ],
            [
              -89.90501299979661,
              44.20160399971326
            ],
            [
              -89.92483299972905,
              44.21353299986986
            ],
            [
              -89.89764300022013,
              44.228110000225236
            ],
            [
              -89.90278300037573,
              44.249473000048056
            ],
            [
              -90.08082300000892,
              44.249040999869685
            ],
            [
              -90.07952699965023,
              44.42429200008915
            ],
            [
              -89.96360200028093,
              44.42356399978135
            ],
            [
              -89.96396799997882,
              44.47086799995279
            ],
            [
              -89.97902900042045,
              44.47440900008686
            ],
            [
              -89.97919099990384,
              44.48891799983058
            ],
            [
              -89.96428400034631,
              44.48911699997828
            ],
            [
              -89.96401300018466,
              44.6848289996968
            ],
            [
              -89.22374500027946,
              44.68136499974689
            ],
            [
              -89.22381399987644,
              45.02924599993372
            ],
            [
              -88.98167999973036,
              45.02891700009705
            ],
            [
              -88.98245999970506,
              45.117998000270696
            ],
            [
              -88.64115899994971,
              45.117345999723206
            ],
            [
              -88.63817399977022,
              45.204814999743434
            ],
            [
              -88.68006599969554,
              45.20499399969242
            ],
            [
              -88.67799000026046,
              45.37893099973732
            ],
            [
              -88.42810200039834,
              45.37701000013675
            ],
            [
              -88.42530200016678,
              45.72242599987795
            ],
            [
              -88.05924600036282,
              45.713063000247324
            ],
            [
              -88.0582460002801,
              45.78053300003549
            ],
            [
              -88.09475399965235,
              45.78575499995652
            ],
            [
              -88.13621200010773,
              45.81873499991853
            ],
            [
              -88.06976299960218,
              45.87293800028084
            ],
            [
              -88.10126399978653,
              45.88228199995993
            ],
            [
              -88.1068940003869,
              45.90075000004071
            ],
            [
              -88.0951930000435,
              45.916108000159625
            ],
            [
              -88.18984800003417,
              45.95212599992974
            ],
            [
              -88.23344499967382,
              45.94740299991618
            ],
            [
              -88.25007600011055,
              45.96360599996064
            ],
            [
              -88.29384900037562,
              45.95094100025925
            ],
            [
              -88.32030800031364,
              45.96365699984248
            ],
            [
              -88.3272760002072,
              45.9549570000979
            ],
            [
              -88.33027800010515,
              45.96583500016157
            ],
            [
              -88.38050299987974,
              45.99176499984076
            ],
            [
              -88.41638099996347,
              45.9750919997559
            ],
            [
              -88.45867200009697,
              45.99951400026377
            ],
            [
              -88.49209700027873,
              45.99210099992312
            ],
            [
              -88.51469200032837,
              46.020018999995465
            ],
            [
              -88.58827000038596,
              46.00509800018854
            ],
            [
              -88.60117799960301,
              46.01776999975716
            ],
            [
              -88.61595700001234,
              45.98789600007017
            ],
            [
              -88.67082700037322,
              45.98854700003789
            ],
            [
              -88.6634829998377,
              45.99270200025067
            ],
            [
              -88.67886800014443,
              46.013595000305706
            ],
            [
              -88.71831399984052,
              46.01318200005619
            ],
            [
              -88.73897999986985,
              46.02745900015203
            ],
            [
              -88.75896800003176,
              46.01963300028837
            ],
            [
              -88.77062099979628,
              46.02556099991459
            ],
            [
              -88.78015600029293,
              46.015394999946544
            ],
            [
              -88.77873899956039,
              46.031690000084744
            ],
            [
              -88.79649700030143,
              46.03365800021833
            ],
            [
              -88.7964599995932,
              46.02360599996688
            ],
            [
              -88.81602599998072,
              46.020585999958406
            ],
            [
              -89.09163800001203,
              46.13844699999744
            ],
            [
              -90.12143000034452,
              46.33742499976865
            ],
            [
              -90.11870299990788,
              46.35934500030827
            ],
            [
              -90.158368999712,
              46.40945399996268
            ],
            [
              -90.16741999961165,
              46.441705000015645
            ],
            [
              -90.1783500002012,
              46.44046499984289
            ],
            [
              -90.17832500008684,
              46.45740799984456
            ],
            [
              -90.19079200016122,
              46.45981599969995
            ],
            [
              -90.18883399982862,
              46.468919000264904
            ],
            [
              -90.21663699980593,
              46.5016370000446
            ],
            [
              -90.23091800027288,
              46.501528999911606
            ],
            [
              -90.23123600029021,
              46.50989300014626
            ],
            [
              -90.27255099973213,
              46.5045119998336
            ],
            [
              -90.27694000022538,
              46.52444700021029
            ],
            [
              -90.31655400015096,
              46.51689599992806
            ],
            [
              -90.30944099959412,
              46.53728499990318
            ],
            [
              -90.3322299998125,
              46.55343199995757
            ],
            [
              -90.35068399996435,
              46.5403249999909
            ],
            [
              -90.39326200015302,
              46.53243300011486
            ],
            [
              -90.41839200012036,
              46.566099000200886
            ],
            [
              -89.9571020001925,
              47.29110300025223
            ],
            [
              -90.65465999966452,
              47.30982200019525
            ],
            [
              -91.50018099988893,
              46.91331999971864
            ],
            [
              -92.02029399975451,
              46.704040999991335
            ],
            [
              -92.08949300026293,
              46.749236999905385
            ],
            [
              -92.1165899998854,
              46.74863999973305
            ],
            [
              -92.14328999984785,
              46.73464000011765
            ],
            [
              -92.14673000031202,
              46.71579400015771
            ],
            [
              -92.18909099986742,
              46.71754099994455
            ],
            [
              -92.2046910002593,
              46.704040999991335
            ],
            [
              -92.17587499978049,
              46.68646599991195
            ],
            [
              -92.20409200003459,
              46.666941000088144
            ],
            [
              -92.2070920002827,
              46.651941000061356
            ],
            [
              -92.24249300034045,
              46.64924099984774
            ],
            [
              -92.25659200033422,
              46.65874099993269
            ],
            [
              -92.27059199969545,
              46.650741000299746
            ],
            [
              -92.29128899968694,
              46.66813700026488
            ],
            [
              -92.294032999842,
              46.07437700003594
            ],
            [
              -92.33291199999876,
              46.06269700016009
            ],
            [
              -92.35176000033587,
              46.01568500018976
            ],
            [
              -92.42855500037658,
              46.024240999832244
            ],
            [
              -92.46976500023652,
              45.9735690001656
            ],
            [
              -92.52705199961602,
              45.983245000140705
            ],
            [
              -92.54980599967432,
              45.96798600019629
            ],
            [
              -92.55193300006134,
              45.95165099979701
            ],
            [
              -92.63882400029024,
              45.93416599989237
            ],
            [
              -92.63911999966793,
              45.92455800014451
            ],
            [
              -92.65954899987081,
              45.922937000227435
            ],
            [
              -92.71250299973185,
              45.89170499968864
            ],
            [
              -92.73822000022837,
              45.86203099988928
            ],
            [
              -92.73999100006492,
              45.84628299994091
            ],
            [
              -92.7651460001466,
              45.83018300012579
            ],
            [
              -92.75781500002988,
              45.80657399991358
            ],
            [
              -92.77648199971873,
              45.790003999828905
            ],
            [
              -92.78461700009957,
              45.76419899975649
            ],
            [
              -92.8691929996205,
              45.71756799979607
            ],
            [
              -92.88926299979818,
              45.64170999998998
            ],
            [
              -92.88943299967748,
              45.64120199999306
            ]
          ]
        ]
      }
    },
    {
      "type": "Feature",
      "id": "us-cd:119:55:08",
      "properties": {
        "boundary_id": "us-cd:119:55:08",
        "boundary_type": "congressional_district",
        "name": "8",
        "stateFips": "55",
        "congress": 119,
        "district": "08",
        "bbox": [
          -89.22481099958611,
          43.978876000032905,
          -86.2495479999101,
          45.795612999771926
        ]
      },
      "geometry": {
        "type": "Polygon",
        "coordinates": [
          [
            [
              -89.22481099958611,
              44.243842999886134
            ],
            [
              -88.76620000041432,
              44.243366000198414
            ],
            [
              -88.76521799987495,
              44.169457999943546
            ],
            [
              -88.7498040001542,
              44.16971599983002
            ],
            [
              -88.73911499958908,
              44.1871820000259
            ],
            [
              -88.7250220003414,
              44.18781099999863
            ],
            [
              -88.7249229997089,
              44.17680200022031
            ],
            [
              -88.70480300020083,
              44.176814000304
            ],
            [
              -88.70466799958328,
              44.1696239998651
            ],
            [
              -88.6653349998651,
              44.169643000268856
            ],
            [
              -88.66526299989508,
              44.155152999710296
            ],
            [
              -88.63435900028561,
              44.15527900031455
            ],
            [
              -88.63493800041884,
              44.1698060002592
            ],
            [
              -88.60455100012003,
              44.17002499999949
            ],
            [
              -88.60525499992673,
              44.199141000052315
            ],
            [
              -88.56468500029936,
              44.19963699986609
            ],
            [
              -88.56498099967706,
              44.243710000263555
            ],
            [
              -88.404070000423,
              44.24410199984619
            ],
            [
              -88.40350999965803,
              44.00128599973302
            ],
            [
              -88.15117300009193,
              44.0002429999392
            ],
            [
              -88.15081300024183,
              43.978876000032905
            ],
            [
              -88.04213799990009,
              43.979181000173604
            ],
            [
              -88.04324000009005,
              44.241018000128676
            ],
            [
              -87.88808699968625,
              44.24046099994161
            ],
            [
              -87.88752599999468,
              44.32758899979744
            ],
            [
              -86.92340300019306,
              44.328824999936984
            ],
            [
              -86.68628799982876,
              44.88100200000284
            ],
            [
              -86.49993000041495,
              45.08079999981919
            ],
            [
              -86.2495479999101,
              45.23612499994635
            ],
            [
              -86.75423600018432,
              45.44360999972072
            ],
            [
              -87.10113300020484,
              45.44423000019731
            ],
            [
              -87.17117000041426,
              45.352540000132414
            ],
            [
              -87.31542199964251,
              45.24065699987353
            ],
            [
              -87.40569399988604,
              45.201969000084915
            ],
            [
              -87.44250799958003,
              45.07643399983069
            ],
            [
              -87.65995199997481,
              45.10751200031465
            ],
            [
              -87.6839019999344,
              45.144134999969786
            ],
            [
              -87.73610400030819,
              45.17224400006404
            ],
            [
              -87.74181000017825,
              45.19746900003295
            ],
            [
              -87.72619800009079,
              45.209390999757474
            ],
            [
              -87.72499200014376,
              45.23213999997451
            ],
            [
              -87.71133900021383,
              45.23996500019021
            ],
            [
              -87.7104499995609,
              45.259323999974
            ],
            [
              -87.6874989998591,
              45.2980550001359
            ],
            [
              -87.64812599995794,
              45.33939599982396
            ],
            [
              -87.65735000010996,
              45.368754000076315
            ],
            [
              -87.69395600028982,
              45.389892999795386
            ],
            [
              -87.75410400000025,
              45.34944200003131
            ],
            [
              -87.83261200015119,
              45.3522489999908
            ],
            [
              -87.85013300016745,
              45.34043499993416
            ],
            [
              -87.86916700027741,
              45.36604899974477
            ],
            [
              -87.87584499974275,
              45.36501700023058
            ],
            [
              -87.87036700037666,
              45.356267000218224
            ],
            [
              -87.88805200042447,
              45.3546969998267
            ],
            [
              -87.84932200023064,
              45.40387199975319
            ],
            [
              -87.86169700024352,
              45.43447300008133
            ],
            [
              -87.81297600034178,
              45.464159999925776
            ],
            [
              -87.79276899989675,
              45.4999670000331
            ],
            [
              -87.8033899997915,
              45.53827199977372
            ],
            [
              -87.8336900000517,
              45.5615559998698
            ],
            [
              -87.82934800031244,
              45.56877699983779
            ],
            [
              -87.79237200023672,
              45.56305500003462
            ],
            [
              -87.77468200016605,
              45.602024000201084
            ],
            [
              -87.82439200027983,
              45.64771000011407
            ],
            [
              -87.82419100043839,
              45.66204399972286
            ],
            [
              -87.7810070003523,
              45.67393400009684
            ],
            [
              -87.80907499974518,
              45.69971700021143
            ],
            [
              -87.80714400007504,
              45.708014000072694
            ],
            [
              -87.85459399973242,
              45.72630100026251
            ],
            [
              -87.87689800042723,
              45.75437900015843
            ],
            [
              -87.96345200037224,
              45.758220000235234
            ],
            [
              -87.98965600004213,
              45.772024999819756
            ],
            [
              -87.98086999955804,
              45.77697699972485
            ],
            [
              -87.99335400024918,
              45.795612999771926
            ],
            [
              -88.0582529999528,
              45.780628999957116
            ],
            [
              -88.05924600036282,
              45.713063000247324
            ],
            [
              -88.42530200016678,
              45.72242599987795
            ],
            [
              -88.42810200039834,
              45.37701000013675
            ],
            [
              -88.67799000026046,
              45.37893099973732
            ],
            [
              -88.68006599969554,
              45.20499399969242
            ],
            [
              -88.63817399977022,
              45.204814999743434
            ],
            [
              -88.64115899994971,
              45.117345999723206
            ],
            [
              -88.98245999970506,
              45.117998000270696
            ],
            [
              -88.98167999973036,
              45.02891700009705
            ],
            [
              -89.22381399987644,
              45.02924599993372
            ],
            [
              -89.22474299981405,
              44.25437800005388
            ],
            [
              -89.22481099958611,
              44.243842999886134
            ]
          ]
        ]
      }
    }
  ]
}
