{
  "type": "FeatureCollection",
  "features": [
    {
      "type": "Feature",
      "id": "us-cd:119:33:01",
      "properties": {
        "boundary_id": "us-cd:119:33:01",
        "boundary_type": "congressional_district",
        "name": "1",
        "stateFips": "33",
        "congress": 119,
        "district": "01",
        "bbox": [
          -71.70617600042353,
          42.79233200029664,
          -70.60562100033361,
          44.284899000223845
        ]
      },
      "geometry": {
        "type": "Polygon",
        "coordinates": [
          [
            [
              -71.70617600042353,
              43.53774199988727
            ],
            [
              -71.68794400002955,
              43.52861400027251
            ],
            [
              -71.69134599996056,
              43.51584200008041
            ],
            [
              -71.67729299999755,
              43.50049100011864
            ],
            [
              -71.65335100043389,
              43.487574999715164
            ],
            [
              -71.6380459995948,
              43.491755999932586
            ],
            [
              -71.61283799980963,
              43.43812999968127
            ],
            [
              -71.5500299996097,
              43.452701000182714
            ],
            [
              -71.23601100032307,
              43.28499400008297
            ],
            [
              -71.24733600002452,
              43.27523200023227
            ],
            [
              -71.12794799972654,
              43.200072000290476
            ],
            [
              -71.17720199973076,
              43.14397400004285
            ],
            [
              -71.15953199975156,
              43.1355590000789
            ],
            [
              -71.1728690002123,
              43.121574000133
            ],
            [
              -71.1885549999196,
              43.13175900005784
            ],
            [
              -71.20640900002181,
              43.11230499981472
            ],
            [
              -71.18968399987375,
              43.10965699979669
            ],
            [
              -71.21295400031609,
              43.07698100018837
            ],
            [
              -71.4663489996912,
              43.12226099982851
            ],
            [
              -71.51114999962805,
              43.0696569999457
            ],
            [
              -71.6412910000653,
              43.05416799969036
            ],
            [
              -71.63490200030495,
              43.03356999976654
            ],
            [
              -71.64123099979082,
              43.02580400017746
            ],
            [
              -71.63157599964359,
              43.02253099984752
            ],
            [
              -71.6103509995725,
              42.939721000294675
            ],
            [
              -71.58202899973642,
              42.94332999970837
            ],
            [
              -71.55621000003099,
              42.79233200029664
            ],
            [
              -71.54255399972801,
              42.80587399978856
            ],
            [
              -71.49613500011549,
              42.80550000027948
            ],
            [
              -71.4929759998587,
              42.79440700028476
            ],
            [
              -71.46956900004734,
              42.793933999677066
            ],
            [
              -71.48615600010315,
              42.863215999847625
            ],
            [
              -71.4534089997888,
              42.90458200002039
            ],
            [
              -71.44230099982232,
              42.8903989997956
            ],
            [
              -71.42706700002663,
              42.824839999700956
            ],
            [
              -71.38720000038107,
              42.823559000229295
            ],
            [
              -71.36067899962045,
              42.79896200008544
            ],
            [
              -71.34464200028388,
              42.817112000020586
            ],
            [
              -71.34952399979832,
              42.83918300001438
            ],
            [
              -71.20691199998706,
              42.8522220000555
            ],
            [
              -71.1977559996071,
              42.86671699986855
            ],
            [
              -71.19040199992415,
              42.85526600029469
            ],
            [
              -71.14375399998275,
              42.853464999767006
            ],
            [
              -71.13645999967595,
              42.86051500001047
            ],
            [
              -71.11647099968913,
              42.83800099984033
            ],
            [
              -71.11575199981382,
              42.8176929997818
            ],
            [
              -71.06441599962844,
              42.80627499979891
            ],
            [
              -71.0449199995611,
              42.8486669999432
            ],
            [
              -71.03120100040726,
              42.8590869998415
            ],
            [
              -70.91463099988418,
              42.886647999970165
            ],
            [
              -70.88560199986836,
              42.88283399989744
            ],
            [
              -70.84771799977145,
              42.860866999724095
            ],
            [
              -70.81383200035555,
              42.87229800006699
            ],
            [
              -70.79283900008805,
              42.93766399999925
            ],
            [
              -70.7366110003425,
              43.00042200020317
            ],
            [
              -70.63208799976924,
              42.96671300002438
            ],
            [
              -70.60562100033361,
              42.97222999974193
            ],
            [
              -70.70119699986597,
              43.045240000071075
            ],
            [
              -70.7063100002574,
              43.075338999831914
            ],
            [
              -70.75641200000834,
              43.08017700027311
            ],
            [
              -70.82708000022953,
              43.127395000108145
            ],
            [
              -70.83360999955686,
              43.14610599980147
            ],
            [
              -70.82356899962022,
              43.1742390000186
            ],
            [
              -70.82825500021441,
              43.187788999851485
            ],
            [
              -70.80982100015407,
              43.22588200000177
            ],
            [
              -70.90656400017372,
              43.29203599996985
            ],
            [
              -70.8963409997639,
              43.29855099977818
            ],
            [
              -70.93117799975703,
              43.33654499988285
            ],
            [
              -70.95585199961478,
              43.33399699968549
            ],
            [
              -70.97259100000656,
              43.348378000210026
            ],
            [
              -70.9859429996376,
              43.380055000159665
            ],
            [
              -70.9868430001612,
              43.41378399998749
            ],
            [
              -70.96087299994471,
              43.438892000116645
            ],
            [
              -70.96111599961895,
              43.46918800031713
            ],
            [
              -70.97603999979324,
              43.47842799988767
            ],
            [
              -70.95466099973636,
              43.50930299996599
            ],
            [
              -70.96380200004772,
              43.53937099993218
            ],
            [
              -70.95350400019313,
              43.54060300006902
            ],
            [
              -70.95063199999154,
              43.55131299981352
            ],
            [
              -70.97277400030465,
              43.57051200022883
            ],
            [
              -71.00997600033618,
              44.284899000223845
            ],
            [
              -71.04438499980881,
              44.28377799994006
            ],
            [
              -71.04228000006141,
              44.23751400027353
            ],
            [
              -71.09843400018714,
              44.235454000255736
            ],
            [
              -71.09767000010598,
              44.124142000177415
            ],
            [
              -71.20677499971971,
              44.13962199976353
            ],
            [
              -71.21139799966636,
              44.130299000024685
            ],
            [
              -71.23636699997523,
              44.139770000006145
            ],
            [
              -71.30244999988459,
              44.13740199995759
            ],
            [
              -71.31175799970218,
              44.09175600024886
            ],
            [
              -71.33588199973903,
              44.0857519997211
            ],
            [
              -71.35648199964614,
              44.16583600010069
            ],
            [
              -71.3842389995927,
              44.17884399971458
            ],
            [
              -71.39487399973116,
              44.214678999992216
            ],
            [
              -71.42650700015999,
              44.2109030001976
            ],
            [
              -71.41317100042247,
              44.167462000295664
            ],
            [
              -71.38713799955846,
              44.15520100024843
            ],
            [
              -71.37651800038694,
              44.11887000026403
            ],
            [
              -71.38163000005515,
              44.09787400018126
            ],
            [
              -71.36635500025159,
              44.0685240000459
            ],
            [
              -71.34665599979468,
              44.06882200031488
            ],
            [
              -71.3836129996038,
              44.02261100029046
            ],
            [
              -71.15551899990028,
              44.02464099999168
            ],
            [
              -71.14006099979859,
              43.96285000017708
            ],
            [
              -71.16882399967564,
              43.96213399998392
            ],
            [
              -71.21191200040057,
              43.922314000300176
            ],
            [
              -71.31175799970218,
              43.912870999924415
            ],
            [
              -71.31334500031403,
              43.92239299988108
            ],
            [
              -71.32709299978019,
              43.92117200031533
            ],
            [
              -71.32546000003592,
              43.911597000283074
            ],
            [
              -71.36008799979166,
              43.90836900029207
            ],
            [
              -71.32883299965461,
              43.78272999975018
            ],
            [
              -71.53233200004142,
              43.76481799971469
            ],
            [
              -71.43988999975318,
              43.695557999937705
            ],
            [
              -71.46094699959475,
              43.68656300020955
            ],
            [
              -71.47899800023878,
              43.69863200010681
            ],
            [
              -71.70589799969086,
              43.5379360001252
            ],
            [
              -71.70617600042353,
              43.53774199988727
            ]
          ]
        ]
      }
    },
    {
      "type": "Feature",
      "id": "us-cd:119:33:02",
      "properties": {
        "boundary_id": "us-cd:119:33:02",
        "boundary_type": "congressional_district",
        "name": "2",
        "stateFips": "33",
        "congress": 119,
        "district": "02",
        "bbox": [
          -72.55709299999825,
          42.697041999738616,
          -71.00997600033618,
          45.305483999973255
        ]
      },
      "geometry": {
        "type": "Polygon",
        "coordinates": [
          [
            [
              -72.55709299999825,
              42.85347299984307
            ],
            [
              -72.54151299969786,
              42.80709400000258
            ],
            [
              -72.5087369999695,
              42.77952199987482
            ],
            [
              -72.5154660003868,
              42.765629000070504
            ],
            [
              -72.49054700030663,
              42.772746999671895
            ],
            [
              -72.45841199973748,
              42.72693300027202
            ],
            [
              -71.3516350002918,
              42.697901000117525
            ],
            [
              -71.294636999719,
              42.697041999738616
            ],
            [
              -71.23743200035526,
              42.74489499994652
            ],
            [
              -71.18178600021767,
              42.73734100016633
            ],
            [
              -71.18613999965251,
              42.79093500010305
            ],
            [
              -71.16664699995823,
              42.808881000230166
            ],
            [
              -71.11218300037653,
              42.823321999721095
            ],
            [
              -71.13645999967595,
              42.86051500001047
            ],
            [
              -71.14375399998275,
              42.853464999767006
            ],
            [
              -71.19040199992415,
              42.85526600029469
            ],
            [
              -71.1977559996071,
              42.86671699986855
            ],
            [
              -71.20691199998706,
              42.8522220000555
            ],
            [
              -71.34952399979832,
              42.83918300001438
            ],
            [
              -71.34464200028388,
              42.817112000020586
            ],
            [
              -71.36067899962045,
              42.79896200008544
            ],
            [
              -71.38720000038107,
              42.823559000229295
            ],
            [
              -71.42706700002663,
              42.824839999700956
            ],
            [
              -71.44230099982232,
              42.8903989997956
            ],
            [
              -71.4534089997888,
              42.90458200002039
            ],
            [
              -71.48615600010315,
              42.863215999847625
            ],
            [
              -71.46956900004734,
              42.793933999677066
            ],
            [
              -71.4929759998587,
              42.79440700028476
            ],
            [
              -71.49613500011549,
              42.80550000027948
            ],
            [
              -71.54255399972801,
              42.80587399978856
            ],
            [
              -71.55621000003099,
              42.79233200029664
            ],
            [
              -71.58202899973642,
              42.94332999970837
            ],
            [
              -71.6103509995725,
              42.939721000294675
            ],
            [
              -71.63157599964359,
              43.02253099984752
            ],
            [
              -71.64123099979082,
              43.02580400017746
            ],
            [
              -71.63490200030495,
              43.03356999976654
            ],
            [
              -71.6412910000653,
              43.05416799969036
            ],
            [
              -71.51114999962805,
              43.0696569999457
            ],
            [
              -71.4663489996912,
              43.12226099982851
            ],
            [
              -71.21295400031609,
              43.07698100018837
            ],
            [
              -71.18968399987375,
              43.10965699979669
            ],
            [
              -71.20640900002181,
              43.11230499981472
            ],
            [
              -71.1885549999196,
              43.13175900005784
            ],
            [
              -71.1728690002123,
              43.121574000133
            ],
            [
              -71.15953199975156,
              43.1355590000789
            ],
            [
              -71.17720199973076,
              43.14397400004285
            ],
            [
              -71.12794799972654,
              43.200072000290476
            ],
            [
              -71.24733600002452,
              43.27523200023227
            ],
            [
              -71.23601100032307,
              43.28499400008297
            ],
            [
              -71.5500299996097,
              43.452701000182714
            ],
            [
              -71.61283799980963,
              43.43812999968127
            ],
            [
              -71.6380459995948,
              43.491755999932586
            ],
            [
              -71.65335100043389,
              43.487574999715164
            ],
            [
              -71.67729299999755,
              43.50049100011864
            ],
            [
              -71.69134599996056,
              43.51584200008041
            ],
            [
              -71.68794400002955,
              43.52861400027251
            ],
            [
              -71.70634600030282,
              43.53762300008031
            ],
            [
              -71.47899800023878,
              43.69863200010681
            ],
            [
              -71.46094699959475,
              43.68656300020955
            ],
            [
              -71.43988999975318,
              43.695557999937705
            ],
            [
              -71.53233200004142,
              43.76481799971469
            ],
            [
              -71.32883299965461,
              43.78272999975018
            ],
            [
              -71.36008799979166,
              43.90836900029207
            ],
            [
              -71.32546000003592,
              43.911597000283074
            ],
            [
              -71.32709299978019,
              43.92117200031533
            ],
            [
              -71.31334500031403,
              43.92239299988108
            ],
            [
              -71.31175799970218,
              43.912870999924415
            ],
            [
              -71.21191200040057,
              43.922314000300176
            ],
            [
              -71.16882399967564,
              43.96213399998392
            ],
            [
              -71.14006099979859,
              43.96285000017708
            ],
            [
              -71.15551899990028,
              44.02464099999168
            ],
            [
              -71.3836129996038,
              44.02261100029046
            ],
            [
              -71.34665599979468,
              44.06882200031488
            ],
            [
              -71.36635500025159,
              44.0685240000459
            ],
            [
              -71.38163000005515,
              44.09787400018126
            ],
            [
              -71.37651800038694,
              44.11887000026403
            ],
            [
              -71.38713799955846,
              44.15520100024843
            ],
            [
              -71.41317100042247,
              44.167462000295664
            ],
            [
              -71.42650700015999,
              44.2109030001976
            ],
            [
              -71.39487399973116,
              44.214678999992216
            ],
            [
              -71.3842389995927,
              44.17884399971458
            ],
            [
              -71.35648199964614,
              44.16583600010069
            ],
            [
              -71.33588199973903,
              44.0857519997211
            ],
            [
              -71.31175799970218,
              44.09175600024886
            ],
            [
              -71.30244999988459,
              44.13740199995759
            ],
            [
              -71.23636699997523,
              44.139770000006145
            ],
            [
              -71.21139799966636,
              44.130299000024685
            ],
            [
              -71.20677499971971,
              44.13962199976353
            ],
            [
              -71.09767000010598,
              44.124142000177415
            ],
            [
              -71.09843400018714,
              44.235454000255736
            ],
            [
              -71.04228000006141,
              44.23751400027353
            ],
            [
              -71.04438499980881,
              44.28377799994006
            ],
            [
              -71.00997600033618,
              44.284899000223845
            ],
            [
              -71.03839000023376,
              44.76698200027908
            ],
            [
              -71.08392799958928,
              45.305483999973255
            ],
            [
              -71.10527999988197,
              45.29487499971958
            ],
            [
              -71.12411700034845,
              45.25513799972917
            ],
            [
              -71.14756000014481,
              45.2394349996876
            ],
            [
              -71.16233100015823,
              45.25034600016592
            ],
            [
              -71.18010099969652,
              45.23993700021573
            ],
            [
              -71.19642900018457,
              45.25405200015178
            ],
            [
              -71.23061400024953,
              45.24941700000294
            ],
            [
              -71.25939200019518,
              45.27203300021887
            ],
            [
              -71.2649480002774,
              45.293791999913125
            ],
            [
              -71.2842240002367,
              45.302358999964035
            ],
            [
              -71.33641200036678,
              45.272741999701594
            ],
            [
              -71.36027799976247,
              45.270331999799446
            ],
            [
              -71.35653900044586,
              45.2538969999335
            ],
            [
              -71.38413700038377,
              45.233509000115156
            ],
            [
              -71.40214499957344,
              45.242598000061456
            ],
            [
              -71.42105099963689,
              45.23220300000198
            ],
            [
              -71.44281800003127,
              45.23829199995303
            ],
            [
              -71.39734199970172,
              45.203517999764884
            ],
            [
              -71.4376040002558,
              45.14187599984991
            ],
            [
              -71.42838500012665,
              45.123672000290064
            ],
            [
              -71.44878699966704,
              45.11256699972044
            ],
            [
              -71.46787799967842,
              45.08365099975365
            ],
            [
              -71.49804200039448,
              45.07018700025216
            ],
            [
              -71.50644999968848,
              45.04848200016434
            ],
            [
              -71.49095399995198,
              45.043167000095394
            ],
            [
              -71.50108199992725,
              45.01334700017625
            ],
            [
              -71.46506499992637,
              45.012917999891435
            ],
            [
              -71.48828099994202,
              45.00073900020509
            ],
            [
              -71.50878399976474,
              45.00784400003129
            ],
            [
              -71.54151600001047,
              44.98476800000649
            ],
            [
              -71.51795500021332,
              44.96765499989088
            ],
            [
              -71.52370899976394,
              44.96427700024597
            ],
            [
              -71.5163209997458,
              44.964477999731216
            ],
            [
              -71.51479000010875,
              44.94369499987899
            ],
            [
              -71.52283799955265,
              44.93991500009581
            ],
            [
              -71.49490999990189,
              44.90429900001666
            ],
            [
              -71.54945100037479,
              44.86208400011812
            ],
            [
              -71.5511140002563,
              44.83696500030335
            ],
            [
              -71.57686500018968,
              44.81519699994443
            ],
            [
              -71.56838400020241,
              44.80704000004349
            ],
            [
              -71.57281700017828,
              44.79087099982585
            ],
            [
              -71.63211399976893,
              44.75161800030577
            ],
            [
              -71.62609300025461,
              44.728543000153905
            ],
            [
              -71.61710699975397,
              44.72871199971942
            ],
            [
              -71.59386099960108,
              44.69641499994482
            ],
            [
              -71.59661499980191,
              44.67808799990612
            ],
            [
              -71.58146300002198,
              44.673204000243224
            ],
            [
              -71.5873649997106,
              44.65971500016538
            ],
            [
              -71.5628060003789,
              44.65235599973037
            ],
            [
              -71.56372100007277,
              44.637247000148975
            ],
            [
              -71.54681900037272,
              44.629756000217974
            ],
            [
              -71.557019000318,
              44.629485999864855
            ],
            [
              -71.54633700032385,
              44.622955000075606
            ],
            [
              -71.55512700010762,
              44.62524400011239
            ],
            [
              -71.55363099973236,
              44.60613199997727
            ],
            [
              -71.5621309999862,
              44.601180999769724
            ],
            [
              -71.53490899979192,
              44.58789800018244
            ],
            [
              -71.54578800032786,
              44.57793399989558
            ],
            [
              -71.55236500040917,
              44.584392999991174
            ],
            [
              -71.54772599967067,
              44.571380999708275
            ],
            [
              -71.55971700044232,
              44.56397500024505
            ],
            [
              -71.59696799997931,
              44.55947100018657
            ],
            [
              -71.57186700032427,
              44.53791900018371
            ],
            [
              -71.59411400021939,
              44.52155399987722
            ],
            [
              -71.57702400019832,
              44.50206099986164
            ],
            [
              -71.58813299998971,
              44.506585000167014
            ],
            [
              -71.59860099972362,
              44.48682499980245
            ],
            [
              -71.61784300024604,
              44.485841000014396
            ],
            [
              -71.6262050004076,
              44.474466000141426
            ],
            [
              -71.63450499974658,
              44.47562500007325
            ],
            [
              -71.62466300000159,
              44.48174400025244
            ],
            [
              -71.6327819995906,
              44.48379600017395
            ],
            [
              -71.64683700010177,
              44.47320200029861
            ],
            [
              -71.63898600030136,
              44.464410999938295
            ],
            [
              -71.65421699972399,
              44.458823000081175
            ],
            [
              -71.66088300039208,
              44.43993699968091
            ],
            [
              -71.70258000032374,
              44.413542000301724
            ],
            [
              -71.79448299976342,
              44.39900400014003
            ],
            [
              -71.80057199994812,
              44.38402799987244
            ],
            [
              -71.81442700044272,
              44.38192200026372
            ],
            [
              -71.81474700010986,
              44.354493999985145
            ],
            [
              -71.87158800032383,
              44.33667999998026
            ],
            [
              -71.90842399975915,
              44.34841400023131
            ],
            [
              -71.93525000011829,
              44.33575699993767
            ],
            [
              -71.98218699976469,
              44.337167999727576
            ],
            [
              -72.03280200042492,
              44.32048999992246
            ],
            [
              -72.03287799969459,
              44.30216499969774
            ],
            [
              -72.06438899992467,
              44.27932299971928
            ],
            [
              -72.06841699984457,
              44.270502999950445
            ],
            [
              -72.05833099970212,
              44.27008300026785
            ],
            [
              -72.04766399977662,
              44.23895600023932
            ],
            [
              -72.0661580001114,
              44.19012799996984
            ],
            [
              -72.03899700001651,
              44.156796000020485
            ],
            [
              -72.04195700008167,
              44.13699800007659
            ],
            [
              -72.03326000018431,
              44.131680000275715
            ],
            [
              -72.05536999981207,
              44.110760000281736
            ],
            [
              -72.04787999968669,
              44.096585999724205
            ],
            [
              -72.03130600004967,
              44.10043000014077
            ],
            [
              -72.0452839996696,
              44.087308000041645
            ],
            [
              -72.03167299957246,
              44.078968999697835
            ],
            [
              -72.05286800040463,
              44.07630599985371
            ],
            [
              -72.04830499983412,
              44.069706999930226
            ],
            [
              -72.06809600035253,
              44.057377999777124
            ],
            [
              -72.06190099986263,
              44.04959600031652
            ],
            [
              -72.07831999968894,
              44.04337800009167
            ],
            [
              -72.08266899999923,
              44.021803000216615
            ],
            [
              -72.09542599960352,
              44.0217569997036
            ],
            [
              -72.09052700037064,
              44.009923999748516
            ],
            [
              -72.10276500011616,
              44.014577999881155
            ],
            [
              -72.11686499993485,
              43.99446700031749
            ],
            [
              -72.11437799969772,
              43.96805399971824
            ],
            [
              -72.0909399999242,
              43.9657800002582
            ],
            [
              -72.11834500041657,
              43.94653199978632
            ],
            [
              -72.12045099998889,
              43.91955500027287
            ],
            [
              -72.17210299964344,
              43.884985999994356
            ],
            [
              -72.16790700039236,
              43.86910899978716
            ],
            [
              -72.18461599974857,
              43.86414300005301
            ],
            [
              -72.18405099985905,
              43.80640399980529
            ],
            [
              -72.20553600022113,
              43.78458400021106
            ],
            [
              -72.20522999989939,
              43.770930000204125
            ],
            [
              -72.23417799972435,
              43.74596499981265
            ],
            [
              -72.27110500029457,
              43.733918000023365
            ],
            [
              -72.29956400039801,
              43.70627700027426
            ],
            [
              -72.30314899972882,
              43.66861900000844
            ],
            [
              -72.33482700036349,
              43.61795199976235
            ],
            [
              -72.32832700027507,
              43.60111400016259
            ],
            [
              -72.38023699967248,
              43.5734349997656
            ],
            [
              -72.38069699998002,
              43.54035500028504
            ],
            [
              -72.39887099974936,
              43.512653000281766
            ],
            [
              -72.38106299967791,
              43.4940369998392
            ],
            [
              -72.38147500030487,
              43.480029999853684
            ],
            [
              -72.39256900002765,
              43.4668839999829
            ],
            [
              -72.40350899976464,
              43.39158300026663
            ],
            [
              -72.41602199986977,
              43.37716399977818
            ],
            [
              -72.41264900025108,
              43.362279000188245
            ],
            [
              -72.38986800042859,
              43.35657200003193
            ],
            [
              -72.41055899967398,
              43.33112099994842
            ],
            [
              -72.39531499983256,
              43.31269599972285
            ],
            [
              -72.41603699993838,
              43.27023100022736
            ],
            [
              -72.43860500022386,
              43.25242400027806
            ],
            [
              -72.43822399955903,
              43.20291800027882
            ],
            [
              -72.45050800023361,
              43.19261099970304
            ],
            [
              -72.4439310001523,
              43.179778000013876
            ],
            [
              -72.45740499998209,
              43.147537000201936
            ],
            [
              -72.43250199979546,
              43.11889599969069
            ],
            [
              -72.44319800003328,
              43.10302000010745
            ],
            [
              -72.4352640003922,
              43.08148999988127
            ],
            [
              -72.46784199975383,
              43.052749999738005
            ],
            [
              -72.4626229999555,
              43.02578800008746
            ],
            [
              -72.44325900013266,
              43.007576999822696
            ],
            [
              -72.46251599982538,
              42.997445000141795
            ],
            [
              -72.46169999986569,
              42.982870999990965
            ],
            [
              -72.47371699967826,
              42.97212400026734
            ],
            [
              -72.53380800038563,
              42.952584999908744
            ],
            [
              -72.52449899984478,
              42.91514800003743
            ],
            [
              -72.53337999986515,
              42.89531200030388
            ],
            [
              -72.55262200038754,
              42.88504300001401
            ],
            [
              -72.55701699983028,
              42.853884999725096
            ],
            [
              -72.55709299999825,
              42.85347299984307
            ]
          ]
        ]
      }
    }
  ]
}
