{
  "type": "FeatureCollection",
  "features": [
    {
      "type": "Feature",
      "id": "us-cd:118:40:01",
      "properties": {
        "boundary_id": "us-cd:118:40:01",
        "boundary_type": "congressional_district",
        "name": "Congressional District 1",
        "stateFips": "40",
        "congress": 118,
        "district": "01",
        "bbox": [
          -96.297906,
          35.765428,
          -95.402214,
          36.423686
        ]
      },
      "geometry": {
        "type": "Polygon",
        "coordinates": [
          [
            [
              -96.297906,
              36.076046
            ],
            [
              -96.297888,
              36.162279
            ],
            [
              -96.001226,
              36.161296
            ],
            [
              -96.001171,
              36.423686
            ],
            [
              -95.79437,
              36.42358
            ],
            [
              -95.79425,
              36.394505
            ],
            [
              -95.812256,
              36.394575
            ],
            [
              -95.8122,
              36.32205
            ],
            [
              -95.74026,
              36.32198
            ],
            [
              -95.7403,
              36.31293
            ],
            [
              -95.776146,
              36.31106
            ],
            [
              -95.776073,
              36.263982
            ],
            [
              -95.75834,
              36.26326
            ],
            [
              -95.758384,
              36.205968
            ],
            [
              -95.72615,
              36.209574
            ],
            [
              -95.72641,
              36.16263
            ],
            [
              -95.61852,
              36.162512
            ],
            [
              -95.604696,
              36.13346
            ],
            [
              -95.568316,
              36.130125
            ],
            [
              -95.570265,
              36.110725
            ],
            [
              -95.552587,
              36.091486
            ],
            [
              -95.556628,
              36.082447
            ],
            [
              -95.579377,
              36.080316
            ],
            [
              -95.523401,
              36.042991
            ],
            [
              -95.542313,
              36.006997
            ],
            [
              -95.560237,
              35.995076
            ],
            [
              -95.564577,
              35.966978
            ],
            [
              -95.53755,
              35.976448
            ],
            [
              -95.527344,
              35.959907
            ],
            [
              -95.494993,
              35.956989
            ],
            [
              -95.477308,
              35.904605
            ],
            [
              -95.456834,
              35.902107
            ],
            [
              -95.445403,
              35.890057
            ],
            [
              -95.402949,
              35.885552
            ],
            [
              -95.402214,
              35.806633
            ],
            [
              -95.426308,
              35.798379
            ],
            [
              -95.477552,
              35.804199
            ],
            [
              -95.563091,
              35.787908
            ],
            [
              -95.590149,
              35.765428
            ],
            [
              -95.60195,
              35.778087
            ],
            [
              -95.638313,
              35.787596
            ],
            [
              -95.638683,
              35.835489
            ],
            [
              -95.650419,
              35.856644
            ],
            [
              -96.137229,
              35.857097
            ],
            [
              -96.137186,
              35.917088
            ],
            [
              -96.131555,
              35.935614
            ],
            [
              -96.117263,
              35.945313
            ],
            [
              -96.118807,
              35.959334
            ],
            [
              -96.136974,
              35.95932
            ],
            [
              -96.136907,
              35.973959
            ],
            [
              -96.18999,
              35.97378
            ],
            [
              -96.189934,
              35.988403
            ],
            [
              -96.217197,
              35.988637
            ],
            [
              -96.21701,
              36.003099
            ],
            [
              -96.226417,
              36.002586
            ],
            [
              -96.23724,
              36.02604
            ],
            [
              -96.261611,
              36.020842
            ],
            [
              -96.261743,
              36.046813
            ],
            [
              -96.272411,
              36.049988
            ],
            [
              -96.261294,
              36.075741
            ],
            [
              -96.297905,
              36.075766
            ],
            [
              -96.297906,
              36.076046
            ]
          ]
        ]
      }
    },
    {
      "type": "Feature",
      "id": "us-cd:118:40:02",
      "properties": {
        "boundary_id": "us-cd:118:40:02",
        "boundary_type": "congressional_district",
        "name": "Congressional District 2",
        "stateFips": "40",
        "congress": 118,
        "district": "02",
        "bbox": [
          -96.969736,
          33.615833,
          -94.430662,
          36.998905
        ]
      },
      "geometry": {
        "type": "Polygon",
        "coordinates": [
          [
            [
              -96.969627,
              34.07102
            ],
            [
              -96.968424,
              34.172684
            ],
            [
              -96.933503,
              34.172748
            ],
            [
              -96.933305,
              34.332561
            ],
            [
              -96.881005,
              34.332977
            ],
            [
              -96.88079,
              34.506053
            ],
            [
              -96.512099,
              34.505562
            ],
            [
              -96.512171,
              34.680065
            ],
            [
              -96.406357,
              34.680023
            ],
            [
              -96.406135,
              34.934191
            ],
            [
              -96.424701,
              34.903687
            ],
            [
              -96.460367,
              34.916499
            ],
            [
              -96.490786,
              34.910585
            ],
            [
              -96.490434,
              35.115857
            ],
            [
              -96.441305,
              35.115771
            ],
            [
              -96.44129,
              35.467712
            ],
            [
              -96.446202,
              35.458444
            ],
            [
              -96.475754,
              35.463421
            ],
            [
              -96.488281,
              35.448229
            ],
            [
              -96.484402,
              35.436548
            ],
            [
              -96.496594,
              35.428896
            ],
            [
              -96.518633,
              35.431205
            ],
            [
              -96.544121,
              35.457827
            ],
            [
              -96.553641,
              35.454309
            ],
            [
              -96.569602,
              35.439564
            ],
            [
              -96.555722,
              35.434566
            ],
            [
              -96.560102,
              35.421559
            ],
            [
              -96.537163,
              35.41094
            ],
            [
              -96.535146,
              35.391371
            ],
            [
              -96.585654,
              35.411474
            ],
            [
              -96.599717,
              35.396955
            ],
            [
              -96.621297,
              35.398089
            ],
            [
              -96.620828,
              35.639005
            ],
            [
              -96.192563,
              35.639087
            ],
            [
              -96.192403,
              35.856993
            ],
            [
              -95.650419,
              35.856644
            ],
            [
              -95.638683,
              35.835489
            ],
            [
              -95.638313,
              35.787596
            ],
            [
              -95.60195,
              35.778087
            ],
            [
              -95.590149,
              35.765428
            ],
            [
              -95.563091,
              35.787908
            ],
            [
              -95.477552,
              35.804199
            ],
            [
              -95.426308,
              35.798379
            ],
            [
              -95.402214,
              35.806633
            ],
            [
              -95.402949,
              35.885552
            ],
            [
              -95.445403,
              35.890057
            ],
            [
              -95.456834,
              35.902107
            ],
            [
              -95.477308,
              35.904605
            ],
            [
              -95.494993,
              35.956989
            ],
            [
              -95.527344,
              35.959907
            ],
            [
              -95.53755,
              35.976448
            ],
            [
              -95.564577,
              35.966978
            ],
            [
              -95.560237,
              35.995076
            ],
            [
              -95.542313,
              36.006997
            ],
            [
              -95.523401,
              36.042991
            ],
            [
              -95.579377,
              36.080316
            ],
            [
              -95.556628,
              36.082447
            ],
            [
              -95.552587,
              36.091486
            ],
            [
              -95.570265,
              36.110725
            ],
            [
              -95.568316,
              36.130125
            ],
            [
              -95.604696,
              36.13346
            ],
            [
              -95.61852,
              36.162512
            ],
            [
              -95.72641,
              36.16263
            ],
            [
              -95.72615,
              36.209574
            ],
            [
              -95.758384,
              36.205968
            ],
            [
              -95.75834,
              36.26326
            ],
            [
              -95.776073,
              36.263982
            ],
            [
              -95.776146,
              36.31106
            ],
            [
              -95.7403,
              36.31293
            ],
            [
              -95.74026,
              36.32198
            ],
            [
              -95.8122,
              36.32205
            ],
            [
              -95.812256,
              36.394575
            ],
            [
              -95.79425,
              36.394505
            ],
            [
              -95.79437,
              36.42358
            ],
            [
              -96.001171,
              36.423686
            ],
            [
              -96.00081,
              36.99886
            ],
            [
              -94.617964,
              36.998905
            ],
            [
              -94.617919,
              36.499414
            ],
            [
              -94.430662,
              35.392478
            ],
            [
              -94.487514,
              33.628939
            ],
            [
              -94.504615,
              33.620682
            ],
            [
              -94.51726,
              33.632729
            ],
            [
              -94.527376,
              33.615833
            ],
            [
              -94.535065,
              33.625115
            ],
            [
              -94.518932,
              33.637164
            ],
            [
              -94.527491,
              33.641344
            ],
            [
              -94.569523,
              33.627832
            ],
            [
              -94.543332,
              33.655686
            ],
            [
              -94.549636,
              33.660676
            ],
            [
              -94.59083,
              33.645563
            ],
            [
              -94.560339,
              33.666591
            ],
            [
              -94.579864,
              33.666167
            ],
            [
              -94.587072,
              33.68582
            ],
            [
              -94.59797,
              33.663381
            ],
            [
              -94.622379,
              33.682428
            ],
            [
              -94.637996,
              33.664578
            ],
            [
              -94.669311,
              33.664362
            ],
            [
              -94.661806,
              33.675133
            ],
            [
              -94.645535,
              33.673531
            ],
            [
              -94.644322,
              33.701666
            ],
            [
              -94.650961,
              33.686558
            ],
            [
              -94.667852,
              33.694607
            ],
            [
              -94.684792,
              33.684353
            ],
            [
              -94.716188,
              33.687902
            ],
            [
              -94.701729,
              33.703413
            ],
            [
              -94.732309,
              33.715987
            ],
            [
              -94.716594,
              33.695164
            ],
            [
              -94.735856,
              33.691625
            ],
            [
              -94.753801,
              33.707729
            ],
            [
              -94.732786,
              33.720035
            ],
            [
              -94.735178,
              33.726616
            ],
            [
              -94.752129,
              33.713835
            ],
            [
              -94.752512,
              33.734468
            ],
            [
              -94.773126,
              33.727187
            ],
            [
              -94.788251,
              33.735316
            ],
            [
              -94.757813,
              33.750109
            ],
            [
              -94.76444,
              33.760178
            ],
            [
              -94.802252,
              33.732788
            ],
            [
              -94.816065,
              33.739215
            ],
            [
              -94.812155,
              33.750936
            ],
            [
              -94.821783,
              33.768752
            ],
            [
              -94.830844,
              33.758079
            ],
            [
              -94.822473,
              33.732716
            ],
            [
              -94.8693,
              33.745871
            ],
            [
              -94.87708,
              33.75222
            ],
            [
              -94.868144,
              33.768874
            ],
            [
              -94.876504,
              33.757405
            ],
            [
              -94.921955,
              33.791599
            ],
            [
              -94.910209,
              33.812429
            ],
            [
              -94.914764,
              33.824487
            ],
            [
              -94.926072,
              33.828533
            ],
            [
              -94.925215,
              33.808678
            ],
            [
              -94.947874,
              33.808356
            ],
            [
              -94.953518,
              33.816475
            ],
            [
              -94.943831,
              33.8293
            ],
            [
              -94.964401,
              33.837021
            ],
            [
              -94.968895,
              33.860916
            ],
            [
              -94.988487,
              33.851
            ],
            [
              -95.001993,
              33.863049
            ],
            [
              -95.046568,
              33.862565
            ],
            [
              -95.060105,
              33.901873
            ],
            [
              -95.072413,
              33.902699
            ],
            [
              -95.06569,
              33.915966
            ],
            [
              -95.074052,
              33.915349
            ],
            [
              -95.080586,
              33.882256
            ],
            [
              -95.089607,
              33.880857
            ],
            [
              -95.100168,
              33.896101
            ],
            [
              -95.078528,
              33.910283
            ],
            [
              -95.082387,
              33.921758
            ],
            [
              -95.122038,
              33.904795
            ],
            [
              -95.131642,
              33.916027
            ],
            [
              -95.1247,
              33.934675
            ],
            [
              -95.158296,
              33.937526
            ],
            [
              -95.217633,
              33.962646
            ],
            [
              -95.250171,
              33.938497
            ],
            [
              -95.252694,
              33.894234
            ],
            [
              -95.260595,
              33.88765
            ],
            [
              -95.266126,
              33.909773
            ],
            [
              -95.282981,
              33.907402
            ],
            [
              -95.278767,
              33.877906
            ],
            [
              -95.289302,
              33.873103
            ],
            [
              -95.326436,
              33.88607
            ],
            [
              -95.362517,
              33.866581
            ],
            [
              -95.440928,
              33.866429
            ],
            [
              -95.464211,
              33.873372
            ],
            [
              -95.461673,
              33.886998
            ],
            [
              -95.502304,
              33.874742
            ],
            [
              -95.510739,
              33.897877
            ],
            [
              -95.545197,
              33.880294
            ],
            [
              -95.554478,
              33.928072
            ],
            [
              -95.593827,
              33.943031
            ],
            [
              -95.629055,
              33.90587
            ],
            [
              -95.665466,
              33.908978
            ],
            [
              -95.697882,
              33.88611
            ],
            [
              -95.756367,
              33.892625
            ],
            [
              -95.762559,
              33.874367
            ],
            [
              -95.751746,
              33.855557
            ],
            [
              -95.770556,
              33.845269
            ],
            [
              -95.805149,
              33.861304
            ],
            [
              -95.821666,
              33.856633
            ],
            [
              -95.822787,
              33.838756
            ],
            [
              -95.837516,
              33.83564
            ],
            [
              -95.929561,
              33.885
            ],
            [
              -95.944284,
              33.859811
            ],
            [
              -95.984253,
              33.852664
            ],
            [
              -95.984254,
              33.864403
            ],
            [
              -96.003406,
              33.872344
            ],
            [
              -95.995857,
              33.855693
            ],
            [
              -96.019599,
              33.840566
            ],
            [
              -96.023907,
              33.857067
            ],
            [
              -96.048834,
              33.836468
            ],
            [
              -96.100095,
              33.847971
            ],
            [
              -96.09936,
              33.83047
            ],
            [
              -96.14807,
              33.837799
            ],
            [
              -96.150765,
              33.816987
            ],
            [
              -96.178964,
              33.810553
            ],
            [
              -96.170373,
              33.799382
            ],
            [
              -96.156355,
              33.813349
            ],
            [
              -96.178059,
              33.760518
            ],
            [
              -96.229023,
              33.748021
            ],
            [
              -96.263593,
              33.767467
            ],
            [
              -96.293708,
              33.769409
            ],
            [
              -96.316925,
              33.698997
            ],
            [
              -96.355946,
              33.687155
            ],
            [
              -96.36959,
              33.716809
            ],
            [
              -96.408469,
              33.751192
            ],
            [
              -96.422643,
              33.776041
            ],
            [
              -96.448045,
              33.781031
            ],
            [
              -96.500268,
              33.772583
            ],
            [
              -96.515912,
              33.787795
            ],
            [
              -96.526655,
              33.820891
            ],
            [
              -96.572937,
              33.819098
            ],
            [
              -96.62929,
              33.845488
            ],
            [
              -96.590112,
              33.880665
            ],
            [
              -96.587934,
              33.894784
            ],
            [
              -96.628294,
              33.894477
            ],
            [
              -96.667187,
              33.91694
            ],
            [
              -96.699574,
              33.839049
            ],
            [
              -96.746038,
              33.825699
            ],
            [
              -96.769378,
              33.827477
            ],
            [
              -96.783485,
              33.863534
            ],
            [
              -96.812778,
              33.872646
            ],
            [
              -96.832157,
              33.874835
            ],
            [
              -96.841592,
              33.852894
            ],
            [
              -96.85609,
              33.84749
            ],
            [
              -96.88301,
              33.868019
            ],
            [
              -96.905253,
              33.947219
            ],
            [
              -96.918618,
              33.958926
            ],
            [
              -96.9347906714179,
              33.9543587870584
            ],
            [
              -96.934833,
              34.01293
            ],
            [
              -96.969736,
              34.012953
            ],
            [
              -96.969627,
              34.07102
            ]
          ]
        ]
      }
    },
    {
      "type": "Feature",
      "id": "us-cd:118:40:03",
      "properties": {
        "boundary_id": "us-cd:118:40:03",
        "boundary_type": "congressional_district",
        "name": "Congressional District 3",
        "stateFips": "40",
        "congress": 118,
        "district": "03",
        "bbox": [
          -103.002565,
          34.336516,
          -96.00081,
          37.002133
        ]
      },
      "geometry": {
        "type": "Polygon",
        "coordinates": [
          [
            [
              -103.002565,
              36.526588
            ],
            [
              -103.002199,
              37.000104
            ],
            [
              -102.042089,
              36.993016
            ],
            [
              -100.193754,
              37.002133
            ],
            [
              -96.00081,
              36.99886
            ],
            [
              -96.001226,
              36.161296
            ],
            [
              -96.297888,
              36.162279
            ],
            [
              -96.297905,
              36.075766
            ],
            [
              -96.261294,
              36.075741
            ],
            [
              -96.272411,
              36.049988
            ],
            [
              -96.261743,
              36.046813
            ],
            [
              -96.261611,
              36.020842
            ],
            [
              -96.23724,
              36.02604
            ],
            [
              -96.226417,
              36.002586
            ],
            [
              -96.21701,
              36.003099
            ],
            [
              -96.217197,
              35.988637
            ],
            [
              -96.189934,
              35.988403
            ],
            [
              -96.18999,
              35.97378
            ],
            [
              -96.136907,
              35.973959
            ],
            [
              -96.136974,
              35.95932
            ],
            [
              -96.118807,
              35.959334
            ],
            [
              -96.117263,
              35.945313
            ],
            [
              -96.131555,
              35.935614
            ],
            [
              -96.137186,
              35.917088
            ],
            [
              -96.137229,
              35.857097
            ],
            [
              -96.192403,
              35.856993
            ],
            [
              -96.192563,
              35.639087
            ],
            [
              -96.620828,
              35.639005
            ],
            [
              -96.619655,
              35.941571
            ],
            [
              -97.140583,
              35.941991
            ],
            [
              -97.140455,
              35.95906
            ],
            [
              -97.158227,
              35.945153
            ],
            [
              -97.189552,
              35.941156
            ],
            [
              -97.234292,
              35.969601
            ],
            [
              -97.27756,
              35.973782
            ],
            [
              -97.300453,
              36.009273
            ],
            [
              -97.32362,
              36.010877
            ],
            [
              -97.355186,
              35.984257
            ],
            [
              -97.362872,
              35.991158
            ],
            [
              -97.380336,
              35.98178
            ],
            [
              -97.400278,
              35.988167
            ],
            [
              -97.420974,
              35.968557
            ],
            [
              -97.407795,
              35.931339
            ],
            [
              -97.434092,
              35.910055
            ],
            [
              -97.474408,
              35.893648
            ],
            [
              -97.521011,
              35.908289
            ],
            [
              -97.593817,
              35.886724
            ],
            [
              -97.594421,
              35.879602
            ],
            [
              -97.632129,
              35.876802
            ],
            [
              -97.649319,
              35.858851
            ],
            [
              -97.67163,
              35.865422
            ],
            [
              -97.674026,
              35.72597
            ],
            [
              -97.834102,
              35.725899
            ],
            [
              -97.830894,
              35.507915
            ],
            [
              -97.839734,
              35.507987
            ],
            [
              -97.839657,
              35.493438
            ],
            [
              -97.830916,
              35.493439
            ],
            [
              -97.830914,
              35.464468
            ],
            [
              -97.760254,
              35.464386
            ],
            [
              -97.760278,
              35.449904
            ],
            [
              -97.67143,
              35.447893
            ],
            [
              -97.671539,
              35.464209
            ],
            [
              -97.636605,
              35.464374
            ],
            [
              -97.636666,
              35.478853
            ],
            [
              -97.610061,
              35.47878
            ],
            [
              -97.601141,
              35.493061
            ],
            [
              -97.529936,
              35.493274
            ],
            [
              -97.530132,
              35.458029
            ],
            [
              -97.459005,
              35.468912
            ],
            [
              -97.459196,
              35.42081
            ],
            [
              -97.423569,
              35.420739
            ],
            [
              -97.423566,
              35.377316
            ],
            [
              -97.671369,
              35.377151
            ],
            [
              -97.671414,
              35.335946
            ],
            [
              -97.737305,
              35.323762
            ],
            [
              -97.769273,
              35.34565
            ],
            [
              -97.790427,
              35.332921
            ],
            [
              -97.807186,
              35.340846
            ],
            [
              -97.812129,
              35.333788
            ],
            [
              -97.841333,
              35.33453
            ],
            [
              -97.865604,
              35.36234
            ],
            [
              -97.901203,
              35.344323
            ],
            [
              -97.903133,
              35.355574
            ],
            [
              -97.920835,
              35.353518
            ],
            [
              -97.940258,
              35.376903
            ],
            [
              -97.960124,
              35.34594
            ],
            [
              -97.973856,
              35.357104
            ],
            [
              -98.010836,
              35.360769
            ],
            [
              -98.019312,
              35.378433
            ],
            [
              -98.096014,
              35.377753
            ],
            [
              -98.093127,
              34.854988
            ],
            [
              -98.826041,
              34.855122
            ],
            [
              -98.826008,
              34.594413
            ],
            [
              -99.001107,
              34.594366
            ],
            [
              -99.001025,
              34.637872
            ],
            [
              -99.10315,
              34.63795
            ],
            [
              -99.080284,
              34.622349
            ],
            [
              -99.091781,
              34.613071
            ],
            [
              -99.083103,
              34.590442
            ],
            [
              -99.11155,
              34.592221
            ],
            [
              -99.12459,
              34.582983
            ],
            [
              -99.132213,
              34.59208
            ],
            [
              -99.16332,
              34.588036
            ],
            [
              -99.18451,
              34.562315
            ],
            [
              -99.171111,
              34.54715
            ],
            [
              -99.179611,
              34.539707
            ],
            [
              -99.195666,
              34.544998
            ],
            [
              -99.208391,
              34.503697
            ],
            [
              -99.222083,
              34.49277
            ],
            [
              -99.224595,
              34.481042
            ],
            [
              -99.214858,
              34.481022
            ],
            [
              -99.220992,
              34.462947
            ],
            [
              -99.213052,
              34.456994
            ],
            [
              -99.228536,
              34.451354
            ],
            [
              -99.221639,
              34.425404
            ],
            [
              -99.228022,
              34.419561
            ],
            [
              -99.237619,
              34.427528
            ],
            [
              -99.235752,
              34.402927
            ],
            [
              -99.226631,
              34.401281
            ],
            [
              -99.227647,
              34.387034
            ],
            [
              -99.210186,
              34.393406
            ],
            [
              -99.220252,
              34.37508
            ],
            [
              -99.204103,
              34.371491
            ],
            [
              -99.192322,
              34.346718
            ],
            [
              -99.229245,
              34.336516
            ],
            [
              -99.236177,
              34.365172
            ],
            [
              -99.24812,
              34.367433
            ],
            [
              -99.242855,
              34.372676
            ],
            [
              -99.274858,
              34.384922
            ],
            [
              -99.25898,
              34.391243
            ],
            [
              -99.261321,
              34.403499
            ],
            [
              -99.278828,
              34.400265
            ],
            [
              -99.294648,
              34.415373
            ],
            [
              -99.319606,
              34.408869
            ],
            [
              -99.36961,
              34.458699
            ],
            [
              -99.394956,
              34.442099
            ],
            [
              -99.397135,
              34.419409
            ],
            [
              -99.387653,
              34.411984
            ],
            [
              -99.40296,
              34.373481
            ],
            [
              -99.424897,
              34.385823
            ],
            [
              -99.436474,
              34.370539
            ],
            [
              -99.452648,
              34.388252
            ],
            [
              -99.461053,
              34.380666
            ],
            [
              -99.466383,
              34.3959
            ],
            [
              -99.499875,
              34.409608
            ],
            [
              -99.569696,
              34.418418
            ],
            [
              -99.58006,
              34.416653
            ],
            [
              -99.585442,
              34.388914
            ],
            [
              -99.600026,
              34.374688
            ],
            [
              -99.646511,
              34.382541
            ],
            [
              -99.662705,
              34.37368
            ],
            [
              -99.69497,
              34.378333
            ],
            [
              -99.720259,
              34.406295
            ],
            [
              -99.793684,
              34.453894
            ],
            [
              -99.822281,
              34.4981
            ],
            [
              -99.853066,
              34.511593
            ],
            [
              -99.923211,
              34.574552
            ],
            [
              -99.954567,
              34.578195
            ],
            [
              -99.971555,
              34.562179
            ],
            [
              -100.000381,
              34.560509
            ],
            [
              -100.000406,
              36.499702
            ],
            [
              -103.002434,
              36.500397
            ],
            [
              -103.002565,
              36.526588
            ]
          ]
        ]
      }
    },
    {
      "type": "Feature",
      "id": "us-cd:118:40:04",
      "properties": {
        "boundary_id": "us-cd:118:40:04",
        "boundary_type": "congressional_district",
        "name": "Congressional District 4",
        "stateFips": "40",
        "congress": 118,
        "district": "04",
        "bbox": [
          -99.23806,
          33.717174,
          -96.406135,
          35.493196
        ]
      },
      "geometry": {
        "type": "Polygon",
        "coordinates": [
          [
            [
              -99.23806,
              34.425009
            ],
            [
              -99.221639,
              34.425404
            ],
            [
              -99.23077,
              34.441366
            ],
            [
              -99.228536,
              34.451354
            ],
            [
              -99.213052,
              34.456994
            ],
            [
              -99.220992,
              34.462947
            ],
            [
              -99.214858,
              34.481022
            ],
            [
              -99.224595,
              34.481042
            ],
            [
              -99.222083,
              34.49277
            ],
            [
              -99.208391,
              34.503697
            ],
            [
              -99.195666,
              34.544998
            ],
            [
              -99.179611,
              34.539707
            ],
            [
              -99.171111,
              34.54715
            ],
            [
              -99.18451,
              34.562315
            ],
            [
              -99.16332,
              34.588036
            ],
            [
              -99.132213,
              34.59208
            ],
            [
              -99.12459,
              34.582983
            ],
            [
              -99.11155,
              34.592221
            ],
            [
              -99.083103,
              34.590442
            ],
            [
              -99.091781,
              34.613071
            ],
            [
              -99.080284,
              34.622349
            ],
            [
              -99.10315,
              34.63795
            ],
            [
              -99.001025,
              34.637872
            ],
            [
              -99.001107,
              34.594366
            ],
            [
              -98.826008,
              34.594413
            ],
            [
              -98.826041,
              34.855122
            ],
            [
              -98.093127,
              34.854988
            ],
            [
              -98.096014,
              35.377753
            ],
            [
              -98.019312,
              35.378433
            ],
            [
              -98.010836,
              35.360769
            ],
            [
              -97.973856,
              35.357104
            ],
            [
              -97.960124,
              35.34594
            ],
            [
              -97.940258,
              35.376903
            ],
            [
              -97.920835,
              35.353518
            ],
            [
              -97.903133,
              35.355574
            ],
            [
              -97.901203,
              35.344323
            ],
            [
              -97.865604,
              35.36234
            ],
            [
              -97.841333,
              35.33453
            ],
            [
              -97.812129,
              35.333788
            ],
            [
              -97.807186,
              35.340846
            ],
            [
              -97.790427,
              35.332921
            ],
            [
              -97.769273,
              35.34565
            ],
            [
              -97.737305,
              35.323762
            ],
            [
              -97.706291,
              35.324973
            ],
            [
              -97.671414,
              35.335946
            ],
            [
              -97.671369,
              35.377151
            ],
            [
              -97.423566,
              35.377316
            ],
            [
              -97.423569,
              35.420739
            ],
            [
              -97.459196,
              35.42081
            ],
            [
              -97.459005,
              35.468912
            ],
            [
              -97.423986,
              35.478674
            ],
            [
              -97.424126,
              35.493196
            ],
            [
              -97.362999,
              35.493015
            ],
            [
              -97.353112,
              35.478539
            ],
            [
              -97.335585,
              35.478546
            ],
            [
              -97.335525,
              35.377225
            ],
            [
              -97.142114,
              35.37686
            ],
            [
              -97.142349,
              34.928176
            ],
            [
              -97.085537,
              34.931359
            ],
            [
              -97.07179,
              34.91986
            ],
            [
              -97.01593,
              34.907348
            ],
            [
              -96.983308,
              34.921475
            ],
            [
              -96.957037,
              34.950979
            ],
            [
              -96.928271,
              34.965213
            ],
            [
              -96.910609,
              34.958659
            ],
            [
              -96.8854,
              34.926251
            ],
            [
              -96.813452,
              34.944649
            ],
            [
              -96.798208,
              34.929992
            ],
            [
              -96.798583,
              34.905939
            ],
            [
              -96.755517,
              34.899809
            ],
            [
              -96.740393,
              34.866883
            ],
            [
              -96.722891,
              34.856782
            ],
            [
              -96.694182,
              34.868495
            ],
            [
              -96.687292,
              34.880984
            ],
            [
              -96.693452,
              34.901257
            ],
            [
              -96.712092,
              34.913883
            ],
            [
              -96.694154,
              34.932792
            ],
            [
              -96.665392,
              34.928383
            ],
            [
              -96.636791,
              34.898784
            ],
            [
              -96.564089,
              34.917284
            ],
            [
              -96.545984,
              34.88227
            ],
            [
              -96.528587,
              34.869586
            ],
            [
              -96.514587,
              34.873386
            ],
            [
              -96.486483,
              34.912986
            ],
            [
              -96.460367,
              34.916499
            ],
            [
              -96.424701,
              34.903687
            ],
            [
              -96.406135,
              34.934191
            ],
            [
              -96.406357,
              34.680023
            ],
            [
              -96.512171,
              34.680065
            ],
            [
              -96.512099,
              34.505562
            ],
            [
              -96.88079,
              34.506053
            ],
            [
              -96.881005,
              34.332977
            ],
            [
              -96.933305,
              34.332561
            ],
            [
              -96.933503,
              34.172748
            ],
            [
              -96.968424,
              34.172684
            ],
            [
              -96.969736,
              34.012953
            ],
            [
              -96.934833,
              34.01293
            ],
            [
              -96.9347906714179,
              33.9543587870584
            ],
            [
              -96.972542,
              33.935795
            ],
            [
              -96.979415,
              33.956178
            ],
            [
              -96.994288,
              33.949206
            ],
            [
              -96.983835,
              33.890949
            ],
            [
              -97.021438,
              33.846379
            ],
            [
              -97.041245,
              33.837761
            ],
            [
              -97.059826,
              33.858404
            ],
            [
              -97.087247,
              33.853448
            ],
            [
              -97.087731,
              33.841956
            ],
            [
              -97.053024,
              33.833884
            ],
            [
              -97.048146,
              33.817456
            ],
            [
              -97.092112,
              33.804097
            ],
            [
              -97.086195,
              33.743933
            ],
            [
              -97.097154,
              33.727809
            ],
            [
              -97.121102,
              33.717174
            ],
            [
              -97.163149,
              33.729322
            ],
            [
              -97.192817,
              33.761169
            ],
            [
              -97.187724,
              33.769831
            ],
            [
              -97.205705,
              33.802908
            ],
            [
              -97.203514,
              33.821825
            ],
            [
              -97.171627,
              33.835335
            ],
            [
              -97.166629,
              33.847311
            ],
            [
              -97.180845,
              33.895204
            ],
            [
              -97.210921,
              33.916064
            ],
            [
              -97.244946,
              33.903092
            ],
            [
              -97.256625,
              33.863286
            ],
            [
              -97.275607,
              33.858168
            ],
            [
              -97.310143,
              33.888532
            ],
            [
              -97.309946,
              33.874449
            ],
            [
              -97.328729,
              33.855434
            ],
            [
              -97.333382,
              33.864148
            ],
            [
              -97.32345,
              33.87846
            ],
            [
              -97.332457,
              33.884253
            ],
            [
              -97.365507,
              33.823763
            ],
            [
              -97.426493,
              33.819398
            ],
            [
              -97.453057,
              33.828536
            ],
            [
              -97.462857,
              33.841772
            ],
            [
              -97.451469,
              33.87093
            ],
            [
              -97.460376,
              33.903948
            ],
            [
              -97.50096,
              33.919643
            ],
            [
              -97.551541,
              33.897947
            ],
            [
              -97.581078,
              33.899679
            ],
            [
              -97.597115,
              33.917868
            ],
            [
              -97.590422,
              33.954104
            ],
            [
              -97.633778,
              33.981257
            ],
            [
              -97.671772,
              33.99137
            ],
            [
              -97.69311,
              33.983699
            ],
            [
              -97.725289,
              33.941045
            ],
            [
              -97.762768,
              33.934396
            ],
            [
              -97.76377,
              33.914241
            ],
            [
              -97.785101,
              33.916815
            ],
            [
              -97.782341,
              33.892306
            ],
            [
              -97.797761,
              33.899286
            ],
            [
              -97.80263,
              33.879971
            ],
            [
              -97.816426,
              33.882081
            ],
            [
              -97.834333,
              33.857671
            ],
            [
              -97.871447,
              33.849001
            ],
            [
              -97.936743,
              33.879204
            ],
            [
              -97.967777,
              33.88243
            ],
            [
              -97.98454,
              33.900703
            ],
            [
              -97.978804,
              33.912548
            ],
            [
              -97.969873,
              33.905999
            ],
            [
              -97.957155,
              33.914454
            ],
            [
              -97.953395,
              33.936445
            ],
            [
              -97.974173,
              33.942832
            ],
            [
              -97.960351,
              33.951928
            ],
            [
              -97.94573,
              33.989839
            ],
            [
              -97.974173,
              34.006716
            ],
            [
              -98.027672,
              33.993357
            ],
            [
              -98.088203,
              34.005481
            ],
            [
              -98.082676,
              34.010796
            ],
            [
              -98.106261,
              34.034154
            ],
            [
              -98.083839,
              34.041719
            ],
            [
              -98.120208,
              34.072127
            ],
            [
              -98.089755,
              34.128211
            ],
            [
              -98.100498,
              34.131369
            ],
            [
              -98.109462,
              34.154111
            ],
            [
              -98.130816,
              34.150532
            ],
            [
              -98.16912,
              34.114171
            ],
            [
              -98.203711,
              34.117676
            ],
            [
              -98.231042,
              34.134023
            ],
            [
              -98.293901,
              34.13302
            ],
            [
              -98.325445,
              34.151025
            ],
            [
              -98.365621,
              34.156993
            ],
            [
              -98.384546,
              34.145997
            ],
            [
              -98.379762,
              34.131174
            ],
            [
              -98.395024,
              34.131318
            ],
            [
              -98.399777,
              34.099973
            ],
            [
              -98.411374,
              34.100324
            ],
            [
              -98.411587,
              34.088057
            ],
            [
              -98.440092,
              34.084311
            ],
            [
              -98.48204,
              34.06227
            ],
            [
              -98.560574,
              34.123567
            ],
            [
              -98.550522,
              34.132194
            ],
            [
              -98.599789,
              34.160571
            ],
            [
              -98.648073,
              34.164441
            ],
            [
              -98.690595,
              34.132972
            ],
            [
              -98.734287,
              34.135758
            ],
            [
              -98.757037,
              34.124633
            ],
            [
              -98.812954,
              34.158444
            ],
            [
              -98.855585,
              34.161621
            ],
            [
              -98.868116,
              34.149635
            ],
            [
              -98.872922,
              34.166584
            ],
            [
              -98.918333,
              34.181831
            ],
            [
              -98.952513,
              34.21265
            ],
            [
              -98.974132,
              34.203566
            ],
            [
              -98.987294,
              34.221223
            ],
            [
              -99.013075,
              34.203222
            ],
            [
              -99.036273,
              34.206912
            ],
            [
              -99.043471,
              34.198208
            ],
            [
              -99.079535,
              34.211518
            ],
            [
              -99.126567,
              34.203004
            ],
            [
              -99.130609,
              34.219408
            ],
            [
              -99.15134,
              34.207603
            ],
            [
              -99.189511,
              34.214312
            ],
            [
              -99.19626,
              34.281463
            ],
            [
              -99.207766,
              34.283823
            ],
            [
              -99.213476,
              34.310672
            ],
            [
              -99.205824,
              34.320082
            ],
            [
              -99.210078,
              34.337705
            ],
            [
              -99.195406,
              34.341476
            ],
            [
              -99.192747,
              34.354861
            ],
            [
              -99.207639,
              34.374238
            ],
            [
              -99.220252,
              34.37508
            ],
            [
              -99.208997,
              34.39178
            ],
            [
              -99.228863,
              34.387698
            ],
            [
              -99.225995,
              34.399976
            ],
            [
              -99.235143,
              34.401072
            ],
            [
              -99.237752,
              34.419901
            ],
            [
              -99.23806,
              34.425009
            ]
          ]
        ]
      }
    },
    {
      "type": "Feature",
      "id": "us-cd:118:40:05",
      "properties": {
        "boundary_id": "us-cd:118:40:05",
        "boundary_type": "congressional_district",
        "name": "Congressional District 5",
        "stateFips": "40",
        "congress": 118,
        "district": "05",
        "bbox": [
          -97.839734,
          34.856782,
          -96.44129,
          36.010877
        ]
      },
      "geometry": {
        "type": "Polygon",
        "coordinates": [
          [
            [
              -97.839734,
              35.507987
            ],
            [
              -97.830894,
              35.507915
            ],
            [
              -97.834102,
              35.725899
            ],
            [
              -97.674026,
              35.72597
            ],
            [
              -97.67163,
              35.865422
            ],
            [
              -97.649319,
              35.858851
            ],
            [
              -97.632129,
              35.876802
            ],
            [
              -97.594421,
              35.879602
            ],
            [
              -97.593817,
              35.886724
            ],
            [
              -97.521011,
              35.908289
            ],
            [
              -97.474408,
              35.893648
            ],
            [
              -97.434092,
              35.910055
            ],
            [
              -97.407795,
              35.931339
            ],
            [
              -97.420974,
              35.968557
            ],
            [
              -97.400278,
              35.988167
            ],
            [
              -97.380336,
              35.98178
            ],
            [
              -97.362872,
              35.991158
            ],
            [
              -97.355186,
              35.984257
            ],
            [
              -97.32362,
              36.010877
            ],
            [
              -97.300453,
              36.009273
            ],
            [
              -97.27756,
              35.973782
            ],
            [
              -97.234292,
              35.969601
            ],
            [
              -97.189552,
              35.941156
            ],
            [
              -97.158227,
              35.945153
            ],
            [
              -97.140455,
              35.95906
            ],
            [
              -97.140583,
              35.941991
            ],
            [
              -96.619655,
              35.941571
            ],
            [
              -96.623699,
              35.400722
            ],
            [
              -96.599717,
              35.396955
            ],
            [
              -96.585654,
              35.411474
            ],
            [
              -96.536718,
              35.390772
            ],
            [
              -96.537163,
              35.41094
            ],
            [
              -96.560102,
              35.421559
            ],
            [
              -96.555722,
              35.434566
            ],
            [
              -96.569602,
              35.439564
            ],
            [
              -96.553641,
              35.454309
            ],
            [
              -96.544121,
              35.457827
            ],
            [
              -96.518633,
              35.431205
            ],
            [
              -96.496594,
              35.428896
            ],
            [
              -96.484402,
              35.436548
            ],
            [
              -96.488281,
              35.448229
            ],
            [
              -96.475754,
              35.463421
            ],
            [
              -96.446202,
              35.458444
            ],
            [
              -96.44129,
              35.467712
            ],
            [
              -96.441305,
              35.115771
            ],
            [
              -96.490434,
              35.115857
            ],
            [
              -96.490786,
              34.910585
            ],
            [
              -96.512599,
              34.875466
            ],
            [
              -96.528587,
              34.869586
            ],
            [
              -96.545984,
              34.88227
            ],
            [
              -96.564089,
              34.917284
            ],
            [
              -96.636791,
              34.898784
            ],
            [
              -96.665392,
              34.928383
            ],
            [
              -96.691967,
              34.933314
            ],
            [
              -96.712092,
              34.913883
            ],
            [
              -96.693452,
              34.901257
            ],
            [
              -96.687292,
              34.880984
            ],
            [
              -96.694182,
              34.868495
            ],
            [
              -96.722891,
              34.856782
            ],
            [
              -96.740393,
              34.866883
            ],
            [
              -96.755517,
              34.899809
            ],
            [
              -96.798583,
              34.905939
            ],
            [
              -96.798208,
              34.929992
            ],
            [
              -96.813452,
              34.944649
            ],
            [
              -96.8854,
              34.926251
            ],
            [
              -96.910609,
              34.958659
            ],
            [
              -96.928271,
              34.965213
            ],
            [
              -96.957037,
              34.950979
            ],
            [
              -96.983308,
              34.921475
            ],
            [
              -97.01593,
              34.907348
            ],
            [
              -97.07179,
              34.91986
            ],
            [
              -97.085537,
              34.931359
            ],
            [
              -97.132867,
              34.934642
            ],
            [
              -97.135805,
              34.924399
            ],
            [
              -97.142349,
              34.928176
            ],
            [
              -97.142114,
              35.37686
            ],
            [
              -97.335525,
              35.377225
            ],
            [
              -97.335585,
              35.478546
            ],
            [
              -97.353112,
              35.478539
            ],
            [
              -97.362999,
              35.493015
            ],
            [
              -97.424126,
              35.493196
            ],
            [
              -97.423986,
              35.478674
            ],
            [
              -97.512748,
              35.456196
            ],
            [
              -97.530132,
              35.458029
            ],
            [
              -97.529936,
              35.493274
            ],
            [
              -97.601141,
              35.493061
            ],
            [
              -97.610061,
              35.47878
            ],
            [
              -97.636666,
              35.478853
            ],
            [
              -97.636605,
              35.464374
            ],
            [
              -97.671539,
              35.464209
            ],
            [
              -97.675687,
              35.447531
            ],
            [
              -97.760278,
              35.449904
            ],
            [
              -97.760254,
              35.464386
            ],
            [
              -97.830914,
              35.464468
            ],
            [
              -97.830916,
              35.493439
            ],
            [
              -97.839657,
              35.493438
            ],
            [
              -97.839734,
              35.507987
            ]
          ]
        ]
      }
    }
  ]
}
