{
  "type": "FeatureCollection",
  "features": [
    {
      "type": "Feature",
      "id": "us-cd:119:23:01",
      "properties": {
        "boundary_id": "us-cd:119:23:01",
        "boundary_type": "congressional_district",
        "name": "1",
        "stateFips": "23",
        "congress": 119,
        "district": "01",
        "bbox": [
          -70.98912199998587,
          42.91712599993515,
          -68.48463500033057,
          44.72023799993564
        ]
      },
      "geometry": {
        "type": "Polygon",
        "coordinates": [
          [
            [
              -70.98912199998587,
              43.79208100006989
            ],
            [
              -70.97275900023605,
              43.57038300029661
            ],
            [
              -70.95063199999154,
              43.55131299981352
            ],
            [
              -70.95350400019313,
              43.54060300006902
            ],
            [
              -70.96380200004772,
              43.53937099993218
            ],
            [
              -70.95466099973636,
              43.50930299996599
            ],
            [
              -70.97603999979324,
              43.47842799988767
            ],
            [
              -70.96111599961895,
              43.46918800031713
            ],
            [
              -70.96097900024992,
              43.438389000179924
            ],
            [
              -70.98708699966033,
              43.41307500022995
            ],
            [
              -70.9781000002331,
              43.358379999845845
            ],
            [
              -70.9562330002796,
              43.33411100023212
            ],
            [
              -70.93282599956993,
              43.337223999768554
            ],
            [
              -70.91141700027414,
              43.31972300031292
            ],
            [
              -70.91375200017531,
              43.30889700014518
            ],
            [
              -70.89631099962668,
              43.29843699983955
            ],
            [
              -70.9074789998676,
              43.293329000218016
            ],
            [
              -70.88361500012174,
              43.28343799976437
            ],
            [
              -70.88309600026297,
              43.27303100030803
            ],
            [
              -70.81782599994025,
              43.23815600031212
            ],
            [
              -70.80952499987806,
              43.22488199983137
            ],
            [
              -70.82825500021441,
              43.187788999851485
            ],
            [
              -70.82356899962022,
              43.1742390000186
            ],
            [
              -70.83360999955686,
              43.14610599980147
            ],
            [
              -70.82708000022953,
              43.127395000108145
            ],
            [
              -70.75641200000834,
              43.08017700027311
            ],
            [
              -70.7063100002574,
              43.075338999831914
            ],
            [
              -70.70119699986597,
              43.045240000071075
            ],
            [
              -70.63071399959273,
              42.98528599991779
            ],
            [
              -70.61115200030146,
              42.97899000013694
            ],
            [
              -70.5750940002927,
              42.91712599993515
            ],
            [
              -70.54023100036031,
              42.944031999989036
            ],
            [
              -70.52888200036939,
              43.00576900001179
            ],
            [
              -70.55213299964684,
              43.043044000085835
            ],
            [
              -70.5996579996473,
              43.05693900001907
            ],
            [
              -70.5821629995703,
              43.09548699976931
            ],
            [
              -70.54012699970492,
              43.13054699985861
            ],
            [
              -70.5250800004053,
              43.08927800019756
            ],
            [
              -70.49301400033144,
              43.07304299985457
            ],
            [
              -70.45907199994072,
              43.07147800004246
            ],
            [
              -70.42107700041404,
              43.086653000121785
            ],
            [
              -70.40412799995998,
              43.1093560001511
            ],
            [
              -70.4072269999423,
              43.138438999807185
            ],
            [
              -70.44093800035434,
              43.16663999979414
            ],
            [
              -70.48636199990703,
              43.17026399967931
            ],
            [
              -70.52167500010123,
              43.154882999858785
            ],
            [
              -70.52291799985818,
              43.17889399974058
            ],
            [
              -70.50632400012968,
              43.218829999852424
            ],
            [
              -70.52083099965412,
              43.25210399989033
            ],
            [
              -70.49323000024151,
              43.28682900010524
            ],
            [
              -70.42180799998492,
              43.297494999736884
            ],
            [
              -70.36739700010666,
              43.32331700024472
            ],
            [
              -70.3189480001915,
              43.39013799975766
            ],
            [
              -70.2803970000978,
              43.4087380002192
            ],
            [
              -70.15598599982006,
              43.524443999803204
            ],
            [
              -69.85521200003438,
              43.6469469999507
            ],
            [
              -69.73039599970068,
              43.65727300010279
            ],
            [
              -69.66474499961147,
              43.71174800021835
            ],
            [
              -69.61728800028139,
              43.69981400002582
            ],
            [
              -69.55093800040837,
              43.70714400015835
            ],
            [
              -69.51908999989439,
              43.7321219999
            ],
            [
              -69.505785000119,
              43.778456000311294
            ],
            [
              -69.409269999705,
              43.81081700018335
            ],
            [
              -69.38727899990295,
              43.799015999850674
            ],
            [
              -69.39721000023472,
              43.763371000034326
            ],
            [
              -69.38758799969942,
              43.73610499980603
            ],
            [
              -69.335093000321,
              43.70448499972335
            ],
            [
              -69.28294799984862,
              43.713766000038206
            ],
            [
              -69.23809699968305,
              43.750084000323035
            ],
            [
              -69.23327600026799,
              43.78096199994724
            ],
            [
              -69.26234000044391,
              43.81537399996813
            ],
            [
              -69.23655400035044,
              43.82562599981439
            ],
            [
              -69.19719899999265,
              43.79599200009592
            ],
            [
              -69.14982499960493,
              43.79573500025454
            ],
            [
              -69.08300500027693,
              43.82564699987392
            ],
            [
              -69.05589400041075,
              43.85891099967904
            ],
            [
              -69.02278399987324,
              43.84250700004715
            ],
            [
              -69.02429500031712,
              43.819841999684726
            ],
            [
              -69.00992199978866,
              43.79843600004459
            ],
            [
              -68.94983600000249,
              43.78016999990095
            ],
            [
              -68.9255179997969,
              43.750088000202176
            ],
            [
              -68.87064599978618,
              43.73356499998985
            ],
            [
              -68.82691600007713,
              43.73571100017722
            ],
            [
              -68.78613899986225,
              43.768363999897005
            ],
            [
              -68.78532399972744,
              43.80433899970803
            ],
            [
              -68.74947300030624,
              43.83253099967772
            ],
            [
              -68.71275400014848,
              43.83839900000393
            ],
            [
              -68.66943299979505,
              43.86957599969762
            ],
            [
              -68.66378899984926,
              43.89392599998406
            ],
            [
              -68.67925799982159,
              43.92345500005914
            ],
            [
              -68.70699800004972,
              43.939182000269476
            ],
            [
              -68.7426490003527,
              43.943146999981046
            ],
            [
              -68.72147799980999,
              43.961937999741515
            ],
            [
              -68.65958600002718,
              43.94799099985244
            ],
            [
              -68.5683880002191,
              43.9579699997961
            ],
            [
              -68.49310600027209,
              44.01055799975133
            ],
            [
              -68.48463500033057,
              44.02832600027126
            ],
            [
              -68.49948099978873,
              44.07384100012684
            ],
            [
              -68.5416630001423,
              44.098327000191944
            ],
            [
              -68.54875499988442,
              44.129885000050905
            ],
            [
              -68.57934800004757,
              44.128749999910525
            ],
            [
              -68.61113200008913,
              44.11291299989676
            ],
            [
              -68.72991600013955,
              44.116712999889856
            ],
            [
              -68.75348699998246,
              44.133998999950016
            ],
            [
              -68.77587199996981,
              44.17847599990139
            ],
            [
              -68.83047000034414,
              44.20996400031587
            ],
            [
              -68.8709989999636,
              44.19881699985147
            ],
            [
              -68.89638400019906,
              44.20993500021289
            ],
            [
              -68.91663799960143,
              44.16666699968107
            ],
            [
              -68.99999999967773,
              44.166739000277666
            ],
            [
              -69.0048419999075,
              44.20316200013273
            ],
            [
              -69.02836800044288,
              44.2490069999027
            ],
            [
              -69.04310500012109,
              44.259549999868
            ],
            [
              -69.12162199959454,
              44.25564400026301
            ],
            [
              -69.26888200036514,
              44.364653000170534
            ],
            [
              -69.34661600038918,
              44.30833699972754
            ],
            [
              -69.39436099959934,
              44.34293400010704
            ],
            [
              -69.40963499957799,
              44.32799800003064
            ],
            [
              -69.5063819997956,
              44.34287000010381
            ],
            [
              -69.44549799959307,
              44.46383899968265
            ],
            [
              -69.39598699967094,
              44.457077999734835
            ],
            [
              -69.37241900020108,
              44.54458500009571
            ],
            [
              -69.41684000019633,
              44.55107999997714
            ],
            [
              -69.39312299986526,
              44.64037500013058
            ],
            [
              -69.46125100014584,
              44.64739799990964
            ],
            [
              -69.4429359999112,
              44.67238100009903
            ],
            [
              -69.47559899966164,
              44.676678000176295
            ],
            [
              -69.46753100012624,
              44.70798600001449
            ],
            [
              -69.47038200041145,
              44.71816100026843
            ],
            [
              -69.48379400031695,
              44.72023799993564
            ],
            [
              -69.63311799992874,
              44.70037300002936
            ],
            [
              -69.61755000022222,
              44.656985999716156
            ],
            [
              -69.57909399966478,
              44.626970999897466
            ],
            [
              -69.59274499994488,
              44.603430999815515
            ],
            [
              -69.59090999963591,
              44.584570999831094
            ],
            [
              -69.60574599994665,
              44.57726399987839
            ],
            [
              -69.66764100010252,
              44.58570999997992
            ],
            [
              -69.6695409998105,
              44.55796199984384
            ],
            [
              -69.71842699956866,
              44.51336600019581
            ],
            [
              -69.71988199993604,
              44.50750300028401
            ],
            [
              -69.67656599960549,
              44.50046999999768
            ],
            [
              -69.687015999796,
              44.457950999819104
            ],
            [
              -69.72670199969161,
              44.40005100018578
            ],
            [
              -69.72904199961565,
              44.37774999984244
            ],
            [
              -69.62569999977337,
              44.36180199971879
            ],
            [
              -69.66544099992055,
              44.227575999926344
            ],
            [
              -69.72361399957995,
              44.236787999708476
            ],
            [
              -69.76255999968383,
              44.22379499993302
            ],
            [
              -69.75221400014868,
              44.18406599994155
            ],
            [
              -69.76356599961431,
              44.153217000029464
            ],
            [
              -69.85498299970553,
              44.167862000257195
            ],
            [
              -69.80693299999852,
              44.20538100006655
            ],
            [
              -69.80004700012071,
              44.24246400010247
            ],
            [
              -69.84718999963142,
              44.238595000273776
            ],
            [
              -69.85554199974725,
              44.24645899978439
            ],
            [
              -69.84817200017078,
              44.251600999752974
            ],
            [
              -69.93741800039233,
              44.267676000021645
            ],
            [
              -69.96837300005541,
              44.17618000005441
            ],
            [
              -69.99379199972776,
              44.18059399982694
            ],
            [
              -69.99879600033924,
              44.166833999793774
            ],
            [
              -70.01032899955484,
              44.168651000003265
            ],
            [
              -70.01850099974563,
              44.15785100028464
            ],
            [
              -70.02738599996394,
              44.13057699976152
            ],
            [
              -70.00547100032986,
              44.12451899973268
            ],
            [
              -70.02512700023075,
              44.036364000247175
            ],
            [
              -70.0365349997729,
              44.02680299983625
            ],
            [
              -70.03177100025921,
              44.002917999689856
            ],
            [
              -70.05182399982016,
              43.99098200003338
            ],
            [
              -70.03423800040488,
              43.9756609997102
            ],
            [
              -70.08083899959226,
              43.92645799993361
            ],
            [
              -70.09232900004848,
              43.93195299988674
            ],
            [
              -70.11585999970842,
              43.90670999990303
            ],
            [
              -70.20364700026296,
              43.94792800020993
            ],
            [
              -70.31537399983301,
              44.037806999684456
            ],
            [
              -70.36387399980181,
              43.986444999888356
            ],
            [
              -70.39532399993254,
              44.00309100030849
            ],
            [
              -70.40195399971729,
              43.99010799980285
            ],
            [
              -70.50237099965453,
              44.04256799980379
            ],
            [
              -70.54409400042378,
              44.00564700019888
            ],
            [
              -70.56385099970869,
              44.02499200004006
            ],
            [
              -70.5811850001272,
              44.01790699982511
            ],
            [
              -70.61410200032086,
              44.06196299973112
            ],
            [
              -70.60617299980433,
              44.101292999727264
            ],
            [
              -70.58723900015181,
              44.124209999844034
            ],
            [
              -70.59866099993765,
              44.14976799982287
            ],
            [
              -70.62432900003033,
              44.17103600030692
            ],
            [
              -70.82180299980656,
              44.07708899984111
            ],
            [
              -70.85854600025375,
              44.09526899986803
            ],
            [
              -70.86655199986487,
              44.080187999714234
            ],
            [
              -70.84807699979665,
              44.04952199998191
            ],
            [
              -70.79253100011648,
              44.040140000203856
            ],
            [
              -70.79167900017178,
              44.02873999971065
            ],
            [
              -70.78176000043389,
              44.031394000302114
            ],
            [
              -70.71541800005848,
              43.96181499983647
            ],
            [
              -70.74750699969854,
              43.9459009998424
            ],
            [
              -70.72972899976433,
              43.928362000129226
            ],
            [
              -70.75793400032286,
              43.90686399987886
            ],
            [
              -70.75522100012992,
              43.888610000316014
            ],
            [
              -70.74387799998681,
              43.885849000101686
            ],
            [
              -70.76528800000581,
              43.871538000221264
            ],
            [
              -70.78150299961763,
              43.873878999825536
            ],
            [
              -70.80149499997749,
              43.85651699978789
            ],
            [
              -70.78298399992427,
              43.81414699983004
            ],
            [
              -70.79782600008278,
              43.806163999775954
            ],
            [
              -70.88085400024822,
              43.810845999678016
            ],
            [
              -70.95754800000658,
              43.78512300018516
            ],
            [
              -70.98912199998587,
              43.792112999977874
            ],
            [
              -70.98912199998587,
              43.79208100006989
            ]
          ]
        ]
      }
    },
    {
      "type": "Feature",
      "id": "us-cd:119:23:02",
      "properties": {
        "boundary_id": "us-cd:119:23:02",
        "boundary_type": "congressional_district",
        "name": "2",
        "stateFips": "23",
        "congress": 119,
        "district": "02",
        "bbox": [
          -71.08392799958928,
          43.784985000047044,
          -66.88544400034124,
          47.45983299982984
        ]
      },
      "geometry": {
        "type": "Polygon",
        "coordinates": [
          [
            [
              -71.08392799958928,
              45.305483999973255
            ],
            [
              -71.03261499986843,
              44.6831820002753
            ],
            [
              -70.98912199998587,
              43.792112999977874
            ],
            [
              -70.97119400026382,
              43.784985000047044
            ],
            [
              -70.92707100019439,
              43.79029900003536
            ],
            [
              -70.88085400024822,
              43.810845999678016
            ],
            [
              -70.79782600008278,
              43.806163999775954
            ],
            [
              -70.78298399992427,
              43.81414699983004
            ],
            [
              -70.80149499997749,
              43.85651699978789
            ],
            [
              -70.78150299961763,
              43.873878999825536
            ],
            [
              -70.76528800000581,
              43.871538000221264
            ],
            [
              -70.74387799998681,
              43.885849000101686
            ],
            [
              -70.75522100012992,
              43.888610000316014
            ],
            [
              -70.75793400032286,
              43.90686399987886
            ],
            [
              -70.72972899976433,
              43.928362000129226
            ],
            [
              -70.74750699969854,
              43.9459009998424
            ],
            [
              -70.71541800005848,
              43.96181499983647
            ],
            [
              -70.78176000043389,
              44.031394000302114
            ],
            [
              -70.79167900017178,
              44.02873999971065
            ],
            [
              -70.79253100011648,
              44.040140000203856
            ],
            [
              -70.84807699979665,
              44.04952199998191
            ],
            [
              -70.86662300000998,
              44.07986699991822
            ],
            [
              -70.85854600025375,
              44.09526899986803
            ],
            [
              -70.82180299980656,
              44.07708899984111
            ],
            [
              -70.62432900003033,
              44.17103600030692
            ],
            [
              -70.59866099993765,
              44.14976799982287
            ],
            [
              -70.58723900015181,
              44.124209999844034
            ],
            [
              -70.60617299980433,
              44.101292999727264
            ],
            [
              -70.61410200032086,
              44.06196299973112
            ],
            [
              -70.5811850001272,
              44.01790699982511
            ],
            [
              -70.56385099970869,
              44.02499200004006
            ],
            [
              -70.54409400042378,
              44.00564700019888
            ],
            [
              -70.50237099965453,
              44.04256799980379
            ],
            [
              -70.40195399971729,
              43.99010799980285
            ],
            [
              -70.39532399993254,
              44.00309100030849
            ],
            [
              -70.36387399980181,
              43.986444999888356
            ],
            [
              -70.31537399983301,
              44.037806999684456
            ],
            [
              -70.20364700026296,
              43.94792800020993
            ],
            [
              -70.11585999970842,
              43.90670999990303
            ],
            [
              -70.09232900004848,
              43.93195299988674
            ],
            [
              -70.08083899959226,
              43.92645799993361
            ],
            [
              -70.03423800040488,
              43.9756609997102
            ],
            [
              -70.05182399982016,
              43.99098200003338
            ],
            [
              -70.03177100025921,
              44.002917999689856
            ],
            [
              -70.0365349997729,
              44.02680299983625
            ],
            [
              -70.02512700023075,
              44.036364000247175
            ],
            [
              -70.00547100032986,
              44.12451899973268
            ],
            [
              -70.02738599996394,
              44.13057699976152
            ],
            [
              -70.01850099974563,
              44.15785100028464
            ],
            [
              -70.01032899955484,
              44.168651000003265
            ],
            [
              -69.99879600033924,
              44.166833999793774
            ],
            [
              -69.99379199972776,
              44.18059399982694
            ],
            [
              -69.96837300005541,
              44.17618000005441
            ],
            [
              -69.93741800039233,
              44.267676000021645
            ],
            [
              -69.84817200017078,
              44.251600999752974
            ],
            [
              -69.85554199974725,
              44.24645899978439
            ],
            [
              -69.84718999963142,
              44.238595000273776
            ],
            [
              -69.80004700012071,
              44.24246400010247
            ],
            [
              -69.80693299999852,
              44.20538100006655
            ],
            [
              -69.85498299970553,
              44.167862000257195
            ],
            [
              -69.76356599961431,
              44.153217000029464
            ],
            [
              -69.75221400014868,
              44.18406599994155
            ],
            [
              -69.76255999968383,
              44.22379499993302
            ],
            [
              -69.72361399957995,
              44.236787999708476
            ],
            [
              -69.66544099992055,
              44.227575999926344
            ],
            [
              -69.62569999977337,
              44.36180199971879
            ],
            [
              -69.72904199961565,
              44.37774999984244
            ],
            [
              -69.7297630000391,
              44.38867499994166
            ],
            [
              -69.70119599998064,
              44.42752099998301
            ],
            [
              -69.67656599960549,
              44.50046999999768
            ],
            [
              -69.71988199993604,
              44.50750300028401
            ],
            [
              -69.71842699956866,
              44.51336600019581
            ],
            [
              -69.6695409998105,
              44.55796199984384
            ],
            [
              -69.66870700030746,
              44.584813000018826
            ],
            [
              -69.60574599994665,
              44.57726399987839
            ],
            [
              -69.58933299996812,
              44.58892700005416
            ],
            [
              -69.59274499994488,
              44.603430999815515
            ],
            [
              -69.57909399966478,
              44.626970999897466
            ],
            [
              -69.61755000022222,
              44.656985999716156
            ],
            [
              -69.63311799992874,
              44.70037300002936
            ],
            [
              -69.47038200041145,
              44.71816100026843
            ],
            [
              -69.47559899966164,
              44.676678000176295
            ],
            [
              -69.4429359999112,
              44.67238100009903
            ],
            [
              -69.46144000029173,
              44.64758699991907
            ],
            [
              -69.39312299986526,
              44.64037500013058
            ],
            [
              -69.41684000019633,
              44.55107999997714
            ],
            [
              -69.37241900020108,
              44.54458500009571
            ],
            [
              -69.39598699967094,
              44.457077999734835
            ],
            [
              -69.44549799959307,
              44.46383899968265
            ],
            [
              -69.5063819997956,
              44.34287000010381
            ],
            [
              -69.40963499957799,
              44.32799800003064
            ],
            [
              -69.39436099959934,
              44.34293400010704
            ],
            [
              -69.34661600038918,
              44.30833699972754
            ],
            [
              -69.26888200036514,
              44.364653000170534
            ],
            [
              -69.12162199959454,
              44.25564400026301
            ],
            [
              -69.04310500012109,
              44.259549999868
            ],
            [
              -69.02836800044288,
              44.2490069999027
            ],
            [
              -69.0048419999075,
              44.20316200013273
            ],
            [
              -68.99999999967773,
              44.166739000277666
            ],
            [
              -68.91663799960143,
              44.16666699968107
            ],
            [
              -68.89638400019906,
              44.20993500021289
            ],
            [
              -68.8709989999636,
              44.19881699985147
            ],
            [
              -68.83047000034414,
              44.20996400031587
            ],
            [
              -68.77587199996981,
              44.17847599990139
            ],
            [
              -68.75348699998246,
              44.133998999950016
            ],
            [
              -68.72991600013955,
              44.116712999889856
            ],
            [
              -68.61113200008913,
              44.11291299989676
            ],
            [
              -68.57934800004757,
              44.128749999910525
            ],
            [
              -68.54875499988442,
              44.129885000050905
            ],
            [
              -68.5416630001423,
              44.098327000191944
            ],
            [
              -68.49948099978873,
              44.07384100012684
            ],
            [
              -68.48463500033057,
              44.02832600027126
            ],
            [
              -68.46301199987623,
              44.03211199986647
            ],
            [
              -68.43684300036642,
              44.05323300026643
            ],
            [
              -68.3687970001016,
              44.04521999997681
            ],
            [
              -68.31139299964792,
              44.053428999924535
            ],
            [
              -68.27921199994634,
              44.069945000109094
            ],
            [
              -68.26313600025169,
              44.09061699968163
            ],
            [
              -68.20336000008695,
              44.099586999866425
            ],
            [
              -68.1758580004085,
              44.125082999838256
            ],
            [
              -68.17075000003993,
              44.19011400002751
            ],
            [
              -68.13757900030139,
              44.20685999972388
            ],
            [
              -68.12262599981476,
              44.22604100001057
            ],
            [
              -68.1282799998063,
              44.26425300022159
            ],
            [
              -67.99944599959842,
              44.28019700031901
            ],
            [
              -67.92517799997783,
              44.341433999850615
            ],
            [
              -67.87444299966698,
              44.31692499971549
            ],
            [
              -67.82372800034594,
              44.327038000006816
            ],
            [
              -67.79526199967148,
              44.361165000186006
            ],
            [
              -67.8055689997469,
              44.39101500021137
            ],
            [
              -67.77474999962794,
              44.41131399999717
            ],
            [
              -67.72953100011465,
              44.387702000159116
            ],
            [
              -67.67464200038552,
              44.39463400020704
            ],
            [
              -67.62741299976275,
              44.38347299989961
            ],
            [
              -67.51278499967879,
              44.42065200028174
            ],
            [
              -67.45524100038135,
              44.46487300014646
            ],
            [
              -67.44339600009788,
              44.50527899969652
            ],
            [
              -67.38820000022208,
              44.520398999732826
            ],
            [
              -67.34044800044093,
              44.52128899975257
            ],
            [
              -67.30082000027163,
              44.5498570001458
            ],
            [
              -67.24598599989577,
              44.555282000314605
            ],
            [
              -67.19148999962871,
              44.57953600005446
            ],
            [
              -67.10375800022406,
              44.633426000016996
            ],
            [
              -67.03927899974668,
              44.696967999921846
            ],
            [
              -66.97752099985817,
              44.731241000175686
            ],
            [
              -66.9522689996921,
              44.76042200005163
            ],
            [
              -66.90255500027867,
              44.77656099976245
            ],
            [
              -66.88544400034124,
              44.79420800018208
            ],
            [
              -66.93256299956249,
              44.82550800025266
            ],
            [
              -66.96529900000618,
              44.8289029999353
            ],
            [
              -66.97486299991682,
              44.84160500000306
            ],
            [
              -66.9821339997591,
              44.86725900026029
            ],
            [
              -66.96871000015803,
              44.91038900016507
            ],
            [
              -67.02166499984399,
              44.953914000205195
            ],
            [
              -67.11255700022863,
              45.11258399987232
            ],
            [
              -67.1588710002592,
              45.16203500017205
            ],
            [
              -67.20508300018248,
              45.171408999822674
            ],
            [
              -67.22728400004682,
              45.163428999932854
            ],
            [
              -67.24742600019452,
              45.18088900028993
            ],
            [
              -67.28336000035473,
              45.19185899983095
            ],
            [
              -67.30268599964444,
              45.16071200003418
            ],
            [
              -67.29597300001898,
              45.147837000129854
            ],
            [
              -67.32001199966703,
              45.14240200028807
            ],
            [
              -67.32082199977894,
              45.13133500006672
            ],
            [
              -67.34084799957567,
              45.1250410000878
            ],
            [
              -67.40502900012723,
              45.1600629999125
            ],
            [
              -67.40051999998337,
              45.17766700015454
            ],
            [
              -67.42926699996688,
              45.193464999794685
            ],
            [
              -67.43698899989587,
              45.222737999905696
            ],
            [
              -67.48966300027277,
              45.28213299990767
            ],
            [
              -67.46031200004167,
              45.30001800023037
            ],
            [
              -67.45183699990218,
              45.317681999751954
            ],
            [
              -67.45690900028572,
              45.32525400006937
            ],
            [
              -67.43122600012443,
              45.34107300021614
            ],
            [
              -67.4253529998498,
              45.35741500027737
            ],
            [
              -67.43453000014615,
              45.36496399978456
            ],
            [
              -67.4192350002511,
              45.37710399993655
            ],
            [
              -67.46124199980416,
              45.42222799991273
            ],
            [
              -67.47267700000879,
              45.42322000006265
            ],
            [
              -67.48210600020023,
              45.459396999978765
            ],
            [
              -67.50371399968763,
              45.486703999722614
            ],
            [
              -67.46373499988907,
              45.497055999967536
            ],
            [
              -67.47123599988512,
              45.50085100026098
            ],
            [
              -67.46359900034496,
              45.50838000005321
            ],
            [
              -67.45158900020506,
              45.499070999949865
            ],
            [
              -67.45014100040869,
              45.51026700011191
            ],
            [
              -67.41621099971354,
              45.50129500020468
            ],
            [
              -67.43486400005699,
              45.52813700002602
            ],
            [
              -67.42066600032904,
              45.549675999896444
            ],
            [
              -67.42887000030687,
              45.56833699997217
            ],
            [
              -67.42319399967573,
              45.57159200001384
            ],
            [
              -67.45001800038504,
              45.602465999931724
            ],
            [
              -67.49329000033468,
              45.60134299971722
            ],
            [
              -67.48795799966014,
              45.59582199973856
            ],
            [
              -67.499022000144,
              45.58665400022155
            ],
            [
              -67.51921600017022,
              45.58756800025755
            ],
            [
              -67.60837399962993,
              45.6061480002916
            ],
            [
              -67.6391020004106,
              45.625114999736375
            ],
            [
              -67.6455659996157,
              45.61333900018127
            ],
            [
              -67.67522999984125,
              45.63074100017461
            ],
            [
              -67.70957399991488,
              45.68132800013963
            ],
            [
              -67.73455200044457,
              45.68891999988637
            ],
            [
              -67.71794299974916,
              45.66766100002986
            ],
            [
              -67.72722899982544,
              45.66264000012396
            ],
            [
              -67.74442000012884,
              45.67291700009062
            ],
            [
              -67.7543029998817,
              45.667574999995935
            ],
            [
              -67.76871800024297,
              45.67748699994078
            ],
            [
              -67.80362999968087,
              45.67765100017252
            ],
            [
              -67.81800800023218,
              45.6938190002306
            ],
            [
              -67.80293400027008,
              45.69608799973604
            ],
            [
              -67.80962199978116,
              45.72957400021211
            ],
            [
              -67.78179600023762,
              45.73111700009597
            ],
            [
              -67.80627000007884,
              45.75524399977917
            ],
            [
              -67.80648299961587,
              45.79440499991532
            ],
            [
              -67.78068900002481,
              45.81775700008437
            ],
            [
              -67.75531899985793,
              45.82335000002968
            ],
            [
              -67.79711399969888,
              45.86002500022007
            ],
            [
              -67.80391099988825,
              45.88289799989801
            ],
            [
              -67.76805299989603,
              45.89811099981382
            ],
            [
              -67.75062800013922,
              45.917636000183855
            ],
            [
              -67.78124800006655,
              45.943449999995636
            ],
            [
              -67.79019600003404,
              47.06722000016147
            ],
            [
              -67.88291600015664,
              47.1044030002324
            ],
            [
              -67.89085599964551,
              47.1265579998233
            ],
            [
              -67.92866299974953,
              47.156218999857636
            ],
            [
              -67.95721800011242,
              47.19961899983613
            ],
            [
              -67.98970299958764,
              47.21002200005557
            ],
            [
              -68.0196709995868,
              47.238497999695795
            ],
            [
              -68.1358910003055,
              47.2956479997568
            ],
            [
              -68.15221100039761,
              47.309670000235414
            ],
            [
              -68.15468000019308,
              47.32518499986561
            ],
            [
              -68.21453300035073,
              47.339606000019074
            ],
            [
              -68.23446899973578,
              47.35530100014907
            ],
            [
              -68.36312999969128,
              47.354657000101874
            ],
            [
              -68.38471499961248,
              47.32408099990311
            ],
            [
              -68.37785800004701,
              47.287375000138006
            ],
            [
              -68.4487670002926,
              47.28200999994075
            ],
            [
              -68.47502500038918,
              47.29713900015006
            ],
            [
              -68.51676599980345,
              47.2960859996978
            ],
            [
              -68.54980000017298,
              47.282142000084924
            ],
            [
              -68.58005000020445,
              47.28711499981342
            ],
            [
              -68.5976749999778,
              47.270154999865404
            ],
            [
              -68.59354599977554,
              47.258768999867414
            ],
            [
              -68.61751199962865,
              47.243372000199805
            ],
            [
              -68.65984700014309,
              47.23612400005172
            ],
            [
              -68.68715200017803,
              47.24441000013977
            ],
            [
              -68.71702399991773,
              47.2405409997629
            ],
            [
              -68.81152900012059,
              47.21513099976867
            ],
            [
              -68.9000339998272,
              47.17774199997609
            ],
            [
              -68.92374000028762,
              47.197376999911945
            ],
            [
              -68.9611859998183,
              47.2056860002052
            ],
            [
              -69.05074699968412,
              47.25647900013866
            ],
            [
              -69.05488299955907,
              47.3777159997667
            ],
            [
              -69.0396420000907,
              47.38420800029018
            ],
            [
              -69.04540999988502,
              47.39298600022312
            ],
            [
              -69.03523900025206,
              47.4018010002568
            ],
            [
              -69.04249400020082,
              47.404746000041236
            ],
            [
              -69.03059899968865,
              47.40742000019361
            ],
            [
              -69.04321700027408,
              47.426784000124194
            ],
            [
              -69.05215000017297,
              47.4221419997647
            ],
            [
              -69.06354900039258,
              47.434058000215515
            ],
            [
              -69.09013800002694,
              47.4241360001579
            ],
            [
              -69.12201499995491,
              47.44269800013642
            ],
            [
              -69.22446100036987,
              47.45983299982984
            ],
            [
              -69.9971109998181,
              46.695519999930525
            ],
            [
              -70.05650000036859,
              46.41557799981316
            ],
            [
              -70.09694399959923,
              46.409478000020165
            ],
            [
              -70.12699199996435,
              46.37080799997887
            ],
            [
              -70.19118900040941,
              46.35021699969815
            ],
            [
              -70.20894399987908,
              46.32949399969531
            ],
            [
              -70.20588099988178,
              46.29972799993736
            ],
            [
              -70.23163299964006,
              46.291027999704326
            ],
            [
              -70.27107500003649,
              46.21082499976555
            ],
            [
              -70.29269199974475,
              46.19146399976276
            ],
            [
              -70.23628300024922,
              46.14523299991725
            ],
            [
              -70.25453099963842,
              46.11370300023943
            ],
            [
              -70.25311399980419,
              46.10011900014981
            ],
            [
              -70.28593700028651,
              46.099826000263356
            ],
            [
              -70.30190900022407,
              46.08236000019059
            ],
            [
              -70.31095599992577,
              46.06418200014895
            ],
            [
              -70.27832099976443,
              46.05628599972051
            ],
            [
              -70.31799599978937,
              46.0190750001987
            ],
            [
              -70.3023689996333,
              45.998680000285404
            ],
            [
              -70.28394200014397,
              45.99548800017045
            ],
            [
              -70.30698999993014,
              45.98269199996335
            ],
            [
              -70.31585900025492,
              45.96299099978285
            ],
            [
              -70.27700400038762,
              45.9672510001448
            ],
            [
              -70.23914200003202,
              45.94394399993196
            ],
            [
              -70.26309000034179,
              45.923986999925596
            ],
            [
              -70.25338599979074,
              45.907369999930886
            ],
            [
              -70.26571800014592,
              45.89374899982138
            ],
            [
              -70.25882200022237,
              45.891168999849555
            ],
            [
              -70.30780599988982,
              45.85884699977218
            ],
            [
              -70.37082400015203,
              45.83519799975338
            ],
            [
              -70.39615999998372,
              45.798659000174865
            ],
            [
              -70.416870000394,
              45.79553600014921
            ],
            [
              -70.40702699992576,
              45.76252799989072
            ],
            [
              -70.38842499963593,
              45.75020600008725
            ],
            [
              -70.39389399967953,
              45.74008900013285
            ],
            [
              -70.38383600002446,
              45.734554000165296
            ],
            [
              -70.40034600008738,
              45.71971700019407
            ],
            [
              -70.4391619995966,
              45.70387400006414
            ],
            [
              -70.46546900009697,
              45.706529999892595
            ],
            [
              -70.52639199975923,
              45.666356000043685
            ],
            [
              -70.55858900025265,
              45.66647600027354
            ],
            [
              -70.5908710002366,
              45.630459000300135
            ],
            [
              -70.64457300028528,
              45.60698500003602
            ],
            [
              -70.68769200007404,
              45.56942200019302
            ],
            [
              -70.67709899976836,
              45.552211000026425
            ],
            [
              -70.72257099989996,
              45.51367199977427
            ],
            [
              -70.71159600000287,
              45.50180800022544
            ],
            [
              -70.71639600039985,
              45.48646699998053
            ],
            [
              -70.69172099981887,
              45.47426599995359
            ],
            [
              -70.68111400016781,
              45.45218300016659
            ],
            [
              -70.65073199989185,
              45.44494399993862
            ],
            [
              -70.62982099964013,
              45.4263140003113
            ],
            [
              -70.63505100020741,
              45.41106899994965
            ],
            [
              -70.62126900040607,
              45.4027359998067
            ],
            [
              -70.63632199955349,
              45.395232999815676
            ],
            [
              -70.63488800000081,
              45.38341700026393
            ],
            [
              -70.6517839998531,
              45.37695799972387
            ],
            [
              -70.6781709998211,
              45.39427400008805
            ],
            [
              -70.7120139995793,
              45.39048299990401
            ],
            [
              -70.75457900024752,
              45.428310000119644
            ],
            [
              -70.7980949996963,
              45.42651600028319
            ],
            [
              -70.82594999955215,
              45.39838099999321
            ],
            [
              -70.80275500035121,
              45.36752100027972
            ],
            [
              -70.81990100044874,
              45.34019500005542
            ],
            [
              -70.80758199961404,
              45.32766200022488
            ],
            [
              -70.80842600006115,
              45.311816999735484
            ],
            [
              -70.81629100010527,
              45.29818099987019
            ],
            [
              -70.8354640001324,
              45.2939640002842
            ],
            [
              -70.83189599962171,
              45.278911000284154
            ],
            [
              -70.84894100033522,
              45.263089999954516
            ],
            [
              -70.84862999999059,
              45.24517899995676
            ],
            [
              -70.83758399994841,
              45.234988999707504
            ],
            [
              -70.85753299975225,
              45.229133999837416
            ],
            [
              -70.89694300036165,
              45.241864000186176
            ],
            [
              -70.89851199963353,
              45.25832799974587
            ],
            [
              -70.9213340003622,
              45.279226000182675
            ],
            [
              -70.91200499972987,
              45.29631099973066
            ],
            [
              -70.91783500034681,
              45.31172300012644
            ],
            [
              -70.9388939998382,
              45.31998000020747
            ],
            [
              -70.95237900043696,
              45.3391170000768
            ],
            [
              -70.98497500024025,
              45.33190699979928
            ],
            [
              -71.01065199965548,
              45.34767500027282
            ],
            [
              -71.01211600024368,
              45.333869000001904
            ],
            [
              -71.00187199991747,
              45.32842800001061
            ],
            [
              -71.00852099996881,
              45.31924100001487
            ],
            [
              -71.08307999984254,
              45.30572300021348
            ],
            [
              -71.08392799958928,
              45.305483999973255
            ]
          ]
        ]
      }
    }
  ]
}
