{
  "type": "FeatureCollection",
  "features": [
    {
      "type": "Feature",
      "id": "us-cd:118:66:98",
      "properties": {
        "boundary_id": "us-cd:118:66:98",
        "boundary_type": "congressional_district",
        "name": "Delegate District (at Large)",
        "stateFips": "66",
        "congress": 118,
        "district": "98",
        "bbox": [
          144.618068,
          13.234629,
          144.956712,
          13.653966
        ]
      },
      "geometry": {
        "type": "MultiPolygon",
        "coordinates": [
          [
            [
              [
                144.645379,
                13.236271
              ],
              [
                144.658503,
                13.241926
              ],
              [
                144.645162,
                13.234629
              ],
              [
                144.645379,
                13.236271
              ]
            ]
          ],
          [
            [
              [
                144.618068,
                13.44781
              ],
              [
                144.638345,
                13.464794
              ],
              [
                144.689829,
                13.463626
              ],
              [
                144.707597,
                13.476545
              ],
              [
                144.769357,
                13.481091
              ],
              [
                144.77235,
                13.504479
              ],
              [
                144.797674,
                13.506329
              ],
              [
                144.804903,
                13.515444
              ],
              [
                144.802124,
                13.535791
              ],
              [
                144.831817,
                13.578591
              ],
              [
                144.836695,
                13.624138
              ],
              [
                144.858531,
                13.653966
              ],
              [
                144.878802,
                13.64573
              ],
              [
                144.907852,
                13.605318
              ],
              [
                144.956712,
                13.598168
              ],
              [
                144.926691,
                13.522049
              ],
              [
                144.891812,
                13.506252
              ],
              [
                144.886748,
                13.492247
              ],
              [
                144.807605,
                13.427437
              ],
              [
                144.783946,
                13.421628
              ],
              [
                144.788775,
                13.413821
              ],
              [
                144.771558,
                13.393052
              ],
              [
                144.77211,
                13.302536
              ],
              [
                144.726007,
                13.247572
              ],
              [
                144.677325,
                13.254589
              ],
              [
                144.661895,
                13.271425
              ],
              [
                144.657415,
                13.316452
              ],
              [
                144.636097,
                13.341615
              ],
              [
                144.663404,
                13.401061
              ],
              [
                144.618109,
                13.447498
              ],
              [
                144.618068,
                13.44781
              ]
            ]
          ]
        ]
      }
    }
  ]
}
