{
  "type": "FeatureCollection",
  "features": [
    {
      "type": "Feature",
      "id": "us-cd:119:28:01",
      "properties": {
        "boundary_id": "us-cd:119:28:01",
        "boundary_type": "congressional_district",
        "name": "1",
        "stateFips": "28",
        "congress": 119,
        "district": "01",
        "bbox": [
          -90.31724299988906,
          33.108871000291046,
          -88.09788799979476,
          34.99569400029542
        ]
      },
      "geometry": {
        "type": "Polygon",
        "coordinates": [
          [
            [
              -90.31724299988906,
              34.87121200036631
            ],
            [
              -90.3045609997295,
              34.86058700019759
            ],
            [
              -90.20212600008351,
              34.86037399993542
            ],
            [
              -90.20019899971305,
              34.72441800023431
            ],
            [
              -90.21353600017379,
              34.722494000012084
            ],
            [
              -90.2314120000173,
              34.70199100008557
            ],
            [
              -90.2202119999893,
              34.68935700032415
            ],
            [
              -90.22579999985858,
              34.674822999906425
            ],
            [
              -90.21843299975684,
              34.6644720001471
            ],
            [
              -90.22536300001558,
              34.661890999918164
            ],
            [
              -90.21455799999781,
              34.65775299986098
            ],
            [
              -90.23991599957077,
              34.626372000338485
            ],
            [
              -90.23640300020999,
              34.60844000025445
            ],
            [
              -90.24428199959951,
              34.60091000000087
            ],
            [
              -90.236291000057,
              34.6050189996334
            ],
            [
              -90.23991300009605,
              34.59320400028832
            ],
            [
              -90.21115400041695,
              34.573223999735035
            ],
            [
              -90.21828999964171,
              34.55949099977996
            ],
            [
              -89.72134099991324,
              34.554274000274326
            ],
            [
              -89.72104999966011,
              34.19254499977819
            ],
            [
              -89.50944000008019,
              34.19095999970805
            ],
            [
              -89.50649599990857,
              33.45980600016332
            ],
            [
              -89.38074300013967,
              33.459981000226115
            ],
            [
              -89.40634400028522,
              33.45146299964531
            ],
            [
              -89.42150500028596,
              33.42947599966374
            ],
            [
              -89.44632599955851,
              33.439837000334926
            ],
            [
              -89.45405000003562,
              33.43319999970954
            ],
            [
              -89.4538080001863,
              33.28594200009093
            ],
            [
              -89.31640799960235,
              33.28555599980625
            ],
            [
              -89.3178549995738,
              33.108871000291046
            ],
            [
              -89.21392100007783,
              33.109402000371
            ],
            [
              -89.21342200031056,
              33.19754300016315
            ],
            [
              -89.1088999995622,
              33.19805900034792
            ],
            [
              -89.10888600021681,
              33.28593700033551
            ],
            [
              -88.96596300006094,
              33.286108000369275
            ],
            [
              -88.96728199998587,
              33.34388700011075
            ],
            [
              -89.00081699977248,
              33.34397799998306
            ],
            [
              -89.00072100041135,
              33.35855200024635
            ],
            [
              -89.0153069995785,
              33.36309499993592
            ],
            [
              -88.96682599987628,
              33.37936000017989
            ],
            [
              -88.95961699995829,
              33.49820399983654
            ],
            [
              -89.03611900009604,
              33.51273999969617
            ],
            [
              -89.03567700023015,
              33.56215399968053
            ],
            [
              -88.67152600015704,
              33.565134999744735
            ],
            [
              -88.67055200001361,
              33.28685500034263
            ],
            [
              -88.30443400028535,
              33.28832000014184
            ],
            [
              -88.09788799979476,
              34.89220199998764
            ],
            [
              -88.15241300037414,
              34.919740999696685
            ],
            [
              -88.2000300004361,
              34.99564000026416
            ],
            [
              -90.30836100004379,
              34.99569400029542
            ],
            [
              -90.29515900020057,
              34.97563400002137
            ],
            [
              -90.24517999957494,
              34.9478989996735
            ],
            [
              -90.24133400012825,
              34.91903300023614
            ],
            [
              -90.25785800043484,
              34.89338499996745
            ],
            [
              -90.3161549999428,
              34.87154600002742
            ],
            [
              -90.31724299988906,
              34.87121200036631
            ]
          ]
        ]
      }
    },
    {
      "type": "Feature",
      "id": "us-cd:119:28:02",
      "properties": {
        "boundary_id": "us-cd:119:28:02",
        "boundary_type": "congressional_district",
        "name": "2",
        "stateFips": "28",
        "congress": 119,
        "district": "02",
        "bbox": [
          -91.6550089997044,
          30.999416000001435,
          -89.31640799960235,
          34.8917380001373
        ]
      },
      "geometry": {
        "type": "Polygon",
        "coordinates": [
          [
            [
              -91.6550089997044,
              31.251814999684697
            ],
            [
              -91.59005099955122,
              31.193693000252818
            ],
            [
              -91.59018500034384,
              31.175622000359756
            ],
            [
              -91.62761599980591,
              31.120698000030874
            ],
            [
              -91.56414999983004,
              31.06682999995486
            ],
            [
              -91.55990699982497,
              31.054119000049074
            ],
            [
              -91.57841299985532,
              31.024030000083314
            ],
            [
              -91.63694200006518,
              30.999416000001435
            ],
            [
              -90.54761600031557,
              30.999719999939867
            ],
            [
              -90.54819899974844,
              31.34957399985165
            ],
            [
              -90.63330200042235,
              31.349306000367086
            ],
            [
              -90.63323100027725,
              31.611408999644787
            ],
            [
              -90.73732999962967,
              31.61112399963949
            ],
            [
              -90.73682400018969,
              31.698491000255093
            ],
            [
              -90.41419799962078,
              31.700455999682678
            ],
            [
              -90.41364000030227,
              31.685279999711714
            ],
            [
              -90.37940900020656,
              31.68519400036816
            ],
            [
              -90.37992999971515,
              31.70024000033132
            ],
            [
              -90.2590030002825,
              31.703915999784485
            ],
            [
              -90.22992200038813,
              31.723729999657724
            ],
            [
              -90.18413899991192,
              31.731462000020613
            ],
            [
              -90.13127399973934,
              31.75604799994092
            ],
            [
              -90.12310300027177,
              31.75197199995431
            ],
            [
              -90.12811500038089,
              31.769668000028886
            ],
            [
              -90.1141140002964,
              31.768244999941263
            ],
            [
              -90.10749100018431,
              31.777685000155632
            ],
            [
              -90.11250800031628,
              31.791269999735114
            ],
            [
              -90.139050000095,
              31.78890700026209
            ],
            [
              -90.1507020000346,
              31.799871999796643
            ],
            [
              -90.13694199997454,
              31.826019000306086
            ],
            [
              -90.12729199985017,
              31.8256190003422
            ],
            [
              -90.15918300002186,
              31.844839000068323
            ],
            [
              -90.1389100003529,
              31.848104000003396
            ],
            [
              -90.13201299970613,
              31.858301999646493
            ],
            [
              -90.14408300012047,
              31.89110500014939
            ],
            [
              -90.17027599991972,
              31.904472000016955
            ],
            [
              -90.17164199970033,
              31.934908000201524
            ],
            [
              -90.19829700035524,
              31.941903999652155
            ],
            [
              -90.18748399994153,
              31.951808999660557
            ],
            [
              -90.19810999985917,
              31.957869000276688
            ],
            [
              -90.20591899982679,
              31.98778900036545
            ],
            [
              -90.22258200005058,
              31.988585000274618
            ],
            [
              -90.2327560000566,
              32.00845999965155
            ],
            [
              -90.21343300024164,
              32.02470600037523
            ],
            [
              -90.23401300005725,
              32.017071999903024
            ],
            [
              -90.24785099993508,
              32.03091700018273
            ],
            [
              -90.23003799984079,
              32.04665799963736
            ],
            [
              -90.23616800003336,
              32.06568500023554
            ],
            [
              -90.22670700005486,
              32.0800400002511
            ],
            [
              -90.23580200033545,
              32.09019100012816
            ],
            [
              -90.22676800015424,
              32.093886999812746
            ],
            [
              -90.24680300017181,
              32.093490999741114
            ],
            [
              -90.23666400032592,
              32.0998919997964
            ],
            [
              -90.25132800020918,
              32.1127399997418
            ],
            [
              -90.24280500038914,
              32.11391800001592
            ],
            [
              -90.24277699990174,
              32.14892200035834
            ],
            [
              -90.25479899973719,
              32.15118800030126
            ],
            [
              -90.24170700039714,
              32.15538400029447
            ],
            [
              -90.242690999688,
              32.17768900003316
            ],
            [
              -90.21263900002324,
              32.179966000332676
            ],
            [
              -90.20474200019207,
              32.19150200009633
            ],
            [
              -90.19589200013387,
              32.185070000263636
            ],
            [
              -90.1966400003215,
              32.195618000086505
            ],
            [
              -90.18168600000999,
              32.201603000179
            ],
            [
              -90.19054399956579,
              32.20361300030857
            ],
            [
              -90.19122300015646,
              32.226899999734535
            ],
            [
              -90.20901100013643,
              32.23592400032774
            ],
            [
              -90.19928700039219,
              32.24094799974519
            ],
            [
              -90.20259100041395,
              32.25534799977412
            ],
            [
              -90.18369000037336,
              32.2622480002821
            ],
            [
              -90.17868999995983,
              32.289574999874574
            ],
            [
              -90.16564299992731,
              32.28392400026687
            ],
            [
              -90.15138699957473,
              32.29104599990464
            ],
            [
              -90.16094499963758,
              32.30874999968204
            ],
            [
              -90.17801399974222,
              32.312174000290874
            ],
            [
              -90.17566299994753,
              32.32671199975861
            ],
            [
              -90.18681600011985,
              32.32676200009588
            ],
            [
              -90.17534900012818,
              32.35018999962617
            ],
            [
              -90.1543910000208,
              32.348351999685555
            ],
            [
              -90.14967900038566,
              32.366729999733934
            ],
            [
              -90.12778099957171,
              32.370444000321
            ],
            [
              -90.14191399990067,
              32.3842249997088
            ],
            [
              -90.1166130002291,
              32.38541199963762
            ],
            [
              -90.12348800023624,
              32.399450999989085
            ],
            [
              -90.14072300002225,
              32.39947899993248
            ],
            [
              -90.13001500008885,
              32.42628499985565
            ],
            [
              -90.14589199959188,
              32.405664999683005
            ],
            [
              -90.15607599964362,
              32.41247400004817
            ],
            [
              -90.17656599994586,
              32.40023499967229
            ],
            [
              -90.24376399956563,
              32.40009800003859
            ],
            [
              -90.2436410004403,
              32.48753300019884
            ],
            [
              -90.4497800003268,
              32.48798299979673
            ],
            [
              -90.45139600035267,
              32.57863099964189
            ],
            [
              -90.42846999986692,
              32.586036999708355
            ],
            [
              -90.4045040000138,
              32.57463799974819
            ],
            [
              -90.36378799989826,
              32.603330999900855
            ],
            [
              -90.33228199969106,
              32.5718110000094
            ],
            [
              -90.31686100029764,
              32.57643400010906
            ],
            [
              -90.3074189996874,
              32.545468000106055
            ],
            [
              -90.27470099968538,
              32.54605500030237
            ],
            [
              -90.24858099968107,
              32.56013299970857
            ],
            [
              -90.21578900005919,
              32.55332800019955
            ],
            [
              -90.13649900028376,
              32.58306400007016
            ],
            [
              -90.13624999986341,
              32.553291999980914
            ],
            [
              -90.08910300015475,
              32.55704799997592
            ],
            [
              -90.0891359997667,
              32.54995400029735
            ],
            [
              -90.081736000053,
              32.56071000012047
            ],
            [
              -90.06010799957578,
              32.560599000265206
            ],
            [
              -90.04963399999411,
              32.57910100003928
            ],
            [
              -90.03983900010479,
              32.560284999883116
            ],
            [
              -89.9952259995906,
              32.56039200025006
            ],
            [
              -89.99485900006779,
              32.540541999762674
            ],
            [
              -89.97336899968283,
              32.52324599965606
            ],
            [
              -89.93140300013766,
              32.5123360002158
            ],
            [
              -89.92326100008411,
              32.52892000036835
            ],
            [
              -89.89319500017567,
              32.54243700032634
            ],
            [
              -89.89589300029998,
              32.55435999982363
            ],
            [
              -89.88688300040822,
              32.56285299997076
            ],
            [
              -89.8669599996453,
              32.56453199990966
            ],
            [
              -89.85966200003887,
              32.584437000126215
            ],
            [
              -89.84654800005919,
              32.582727000178814
            ],
            [
              -89.83998500022156,
              32.59329500016353
            ],
            [
              -89.83694999981334,
              32.58541600025761
            ],
            [
              -89.81394899988284,
              32.581899000164455
            ],
            [
              -89.80859199999226,
              32.590800000300696
            ],
            [
              -89.79456699961834,
              32.58478499991095
            ],
            [
              -89.79395300022333,
              32.59299299977909
            ],
            [
              -89.7859259997975,
              32.583734000244256
            ],
            [
              -89.78242400030736,
              32.597005000064016
            ],
            [
              -89.73030399994934,
              32.63422799988062
            ],
            [
              -89.73015199961338,
              32.57724800028807
            ],
            [
              -89.31758799961011,
              32.57645800037445
            ],
            [
              -89.31640799960235,
              33.28555599980625
            ],
            [
              -89.4538080001863,
              33.28594200009093
            ],
            [
              -89.45405000003562,
              33.43319999970954
            ],
            [
              -89.44632599955851,
              33.439837000334926
            ],
            [
              -89.42150500028596,
              33.42947599966374
            ],
            [
              -89.40634400028522,
              33.45146299964531
            ],
            [
              -89.38069100026114,
              33.45984600001607
            ],
            [
              -89.50649599990857,
              33.45980600016332
            ],
            [
              -89.50944000008019,
              34.19095999970805
            ],
            [
              -89.72104999966011,
              34.19254499977819
            ],
            [
              -89.72134099991324,
              34.554274000274326
            ],
            [
              -90.21828999964171,
              34.55949099977996
            ],
            [
              -90.21115400041695,
              34.573223999735035
            ],
            [
              -90.23991300009605,
              34.59320400028832
            ],
            [
              -90.236291000057,
              34.6050189996334
            ],
            [
              -90.24428199959951,
              34.60091000000087
            ],
            [
              -90.23640300020999,
              34.60844000025445
            ],
            [
              -90.23991599957077,
              34.626372000338485
            ],
            [
              -90.21455799999781,
              34.65775299986098
            ],
            [
              -90.22536300001558,
              34.661890999918164
            ],
            [
              -90.21843299975684,
              34.6644720001471
            ],
            [
              -90.22579999985858,
              34.674822999906425
            ],
            [
              -90.2202119999893,
              34.68935700032415
            ],
            [
              -90.2314120000173,
              34.70199100008557
            ],
            [
              -90.21353600017379,
              34.722494000012084
            ],
            [
              -90.20019899971305,
              34.72441800023431
            ],
            [
              -90.20212600008351,
              34.86037399993542
            ],
            [
              -90.3045609997295,
              34.86058700019759
            ],
            [
              -90.31298800018841,
              34.844097999635025
            ],
            [
              -90.33844899969355,
              34.85851699996823
            ],
            [
              -90.38939300024177,
              34.830665000282934
            ],
            [
              -90.43872900026173,
              34.825247999854845
            ],
            [
              -90.44969099974004,
              34.839919999787845
            ],
            [
              -90.42940800002533,
              34.86640600008347
            ],
            [
              -90.43656000004192,
              34.88273200010365
            ],
            [
              -90.46227199961723,
              34.8917380001373
            ],
            [
              -90.48032300026125,
              34.88235599984406
            ],
            [
              -90.48349800041153,
              34.860460000017675
            ],
            [
              -90.45537900006673,
              34.82078499969901
            ],
            [
              -90.47037400038613,
              34.81155400003441
            ],
            [
              -90.47658400004633,
              34.79400399994665
            ],
            [
              -90.44816799960059,
              34.7401029999565
            ],
            [
              -90.48333299965678,
              34.72222199964084
            ],
            [
              -90.51666599977706,
              34.72722200025411
            ],
            [
              -90.52416599994818,
              34.73138799998057
            ],
            [
              -90.4941479997203,
              34.757567999951846
            ],
            [
              -90.49277699991683,
              34.77249900023054
            ],
            [
              -90.51388900001,
              34.800000000019
            ],
            [
              -90.54416699963058,
              34.791667000016666
            ],
            [
              -90.53978600043156,
              34.75430399985097
            ],
            [
              -90.5455559998757,
              34.73888899988701
            ],
            [
              -90.56666700014397,
              34.735000000181756
            ],
            [
              -90.57194399966862,
              34.71277699982832
            ],
            [
              -90.52956200019683,
              34.69583399963226
            ],
            [
              -90.47416600030448,
              34.705277000166895
            ],
            [
              -90.46288300043582,
              34.683804999945615
            ],
            [
              -90.50604099968433,
              34.63823700030012
            ],
            [
              -90.5342069998848,
              34.62746199992124
            ],
            [
              -90.55488499960971,
              34.64516799972852
            ],
            [
              -90.54192799998887,
              34.68386200012987
            ],
            [
              -90.57010199968695,
              34.69343200020476
            ],
            [
              -90.56840700001838,
              34.668878000174935
            ],
            [
              -90.59159500044495,
              34.621011999706276
            ],
            [
              -90.53962300022494,
              34.5539250001368
            ],
            [
              -90.54408200014008,
              34.53774199999026
            ],
            [
              -90.57932400018915,
              34.518035000066305
            ],
            [
              -90.59266199957649,
              34.490579000134026
            ],
            [
              -90.57769399991959,
              34.43244500013448
            ],
            [
              -90.58623199980828,
              34.40917199998166
            ],
            [
              -90.60959699978683,
              34.391585999999904
            ],
            [
              -90.64090899982529,
              34.38886300028634
            ],
            [
              -90.65714199987876,
              34.377397000088045
            ],
            [
              -90.6668530001025,
              34.35577300011408
            ],
            [
              -90.65748800038351,
              34.3222309997173
            ],
            [
              -90.66934299981438,
              34.31308799966348
            ],
            [
              -90.69312899974243,
              34.322569999965815
            ],
            [
              -90.67630499986018,
              34.37126099975857
            ],
            [
              -90.71580300033311,
              34.360335000320525
            ],
            [
              -90.76439299981527,
              34.36367499983231
            ],
            [
              -90.76869100007191,
              34.34778199986428
            ],
            [
              -90.73639900004225,
              34.3120670000512
            ],
            [
              -90.73802500011385,
              34.28927899991934
            ],
            [
              -90.76562300005175,
              34.26951299967027
            ],
            [
              -90.83177299990824,
              34.27693599995768
            ],
            [
              -90.84714899999413,
              34.206129999731466
            ],
            [
              -90.89227899981896,
              34.222891000005184
            ],
            [
              -90.9063340003301,
              34.24438199997882
            ],
            [
              -90.93554800029386,
              34.237846999881384
            ],
            [
              -90.9345440000132,
              34.217853999831114
            ],
            [
              -90.90821499977152,
              34.19207099975716
            ],
            [
              -90.8867460002013,
              34.18250100012583
            ],
            [
              -90.81748800014164,
              34.183197999803
            ],
            [
              -90.80721899970108,
              34.16371299977407
            ],
            [
              -90.82259300013715,
              34.14405399980175
            ],
            [
              -90.84528299972304,
              34.13688600012082
            ],
            [
              -90.90995700019408,
              34.165511000251094
            ],
            [
              -90.95864399976061,
              34.135483999955284
            ],
            [
              -90.94564000028411,
              34.10796500036833
            ],
            [
              -90.91886099978063,
              34.092843000156996
            ],
            [
              -90.88312599981205,
              34.09672900036854
            ],
            [
              -90.87112200041825,
              34.080248999759405
            ],
            [
              -90.8939989996019,
              34.02620699994236
            ],
            [
              -90.98818400013761,
              34.0192110003212
            ],
            [
              -90.96141200020514,
              33.97924899964276
            ],
            [
              -90.96617300024407,
              33.96466300028876
            ],
            [
              -90.99895099962224,
              33.96560400035792
            ],
            [
              -91.01894800000498,
              34.00322500028738
            ],
            [
              -91.04666999979145,
              33.99243399979844
            ],
            [
              -91.07338900002046,
              34.008718999972615
            ],
            [
              -91.08696699960731,
              34.00496100014755
            ],
            [
              -91.08646000034243,
              33.95780400031779
            ],
            [
              -91.01912999957986,
              33.942081000103826
            ],
            [
              -91.01024600008478,
              33.93217200016101
            ],
            [
              -91.03302100005948,
              33.89982100002051
            ],
            [
              -91.07131100003724,
              33.87081300018814
            ],
            [
              -91.06938500038999,
              33.843311999939026
            ],
            [
              -91.04908300040873,
              33.81602599990529
            ],
            [
              -91.00047399976167,
              33.7994829996919
            ],
            [
              -90.98880599992854,
              33.783079000090396
            ],
            [
              -91.01936700030464,
              33.76411999979366
            ],
            [
              -91.05338599978994,
              33.7782830000193
            ],
            [
              -91.10866299985658,
              33.77166800018064
            ],
            [
              -91.13306300007798,
              33.783324000089664
            ],
            [
              -91.14489099974467,
              33.768340000156954
            ],
            [
              -91.1488070004099,
              33.73135999966759
            ],
            [
              -91.11764500015926,
              33.70529900036372
            ],
            [
              -91.05916899965287,
              33.714520000282754
            ],
            [
              -91.03023599989652,
              33.687576999911315
            ],
            [
              -91.0337070003228,
              33.67384400018237
            ],
            [
              -91.09305300031728,
              33.658177000254796
            ],
            [
              -91.13089800005612,
              33.674926000171155
            ],
            [
              -91.16036700028799,
              33.70660199970423
            ],
            [
              -91.21374000044872,
              33.69963800023849
            ],
            [
              -91.22923199998725,
              33.686304999892734
            ],
            [
              -91.22005700023904,
              33.661008999747935
            ],
            [
              -91.16220300042188,
              33.64427300018835
            ],
            [
              -91.13685199962327,
              33.62623400034727
            ],
            [
              -91.12866600008712,
              33.60677899999503
            ],
            [
              -91.1640639997718,
              33.57049599994393
            ],
            [
              -91.23339200015165,
              33.56274699994435
            ],
            [
              -91.21884299989608,
              33.5293819999426
            ],
            [
              -91.18249199998436,
              33.499829999716766
            ],
            [
              -91.20747899983657,
              33.46950999998207
            ],
            [
              -91.23168900008716,
              33.45685800000941
            ],
            [
              -91.23570399958828,
              33.439426000270664
            ],
            [
              -91.20647000043134,
              33.43392400016903
            ],
            [
              -91.177165000231,
              33.44394199990495
            ],
            [
              -91.16947199971601,
              33.45257400035367
            ],
            [
              -91.17752699973093,
              33.48298599970254
            ],
            [
              -91.17030699994227,
              33.49785099998781
            ],
            [
              -91.13440100026948,
              33.483164000112424
            ],
            [
              -91.11691600023822,
              33.453737000123326
            ],
            [
              -91.13187800004734,
              33.43025699980829
            ],
            [
              -91.19959700007401,
              33.418195000056045
            ],
            [
              -91.20931999999333,
              33.40649700005481
            ],
            [
              -91.17994600019598,
              33.38401499990052
            ],
            [
              -91.14810899955268,
              33.37878699966119
            ],
            [
              -91.1000250004088,
              33.40658199973703
            ],
            [
              -91.0869020002083,
              33.45139400028073
            ],
            [
              -91.06912599992391,
              33.45566599991574
            ],
            [
              -91.05810900019402,
              33.44690699973562
            ],
            [
              -91.0662529998974,
              33.41635700003698
            ],
            [
              -91.1419569996188,
              33.34973299976314
            ],
            [
              -91.14164000032471,
              33.30006599988604
            ],
            [
              -91.12550699983034,
              33.28014900035259
            ],
            [
              -91.12805799964156,
              33.2685629996516
            ],
            [
              -91.10081799990397,
              33.23827300021597
            ],
            [
              -91.0773349999246,
              33.28400000008923
            ],
            [
              -91.05134700016478,
              33.28497800019533
            ],
            [
              -91.04462799979322,
              33.26722000009563
            ],
            [
              -91.07080300004912,
              33.22739599976276
            ],
            [
              -91.10025999968714,
              33.21942799997862
            ],
            [
              -91.0804049995946,
              33.180090999857654
            ],
            [
              -91.08601699975333,
              33.13628100010798
            ],
            [
              -91.13394099996194,
              33.129127999995355
            ],
            [
              -91.18266199986367,
              33.141853000161746
            ],
            [
              -91.20074899959438,
              33.12647199968836
            ],
            [
              -91.19991699974116,
              33.1067509996557
            ],
            [
              -91.14994499968655,
              33.08195999987916
            ],
            [
              -91.12028999968183,
              33.054922000187695
            ],
            [
              -91.1283260003285,
              33.03428200026778
            ],
            [
              -91.16288899978692,
              33.018455999909996
            ],
            [
              -91.16897299994874,
              32.992130999786625
            ],
            [
              -91.2018419995635,
              32.961211999736456
            ],
            [
              -91.19834300044643,
              32.950206000222984
            ],
            [
              -91.21397200025231,
              32.92719700011444
            ],
            [
              -91.19678500014687,
              32.90678399985172
            ],
            [
              -91.15168999958385,
              32.90193499984953
            ],
            [
              -91.13161799975634,
              32.92522599998236
            ],
            [
              -91.13551699980482,
              32.979657000144066
            ],
            [
              -91.10658099967542,
              32.98893699981692
            ],
            [
              -91.08680199975088,
              32.976265999880965
            ],
            [
              -91.08262300021822,
              32.94622900028145
            ],
            [
              -91.06397400007272,
              32.9241130002335
            ],
            [
              -91.06444900044889,
              32.90106299992281
            ],
            [
              -91.10563099982143,
              32.85839599973626
            ],
            [
              -91.14500200007275,
              32.84286899980011
            ],
            [
              -91.16166899959617,
              32.81246500020232
            ],
            [
              -91.16439699985774,
              32.78582099987796
            ],
            [
              -91.15547599965441,
              32.77990900004463
            ],
            [
              -91.16569599969118,
              32.75339900010077
            ],
            [
              -91.15860999979682,
              32.743448999956044
            ],
            [
              -91.09057299975284,
              32.73610000013871
            ],
            [
              -91.0547490000958,
              32.71922899994944
            ],
            [
              -91.06884300006669,
              32.698920000240456
            ],
            [
              -91.11825799972937,
              32.67407500017965
            ],
            [
              -91.14975300006593,
              32.64404099981117
            ],
            [
              -91.15248600035035,
              32.62031900014898
            ],
            [
              -91.14278199979933,
              32.59889900034333
            ],
            [
              -91.11985399966375,
              32.584795000289354
            ],
            [
              -91.04980200028403,
              32.60718499967742
            ],
            [
              -91.03718200004877,
              32.637861000055324
            ],
            [
              -91.02576899958545,
              32.646572000252405
            ],
            [
              -91.01579999961885,
              32.641644000055145
            ],
            [
              -91.0029619998237,
              32.622555000017485
            ],
            [
              -91.00824500009446,
              32.60423900026657
            ],
            [
              -91.0804110003407,
              32.5564679996386
            ],
            [
              -91.05770599978788,
              32.53377700020166
            ],
            [
              -91.00112900006289,
              32.51294500025739
            ],
            [
              -90.98720199959826,
              32.495663000042086
            ],
            [
              -91.00050600044703,
              32.482238999974555
            ],
            [
              -91.0381059999635,
              32.49043999996403
            ],
            [
              -91.09374200005534,
              32.549127000148424
            ],
            [
              -91.11670799982576,
              32.500137999970086
            ],
            [
              -91.11600800021702,
              32.48314000011639
            ],
            [
              -91.09350799970363,
              32.457441000162234
            ],
            [
              -91.05140700043924,
              32.437841999991775
            ],
            [
              -91.02820599959387,
              32.43374199999479
            ],
            [
              -90.99548699976694,
              32.45088500010097
            ],
            [
              -90.96958699987064,
              32.43949199997249
            ],
            [
              -90.9659869995729,
              32.42065400011641
            ],
            [
              -90.99407999997847,
              32.40386100009195
            ],
            [
              -91.00140600007231,
              32.37944400000314
            ],
            [
              -91.00450599987954,
              32.36474399980845
            ],
            [
              -90.99362499969376,
              32.35404699985315
            ],
            [
              -90.91236300024035,
              32.33945400012777
            ],
            [
              -90.89071200019691,
              32.37224599983212
            ],
            [
              -90.8756380002348,
              32.37172900032092
            ],
            [
              -90.92223099992462,
              32.29863899993725
            ],
            [
              -90.94978100018194,
              32.283055999901656
            ],
            [
              -90.9641489997892,
              32.296872000066266
            ],
            [
              -90.9794749996464,
              32.293702000029995
            ],
            [
              -90.98298500043077,
              32.27029399969317
            ],
            [
              -90.96940299974764,
              32.252519999935366
            ],
            [
              -90.98028999978116,
              32.243600999754975
            ],
            [
              -90.99494399961873,
              32.193140999784305
            ],
            [
              -91.00320600022118,
              32.19804999965158
            ],
            [
              -91.00290599974721,
              32.22305000020496
            ],
            [
              -91.039007000312,
              32.24234799980362
            ],
            [
              -91.06140800019287,
              32.2186499999723
            ],
            [
              -91.08370799979143,
              32.22645000008342
            ],
            [
              -91.1085089998708,
              32.20814999998233
            ],
            [
              -91.1335869999596,
              32.21343099987182
            ],
            [
              -91.16417099990193,
              32.19688800014645
            ],
            [
              -91.17455199959717,
              32.154977999935596
            ],
            [
              -91.16282199983976,
              32.1326940002524
            ],
            [
              -91.11099000026014,
              32.12464399997757
            ],
            [
              -91.08162999980821,
              32.13399199971027
            ],
            [
              -91.05355499984432,
              32.12441199992204
            ],
            [
              -91.04850699975022,
              32.150152000303
            ],
            [
              -91.05830699966242,
              32.18095099981408
            ],
            [
              -91.02500700005244,
              32.16255100013891
            ],
            [
              -91.00290599974721,
              32.16205200025473
            ],
            [
              -91.00500600037005,
              32.14285099977625
            ],
            [
              -91.03089100019773,
              32.12055800024058
            ],
            [
              -91.03520699999771,
              32.10045299965302
            ],
            [
              -91.0811079995764,
              32.0783530003156
            ],
            [
              -91.08090799955984,
              32.04785500020808
            ],
            [
              -91.1037079996489,
              32.05025499987409
            ],
            [
              -91.13570900032376,
              32.08065400019783
            ],
            [
              -91.15851000023771,
              32.072854000275925
            ],
            [
              -91.15381000029817,
              32.05065500029809
            ],
            [
              -91.09140799997911,
              32.03605399991013
            ],
            [
              -91.07590800004463,
              32.01682699993734
            ],
            [
              -91.10280800002363,
              31.99095700001907
            ],
            [
              -91.16441000027653,
              31.982557000278163
            ],
            [
              -91.18481000016709,
              31.9655569996552
            ],
            [
              -91.1932099999635,
              31.935658000351264
            ],
            [
              -91.18381000008439,
              31.9335580000639
            ],
            [
              -91.1822769998992,
              31.91581400004235
            ],
            [
              -91.26771199993583,
              31.8626599996688
            ],
            [
              -91.26761200037673,
              31.852361000219357
            ],
            [
              -91.24499499968745,
              31.83218799994053
            ],
            [
              -91.25431099990098,
              31.81366200013971
            ],
            [
              -91.28321199987029,
              31.815761999712837
            ],
            [
              -91.2940129996901,
              31.860460000201204
            ],
            [
              -91.34521400015628,
              31.843861000183637
            ],
            [
              -91.36561400004683,
              31.760762999656777
            ],
            [
              -91.27851199993073,
              31.772062999972338
            ],
            [
              -91.26151099959813,
              31.765463000342233
            ],
            [
              -91.26561100038639,
              31.752064000186245
            ],
            [
              -91.2795379999527,
              31.74475900036202
            ],
            [
              -91.36937500000305,
              31.74690300033452
            ],
            [
              -91.39791500029735,
              31.709363999907552
            ],
            [
              -91.40101500010455,
              31.620365000158273
            ],
            [
              -91.43621600014576,
              31.612464999773042
            ],
            [
              -91.47431799980257,
              31.625365000377403
            ],
            [
              -91.49613000040279,
              31.64531000014111
            ],
            [
              -91.51411099982828,
              31.632410999888446
            ],
            [
              -91.51656700010327,
              31.611817999781323
            ],
            [
              -91.48651799991326,
              31.58656600022731
            ],
            [
              -91.42494900017063,
              31.5970559997942
            ],
            [
              -91.40391499989525,
              31.589766000298702
            ],
            [
              -91.40981499993406,
              31.567065999678174
            ],
            [
              -91.44241599976023,
              31.543266000337645
            ],
            [
              -91.47901799974211,
              31.53046600025851
            ],
            [
              -91.51344600037964,
              31.532031000088267
            ],
            [
              -91.52253599973903,
              31.522078000316256
            ],
            [
              -91.51491699974223,
              31.510113000039794
            ],
            [
              -91.51513000017755,
              31.44920599961816
            ],
            [
              -91.49981199981796,
              31.420100000312985
            ],
            [
              -91.47206699956698,
              31.39707600037463
            ],
            [
              -91.47254199994315,
              31.37106900016816
            ],
            [
              -91.4788479998628,
              31.364945999928587
            ],
            [
              -91.51636700008673,
              31.370502999874837
            ],
            [
              -91.53233599965125,
              31.390275000013816
            ],
            [
              -91.5406469997592,
              31.43075800013076
            ],
            [
              -91.56517900022507,
              31.423446999686952
            ],
            [
              -91.57833400021262,
              31.399066999791554
            ],
            [
              -91.56895299970176,
              31.37762900011214
            ],
            [
              -91.54620700003937,
              31.382479999969547
            ],
            [
              -91.54896700008798,
              31.347255000156057
            ],
            [
              -91.50866000022636,
              31.315130999972617
            ],
            [
              -91.5120849997236,
              31.28417700021647
            ],
            [
              -91.55390499967892,
              31.26305000012333
            ],
            [
              -91.63767199981115,
              31.267680000018945
            ],
            [
              -91.65468099964134,
              31.25366199964438
            ],
            [
              -91.6550089997044,
              31.251814999684697
            ]
          ]
        ]
      }
    },
    {
      "type": "Feature",
      "id": "us-cd:119:28:03",
      "properties": {
        "boundary_id": "us-cd:119:28:03",
        "boundary_type": "congressional_district",
        "name": "3",
        "stateFips": "28",
        "congress": 119,
        "district": "03",
        "bbox": [
          -90.73743299956183,
          30.999719999939867,
          -88.30443400028535,
          33.565134999744735
        ]
      },
      "geometry": {
        "type": "Polygon",
        "coordinates": [
          [
            [
              -90.73743299956183,
              31.625252000026574
            ],
            [
              -90.73732999962967,
              31.61112399963949
            ],
            [
              -90.63323100027725,
              31.611408999644787
            ],
            [
              -90.63330200042235,
              31.349306000367086
            ],
            [
              -90.54819899974844,
              31.34957399985165
            ],
            [
              -90.54761600031557,
              30.999719999939867
            ],
            [
              -89.65403799981316,
              31.002502000193708
            ],
            [
              -89.65421199989044,
              31.433804999672553
            ],
            [
              -89.39917800002493,
              31.434028999776654
            ],
            [
              -89.40122699969582,
              31.796862999723274
            ],
            [
              -89.26466800008424,
              31.805230000128862
            ],
            [
              -89.26541100024899,
              31.769363000236375
            ],
            [
              -89.18790900002855,
              31.769805999925186
            ],
            [
              -89.18457200039485,
              31.744587000366913
            ],
            [
              -89.16453700037728,
              31.729454999745688
            ],
            [
              -89.16516099981804,
              31.712283999833566
            ],
            [
              -89.14678899968197,
              31.71144700034263
            ],
            [
              -89.14223000020773,
              31.7483299998635
            ],
            [
              -89.13395500008478,
              31.72970500012146
            ],
            [
              -89.11749000022773,
              31.726023999772835
            ],
            [
              -89.08497100041731,
              31.751772999870575
            ],
            [
              -89.08411199990162,
              31.769850999880045
            ],
            [
              -89.01135800019962,
              31.769837000117032
            ],
            [
              -89.01139599983445,
              31.78440700035909
            ],
            [
              -88.94316899981966,
              31.784214000157682
            ],
            [
              -88.9433549995925,
              31.82456499962864
            ],
            [
              -88.7145660003031,
              31.843000000125524
            ],
            [
              -88.4732270002003,
              31.893856000253447
            ],
            [
              -88.30443400028535,
              33.28832000014184
            ],
            [
              -88.67055200001361,
              33.28685500034263
            ],
            [
              -88.67152600015704,
              33.565134999744735
            ],
            [
              -89.03567700023015,
              33.56215399968053
            ],
            [
              -89.03611900009604,
              33.51273999969617
            ],
            [
              -88.95961699995829,
              33.49820399983654
            ],
            [
              -88.96682599987628,
              33.37936000017989
            ],
            [
              -89.0153069995785,
              33.36309499993592
            ],
            [
              -89.00072100041135,
              33.35855200024635
            ],
            [
              -89.00081699977248,
              33.34397799998306
            ],
            [
              -88.96728199998587,
              33.34388700011075
            ],
            [
              -88.96596300006094,
              33.286108000369275
            ],
            [
              -89.10888600021681,
              33.28593700033551
            ],
            [
              -89.1088999995622,
              33.19805900034792
            ],
            [
              -89.21342200031056,
              33.19754300016315
            ],
            [
              -89.21392100007783,
              33.109402000371
            ],
            [
              -89.3178549995738,
              33.108871000291046
            ],
            [
              -89.31758799961011,
              32.57645800037445
            ],
            [
              -89.73015199961338,
              32.57724800028807
            ],
            [
              -89.73030399994934,
              32.63422799988062
            ],
            [
              -89.78242400030736,
              32.597005000064016
            ],
            [
              -89.7859259997975,
              32.583734000244256
            ],
            [
              -89.79395300022333,
              32.59299299977909
            ],
            [
              -89.79456699961834,
              32.58478499991095
            ],
            [
              -89.80859199999226,
              32.590800000300696
            ],
            [
              -89.81394899988284,
              32.581899000164455
            ],
            [
              -89.83694999981334,
              32.58541600025761
            ],
            [
              -89.83998500022156,
              32.59329500016353
            ],
            [
              -89.84654800005919,
              32.582727000178814
            ],
            [
              -89.85966200003887,
              32.584437000126215
            ],
            [
              -89.8669599996453,
              32.56453199990966
            ],
            [
              -89.88688300040822,
              32.56285299997076
            ],
            [
              -89.89589300029998,
              32.55435999982363
            ],
            [
              -89.89319500017567,
              32.54243700032634
            ],
            [
              -89.92326100008411,
              32.52892000036835
            ],
            [
              -89.93140300013766,
              32.5123360002158
            ],
            [
              -89.97336899968283,
              32.52324599965606
            ],
            [
              -89.99485900006779,
              32.540541999762674
            ],
            [
              -89.9952259995906,
              32.56039200025006
            ],
            [
              -90.03983900010479,
              32.560284999883116
            ],
            [
              -90.04963399999411,
              32.57910100003928
            ],
            [
              -90.06010799957578,
              32.560599000265206
            ],
            [
              -90.081736000053,
              32.56071000012047
            ],
            [
              -90.0891359997667,
              32.54995400029735
            ],
            [
              -90.08910300015475,
              32.55704799997592
            ],
            [
              -90.13624999986341,
              32.553291999980914
            ],
            [
              -90.13649900028376,
              32.58306400007016
            ],
            [
              -90.21578900005919,
              32.55332800019955
            ],
            [
              -90.24858099968107,
              32.56013299970857
            ],
            [
              -90.27470099968538,
              32.54605500030237
            ],
            [
              -90.3074189996874,
              32.545468000106055
            ],
            [
              -90.31686100029764,
              32.57643400010906
            ],
            [
              -90.33228199969106,
              32.5718110000094
            ],
            [
              -90.36378799989826,
              32.603330999900855
            ],
            [
              -90.4045040000138,
              32.57463799974819
            ],
            [
              -90.44577400014822,
              32.58424100020087
            ],
            [
              -90.4497800003268,
              32.48798299979673
            ],
            [
              -90.2436410004403,
              32.48753300019884
            ],
            [
              -90.24376399956563,
              32.40009800003859
            ],
            [
              -90.17656599994586,
              32.40023499967229
            ],
            [
              -90.15607599964362,
              32.41247400004817
            ],
            [
              -90.14589199959188,
              32.405664999683005
            ],
            [
              -90.13001500008885,
              32.42628499985565
            ],
            [
              -90.14072300002225,
              32.39947899993248
            ],
            [
              -90.12348800023624,
              32.399450999989085
            ],
            [
              -90.1166130002291,
              32.38541199963762
            ],
            [
              -90.14191399990067,
              32.3842249997088
            ],
            [
              -90.12778099957171,
              32.370444000321
            ],
            [
              -90.14967900038566,
              32.366729999733934
            ],
            [
              -90.1543910000208,
              32.348351999685555
            ],
            [
              -90.17534900012818,
              32.35018999962617
            ],
            [
              -90.18681600011985,
              32.32676200009588
            ],
            [
              -90.17566299994753,
              32.32671199975861
            ],
            [
              -90.17801399974222,
              32.312174000290874
            ],
            [
              -90.16094499963758,
              32.30874999968204
            ],
            [
              -90.15138699957473,
              32.29104599990464
            ],
            [
              -90.16564299992731,
              32.28392400026687
            ],
            [
              -90.17868999995983,
              32.289574999874574
            ],
            [
              -90.18369000037336,
              32.2622480002821
            ],
            [
              -90.20259100041395,
              32.25534799977412
            ],
            [
              -90.19928700039219,
              32.24094799974519
            ],
            [
              -90.20901100013643,
              32.23592400032774
            ],
            [
              -90.19122300015646,
              32.226899999734535
            ],
            [
              -90.19054399956579,
              32.20361300030857
            ],
            [
              -90.18168600000999,
              32.201603000179
            ],
            [
              -90.1966400003215,
              32.195618000086505
            ],
            [
              -90.19589200013387,
              32.185070000263636
            ],
            [
              -90.20474200019207,
              32.19150200009633
            ],
            [
              -90.21263900002324,
              32.179966000332676
            ],
            [
              -90.242690999688,
              32.17768900003316
            ],
            [
              -90.24170700039714,
              32.15538400029447
            ],
            [
              -90.25479899973719,
              32.15118800030126
            ],
            [
              -90.24277699990174,
              32.14892200035834
            ],
            [
              -90.24280500038914,
              32.11391800001592
            ],
            [
              -90.25132800020918,
              32.1127399997418
            ],
            [
              -90.23666400032592,
              32.0998919997964
            ],
            [
              -90.24680300017181,
              32.093490999741114
            ],
            [
              -90.22676800015424,
              32.093886999812746
            ],
            [
              -90.23580200033545,
              32.09019100012816
            ],
            [
              -90.22670700005486,
              32.0800400002511
            ],
            [
              -90.23616800003336,
              32.06568500023554
            ],
            [
              -90.23003799984079,
              32.04665799963736
            ],
            [
              -90.24785099993508,
              32.03091700018273
            ],
            [
              -90.23401300005725,
              32.017071999903024
            ],
            [
              -90.21343300024164,
              32.02470600037523
            ],
            [
              -90.2327560000566,
              32.00845999965155
            ],
            [
              -90.22258200005058,
              31.988585000274618
            ],
            [
              -90.20591899982679,
              31.98778900036545
            ],
            [
              -90.19810999985917,
              31.957869000276688
            ],
            [
              -90.18748399994153,
              31.951808999660557
            ],
            [
              -90.19829700035524,
              31.941903999652155
            ],
            [
              -90.17164199970033,
              31.934908000201524
            ],
            [
              -90.17027599991972,
              31.904472000016955
            ],
            [
              -90.14408300012047,
              31.89110500014939
            ],
            [
              -90.13201299970613,
              31.858301999646493
            ],
            [
              -90.1389100003529,
              31.848104000003396
            ],
            [
              -90.15918300002186,
              31.844839000068323
            ],
            [
              -90.12729199985017,
              31.8256190003422
            ],
            [
              -90.13694199997454,
              31.826019000306086
            ],
            [
              -90.1507020000346,
              31.799871999796643
            ],
            [
              -90.139050000095,
              31.78890700026209
            ],
            [
              -90.11250800031628,
              31.791269999735114
            ],
            [
              -90.10749100018431,
              31.777685000155632
            ],
            [
              -90.1141140002964,
              31.768244999941263
            ],
            [
              -90.12811500038089,
              31.769668000028886
            ],
            [
              -90.12310300027177,
              31.75197199995431
            ],
            [
              -90.13127399973934,
              31.75604799994092
            ],
            [
              -90.18413899991192,
              31.731462000020613
            ],
            [
              -90.22992200038813,
              31.723729999657724
            ],
            [
              -90.2590030002825,
              31.703915999784485
            ],
            [
              -90.37992999971515,
              31.70024000033132
            ],
            [
              -90.37940900020656,
              31.68519400036816
            ],
            [
              -90.41364000030227,
              31.685279999711714
            ],
            [
              -90.41419799962078,
              31.700455999682678
            ],
            [
              -90.73682400018969,
              31.698491000255093
            ],
            [
              -90.73741400019357,
              31.626021999887893
            ],
            [
              -90.73743299956183,
              31.625252000026574
            ]
          ]
        ]
      }
    },
    {
      "type": "Feature",
      "id": "us-cd:119:28:04",
      "properties": {
        "boundary_id": "us-cd:119:28:04",
        "boundary_type": "congressional_district",
        "name": "4",
        "stateFips": "28",
        "congress": 119,
        "district": "04",
        "bbox": [
          -89.85231000000572,
          30.139845000075447,
          -88.38443100024054,
          31.893856000253447
        ]
      },
      "geometry": {
        "type": "Polygon",
        "coordinates": [
          [
            [
              -89.85231000000572,
              30.662407999731222
            ],
            [
              -89.84084300001405,
              30.660815999656574
            ],
            [
              -89.84072099981532,
              30.652170000161234
            ],
            [
              -89.83320599957557,
              30.65750499999142
            ],
            [
              -89.81400199958628,
              30.63824600034977
            ],
            [
              -89.83071099984085,
              30.6172210001565
            ],
            [
              -89.82142599958944,
              30.619793999657723
            ],
            [
              -89.82325699970045,
              30.6077109998819
            ],
            [
              -89.81391899974561,
              30.607717000346714
            ],
            [
              -89.82256299993949,
              30.605242999823375
            ],
            [
              -89.80702199999715,
              30.587098999788008
            ],
            [
              -89.81569600032826,
              30.585539999862284
            ],
            [
              -89.80795199975965,
              30.56765299989938
            ],
            [
              -89.78686499978085,
              30.5690530002554
            ],
            [
              -89.8039770004415,
              30.560521999845843
            ],
            [
              -89.79220499995299,
              30.54834500033849
            ],
            [
              -89.80391899981687,
              30.549349000121158
            ],
            [
              -89.77915899974538,
              30.544029000120883
            ],
            [
              -89.76781399995244,
              30.51318500032903
            ],
            [
              -89.75745900019646,
              30.5185990003518
            ],
            [
              -89.75748400031081,
              30.499552999820605
            ],
            [
              -89.72482200038529,
              30.49212899961571
            ],
            [
              -89.72357899973002,
              30.48230299987697
            ],
            [
              -89.68340300028797,
              30.45153600009779
            ],
            [
              -89.67748200033276,
              30.417960999769836
            ],
            [
              -89.68383699975792,
              30.405820000142274
            ],
            [
              -89.65724899994848,
              30.35663200033478
            ],
            [
              -89.62959199956103,
              30.338959999834668
            ],
            [
              -89.63396400033584,
              30.32130000018495
            ],
            [
              -89.62618999963,
              30.314291000200928
            ],
            [
              -89.64717799987463,
              30.28936699964462
            ],
            [
              -89.63129399980062,
              30.279768999637202
            ],
            [
              -89.62530500007334,
              30.263531999932976
            ],
            [
              -89.63161400036606,
              30.257013000094457
            ],
            [
              -89.61404399994598,
              30.244772999823258
            ],
            [
              -89.61573699996472,
              30.223370999932214
            ],
            [
              -89.57190699979827,
              30.180721000086084
            ],
            [
              -89.5348350003614,
              30.195383000235378
            ],
            [
              -89.51477000020661,
              30.161762000327624
            ],
            [
              -89.49497299984039,
              30.16075000032566
            ],
            [
              -89.41671099973676,
              30.177638999976114
            ],
            [
              -89.26097700044824,
              30.181998000127823
            ],
            [
              -89.18366900039653,
              30.212155000071856
            ],
            [
              -89.09647600004384,
              30.165828999984264
            ],
            [
              -88.88902999992797,
              30.139845000075447
            ],
            [
              -88.90033000041338,
              30.169979999721782
            ],
            [
              -88.85039000014582,
              30.192282000210383
            ],
            [
              -88.82138700006927,
              30.217370000283918
            ],
            [
              -88.76528700037024,
              30.18994100028312
            ],
            [
              -88.71738599972782,
              30.190874999895975
            ],
            [
              -88.58663000007067,
              30.16910899990118
            ],
            [
              -88.54585500040392,
              30.176652999639504
            ],
            [
              -88.46128300018265,
              30.146685999962756
            ],
            [
              -88.38443100024054,
              30.158543000197394
            ],
            [
              -88.4732270002003,
              31.893856000253447
            ],
            [
              -88.7145660003031,
              31.843000000125524
            ],
            [
              -88.9433549995925,
              31.82456499962864
            ],
            [
              -88.94316899981966,
              31.784214000157682
            ],
            [
              -89.01139599983445,
              31.78440700035909
            ],
            [
              -89.01135800019962,
              31.769837000117032
            ],
            [
              -89.08411199990162,
              31.769850999880045
            ],
            [
              -89.08497100041731,
              31.751772999870575
            ],
            [
              -89.11749000022773,
              31.726023999772835
            ],
            [
              -89.13395500008478,
              31.72970500012146
            ],
            [
              -89.14223000020773,
              31.7483299998635
            ],
            [
              -89.14678899968197,
              31.71144700034263
            ],
            [
              -89.16516099981804,
              31.712283999833566
            ],
            [
              -89.16453700037728,
              31.729454999745688
            ],
            [
              -89.18457200039485,
              31.744587000366913
            ],
            [
              -89.18790900002855,
              31.769805999925186
            ],
            [
              -89.26541100024899,
              31.769363000236375
            ],
            [
              -89.26466800008424,
              31.805230000128862
            ],
            [
              -89.40122699969582,
              31.796862999723274
            ],
            [
              -89.39917800002493,
              31.434028999776654
            ],
            [
              -89.65421199989044,
              31.433804999672553
            ],
            [
              -89.65403799981316,
              31.002502000193708
            ],
            [
              -89.73554000036441,
              30.999715000272914
            ],
            [
              -89.72769799988653,
              30.99332899962752
            ],
            [
              -89.73714899981927,
              30.97608100032235
            ],
            [
              -89.72707199989763,
              30.96739499993111
            ],
            [
              -89.75651299964211,
              30.94286099996533
            ],
            [
              -89.74478899973248,
              30.918932999633945
            ],
            [
              -89.76420199995913,
              30.91190600011459
            ],
            [
              -89.75871899967186,
              30.897319000314056
            ],
            [
              -89.77341000021764,
              30.897692999957734
            ],
            [
              -89.76958399996408,
              30.88114799976792
            ],
            [
              -89.77924699960893,
              30.87600699995873
            ],
            [
              -89.76778899983807,
              30.86557699970494
            ],
            [
              -89.77172200022176,
              30.854676999806095
            ],
            [
              -89.7833840002071,
              30.85602200028201
            ],
            [
              -89.78163400028694,
              30.84527300012301
            ],
            [
              -89.79247000026686,
              30.850385999716714
            ],
            [
              -89.78150200004247,
              30.81894499984875
            ],
            [
              -89.79865399998779,
              30.820855000085825
            ],
            [
              -89.8046319998444,
              30.802511000215233
            ],
            [
              -89.81573800016105,
              30.80335299982192
            ],
            [
              -89.80346600008033,
              30.791141000121637
            ],
            [
              -89.81915400033579,
              30.795232999654093
            ],
            [
              -89.82875599988125,
              30.7687360002899
            ],
            [
              -89.8351239997252,
              30.77109200028476
            ],
            [
              -89.82563599998254,
              30.758384999925596
            ],
            [
              -89.83316700011582,
              30.753314000272887
            ],
            [
              -89.82245900018242,
              30.75462800009553
            ],
            [
              -89.82862299981187,
              30.737350999831715
            ],
            [
              -89.81607500044494,
              30.73890799978225
            ],
            [
              -89.83693899994269,
              30.734913000000134
            ],
            [
              -89.8274629998956,
              30.732120999744755
            ],
            [
              -89.83633100039546,
              30.727196999657856
            ],
            [
              -89.82563400033273,
              30.727374000239568
            ],
            [
              -89.83098100017757,
              30.715528999702162
            ],
            [
              -89.8425290003601,
              30.72041800022135
            ],
            [
              -89.84665500018929,
              30.705726000276677
            ],
            [
              -89.83529399960452,
              30.691793000015142
            ],
            [
              -89.84501900007196,
              30.690625000044378
            ],
            [
              -89.8371220002408,
              30.67790500002399
            ],
            [
              -89.84720099981226,
              30.6700379998019
            ],
            [
              -89.83783500026833,
              30.671916999649106
            ],
            [
              -89.85224899990637,
              30.662939999967634
            ],
            [
              -89.85231000000572,
              30.662407999731222
            ]
          ]
        ]
      }
    }
  ]
}
