{
  "type": "FeatureCollection",
  "features": [
    {
      "type": "Feature",
      "id": "us-cd:119:40:01",
      "properties": {
        "boundary_id": "us-cd:119:40:01",
        "boundary_type": "congressional_district",
        "name": "1",
        "stateFips": "40",
        "congress": 119,
        "district": "01",
        "bbox": [
          -96.29790899966765,
          35.765160000238886,
          -95.40221399972228,
          36.423685999963105
        ]
      },
      "geometry": {
        "type": "Polygon",
        "coordinates": [
          [
            [
              -96.29790899966765,
              36.090813000346216
            ],
            [
              -96.29790500036802,
              36.075765999806585
            ],
            [
              -96.2612940001653,
              36.07574100032972
            ],
            [
              -96.27247099972874,
              36.04933700029943
            ],
            [
              -96.26174299970387,
              36.04681300014364
            ],
            [
              -96.2616110003577,
              36.020842000006546
            ],
            [
              -96.23724000044864,
              36.02603999994833
            ],
            [
              -96.22647999973839,
              36.002183999726526
            ],
            [
              -96.21701000043738,
              36.003098999680056
            ],
            [
              -96.21719700003514,
              35.988637000067335
            ],
            [
              -96.18993399983299,
              35.988402999727896
            ],
            [
              -96.18998999990947,
              35.97378000003996
            ],
            [
              -96.136907000177,
              35.973959000272316
            ],
            [
              -96.13697400012414,
              35.959319999738334
            ],
            [
              -96.1188070000275,
              35.959333999841085
            ],
            [
              -96.11726299997167,
              35.94531299978249
            ],
            [
              -96.13154199989049,
              35.93577899995345
            ],
            [
              -96.13722699984413,
              35.916890000221706
            ],
            [
              -96.13722900039225,
              35.8570970002712
            ],
            [
              -95.65041899961139,
              35.85664400005177
            ],
            [
              -95.64913499984657,
              35.84214100026039
            ],
            [
              -95.63880500020493,
              35.83649299998071
            ],
            [
              -95.63831300011036,
              35.7875960003286
            ],
            [
              -95.60194999960474,
              35.77808700027681
            ],
            [
              -95.58973600014866,
              35.765160000238886
            ],
            [
              -95.5630910004378,
              35.78790799976381
            ],
            [
              -95.47755199974578,
              35.804198999642566
            ],
            [
              -95.42694600020468,
              35.798299000177174
            ],
            [
              -95.40221399972228,
              35.806633000194886
            ],
            [
              -95.40294900038944,
              35.885551999953925
            ],
            [
              -95.44575400035883,
              35.89012899991998
            ],
            [
              -95.4530939997981,
              35.900422000014835
            ],
            [
              -95.47730800024664,
              35.9046049996955
            ],
            [
              -95.49499300029444,
              35.95698899964729
            ],
            [
              -95.52734399987534,
              35.95990699994473
            ],
            [
              -95.5375499996684,
              35.97644799998482
            ],
            [
              -95.56528300022384,
              35.96776099981251
            ],
            [
              -95.56023699977955,
              35.995076000083806
            ],
            [
              -95.54231300025548,
              36.00699700021588
            ],
            [
              -95.52333299967387,
              36.044198999808934
            ],
            [
              -95.57937700019473,
              36.08031600022047
            ],
            [
              -95.55752899960947,
              36.08204099976166
            ],
            [
              -95.55258699982059,
              36.091486000075506
            ],
            [
              -95.57026500019569,
              36.11072499990662
            ],
            [
              -95.56784900010369,
              36.12995100022947
            ],
            [
              -95.60469600030794,
              36.133460000258545
            ],
            [
              -95.61851999994211,
              36.162511999720955
            ],
            [
              -95.7264100002863,
              36.16263000026926
            ],
            [
              -95.72542199989914,
              36.208940999917736
            ],
            [
              -95.75838400029865,
              36.20596799984084
            ],
            [
              -95.75838000010069,
              36.2637700002059
            ],
            [
              -95.77607299964608,
              36.26398200005824
            ],
            [
              -95.77614600033934,
              36.31106000027089
            ],
            [
              -95.74030000004267,
              36.31292999965997
            ],
            [
              -95.74025999985969,
              36.321979999825075
            ],
            [
              -95.81220000015016,
              36.32205000028346
            ],
            [
              -95.81225600022664,
              36.394574999974004
            ],
            [
              -95.79424999978848,
              36.39450500035627
            ],
            [
              -95.7943700003374,
              36.423580000060994
            ],
            [
              -96.0011710001978,
              36.423685999963105
            ],
            [
              -96.00122599955107,
              36.16129599982762
            ],
            [
              -96.29788799975127,
              36.16227899991752
            ],
            [
              -96.29790199999498,
              36.091280000095175
            ],
            [
              -96.29790899966765,
              36.090813000346216
            ]
          ]
        ]
      }
    },
    {
      "type": "Feature",
      "id": "us-cd:119:40:02",
      "properties": {
        "boundary_id": "us-cd:119:40:02",
        "boundary_type": "congressional_district",
        "name": "2",
        "stateFips": "40",
        "congress": 119,
        "district": "02",
        "bbox": [
          -96.96974399969372,
          33.615964000038254,
          -94.43101400024715,
          36.998905000209035
        ]
      },
      "geometry": {
        "type": "Polygon",
        "coordinates": [
          [
            [
              -96.96974399969372,
              34.05671499966539
            ],
            [
              -96.96973600019611,
              34.01295299998921
            ],
            [
              -96.93483300008074,
              34.01293000005415
            ],
            [
              -96.93483999975344,
              33.954453000235354
            ],
            [
              -96.92073300026208,
              33.959522999631965
            ],
            [
              -96.9052530004191,
              33.94721899982955
            ],
            [
              -96.8957279999682,
              33.89641400032335
            ],
            [
              -96.86643799983646,
              33.85314899986924
            ],
            [
              -96.84589599965567,
              33.848975000100964
            ],
            [
              -96.83215700041035,
              33.8748350000707
            ],
            [
              -96.79427599978817,
              33.86888599974597
            ],
            [
              -96.78056900032989,
              33.86009800019831
            ],
            [
              -96.7693769997995,
              33.82747799982112
            ],
            [
              -96.74603799976019,
              33.82569900027425
            ],
            [
              -96.69826099986469,
              33.84053699989177
            ],
            [
              -96.6671870003759,
              33.91694000022935
            ],
            [
              -96.62829399997545,
              33.89447700006133
            ],
            [
              -96.58850199977464,
              33.89498299965095
            ],
            [
              -96.59011199995271,
              33.88066499982354
            ],
            [
              -96.62927399996668,
              33.84550000025189
            ],
            [
              -96.57293700044117,
              33.81909799991319
            ],
            [
              -96.53196600005752,
              33.823989000310746
            ],
            [
              -96.50098399973194,
              33.77280100031841
            ],
            [
              -96.4235319997402,
              33.7764320000533
            ],
            [
              -96.40822000012672,
              33.750541999713676
            ],
            [
              -96.36958899966712,
              33.71680899989083
            ],
            [
              -96.35408899973264,
              33.68698300000648
            ],
            [
              -96.31725900014513,
              33.698565000202265
            ],
            [
              -96.2937080003937,
              33.76940899982283
            ],
            [
              -96.26359300008143,
              33.76746700023125
            ],
            [
              -96.22902300005201,
              33.74802100004313
            ],
            [
              -96.18662700033651,
              33.75502099991109
            ],
            [
              -96.16909000042672,
              33.77041700034076
            ],
            [
              -96.15553799988083,
              33.81404000024906
            ],
            [
              -96.16959199966874,
              33.800943999881476
            ],
            [
              -96.17912200014251,
              33.81022400001977
            ],
            [
              -96.15076500014634,
              33.81698699963175
            ],
            [
              -96.14922699993829,
              33.837090999705374
            ],
            [
              -96.12294899975022,
              33.83996399969997
            ],
            [
              -96.09936000036399,
              33.83046999963109
            ],
            [
              -96.1000950001328,
              33.84797099998695
            ],
            [
              -96.0488340002905,
              33.83646800034076
            ],
            [
              -96.0269680001619,
              33.857474000133635
            ],
            [
              -96.01705500027181,
              33.84145399977907
            ],
            [
              -95.99683299975817,
              33.85389799985736
            ],
            [
              -96.00292500031591,
              33.873590000045304
            ],
            [
              -95.98492700027367,
              33.86580500029719
            ],
            [
              -95.98485600012856,
              33.85249200023835
            ],
            [
              -95.9513820004413,
              33.85733199964883
            ],
            [
              -95.92508900018461,
              33.884935999962195
            ],
            [
              -95.83040599970654,
              33.83478499999724
            ],
            [
              -95.81948600006102,
              33.84129600035208
            ],
            [
              -95.81557100011902,
              33.8598529999916
            ],
            [
              -95.79761400008466,
              33.860589999906004
            ],
            [
              -95.77023899972953,
              33.84520199986128
            ],
            [
              -95.7579590001512,
              33.84956600033041
            ],
            [
              -95.7513419998869,
              33.86028699977093
            ],
            [
              -95.76246699957183,
              33.88114399993165
            ],
            [
              -95.75215299982374,
              33.89457699985574
            ],
            [
              -95.70063500006347,
              33.88584500015151
            ],
            [
              -95.6654780004032,
              33.9090040002605
            ],
            [
              -95.63277399974656,
              33.904814999876656
            ],
            [
              -95.59408499956062,
              33.94305700029112
            ],
            [
              -95.55421000041744,
              33.92695800012169
            ],
            [
              -95.54414099999342,
              33.88060299998044
            ],
            [
              -95.50952599975815,
              33.897586000105946
            ],
            [
              -95.50499900007095,
              33.87592200031706
            ],
            [
              -95.46144000006613,
              33.88710599989732
            ],
            [
              -95.46333599957616,
              33.872395999780984
            ],
            [
              -95.4427459997148,
              33.86650599993071
            ],
            [
              -95.3625710003827,
              33.86690200023549
            ],
            [
              -95.33569599961976,
              33.874252000042766
            ],
            [
              -95.32993600022137,
              33.88633399978586
            ],
            [
              -95.28892600037796,
              33.87307000004065
            ],
            [
              -95.27817400006363,
              33.87838599980205
            ],
            [
              -95.28462899994621,
              33.90548300019757
            ],
            [
              -95.26869700019162,
              33.91108999967325
            ],
            [
              -95.26665600001833,
              33.89389999965083
            ],
            [
              -95.25772399994435,
              33.89012199962961
            ],
            [
              -95.24850099961725,
              33.90697399964749
            ],
            [
              -95.25000100019045,
              33.93886099988933
            ],
            [
              -95.21694699972944,
              33.96267400011715
            ],
            [
              -95.15696100040073,
              33.93664500023534
            ],
            [
              -95.12470000033318,
              33.93467499969671
            ],
            [
              -95.13164399993731,
              33.91392600018624
            ],
            [
              -95.12089300034621,
              33.90453900037226
            ],
            [
              -95.08006000005481,
              33.920988999864285
            ],
            [
              -95.07974200003748,
              33.90859500008562
            ],
            [
              -95.1003779999296,
              33.8955950003214
            ],
            [
              -95.08960700024701,
              33.88085699962928
            ],
            [
              -95.08240800037477,
              33.87988199996448
            ],
            [
              -95.07869599992404,
              33.90504000011622
            ],
            [
              -95.06676000030231,
              33.91710100029357
            ],
            [
              -95.07587599960097,
              33.901846000254174
            ],
            [
              -95.07180099982538,
              33.89556100010941
            ],
            [
              -95.07241299957057,
              33.902699000226555
            ],
            [
              -95.06010500040318,
              33.90187299979323
            ],
            [
              -95.04656799992588,
              33.86256500012759
            ],
            [
              -95.0021870001136,
              33.86371299991163
            ],
            [
              -94.988487000328,
              33.85100000003144
            ],
            [
              -94.97020499970532,
              33.86181699963088
            ],
            [
              -94.96440099992599,
              33.83702099994453
            ],
            [
              -94.94388800005751,
              33.830226000206025
            ],
            [
              -94.9535180000904,
              33.8164749998803
            ],
            [
              -94.94787400014464,
              33.808355999810324
            ],
            [
              -94.92328899997533,
              33.808741999788325
            ],
            [
              -94.92661599956328,
              33.82755699965701
            ],
            [
              -94.91800999990255,
              33.82678299990449
            ],
            [
              -94.9108820001754,
              33.81591500023462
            ],
            [
              -94.92152599963639,
              33.79047199992623
            ],
            [
              -94.87637200042042,
              33.75733000004176
            ],
            [
              -94.86814400015315,
              33.76887399983597
            ],
            [
              -94.87712499973263,
              33.753123000267294
            ],
            [
              -94.86754400010354,
              33.74490400015175
            ],
            [
              -94.82794799972129,
              33.740881999801886
            ],
            [
              -94.82198900013127,
              33.73287800004527
            ],
            [
              -94.83087500017447,
              33.759985000302926
            ],
            [
              -94.82070700001626,
              33.76896399973941
            ],
            [
              -94.81215499988389,
              33.75093599984049
            ],
            [
              -94.81702300005293,
              33.74000699987853
            ],
            [
              -94.80283299982256,
              33.73269900016013
            ],
            [
              -94.76303499977398,
              33.759763999629165
            ],
            [
              -94.75894800030284,
              33.74853199972542
            ],
            [
              -94.78863699974443,
              33.73566899984035
            ],
            [
              -94.76869499961327,
              33.72698899985271
            ],
            [
              -94.75182499970025,
              33.73432599962794
            ],
            [
              -94.74766799990891,
              33.72514799993413
            ],
            [
              -94.75773800015784,
              33.71781700008669
            ],
            [
              -94.75136600011592,
              33.71354000004388
            ],
            [
              -94.73341300027953,
              33.72519099997193
            ],
            [
              -94.75380099957621,
              33.708662999806585
            ],
            [
              -94.73511700016893,
              33.69125900017577
            ],
            [
              -94.71594300031688,
              33.694912999757456
            ],
            [
              -94.73396499975026,
              33.71568700017891
            ],
            [
              -94.70155999974267,
              33.702877999938366
            ],
            [
              -94.71618799964095,
              33.68790200013646
            ],
            [
              -94.68479600013487,
              33.6843529996485
            ],
            [
              -94.66688500013127,
              33.694582999751646
            ],
            [
              -94.65140199991524,
              33.685843000045786
            ],
            [
              -94.64371500014636,
              33.701522000041415
            ],
            [
              -94.64533700001998,
              33.673644000147355
            ],
            [
              -94.66261500036201,
              33.6749460000469
            ],
            [
              -94.66864599992208,
              33.66384599991292
            ],
            [
              -94.63919799960658,
              33.663736999811796
            ],
            [
              -94.62204300018652,
              33.682534999991276
            ],
            [
              -94.59601900044169,
              33.6638629997173
            ],
            [
              -94.58793000009159,
              33.686254999699074
            ],
            [
              -94.58078399992277,
              33.66639199965022
            ],
            [
              -94.56033899982637,
              33.666590999748585
            ],
            [
              -94.59047800042809,
              33.64507499965578
            ],
            [
              -94.54963599991586,
              33.660675999925836
            ],
            [
              -94.54262700001439,
              33.653991999780914
            ],
            [
              -94.56838600034368,
              33.63720299976034
            ],
            [
              -94.5689649995786,
              33.62745299987928
            ],
            [
              -94.52749100012801,
              33.641343999855366
            ],
            [
              -94.51852899991681,
              33.637570000184276
            ],
            [
              -94.5353129996161,
              33.624585000124405
            ],
            [
              -94.52794999971232,
              33.615964000038254
            ],
            [
              -94.51746799973473,
              33.633056000263394
            ],
            [
              -94.50669899970198,
              33.62083899998736
            ],
            [
              -94.48836299955092,
              33.627406000065456
            ],
            [
              -94.43101400024715,
              35.393167000274346
            ],
            [
              -94.61785899973269,
              36.49943099975799
            ],
            [
              -94.617964000213,
              36.998905000209035
            ],
            [
              -96.00080999962445,
              36.998859999688825
            ],
            [
              -96.0011710001978,
              36.423685999963105
            ],
            [
              -95.7943700003374,
              36.423580000060994
            ],
            [
              -95.79424999978848,
              36.39450500035627
            ],
            [
              -95.81225600022664,
              36.394574999974004
            ],
            [
              -95.81220000015016,
              36.32205000028346
            ],
            [
              -95.74025999985969,
              36.321979999825075
            ],
            [
              -95.74030000004267,
              36.31292999965997
            ],
            [
              -95.77614600033934,
              36.31106000027089
            ],
            [
              -95.77607299964608,
              36.26398200005824
            ],
            [
              -95.75838000010069,
              36.2637700002059
            ],
            [
              -95.75838400029865,
              36.20596799984084
            ],
            [
              -95.72542199989914,
              36.208940999917736
            ],
            [
              -95.7264100002863,
              36.16263000026926
            ],
            [
              -95.61851999994211,
              36.162511999720955
            ],
            [
              -95.60469600030794,
              36.133460000258545
            ],
            [
              -95.56784900010369,
              36.12995100022947
            ],
            [
              -95.57026500019569,
              36.11072499990662
            ],
            [
              -95.55258699982059,
              36.091486000075506
            ],
            [
              -95.55752899960947,
              36.08204099976166
            ],
            [
              -95.57937700019473,
              36.08031600022047
            ],
            [
              -95.52333299967387,
              36.044198999808934
            ],
            [
              -95.54231300025548,
              36.00699700021588
            ],
            [
              -95.56023699977955,
              35.995076000083806
            ],
            [
              -95.56528300022384,
              35.96776099981251
            ],
            [
              -95.5375499996684,
              35.97644799998482
            ],
            [
              -95.52734399987534,
              35.95990699994473
            ],
            [
              -95.49499300029444,
              35.95698899964729
            ],
            [
              -95.47730800024664,
              35.9046049996955
            ],
            [
              -95.4530939997981,
              35.900422000014835
            ],
            [
              -95.44575400035883,
              35.89012899991998
            ],
            [
              -95.40294900038944,
              35.885551999953925
            ],
            [
              -95.40221399972228,
              35.806633000194886
            ],
            [
              -95.42694600020468,
              35.798299000177174
            ],
            [
              -95.47755199974578,
              35.804198999642566
            ],
            [
              -95.5630910004378,
              35.78790799976381
            ],
            [
              -95.58973600014866,
              35.765160000238886
            ],
            [
              -95.60194999960474,
              35.77808700027681
            ],
            [
              -95.63831300011036,
              35.7875960003286
            ],
            [
              -95.63880500020493,
              35.83649299998071
            ],
            [
              -95.64913499984657,
              35.84214100026039
            ],
            [
              -95.65041899961139,
              35.85664400005177
            ],
            [
              -96.19240299962846,
              35.856993000199004
            ],
            [
              -96.19256300036034,
              35.63908699964211
            ],
            [
              -96.62082800013951,
              35.63900500027956
            ],
            [
              -96.62129699976958,
              35.39808900010181
            ],
            [
              -96.59983499987203,
              35.396905999732304
            ],
            [
              -96.58586399992478,
              35.41152900024747
            ],
            [
              -96.5357160001431,
              35.39104200017281
            ],
            [
              -96.53716300011455,
              35.410939999709285
            ],
            [
              -96.55986699994413,
              35.4213449996376
            ],
            [
              -96.55568699968825,
              35.434518000350494
            ],
            [
              -96.56962300037371,
              35.439633000260976
            ],
            [
              -96.55428400009772,
              35.45393200026995
            ],
            [
              -96.54391699974786,
              35.45775600011977
            ],
            [
              -96.51875300034365,
              35.43126900029082
            ],
            [
              -96.49714699960774,
              35.42876599998934
            ],
            [
              -96.48494900004518,
              35.43559200036018
            ],
            [
              -96.488280999656,
              35.448229000332724
            ],
            [
              -96.47575400020548,
              35.4634209996559
            ],
            [
              -96.44620200013291,
              35.45844399977962
            ],
            [
              -96.44122000016107,
              35.46774499974169
            ],
            [
              -96.44130499965155,
              35.11577100012256
            ],
            [
              -96.49043399998229,
              35.1158569997905
            ],
            [
              -96.4907860003348,
              34.910584999632356
            ],
            [
              -96.46036700024892,
              34.916499000279245
            ],
            [
              -96.42637600035272,
              34.90321700014914
            ],
            [
              -96.4061349995725,
              34.93419099997364
            ],
            [
              -96.40635700022867,
              34.680022999831415
            ],
            [
              -96.51217100023945,
              34.68006499990656
            ],
            [
              -96.51209900026943,
              34.505561999846286
            ],
            [
              -96.88079000044853,
              34.506053000359664
            ],
            [
              -96.88100499963537,
              34.332977000114404
            ],
            [
              -96.93330499991843,
              34.332560999896806
            ],
            [
              -96.93350300028517,
              34.17274800017944
            ],
            [
              -96.96842399994387,
              34.172684000063484
            ],
            [
              -96.96974200004388,
              34.05678100028866
            ],
            [
              -96.96974399969372,
              34.05671499966539
            ]
          ]
        ]
      }
    },
    {
      "type": "Feature",
      "id": "us-cd:119:40:03",
      "properties": {
        "boundary_id": "us-cd:119:40:03",
        "boundary_type": "congressional_district",
        "name": "3",
        "stateFips": "40",
        "congress": 119,
        "district": "03",
        "bbox": [
          -103.0024129996545,
          34.337776999923044,
          -96.00080999962445,
          37.00231199975241
        ]
      },
      "geometry": {
        "type": "Polygon",
        "coordinates": [
          [
            [
              -103.0024129996545,
              36.67551999977732
            ],
            [
              -103.00236599979881,
              36.50039799984808
            ],
            [
              -100.00040599963512,
              36.499702000195406
            ],
            [
              -100.00027699976367,
              34.560449999783096
            ],
            [
              -99.97160599994815,
              34.562168999830526
            ],
            [
              -99.95381700014326,
              34.57852700009363
            ],
            [
              -99.92321099956133,
              34.5745520003415
            ],
            [
              -99.85305299987641,
              34.51158500035109
            ],
            [
              -99.82183899974724,
              34.49784799990807
            ],
            [
              -99.79368400031575,
              34.45389399985177
            ],
            [
              -99.72025900041902,
              34.40629500001593
            ],
            [
              -99.694970000443,
              34.378333000357266
            ],
            [
              -99.66270500017751,
              34.37368000015736
            ],
            [
              -99.64651099958378,
              34.382541000321915
            ],
            [
              -99.60002599984901,
              34.374687999864534
            ],
            [
              -99.58544200033167,
              34.38891400022327
            ],
            [
              -99.58006000032671,
              34.41665300003172
            ],
            [
              -99.56969600034992,
              34.41841799998125
            ],
            [
              -99.51428000036607,
              34.41403499966454
            ],
            [
              -99.46638299992163,
              34.39590000034426
            ],
            [
              -99.46105299979523,
              34.38066599997519
            ],
            [
              -99.45378699997583,
              34.38866300035035
            ],
            [
              -99.4382689995997,
              34.37116400030825
            ],
            [
              -99.42489699987716,
              34.38582299965952
            ],
            [
              -99.40528600018213,
              34.37285799965635
            ],
            [
              -99.38718100000976,
              34.41084200005219
            ],
            [
              -99.39716400022006,
              34.41860699983927
            ],
            [
              -99.39518699962086,
              34.442030000319384
            ],
            [
              -99.36978999968983,
              34.45864400008447
            ],
            [
              -99.31960199972517,
              34.40887900007189
            ],
            [
              -99.29463199959139,
              34.41538099978747
            ],
            [
              -99.28004499970098,
              34.40065500030908
            ],
            [
              -99.26127500007999,
              34.40350799985855
            ],
            [
              -99.2589169997143,
              34.391255000057896
            ],
            [
              -99.27485799968973,
              34.384921999753836
            ],
            [
              -99.24285500026335,
              34.372676000327246
            ],
            [
              -99.24812000009243,
              34.36743300008786
            ],
            [
              -99.2364940000921,
              34.36580500007584
            ],
            [
              -99.23051899971023,
              34.337776999923044
            ],
            [
              -99.19828100010722,
              34.33962200034499
            ],
            [
              -99.19213900021909,
              34.34776000031833
            ],
            [
              -99.2041030003282,
              34.37149100013902
            ],
            [
              -99.22025199981778,
              34.37507999997579
            ],
            [
              -99.20954999973218,
              34.39281099974046
            ],
            [
              -99.22825499995416,
              34.38719399969848
            ],
            [
              -99.22605099957426,
              34.40070900013288
            ],
            [
              -99.23575199975225,
              34.40292700014423
            ],
            [
              -99.23761899984827,
              34.42752800014549
            ],
            [
              -99.22802200032567,
              34.41956100004812
            ],
            [
              -99.22163900041309,
              34.42540399983933
            ],
            [
              -99.22925400021197,
              34.44988799980079
            ],
            [
              -99.21305200012063,
              34.456994000020934
            ],
            [
              -99.22118499995335,
              34.46351899986376
            ],
            [
              -99.21485800011727,
              34.481021999880376
            ],
            [
              -99.22431800027084,
              34.480217000173226
            ],
            [
              -99.22188899976004,
              34.49332000030742
            ],
            [
              -99.20839099964081,
              34.50369700005147
            ],
            [
              -99.19566599982358,
              34.54499800028048
            ],
            [
              -99.17875300025284,
              34.53968399997598
            ],
            [
              -99.17111099979148,
              34.547150000118386
            ],
            [
              -99.1848969997908,
              34.5614219999684
            ],
            [
              -99.16332000026553,
              34.5880360000351
            ],
            [
              -99.13221300026649,
              34.592080000186165
            ],
            [
              -99.1245900000717,
              34.582983000064914
            ],
            [
              -99.10169000042355,
              34.59410200002756
            ],
            [
              -99.08310300020233,
              34.59044200009907
            ],
            [
              -99.09194700041276,
              34.61252100021291
            ],
            [
              -99.08028399970416,
              34.62234900034166
            ],
            [
              -99.10314999991547,
              34.63795000019321
            ],
            [
              -99.00102499989089,
              34.63787200019342
            ],
            [
              -99.00110699990664,
              34.5943659999557
            ],
            [
              -98.82600800007205,
              34.59441300020229
            ],
            [
              -98.82609099991272,
              34.855427999935216
            ],
            [
              -98.09312700036008,
              34.85498800004033
            ],
            [
              -98.09601399973198,
              35.37775300017966
            ],
            [
              -98.01931199957771,
              35.37843300029473
            ],
            [
              -98.0108359996133,
              35.360769000092375
            ],
            [
              -97.97389399987279,
              35.35712300003819
            ],
            [
              -97.95959099966453,
              35.345858000022034
            ],
            [
              -97.94691299970296,
              35.35624900025762
            ],
            [
              -97.94290099967657,
              35.37731499982212
            ],
            [
              -97.92083500042975,
              35.35351800007459
            ],
            [
              -97.9025550003552,
              35.355163000110934
            ],
            [
              -97.90120299991999,
              35.34432300031932
            ],
            [
              -97.86473099963443,
              35.36223900006042
            ],
            [
              -97.84158999996184,
              35.33459600036585
            ],
            [
              -97.81212900012588,
              35.33378799997438
            ],
            [
              -97.80714200013115,
              35.34084600027557
            ],
            [
              -97.79102600025354,
              35.33279300022622
            ],
            [
              -97.76927300010284,
              35.34565000025643
            ],
            [
              -97.73730499993827,
              35.32376200021648
            ],
            [
              -97.67141399964954,
              35.335945999956465
            ],
            [
              -97.67136900034204,
              35.37715100021364
            ],
            [
              -97.42356600013584,
              35.37731600034573
            ],
            [
              -97.42356899961055,
              35.42073900009971
            ],
            [
              -97.4591959996241,
              35.42080999972681
            ],
            [
              -97.45900499982841,
              35.468911999804334
            ],
            [
              -97.5301319996339,
              35.45802900027838
            ],
            [
              -97.5299359998153,
              35.49327400015795
            ],
            [
              -97.6011410003369,
              35.49306099976121
            ],
            [
              -97.61006099981701,
              35.478780000062166
            ],
            [
              -97.6366660002432,
              35.478852999696436
            ],
            [
              -97.63676099977944,
              35.46423699987671
            ],
            [
              -97.67153900022134,
              35.46420900005651
            ],
            [
              -97.67286300016916,
              35.44759600028413
            ],
            [
              -97.7602780002797,
              35.449903999809784
            ],
            [
              -97.76025399999025,
              35.46438599967061
            ],
            [
              -97.83091399981551,
              35.46446800003354
            ],
            [
              -97.83091600036364,
              35.49343900020082
            ],
            [
              -97.83965699974357,
              35.49343799965637
            ],
            [
              -97.83973399973648,
              35.507986999745434
            ],
            [
              -97.83089399972401,
              35.50791499988429
            ],
            [
              -97.83410200038459,
              35.725899000173804
            ],
            [
              -97.67402599956014,
              35.72596999968323
            ],
            [
              -97.67048100041231,
              35.86632800005601
            ],
            [
              -97.65112400026216,
              35.858306999819824
            ],
            [
              -97.63200200028865,
              35.87686999993147
            ],
            [
              -97.59442100014046,
              35.87960199995959
            ],
            [
              -97.59360699983058,
              35.886816999664426
            ],
            [
              -97.52101100031233,
              35.9082890000372
            ],
            [
              -97.46844300024065,
              35.89492399979461
            ],
            [
              -97.4077950000397,
              35.93133899978279
            ],
            [
              -97.42107100040108,
              35.96020500000503
            ],
            [
              -97.41729500037626,
              35.97510600031079
            ],
            [
              -97.3988749996613,
              35.98843000036159
            ],
            [
              -97.38033600001899,
              35.981780000225285
            ],
            [
              -97.36287199990412,
              35.99115800017311
            ],
            [
              -97.35518599996016,
              35.98425700009442
            ],
            [
              -97.3186719998418,
              36.011241000236836
            ],
            [
              -97.29460100040671,
              36.005556999874436
            ],
            [
              -97.27755999989115,
              35.97378200000013
            ],
            [
              -97.23429200013946,
              35.96960099987665
            ],
            [
              -97.18955200030199,
              35.941156000017465
            ],
            [
              -97.15914900010964,
              35.94472300026138
            ],
            [
              -97.14045499975829,
              35.95905999976769
            ],
            [
              -97.14058299980482,
              35.941990999932294
            ],
            [
              -96.61965499980445,
              35.941571000289606
            ],
            [
              -96.62082800013951,
              35.63900500027956
            ],
            [
              -96.19256300036034,
              35.63908699964211
            ],
            [
              -96.19240299962846,
              35.856993000199004
            ],
            [
              -96.13722900039225,
              35.8570970002712
            ],
            [
              -96.13722699984413,
              35.916890000221706
            ],
            [
              -96.13154199989049,
              35.93577899995345
            ],
            [
              -96.11726299997167,
              35.94531299978249
            ],
            [
              -96.1188070000275,
              35.959333999841085
            ],
            [
              -96.13697400012414,
              35.959319999738334
            ],
            [
              -96.136907000177,
              35.973959000272316
            ],
            [
              -96.18998999990947,
              35.97378000003996
            ],
            [
              -96.18993399983299,
              35.988402999727896
            ],
            [
              -96.21719700003514,
              35.988637000067335
            ],
            [
              -96.21701000043738,
              36.003098999680056
            ],
            [
              -96.22647999973839,
              36.002183999726526
            ],
            [
              -96.23724000044864,
              36.02603999994833
            ],
            [
              -96.2616110003577,
              36.020842000006546
            ],
            [
              -96.26174299970387,
              36.04681300014364
            ],
            [
              -96.27247099972874,
              36.04933700029943
            ],
            [
              -96.2612940001653,
              36.07574100032972
            ],
            [
              -96.29790500036802,
              36.075765999806585
            ],
            [
              -96.29788799975127,
              36.16227899991752
            ],
            [
              -96.00122599955107,
              36.16129599982762
            ],
            [
              -96.00080999962445,
              36.998859999688825
            ],
            [
              -100.10789099992334,
              37.00231199975241
            ],
            [
              -102.04208900034224,
              36.993015999850805
            ],
            [
              -103.0023289999889,
              37.000149999736045
            ],
            [
              -103.00240799963161,
              36.675935999694524
            ],
            [
              -103.0024129996545,
              36.67551999977732
            ]
          ]
        ]
      }
    },
    {
      "type": "Feature",
      "id": "us-cd:119:40:04",
      "properties": {
        "boundary_id": "us-cd:119:40:04",
        "boundary_type": "congressional_district",
        "name": "4",
        "stateFips": "40",
        "congress": 119,
        "district": "04",
        "bbox": [
          -99.23805999988924,
          33.71735899985911,
          -96.4061349995725,
          35.49319599991336
        ]
      },
      "geometry": {
        "type": "Polygon",
        "coordinates": [
          [
            [
              -99.23805999988924,
              34.42500900024191
            ],
            [
              -99.22886300039971,
              34.3876980001715
            ],
            [
              -99.21018599976681,
              34.393405999647705
            ],
            [
              -99.22025199981778,
              34.37507999997579
            ],
            [
              -99.20763900015355,
              34.37423800026287
            ],
            [
              -99.19274699976631,
              34.35486099996435
            ],
            [
              -99.19565699960273,
              34.34122099987362
            ],
            [
              -99.21072499971706,
              34.33733699991559
            ],
            [
              -99.20562800011747,
              34.31920099991257
            ],
            [
              -99.21329999981775,
              34.30927699971585
            ],
            [
              -99.20892700011633,
              34.28522000017783
            ],
            [
              -99.19540300005784,
              34.280848999843904
            ],
            [
              -99.1897759998305,
              34.21435700030655
            ],
            [
              -99.15365300042272,
              34.207328000280455
            ],
            [
              -99.13044300025484,
              34.219477999758205
            ],
            [
              -99.12663999956752,
              34.203063999827656
            ],
            [
              -99.07939199957652,
              34.21154999967414
            ],
            [
              -99.0444630004202,
              34.198106000079676
            ],
            [
              -99.0361499997641,
              34.2069010001544
            ],
            [
              -99.01295700021296,
              34.20319400000312
            ],
            [
              -98.98817200002712,
              34.22130999996043
            ],
            [
              -98.97260900034347,
              34.20259100026357
            ],
            [
              -98.95128399981496,
              34.21218900026427
            ],
            [
              -98.91833300018442,
              34.18183099962987
            ],
            [
              -98.8729220001522,
              34.1665839996371
            ],
            [
              -98.86811599990745,
              34.14963500025794
            ],
            [
              -98.85558500025896,
              34.16162099964183
            ],
            [
              -98.81295400036682,
              34.15844400003407
            ],
            [
              -98.75703700006758,
              34.12463300013731
            ],
            [
              -98.73428700020725,
              34.13575799963122
            ],
            [
              -98.6900720000763,
              34.133155000304
            ],
            [
              -98.64807300002084,
              34.16444099979029
            ],
            [
              -98.59978899996212,
              34.160571000367284
            ],
            [
              -98.55087999973941,
              34.132582999994476
            ],
            [
              -98.56097699975254,
              34.12392199965535
            ],
            [
              -98.48355099970007,
              34.062282000079776
            ],
            [
              -98.44009200015269,
              34.0843110001243
            ],
            [
              -98.41442599970982,
              34.08507399997076
            ],
            [
              -98.41137399958316,
              34.10032400010106
            ],
            [
              -98.39977699989515,
              34.09997300031358
            ],
            [
              -98.39844100025176,
              34.12845599995723
            ],
            [
              -98.38009300040517,
              34.13083100030952
            ],
            [
              -98.38438099971776,
              34.14631700025625
            ],
            [
              -98.36562100014248,
              34.15699300014593
            ],
            [
              -98.32544499980213,
              34.15102499966608
            ],
            [
              -98.29390099996009,
              34.133020000275756
            ],
            [
              -98.23247399960935,
              34.134640999848166
            ],
            [
              -98.21646300021206,
              34.12182100027627
            ],
            [
              -98.17082700004894,
              34.11417099993069
            ],
            [
              -98.13081599956502,
              34.150531999640464
            ],
            [
              -98.10946199962251,
              34.15411099989645
            ],
            [
              -98.10289499958692,
              34.13260500007797
            ],
            [
              -98.08975499966799,
              34.128210999759204
            ],
            [
              -98.12020800008904,
              34.072127000284496
            ],
            [
              -98.0824629999093,
              34.0394279999428
            ],
            [
              -98.1061790004155,
              34.03488700010188
            ],
            [
              -98.08402500040681,
              34.01436900004689
            ],
            [
              -98.08820300011453,
              34.0054810002413
            ],
            [
              -98.02767200008947,
              33.99335699990833
            ],
            [
              -97.97417300043037,
              34.00671599999058
            ],
            [
              -97.94573000022046,
              33.9898390001569
            ],
            [
              -97.96035100044604,
              33.95192800016217
            ],
            [
              -97.97417300043037,
              33.94283199983317
            ],
            [
              -97.95339500024802,
              33.936445000114276
            ],
            [
              -97.95715500037933,
              33.91445399995082
            ],
            [
              -97.96874700004449,
              33.90602299986775
            ],
            [
              -97.97880399987464,
              33.91254799976979
            ],
            [
              -97.9845399998819,
              33.90070299974791
            ],
            [
              -97.96775199998464,
              33.88221399982879
            ],
            [
              -97.93416899961913,
              33.87810899966066
            ],
            [
              -97.87531100041963,
              33.84972100025665
            ],
            [
              -97.83431999994448,
              33.857634000207895
            ],
            [
              -97.81764300037531,
              33.880991999886525
            ],
            [
              -97.80542300017312,
              33.87716699988554
            ],
            [
              -97.79890999966591,
              33.89853700005072
            ],
            [
              -97.78083899982875,
              33.89444699987645
            ],
            [
              -97.78352199988444,
              33.91830200005016
            ],
            [
              -97.76376999972408,
              33.91424100008362
            ],
            [
              -97.76276799999155,
              33.934396000132026
            ],
            [
              -97.73226100004213,
              33.93651900031071
            ],
            [
              -97.69310999989882,
              33.98369900024633
            ],
            [
              -97.67127700028053,
              33.99155300000184
            ],
            [
              -97.63377800014807,
              33.98125699970903
            ],
            [
              -97.58959700035234,
              33.95355399982218
            ],
            [
              -97.59695000021038,
              33.91631100026214
            ],
            [
              -97.58107799983193,
              33.899678999898185
            ],
            [
              -97.55154099982798,
              33.89794700019781
            ],
            [
              -97.50027099976484,
              33.91963499983255
            ],
            [
              -97.46142000009552,
              33.9052299998726
            ],
            [
              -97.45080699969834,
              33.886608000001175
            ],
            [
              -97.46324199998567,
              33.842003999803325
            ],
            [
              -97.42679900001245,
              33.81864099968711
            ],
            [
              -97.36873099993504,
              33.821442999710015
            ],
            [
              -97.34721299996099,
              33.84511300004378
            ],
            [
              -97.33188000043111,
              33.88448300003714
            ],
            [
              -97.32333999999432,
              33.87917000007511
            ],
            [
              -97.33206299983091,
              33.85505599998443
            ],
            [
              -97.3142570003076,
              33.8650889997223
            ],
            [
              -97.30917200040358,
              33.888698000015
            ],
            [
              -97.2709329995811,
              33.858000999926496
            ],
            [
              -97.2556390004093,
              33.86370199968283
            ],
            [
              -97.24504899957836,
              33.90321599984679
            ],
            [
              -97.2109210003131,
              33.91606400032808
            ],
            [
              -97.18084500035891,
              33.8952040000476
            ],
            [
              -97.16662900018929,
              33.84731100011284
            ],
            [
              -97.17162700005467,
              33.83533499966303
            ],
            [
              -97.19583200028238,
              33.830805000349656
            ],
            [
              -97.20499500033505,
              33.81886999976762
            ],
            [
              -97.20543100035313,
              33.801487999832794
            ],
            [
              -97.18772399966572,
              33.76983099996698
            ],
            [
              -97.19256500007057,
              33.75967999986577
            ],
            [
              -97.15737300025023,
              33.7255350002459
            ],
            [
              -97.11952099994036,
              33.71735899985911
            ],
            [
              -97.08625399994234,
              33.743974999921804
            ],
            [
              -97.09293599960564,
              33.803806999726035
            ],
            [
              -97.04814600043775,
              33.817456000041034
            ],
            [
              -97.05194900022676,
              33.832993000012685
            ],
            [
              -97.08720399979632,
              33.841367999957214
            ],
            [
              -97.08796399967952,
              33.85259100032217
            ],
            [
              -97.0637860001143,
              33.859964999640475
            ],
            [
              -97.04104200010174,
              33.83761899974242
            ],
            [
              -97.02143800007939,
              33.8463789997009
            ],
            [
              -96.98383500018987,
              33.89094899977384
            ],
            [
              -96.99428799985515,
              33.94920599983096
            ],
            [
              -96.97941499973449,
              33.95617799990812
            ],
            [
              -96.97287000033852,
              33.935697999968625
            ],
            [
              -96.93483999975344,
              33.954453000235354
            ],
            [
              -96.93483300008074,
              34.01293000005415
            ],
            [
              -96.96973600019611,
              34.01295299998921
            ],
            [
              -96.96842399994387,
              34.172684000063484
            ],
            [
              -96.93350300028517,
              34.17274800017944
            ],
            [
              -96.93330499991843,
              34.332560999896806
            ],
            [
              -96.88100499963537,
              34.332977000114404
            ],
            [
              -96.88079000044853,
              34.506053000359664
            ],
            [
              -96.51209900026943,
              34.505561999846286
            ],
            [
              -96.51217100023945,
              34.68006499990656
            ],
            [
              -96.40635700022867,
              34.680022999831415
            ],
            [
              -96.4061349995725,
              34.93419099997364
            ],
            [
              -96.42637600035272,
              34.90321700014914
            ],
            [
              -96.46036700024892,
              34.916499000279245
            ],
            [
              -96.48927400006602,
              34.91164799976178
            ],
            [
              -96.51259899986162,
              34.87546600001276
            ],
            [
              -96.5270870000178,
              34.8695859999621
            ],
            [
              -96.54598399986044,
              34.882269999817346
            ],
            [
              -96.56408900003278,
              34.917284000005886
            ],
            [
              -96.63679099985625,
              34.89878400026397
            ],
            [
              -96.66539200024991,
              34.92838300021986
            ],
            [
              -96.69415400030204,
              34.93279200025182
            ],
            [
              -96.71209200006983,
              34.913882999990655
            ],
            [
              -96.69345200014517,
              34.901257000204254
            ],
            [
              -96.68662499981859,
              34.88274199996948
            ],
            [
              -96.69420600018057,
              34.86846800022077
            ],
            [
              -96.72289100023983,
              34.85678200020791
            ],
            [
              -96.74039299998952,
              34.86688300009233
            ],
            [
              -96.75551700018035,
              34.89980900023343
            ],
            [
              -96.79858300026565,
              34.90593900033924
            ],
            [
              -96.79820800034693,
              34.929991999637146
            ],
            [
              -96.81345200018836,
              34.94464899978696
            ],
            [
              -96.8853999999764,
              34.92625100015472
            ],
            [
              -96.9108429999382,
              34.95897200005693
            ],
            [
              -96.92827100006804,
              34.96521299982282
            ],
            [
              -96.95703700031814,
              34.950978999740876
            ],
            [
              -96.98272700015214,
              34.921837000183565
            ],
            [
              -97.01592999967775,
              34.907348000211606
            ],
            [
              -97.0717900000756,
              34.91985999965254
            ],
            [
              -97.08553699971684,
              34.93135900020664
            ],
            [
              -97.1423489996185,
              34.92817599993007
            ],
            [
              -97.14211400034017,
              35.376859999810954
            ],
            [
              -97.33552500003638,
              35.377225000256914
            ],
            [
              -97.33558500031086,
              35.47854600005627
            ],
            [
              -97.35311200017489,
              35.47853900006748
            ],
            [
              -97.36299900012573,
              35.49301500008553
            ],
            [
              -97.42412600000247,
              35.49319599991336
            ],
            [
              -97.42398600026038,
              35.47867399974372
            ],
            [
              -97.45900499982841,
              35.468911999804334
            ],
            [
              -97.4591959996241,
              35.42080999972681
            ],
            [
              -97.42356899961055,
              35.42073900009971
            ],
            [
              -97.42356600013584,
              35.37731600034573
            ],
            [
              -97.67136900034204,
              35.37715100021364
            ],
            [
              -97.67141399964954,
              35.335945999956465
            ],
            [
              -97.70716899970964,
              35.32482699985083
            ],
            [
              -97.73730499993827,
              35.32376200021648
            ],
            [
              -97.7693609999664,
              35.34565800025734
            ],
            [
              -97.79102600025354,
              35.33279300022622
            ],
            [
              -97.80714200013115,
              35.34084600027557
            ],
            [
              -97.81212900012588,
              35.33378799997438
            ],
            [
              -97.8413330000439,
              35.33452999972629
            ],
            [
              -97.86560400039386,
              35.36233999996463
            ],
            [
              -97.9003309998838,
              35.344105999909246
            ],
            [
              -97.9025550003552,
              35.355163000110934
            ],
            [
              -97.92083500042975,
              35.35351800007459
            ],
            [
              -97.94290099967657,
              35.37731499982212
            ],
            [
              -97.94691299970296,
              35.35624900025762
            ],
            [
              -97.95959099966453,
              35.345858000022034
            ],
            [
              -97.97389399987279,
              35.35712300003819
            ],
            [
              -98.0108359996133,
              35.360769000092375
            ],
            [
              -98.01931199957771,
              35.37843300029473
            ],
            [
              -98.09601399973198,
              35.37775300017966
            ],
            [
              -98.09312700036008,
              34.85498800004033
            ],
            [
              -98.82609099991272,
              34.855427999935216
            ],
            [
              -98.82600800007205,
              34.59441300020229
            ],
            [
              -99.00110699990664,
              34.5943659999557
            ],
            [
              -99.00102499989089,
              34.63787200019342
            ],
            [
              -99.10314999991547,
              34.63795000019321
            ],
            [
              -99.08028399970416,
              34.62234900034166
            ],
            [
              -99.09194700041276,
              34.61252100021291
            ],
            [
              -99.08310300020233,
              34.59044200009907
            ],
            [
              -99.1639300003609,
              34.587532000306624
            ],
            [
              -99.1848969997908,
              34.5614219999684
            ],
            [
              -99.17111099979148,
              34.547150000118386
            ],
            [
              -99.17875300025284,
              34.53968399997598
            ],
            [
              -99.19566599982358,
              34.54499800028048
            ],
            [
              -99.20839099964081,
              34.50369700005147
            ],
            [
              -99.22188899976004,
              34.49332000030742
            ],
            [
              -99.22431800027084,
              34.480217000173226
            ],
            [
              -99.21485800011727,
              34.481021999880376
            ],
            [
              -99.22118499995335,
              34.46351899986376
            ],
            [
              -99.21302500035645,
              34.458298999750575
            ],
            [
              -99.22988900042168,
              34.44787199986166
            ],
            [
              -99.22208100027898,
              34.42398400036654
            ],
            [
              -99.23792199979697,
              34.426657000153725
            ],
            [
              -99.23805999988924,
              34.42500900024191
            ]
          ]
        ]
      }
    },
    {
      "type": "Feature",
      "id": "us-cd:119:40:05",
      "properties": {
        "boundary_id": "us-cd:119:40:05",
        "boundary_type": "congressional_district",
        "name": "5",
        "stateFips": "40",
        "congress": 119,
        "district": "05",
        "bbox": [
          -97.83973399973648,
          34.85678200020791,
          -96.44122000016107,
          36.01087699997761
        ]
      },
      "geometry": {
        "type": "Polygon",
        "coordinates": [
          [
            [
              -97.83973399973648,
              35.507986999745434
            ],
            [
              -97.83091399981551,
              35.46446800003354
            ],
            [
              -97.76025399999025,
              35.46438599967061
            ],
            [
              -97.7602780002797,
              35.449903999809784
            ],
            [
              -97.67208700039242,
              35.447682000262745
            ],
            [
              -97.67153900022134,
              35.46420900005651
            ],
            [
              -97.63676099977944,
              35.46423699987671
            ],
            [
              -97.6366660002432,
              35.478852999696436
            ],
            [
              -97.61006099981701,
              35.478780000062166
            ],
            [
              -97.6011410003369,
              35.49306099976121
            ],
            [
              -97.5299359998153,
              35.49327400015795
            ],
            [
              -97.5301319996339,
              35.45802900027838
            ],
            [
              -97.51340300018617,
              35.45619500029495
            ],
            [
              -97.42398600026038,
              35.47867399974372
            ],
            [
              -97.42412600000247,
              35.49319599991336
            ],
            [
              -97.36299900012573,
              35.49301500008553
            ],
            [
              -97.35311200017489,
              35.47853900006748
            ],
            [
              -97.33558500031086,
              35.47854600005627
            ],
            [
              -97.33552500003638,
              35.377225000256914
            ],
            [
              -97.14211400034017,
              35.376859999810954
            ],
            [
              -97.1423489996185,
              34.92817599993007
            ],
            [
              -97.13580500004747,
              34.924398999736255
            ],
            [
              -97.13286699972362,
              34.93464200030292
            ],
            [
              -97.08553699971684,
              34.93135900020664
            ],
            [
              -97.0717900000756,
              34.91985999965254
            ],
            [
              -97.01592999967775,
              34.907348000211606
            ],
            [
              -96.98272700015214,
              34.921837000183565
            ],
            [
              -96.95703700031814,
              34.950978999740876
            ],
            [
              -96.92827100006804,
              34.96521299982282
            ],
            [
              -96.9108429999382,
              34.95897200005693
            ],
            [
              -96.8853999999764,
              34.92625100015472
            ],
            [
              -96.81345200018836,
              34.94464899978696
            ],
            [
              -96.79820800034693,
              34.929991999637146
            ],
            [
              -96.79858300026565,
              34.90593900033924
            ],
            [
              -96.75551700018035,
              34.89980900023343
            ],
            [
              -96.74039299998952,
              34.86688300009233
            ],
            [
              -96.72459099993127,
              34.85678200020791
            ],
            [
              -96.69480600023019,
              34.86807400029163
            ],
            [
              -96.68729199981537,
              34.88098399970336
            ],
            [
              -96.69345200014517,
              34.901257000204254
            ],
            [
              -96.71209200006983,
              34.913882999990655
            ],
            [
              -96.69196699964058,
              34.93331399971625
            ],
            [
              -96.66539200024991,
              34.92838300021986
            ],
            [
              -96.63679099985625,
              34.89878400026397
            ],
            [
              -96.55888899960273,
              34.91528400013946
            ],
            [
              -96.54957900013528,
              34.88711200026333
            ],
            [
              -96.5285869996927,
              34.8695859999621
            ],
            [
              -96.51259899986162,
              34.87546600001276
            ],
            [
              -96.4907860003348,
              34.910584999632356
            ],
            [
              -96.49043399998229,
              35.1158569997905
            ],
            [
              -96.44130499965155,
              35.11577100012256
            ],
            [
              -96.44122000016107,
              35.46774499974169
            ],
            [
              -96.44620200013291,
              35.45844399977962
            ],
            [
              -96.47575400020548,
              35.4634209996559
            ],
            [
              -96.488280999656,
              35.448229000332724
            ],
            [
              -96.48494900004518,
              35.43559200036018
            ],
            [
              -96.49714699960774,
              35.42876599998934
            ],
            [
              -96.51875300034365,
              35.43126900029082
            ],
            [
              -96.54391699974786,
              35.45775600011977
            ],
            [
              -96.55428400009772,
              35.45393200026995
            ],
            [
              -96.56962300037371,
              35.439633000260976
            ],
            [
              -96.55568699968825,
              35.434518000350494
            ],
            [
              -96.55986699994413,
              35.4213449996376
            ],
            [
              -96.53716300011455,
              35.410939999709285
            ],
            [
              -96.5357160001431,
              35.39104200017281
            ],
            [
              -96.58586399992478,
              35.41152900024747
            ],
            [
              -96.59983499987203,
              35.396905999732304
            ],
            [
              -96.62369899961789,
              35.400721999782775
            ],
            [
              -96.61965499980445,
              35.941571000289606
            ],
            [
              -97.14058299980482,
              35.941990999932294
            ],
            [
              -97.14045499975829,
              35.95905999976769
            ],
            [
              -97.15914900010964,
              35.94472300026138
            ],
            [
              -97.18608400024871,
              35.940920999992294
            ],
            [
              -97.23429200013946,
              35.96960099987665
            ],
            [
              -97.27755999989115,
              35.97378200000013
            ],
            [
              -97.3005220003619,
              36.00930700020648
            ],
            [
              -97.32362000037678,
              36.01087699997761
            ],
            [
              -97.35518599996016,
              35.98425700009442
            ],
            [
              -97.36287199990412,
              35.99115800017311
            ],
            [
              -97.38033600001899,
              35.981780000225285
            ],
            [
              -97.40027800015014,
              35.988166999825694
            ],
            [
              -97.42108899994443,
              35.96784300002732
            ],
            [
              -97.4077950000397,
              35.93133899978279
            ],
            [
              -97.43409199959603,
              35.910054999823515
            ],
            [
              -97.47440799967848,
              35.89364799967903
            ],
            [
              -97.52101100031233,
              35.9082890000372
            ],
            [
              -97.59360699983058,
              35.886816999664426
            ],
            [
              -97.59442100014046,
              35.87960199995959
            ],
            [
              -97.63200200028865,
              35.87686999993147
            ],
            [
              -97.65112400026216,
              35.858306999819824
            ],
            [
              -97.67162999955961,
              35.86542199988879
            ],
            [
              -97.67402599956014,
              35.72596999968323
            ],
            [
              -97.83410200038459,
              35.725899000173804
            ],
            [
              -97.83084600004344,
              35.51010400007943
            ],
            [
              -97.8379820001665,
              35.507984999750136
            ],
            [
              -97.83973399973648,
              35.507986999745434
            ]
          ]
        ]
      }
    }
  ]
}
