{
  "type": "FeatureCollection",
  "features": [
    {
      "type": "Feature",
      "id": "us-county:10:001",
      "properties": {
        "boundary_id": "us-county:10:001",
        "boundary_type": "county",
        "name": "Kent County",
        "stateFips": "10",
        "countyFips": "001",
        "bbox": [
          -75.76007399963416,
          38.82985099993632,
          -75.13846099990796,
          39.38755499996983
        ]
      },
      "geometry": {
        "type": "Polygon",
        "coordinates": [
          [
            [
              -75.3162229997068,
              39.24530700003133
            ],
            [
              -75.4813600001458,
              39.38755499996983
            ],
            [
              -75.52836999958714,
              39.35355700001075
            ],
            [
              -75.55336900003323,
              39.35301000033084
            ],
            [
              -75.55620500024982,
              39.3353250002657
            ],
            [
              -75.58434100031306,
              39.30871799998872
            ],
            [
              -75.61963100004272,
              39.31005799985325
            ],
            [
              -75.66661899974272,
              39.29028100000969
            ],
            [
              -75.76007399963416,
              39.2968189998354
            ],
            [
              -75.7227970001579,
              38.82985099993632
            ],
            [
              -75.55501299964816,
              38.83564899973526
            ],
            [
              -75.52029100018109,
              38.85581900028414
            ],
            [
              -75.4843429997772,
              38.90441500013301
            ],
            [
              -75.40204600008093,
              38.917807999773586
            ],
            [
              -75.40081400019464,
              38.94752700022082
            ],
            [
              -75.3809509997062,
              38.96178200024194
            ],
            [
              -75.35185899994117,
              38.94740999965833
            ],
            [
              -75.3444059996257,
              38.95535300011798
            ],
            [
              -75.34351600004618,
              38.94743900022778
            ],
            [
              -75.32040100031284,
              38.95380399998769
            ],
            [
              -75.312077999611,
              38.945864999700156
            ],
            [
              -75.13846099990796,
              39.00269700033436
            ],
            [
              -75.1684620004174,
              39.05617899999779
            ],
            [
              -75.3130819998917,
              39.241299999975794
            ],
            [
              -75.3162229997068,
              39.24530700003133
            ]
          ]
        ]
      }
    },
    {
      "type": "Feature",
      "id": "us-county:10:003",
      "properties": {
        "boundary_id": "us-county:10:003",
        "boundary_type": "county",
        "name": "New Castle County",
        "stateFips": "10",
        "countyFips": "003",
        "bbox": [
          -75.7885960003851,
          39.29028100000969,
          -75.40541399967677,
          39.83481400033859
        ]
      },
      "geometry": {
        "type": "Polygon",
        "coordinates": [
          [
            [
              -75.50949100018619,
              39.68651899994261
            ],
            [
              -75.4884560000859,
              39.71465899990322
            ],
            [
              -75.47643800044841,
              39.71619900015685
            ],
            [
              -75.46219799998933,
              39.763197000181016
            ],
            [
              -75.4382999999083,
              39.78440199979942
            ],
            [
              -75.40541399967677,
              39.79639600027121
            ],
            [
              -75.50590299958402,
              39.83481400033859
            ],
            [
              -75.61812899981969,
              39.83396500016286
            ],
            [
              -75.70781199988424,
              39.79863300003857
            ],
            [
              -75.74749399958186,
              39.76423800018959
            ],
            [
              -75.77378600001364,
              39.72220000018924
            ],
            [
              -75.7885960003851,
              39.72219899970666
            ],
            [
              -75.76007399963416,
              39.2968189998354
            ],
            [
              -75.66661899974272,
              39.29028100000969
            ],
            [
              -75.61963100004272,
              39.31005799985325
            ],
            [
              -75.58434100031306,
              39.30871799998872
            ],
            [
              -75.55620500024982,
              39.3353250002657
            ],
            [
              -75.55336900003323,
              39.35301000033084
            ],
            [
              -75.52836999958714,
              39.35355700001075
            ],
            [
              -75.4813600001458,
              39.38755499996983
            ],
            [
              -75.56053799976824,
              39.45564499965932
            ],
            [
              -75.56358599969694,
              39.483048000257796
            ],
            [
              -75.55908999997187,
              39.495805999785276
            ],
            [
              -75.52682300005658,
              39.49941100025728
            ],
            [
              -75.53401400043121,
              39.540701999701156
            ],
            [
              -75.51195999998167,
              39.56729000003944
            ],
            [
              -75.51474699979444,
              39.5808840001613
            ],
            [
              -75.55351200014837,
              39.60181900000794
            ],
            [
              -75.55877299977948,
              39.62998699985212
            ],
            [
              -75.51574799970204,
              39.66605400014251
            ],
            [
              -75.5094219996909,
              39.68646499984045
            ],
            [
              -75.50949100018619,
              39.68651899994261
            ]
          ]
        ]
      }
    },
    {
      "type": "Feature",
      "id": "us-county:10:005",
      "properties": {
        "boundary_id": "us-county:10:005",
        "boundary_type": "county",
        "name": "Sussex County",
        "stateFips": "10",
        "countyFips": "005",
        "bbox": [
          -75.7227970001579,
          38.45163199977536,
          -74.98628199981302,
          39.00269700033436
        ]
      },
      "geometry": {
        "type": "Polygon",
        "coordinates": [
          [
            [
              -74.99409499997859,
              38.61443900017672
            ],
            [
              -75.01512300040618,
              38.78865700033517
            ],
            [
              -75.13846099990796,
              39.00269700033436
            ],
            [
              -75.312077999611,
              38.945864999700156
            ],
            [
              -75.32040100031284,
              38.95380399998769
            ],
            [
              -75.34351600004618,
              38.94743900022778
            ],
            [
              -75.3444059996257,
              38.95535300011798
            ],
            [
              -75.35185899994117,
              38.94740999965833
            ],
            [
              -75.3809509997062,
              38.96178200024194
            ],
            [
              -75.40081400019464,
              38.94752700022082
            ],
            [
              -75.40204600008093,
              38.917807999773586
            ],
            [
              -75.4843429997772,
              38.90441500013301
            ],
            [
              -75.52029100018109,
              38.85581900028414
            ],
            [
              -75.55501299964816,
              38.83564899973526
            ],
            [
              -75.7227970001579,
              38.82985099993632
            ],
            [
              -75.69367000023277,
              38.46007999979123
            ],
            [
              -74.98628199981302,
              38.45163199977536
            ],
            [
              -74.9935190002184,
              38.61250099973518
            ],
            [
              -74.99409499997859,
              38.61443900017672
            ]
          ]
        ]
      }
    },
    {
      "type": "Feature",
      "id": "us-state:10",
      "properties": {
        "boundary_id": "us-state:10",
        "boundary_type": "state",
        "name": "Delaware",
        "stateFips": "10",
        "bbox": [
          -75.7885960003851,
          38.45163199977536,
          -74.98517100030053,
          39.83481400033859
        ]
      },
      "geometry": {
        "type": "Polygon",
        "coordinates": [
          [
            [
              -75.50949100018619,
              39.68651899994261
            ],
            [
              -75.4884560000859,
              39.71465899990322
            ],
            [
              -75.47643800044841,
              39.71619900015685
            ],
            [
              -75.46219799998933,
              39.763197000181016
            ],
            [
              -75.4382999999083,
              39.78440199979942
            ],
            [
              -75.40541399967677,
              39.79639600027121
            ],
            [
              -75.50590299958402,
              39.83481400033859
            ],
            [
              -75.61812899981969,
              39.83396500016286
            ],
            [
              -75.70781199988424,
              39.79863300003857
            ],
            [
              -75.74749399958186,
              39.76423800018959
            ],
            [
              -75.77378600001364,
              39.72220000018924
            ],
            [
              -75.7885960003851,
              39.72219899970666
            ],
            [
              -75.69367000023277,
              38.46007999979123
            ],
            [
              -74.98628199981302,
              38.45163199977536
            ],
            [
              -74.98517100030053,
              38.52817100029974
            ],
            [
              -75.01610900024518,
              38.79053000025501
            ],
            [
              -75.1684620004174,
              39.05617899999779
            ],
            [
              -75.32102099955566,
              39.2513790001993
            ],
            [
              -75.56053799976824,
              39.45564499965932
            ],
            [
              -75.55908999997187,
              39.495805999785276
            ],
            [
              -75.52697399966931,
              39.49916800007501
            ],
            [
              -75.53401400043121,
              39.540701999701156
            ],
            [
              -75.51195999998167,
              39.56729000003944
            ],
            [
              -75.51474699979444,
              39.5808840001613
            ],
            [
              -75.55351200014837,
              39.60181900000794
            ],
            [
              -75.55877299977948,
              39.62998699985212
            ],
            [
              -75.51574799970204,
              39.66605400014251
            ],
            [
              -75.5094219996909,
              39.68646499984045
            ],
            [
              -75.50949100018619,
              39.68651899994261
            ]
          ]
        ]
      }
    }
  ]
}
