{
  "type": "FeatureCollection",
  "features": [
    {
      "type": "Feature",
      "id": "us-cd:119:56:00",
      "properties": {
        "boundary_id": "us-cd:119:56:00",
        "boundary_type": "congressional_district",
        "name": "Congressional District (at Large)",
        "stateFips": "56",
        "congress": 119,
        "district": "00",
        "bbox": [
          -111.05455600006214,
          40.99787500010102,
          -104.0532490003081,
          45.005815000063905
        ]
      },
      "geometry": {
        "type": "Polygon",
        "coordinates": [
          [
            [
              -111.05455600006214,
              44.999735000240534
            ],
            [
              -111.04392500012163,
              43.21291900018491
            ],
            [
              -111.04681499986657,
              40.99787500010102
            ],
            [
              -104.0532490003081,
              41.001405999738765
            ],
            [
              -104.05787899992745,
              44.99760499975218
            ],
            [
              -105.85698400007449,
              45.000366000092654
            ],
            [
              -106.12620700034545,
              44.99326799983399
            ],
            [
              -109.08070000023503,
              44.999440000101245
            ],
            [
              -109.10322800033752,
              45.005815000063905
            ],
            [
              -110.10577599983614,
              45.00353300010318
            ],
            [
              -110.70447600039368,
              44.99217400004813
            ],
            [
              -110.79011899994444,
              45.00088299973675
            ],
            [
              -111.05455600006214,
              45.000954999684424
            ],
            [
              -111.05455600006214,
              44.999735000240534
            ]
          ]
        ]
      }
    }
  ]
}
