{
  "type": "FeatureCollection",
  "features": [
    {
      "type": "Feature",
      "id": "us-county:50:001",
      "properties": {
        "boundary_id": "us-county:50:001",
        "boundary_type": "county",
        "name": "Addison County",
        "stateFips": "50",
        "countyFips": "001",
        "bbox": [
          -73.43790499977723,
          43.7530840000426,
          -72.7422410001654,
          44.30374299977795
        ]
      },
      "geometry": {
        "type": "Polygon",
        "coordinates": [
          [
            [
              -72.81632999968586,
              43.937805000056855
            ],
            [
              -72.80999600017711,
              43.93608900006145
            ],
            [
              -72.7422410001654,
              44.02963699998635
            ],
            [
              -72.89690400012444,
              44.073659999808974
            ],
            [
              -72.91677799958524,
              44.071886000107476
            ],
            [
              -72.93407699984365,
              44.16282399971686
            ],
            [
              -72.95220399975733,
              44.16141199988456
            ],
            [
              -72.97588299955525,
              44.295035999936005
            ],
            [
              -73.02037100039598,
              44.30374299977795
            ],
            [
              -73.01651800037824,
              44.28535700026254
            ],
            [
              -73.27037800008377,
              44.26010600031561
            ],
            [
              -73.31328299961228,
              44.264130000049455
            ],
            [
              -73.32371500025948,
              44.24415999984496
            ],
            [
              -73.34337600018324,
              44.238190000081104
            ],
            [
              -73.36226600035315,
              44.20851800023396
            ],
            [
              -73.39002199957649,
              44.19188799972498
            ],
            [
              -73.40304500021789,
              44.144983999859484
            ],
            [
              -73.41613800028115,
              44.132355000092495
            ],
            [
              -73.41151199996143,
              44.11195199991209
            ],
            [
              -73.43790499977723,
              44.04512499981518
            ],
            [
              -73.40612099973566,
              44.016371000031185
            ],
            [
              -73.40855400044443,
              43.93189400006909
            ],
            [
              -73.37413300037791,
              43.875891999807564
            ],
            [
              -73.38230899986833,
              43.856057999747186
            ],
            [
              -73.37258900032208,
              43.845353999755986
            ],
            [
              -73.39279900024184,
              43.82277100007191
            ],
            [
              -73.3509979996548,
              43.77243399968076
            ],
            [
              -73.36282299984677,
              43.7530840000426
            ],
            [
              -73.20632200010402,
              43.766775000306204
            ],
            [
              -73.21895599968467,
              43.83729099994967
            ],
            [
              -73.02993799978135,
              43.8467160000397
            ],
            [
              -73.01708999994047,
              43.80485999998726
            ],
            [
              -72.95974400011141,
              43.826077000116555
            ],
            [
              -72.9728940000761,
              43.86676799998482
            ],
            [
              -72.98023000021571,
              43.86396600016274
            ],
            [
              -72.98014999984976,
              43.88292400000458
            ],
            [
              -72.9531889997714,
              43.87485800017166
            ],
            [
              -72.8765560001124,
              43.902765000132106
            ],
            [
              -72.87534400031761,
              43.86769600012746
            ],
            [
              -72.8652830002895,
              43.86165599997825
            ],
            [
              -72.81798400024485,
              43.93525699976287
            ],
            [
              -72.81632999968586,
              43.937805000056855
            ]
          ]
        ]
      }
    },
    {
      "type": "Feature",
      "id": "us-county:50:003",
      "properties": {
        "boundary_id": "us-county:50:003",
        "boundary_type": "county",
        "name": "Bennington County",
        "stateFips": "50",
        "countyFips": "003",
        "bbox": [
          -73.29094399965568,
          42.73928999997744,
          -72.81961899963898,
          43.314499000265734
        ]
      },
      "geometry": {
        "type": "Polygon",
        "coordinates": [
          [
            [
              -72.92627000042417,
              42.85635600027232
            ],
            [
              -72.92378999985972,
              42.927442000222875
            ],
            [
              -73.00813299975214,
              42.93055600004968
            ],
            [
              -72.99713899958847,
              43.11745699989029
            ],
            [
              -72.86824199963141,
              43.1139310001302
            ],
            [
              -72.86213599972828,
              43.2052159999531
            ],
            [
              -72.85162899963633,
              43.20483299968907
            ],
            [
              -72.8481120000776,
              43.26284700024544
            ],
            [
              -72.81961899963898,
              43.25600600016559
            ],
            [
              -72.81989499982349,
              43.29937199975096
            ],
            [
              -72.9752950000995,
              43.30415900015695
            ],
            [
              -72.97588500010339,
              43.290550999936784
            ],
            [
              -72.99232700039423,
              43.29071600013268
            ],
            [
              -72.98758999974645,
              43.305005000284375
            ],
            [
              -73.25464100032285,
              43.314499000265734
            ],
            [
              -73.27830599987708,
              42.83755800002334
            ],
            [
              -73.29094399965568,
              42.80192000022538
            ],
            [
              -73.2764210002377,
              42.74601899998954
            ],
            [
              -72.93010199962717,
              42.73928999997744
            ],
            [
              -72.92627600027195,
              42.85621900028345
            ],
            [
              -72.92627000042417,
              42.85635600027232
            ]
          ]
        ]
      }
    },
    {
      "type": "Feature",
      "id": "us-county:50:005",
      "properties": {
        "boundary_id": "us-county:50:005",
        "boundary_type": "county",
        "name": "Caledonia County",
        "stateFips": "50",
        "countyFips": "005",
        "bbox": [
          -72.43468299971084,
          44.15598900022472,
          -71.83706699979989,
          44.769441000281056
        ]
      },
      "geometry": {
        "type": "MultiPolygon",
        "coordinates": [
          [
            [
              [
                -71.98455199980306,
                44.336131000309265
              ],
              [
                -71.93525000011829,
                44.33575699993767
              ],
              [
                -71.90842399975915,
                44.34841400023131
              ],
              [
                -71.87158800032383,
                44.33667999998026
              ],
              [
                -71.8378989996531,
                44.34796999968387
              ],
              [
                -71.93322200036378,
                44.441137999700786
              ],
              [
                -71.90326400041035,
                44.45474199973637
              ],
              [
                -71.85669099991374,
                44.496275000247984
              ],
              [
                -71.90893799959504,
                44.54791700002195
              ],
              [
                -71.84237199981195,
                44.610866999844035
              ],
              [
                -71.91019799996874,
                44.646831000021116
              ],
              [
                -71.83706699979989,
                44.71637599989145
              ],
              [
                -71.93929200028188,
                44.769441000281056
              ],
              [
                -72.01145400033019,
                44.698833000119485
              ],
              [
                -72.11436000015438,
                44.74981199996186
              ],
              [
                -72.08929600030926,
                44.68508099976734
              ],
              [
                -72.14595699969986,
                44.704497999997876
              ],
              [
                -72.26287500037748,
                44.54248900007731
              ],
              [
                -72.3738599996077,
                44.58416200002611
              ],
              [
                -72.43468299971084,
                44.505238999715765
              ],
              [
                -72.22380600024994,
                44.424887999901756
              ],
              [
                -72.22901400017761,
                44.4202349998078
              ],
              [
                -72.2222680000419,
                44.4231229997753
              ],
              [
                -72.21707799965758,
                44.411311000060834
              ],
              [
                -72.26998800003601,
                44.34053099968305
              ],
              [
                -72.31683400034413,
                44.298780999960485
              ],
              [
                -72.31665199987091,
                44.27222799999655
              ],
              [
                -72.36888000018398,
                44.20388800009105
              ],
              [
                -72.30520099977277,
                44.18308699995597
              ],
              [
                -72.17436499974967,
                44.19266100017878
              ],
              [
                -72.04358200032833,
                44.15707299980353
              ],
              [
                -72.0661580001114,
                44.19012799996984
              ],
              [
                -72.04766399977662,
                44.23895600023932
              ],
              [
                -72.05833099970212,
                44.27008300026785
              ],
              [
                -72.06808100028391,
                44.272884000191375
              ],
              [
                -72.03287799969459,
                44.30216499969774
              ],
              [
                -72.03280200042492,
                44.32048999992246
              ],
              [
                -71.98465899993319,
                44.33601599968962
              ],
              [
                -71.98455199980306,
                44.336131000309265
              ]
            ]
          ],
          [
            [
              [
                -72.04186699966998,
                44.15665200024775
              ],
              [
                -72.04195600025675,
                44.15663099968765
              ],
              [
                -72.0418619996471,
                44.15663500000971
              ],
              [
                -72.04125400009987,
                44.15645899975961
              ],
              [
                -72.04122999981041,
                44.15645199998045
              ],
              [
                -72.04068800038544,
                44.156301000215734
              ],
              [
                -72.03959899971596,
                44.15599700031121
              ],
              [
                -72.0395600002562,
                44.15598900022472
              ],
              [
                -72.03953500014185,
                44.1560079998644
              ],
              [
                -72.03934799964578,
                44.156146999959496
              ],
              [
                -72.0391800003146,
                44.15624600012433
              ],
              [
                -72.03892099984853,
                44.156330000290126
              ],
              [
                -72.03892099984853,
                44.15642199972077
              ],
              [
                -72.03899700001651,
                44.156796000020485
              ],
              [
                -72.03902799997864,
                44.1568489997678
              ],
              [
                -72.03913500010877,
                44.156886999776226
              ],
              [
                -72.03948499991314,
                44.15682600009002
              ],
              [
                -72.0396230000054,
                44.1568489997678
              ],
              [
                -72.03968400010476,
                44.15689499974096
              ],
              [
                -72.03976000027275,
                44.15693299971976
              ],
              [
                -72.03974500020414,
                44.156985999988464
              ],
              [
                -72.03959200004327,
                44.15715400002719
              ],
              [
                -72.03959200004327,
                44.15721500001876
              ],
              [
                -72.03966900003616,
                44.15722299993904
              ],
              [
                -72.04084400002104,
                44.156810999734915
              ],
              [
                -72.0418049997457,
                44.15666599975773
              ],
              [
                -72.04186699966998,
                44.15665200024775
              ]
            ]
          ]
        ]
      }
    },
    {
      "type": "Feature",
      "id": "us-county:50:007",
      "properties": {
        "boundary_id": "us-county:50:007",
        "boundary_type": "county",
        "name": "Chittenden County",
        "stateFips": "50",
        "countyFips": "007",
        "bbox": [
          -73.36285600035704,
          44.16141199988456,
          -72.80237499963214,
          44.722806000302555
        ]
      },
      "geometry": {
        "type": "Polygon",
        "coordinates": [
          [
            [
              -72.88037800016801,
              44.329850000293476
            ],
            [
              -72.86125100017162,
              44.36690000007531
            ],
            [
              -72.825957000244,
              44.35902499984291
            ],
            [
              -72.80237499963214,
              44.38858000020963
            ],
            [
              -72.83982899955872,
              44.40345200027713
            ],
            [
              -72.8048569998464,
              44.451881999710395
            ],
            [
              -72.83829600027188,
              44.45929300016091
            ],
            [
              -72.80363599983076,
              44.50628400021528
            ],
            [
              -72.83075599991777,
              44.51643000000388
            ],
            [
              -72.80995599999414,
              44.54671399983981
            ],
            [
              -72.82704199981721,
              44.55069200021865
            ],
            [
              -72.90996100020271,
              44.63119700011458
            ],
            [
              -73.03807399998712,
              44.651150000247966
            ],
            [
              -73.22885600005431,
              44.722806000302555
            ],
            [
              -73.23308399999075,
              44.64987999988985
            ],
            [
              -73.25318599995548,
              44.6384679998921
            ],
            [
              -73.25855500043994,
              44.60122200009179
            ],
            [
              -73.36285600035704,
              44.56426400007329
            ],
            [
              -73.33875200041167,
              44.5480460002115
            ],
            [
              -73.30671300010198,
              44.50033499978849
            ],
            [
              -73.29387000028395,
              44.44214900025954
            ],
            [
              -73.31504000010344,
              44.38852600024591
            ],
            [
              -73.33495000044756,
              44.364440000133946
            ],
            [
              -73.31328299961228,
              44.264130000049455
            ],
            [
              -73.27037800008377,
              44.26010600031561
            ],
            [
              -73.01651800037824,
              44.28535700026254
            ],
            [
              -73.02037100039598,
              44.30374299977795
            ],
            [
              -72.97588299955525,
              44.295035999936005
            ],
            [
              -72.95220399975733,
              44.16141199988456
            ],
            [
              -72.894980000127,
              44.278096999927634
            ],
            [
              -72.90595800039715,
              44.28055399999567
            ],
            [
              -72.88431099965337,
              44.32230900010115
            ],
            [
              -72.88037800016801,
              44.329850000293476
            ]
          ]
        ]
      }
    },
    {
      "type": "Feature",
      "id": "us-county:50:009",
      "properties": {
        "boundary_id": "us-county:50:009",
        "boundary_type": "county",
        "name": "Essex County",
        "stateFips": "50",
        "countyFips": "009",
        "bbox": [
          -71.9748249996858,
          44.34796999968387,
          -71.46504999985775,
          45.01363800026322
        ]
      },
      "geometry": {
        "type": "Polygon",
        "coordinates": [
          [
            [
              -71.73873200004383,
              44.40747600005877
            ],
            [
              -71.67696699958432,
              44.426848000185174
            ],
            [
              -71.67928200029232,
              44.43433700014405
            ],
            [
              -71.6634540002948,
              44.43778799969758
            ],
            [
              -71.65330200003008,
              44.4598169999039
            ],
            [
              -71.63927099980839,
              44.463916999697815
            ],
            [
              -71.64568700023123,
              44.47447499984137
            ],
            [
              -71.63239199960327,
              44.484056000005644
            ],
            [
              -71.62464799993299,
              44.48240700005577
            ],
            [
              -71.63447399978445,
              44.478532000130194
            ],
            [
              -71.62965300036939,
              44.473878000074315
            ],
            [
              -71.61784300024604,
              44.485841000014396
            ],
            [
              -71.59933300001771,
              44.48628300001484
            ],
            [
              -71.58778200036045,
              44.5067450000748
            ],
            [
              -71.57702400019832,
              44.50206099986164
            ],
            [
              -71.59411400021939,
              44.52155399987722
            ],
            [
              -71.57186700032427,
              44.53791900018371
            ],
            [
              -71.59696799997931,
              44.55947100018657
            ],
            [
              -71.55971700044232,
              44.56397500024505
            ],
            [
              -71.54772599967067,
              44.571380999708275
            ],
            [
              -71.55236500040917,
              44.584392999991174
            ],
            [
              -71.54578800032786,
              44.57793399989558
            ],
            [
              -71.53493899992915,
              44.587700000142874
            ],
            [
              -71.5621309999862,
              44.601180999769724
            ],
            [
              -71.55363099973236,
              44.60613199997727
            ],
            [
              -71.55512700010762,
              44.62524400011239
            ],
            [
              -71.54633700032385,
              44.622955000075606
            ],
            [
              -71.557019000318,
              44.629485999864855
            ],
            [
              -71.54681900037272,
              44.629756000217974
            ],
            [
              -71.56372100007277,
              44.637247000148975
            ],
            [
              -71.5628060003789,
              44.65235599973037
            ],
            [
              -71.5873649997106,
              44.65971500016538
            ],
            [
              -71.58146300002198,
              44.673204000243224
            ],
            [
              -71.59661499980191,
              44.67808799990612
            ],
            [
              -71.59386099960108,
              44.69641499994482
            ],
            [
              -71.61710699975397,
              44.72871199971942
            ],
            [
              -71.62609300025461,
              44.728543000153905
            ],
            [
              -71.63211399976893,
              44.75161800030577
            ],
            [
              -71.57281700017828,
              44.79087099982585
            ],
            [
              -71.56838400020241,
              44.80704000004349
            ],
            [
              -71.57686500018968,
              44.81519699994443
            ],
            [
              -71.5511140002563,
              44.83696500030335
            ],
            [
              -71.54945100037479,
              44.86208400011812
            ],
            [
              -71.49490999990189,
              44.90429900001666
            ],
            [
              -71.52283799955265,
              44.93991500009581
            ],
            [
              -71.51479000010875,
              44.94369499987899
            ],
            [
              -71.5162990000045,
              44.964404000125974
            ],
            [
              -71.54133299971237,
              44.98393700019081
            ],
            [
              -71.53701400043764,
              44.99348099974665
            ],
            [
              -71.50853799971745,
              45.00789100000399
            ],
            [
              -71.48076800025041,
              45.002269999917935
            ],
            [
              -71.46504999985775,
              45.01363800026322
            ],
            [
              -71.89931299958502,
              45.00792699971375
            ],
            [
              -71.92014500019403,
              44.90152499999677
            ],
            [
              -71.87785700043358,
              44.87876199985049
            ],
            [
              -71.9748249996858,
              44.78723200013508
            ],
            [
              -71.83706699979989,
              44.71637599989145
            ],
            [
              -71.91019799996874,
              44.646831000021116
            ],
            [
              -71.84237199981195,
              44.610866999844035
            ],
            [
              -71.90893799959504,
              44.54791700002195
            ],
            [
              -71.85669099991374,
              44.496275000247984
            ],
            [
              -71.90326400041035,
              44.45474199973637
            ],
            [
              -71.93322200036378,
              44.441137999700786
            ],
            [
              -71.8378989996531,
              44.34796999968387
            ],
            [
              -71.81299299999175,
              44.355714999759535
            ],
            [
              -71.81442700044272,
              44.38192200026372
            ],
            [
              -71.80057199994812,
              44.38402799987244
            ],
            [
              -71.79448299976342,
              44.39900400014003
            ],
            [
              -71.73902499994678,
              44.40687000018333
            ],
            [
              -71.73873200004383,
              44.40747600005877
            ]
          ]
        ]
      }
    },
    {
      "type": "Feature",
      "id": "us-county:50:011",
      "properties": {
        "boundary_id": "us-county:50:011",
        "boundary_type": "county",
        "name": "Franklin County",
        "stateFips": "50",
        "countyFips": "011",
        "bbox": [
          -73.25725200040854,
          44.63321400003499,
          -72.53328000030602,
          45.015620000048216
        ]
      },
      "geometry": {
        "type": "Polygon",
        "coordinates": [
          [
            [
              -72.67837900035441,
              44.802482000150924
            ],
            [
              -72.61359699992833,
              44.80041699987987
            ],
            [
              -72.57907499957948,
              44.78089600019047
            ],
            [
              -72.53328000030602,
              44.834080999723206
            ],
            [
              -72.53649800011401,
              44.926114000308885
            ],
            [
              -72.553885000236,
              45.008009999911025
            ],
            [
              -72.7026389999354,
              45.015620000048216
            ],
            [
              -73.19233299971512,
              45.013415000117284
            ],
            [
              -73.24037800029755,
              44.95128900009368
            ],
            [
              -73.22612500031799,
              44.91959800004646
            ],
            [
              -73.19409600005406,
              44.90998700018108
            ],
            [
              -73.19144599961031,
              44.89807100024258
            ],
            [
              -73.20796200041931,
              44.8245950001768
            ],
            [
              -73.2370299998949,
              44.8096539997093
            ],
            [
              -73.25725200040854,
              44.781876999770574
            ],
            [
              -73.25070799993917,
              44.75103400030951
            ],
            [
              -73.22885600005431,
              44.722806000302555
            ],
            [
              -73.03807399998712,
              44.651150000247966
            ],
            [
              -72.92377700033926,
              44.63321400003499
            ],
            [
              -72.926668999734,
              44.64753800011776
            ],
            [
              -72.9042860002948,
              44.64602700027459
            ],
            [
              -72.89186199987812,
              44.65566000030625
            ],
            [
              -72.85079299958517,
              44.71112399978623
            ],
            [
              -72.7932199999754,
              44.69066899985458
            ],
            [
              -72.77938899977025,
              44.74383199972182
            ],
            [
              -72.7685920001484,
              44.76499600010626
            ],
            [
              -72.74578899968628,
              44.77590299993916
            ],
            [
              -72.74684999986837,
              44.790089000232214
            ],
            [
              -72.72909700004851,
              44.804038999977315
            ],
            [
              -72.68685699996864,
              44.80274599981195
            ],
            [
              -72.67837900035441,
              44.802482000150924
            ]
          ]
        ]
      }
    },
    {
      "type": "Feature",
      "id": "us-county:50:013",
      "properties": {
        "boundary_id": "us-county:50:013",
        "boundary_type": "county",
        "name": "Grand Isle County",
        "stateFips": "50",
        "countyFips": "013",
        "bbox": [
          -73.39023099981387,
          44.56426400007329,
          -73.19127699955592,
          45.013415000117284
        ]
      },
      "geometry": {
        "type": "Polygon",
        "coordinates": [
          [
            [
              -73.38158999999303,
              44.84935399982125
            ],
            [
              -73.37945199973537,
              44.83801000019156
            ],
            [
              -73.33544300036706,
              44.80460300020877
            ],
            [
              -73.33315199994853,
              44.78958800008551
            ],
            [
              -73.36556199997896,
              44.74178600005549
            ],
            [
              -73.36130800010325,
              44.694523999896056
            ],
            [
              -73.39023099981387,
              44.618353999715936
            ],
            [
              -73.36285600035704,
              44.56426400007329
            ],
            [
              -73.26370100044335,
              44.59619499985652
            ],
            [
              -73.25318599995548,
              44.6384679998921
            ],
            [
              -73.23308399999075,
              44.64987999988985
            ],
            [
              -73.22885400040447,
              44.72286600024885
            ],
            [
              -73.25888599997774,
              44.774087999825994
            ],
            [
              -73.2370299998949,
              44.8096539997093
            ],
            [
              -73.20322099957356,
              44.833631000054424
            ],
            [
              -73.20705500022304,
              44.8519479999282
            ],
            [
              -73.19127699955592,
              44.90422499981335
            ],
            [
              -73.22491099997505,
              44.91848100027354
            ],
            [
              -73.240944000012,
              44.948885999747304
            ],
            [
              -73.19233299971512,
              45.013415000117284
            ],
            [
              -73.34317799981652,
              45.01071300007722
            ],
            [
              -73.35463300011263,
              44.987352000148476
            ],
            [
              -73.33824400042356,
              44.96475100008612
            ],
            [
              -73.33897900019237,
              44.9176809999156
            ],
            [
              -73.35621800017636,
              44.90449199984075
            ],
            [
              -73.38129600026515,
              44.84986099989002
            ],
            [
              -73.38158999999303,
              44.84935399982125
            ]
          ]
        ]
      }
    },
    {
      "type": "Feature",
      "id": "us-county:50:015",
      "properties": {
        "boundary_id": "us-county:50:015",
        "boundary_type": "county",
        "name": "Lamoille County",
        "stateFips": "50",
        "countyFips": "015",
        "bbox": [
          -72.9271609998286,
          44.398296999870844,
          -72.36838499971634,
          44.804038999977315
        ]
      },
      "geometry": {
        "type": "Polygon",
        "coordinates": [
          [
            [
              -72.59728500023215,
              44.47938500030593
            ],
            [
              -72.49356099990014,
              44.423977000130975
            ],
            [
              -72.3738599996077,
              44.58416200002611
            ],
            [
              -72.36838499971634,
              44.592845999759554
            ],
            [
              -72.48279299969228,
              44.6341029999152
            ],
            [
              -72.41731499985544,
              44.722892999693734
            ],
            [
              -72.59789899962715,
              44.787055000019315
            ],
            [
              -72.61359699992833,
              44.80041699987987
            ],
            [
              -72.72909700004851,
              44.804038999977315
            ],
            [
              -72.74684999986837,
              44.790089000232214
            ],
            [
              -72.74578899968628,
              44.77590299993916
            ],
            [
              -72.7685920001484,
              44.76499600010626
            ],
            [
              -72.7932199999754,
              44.69066899985458
            ],
            [
              -72.85079299958517,
              44.71112399978623
            ],
            [
              -72.89186199987812,
              44.65566000030625
            ],
            [
              -72.9029709996695,
              44.646354999930296
            ],
            [
              -72.9271609998286,
              44.64664300031232
            ],
            [
              -72.9264140003642,
              44.635125000059
            ],
            [
              -72.90996100020271,
              44.63119700011458
            ],
            [
              -72.82704199981721,
              44.55069200021865
            ],
            [
              -72.80995599999414,
              44.54671399983981
            ],
            [
              -72.83075599991777,
              44.51643000000388
            ],
            [
              -72.80363599983076,
              44.50628400021528
            ],
            [
              -72.83829600027188,
              44.45929300016091
            ],
            [
              -72.7655590002883,
              44.442805999790885
            ],
            [
              -72.65433999980806,
              44.398296999870844
            ],
            [
              -72.59733600028578,
              44.47932600016171
            ],
            [
              -72.59728500023215,
              44.47938500030593
            ]
          ]
        ]
      }
    },
    {
      "type": "Feature",
      "id": "us-county:50:017",
      "properties": {
        "boundary_id": "us-county:50:017",
        "boundary_type": "county",
        "name": "Orange County",
        "stateFips": "50",
        "countyFips": "017",
        "bbox": [
          -72.79104300025799,
          43.77126099983707,
          -72.03064999992355,
          44.220781000064264
        ]
      },
      "geometry": {
        "type": "Polygon",
        "coordinates": [
          [
            [
              -72.16901999955464,
              43.8716659997664
            ],
            [
              -72.17245400017104,
              43.88461200011217
            ],
            [
              -72.12045099998889,
              43.91955500027287
            ],
            [
              -72.11834500041657,
              43.94653199978632
            ],
            [
              -72.0909399999242,
              43.9657800002582
            ],
            [
              -72.11437799969772,
              43.96805399971824
            ],
            [
              -72.11686499993485,
              43.99446700031749
            ],
            [
              -72.10276500011616,
              44.014577999881155
            ],
            [
              -72.09052700037064,
              44.009923999748516
            ],
            [
              -72.09542599960352,
              44.0217569997036
            ],
            [
              -72.08266899999923,
              44.021803000216615
            ],
            [
              -72.07831999968894,
              44.04337800009167
            ],
            [
              -72.06190099986263,
              44.04959600031652
            ],
            [
              -72.06809600035253,
              44.057377999777124
            ],
            [
              -72.04830499983412,
              44.069706999930226
            ],
            [
              -72.05286800040463,
              44.07630599985371
            ],
            [
              -72.03208500019943,
              44.07822899981839
            ],
            [
              -72.0452839996696,
              44.087308000041645
            ],
            [
              -72.03064999992355,
              44.09876700020068
            ],
            [
              -72.04787999968669,
              44.096585999724205
            ],
            [
              -72.05536999981207,
              44.110760000281736
            ],
            [
              -72.0332590003594,
              44.13141999972097
            ],
            [
              -72.04195700008167,
              44.13699800007659
            ],
            [
              -72.0395600002562,
              44.15598900022472
            ],
            [
              -72.17436499974967,
              44.19266100017878
            ],
            [
              -72.30520099977277,
              44.18308699995597
            ],
            [
              -72.41919700002008,
              44.220781000064264
            ],
            [
              -72.44337600030853,
              44.12880000013452
            ],
            [
              -72.5597080002819,
              44.16291300021617
            ],
            [
              -72.56398499972383,
              44.1547820001284
            ],
            [
              -72.58655800003218,
              44.16026000014001
            ],
            [
              -72.68287400025456,
              44.01281000015857
            ],
            [
              -72.7422410001654,
              44.02963699998635
            ],
            [
              -72.79104300025799,
              43.96224399988286
            ],
            [
              -72.78995899961139,
              43.94531500004591
            ],
            [
              -72.77107799966231,
              43.93906400004193
            ],
            [
              -72.77350100032533,
              43.92453800022027
            ],
            [
              -72.20516999962491,
              43.77126099983707
            ],
            [
              -72.20553600022113,
              43.78458400021106
            ],
            [
              -72.18351699993167,
              43.80902100003789
            ],
            [
              -72.18786600024195,
              43.856361000191576
            ],
            [
              -72.1687330003978,
              43.87127499981242
            ],
            [
              -72.16901999955464,
              43.8716659997664
            ]
          ]
        ]
      }
    },
    {
      "type": "Feature",
      "id": "us-county:50:019",
      "properties": {
        "boundary_id": "us-county:50:019",
        "boundary_type": "county",
        "name": "Orleans County",
        "stateFips": "50",
        "countyFips": "019",
        "bbox": [
          -72.57907499957948,
          44.54248900007731,
          -71.87785700043358,
          45.008009999911025
        ]
      },
      "geometry": {
        "type": "Polygon",
        "coordinates": [
          [
            [
              -72.11436000015438,
              44.74981199996186
            ],
            [
              -72.01145400033019,
              44.698833000119485
            ],
            [
              -71.93929200028188,
              44.769441000281056
            ],
            [
              -71.9748249996858,
              44.78723200013508
            ],
            [
              -71.87785700043358,
              44.87876199985049
            ],
            [
              -71.92014500019403,
              44.90152499999677
            ],
            [
              -71.89931299958502,
              45.00792699971375
            ],
            [
              -72.553885000236,
              45.008009999911025
            ],
            [
              -72.53649800011401,
              44.926114000308885
            ],
            [
              -72.53328000030602,
              44.834080999723206
            ],
            [
              -72.57907499957948,
              44.78089600019047
            ],
            [
              -72.41731499985544,
              44.722892999693734
            ],
            [
              -72.48279299969228,
              44.6341029999152
            ],
            [
              -72.26287500037748,
              44.54248900007731
            ],
            [
              -72.14595699969986,
              44.704497999997876
            ],
            [
              -72.08929600030926,
              44.68508099976734
            ],
            [
              -72.11424700017648,
              44.74949900025953
            ],
            [
              -72.11436000015438,
              44.74981199996186
            ]
          ]
        ]
      }
    },
    {
      "type": "Feature",
      "id": "us-county:50:021",
      "properties": {
        "boundary_id": "us-county:50:021",
        "boundary_type": "county",
        "name": "Rutland County",
        "stateFips": "50",
        "countyFips": "021",
        "bbox": [
          -73.42863700014259,
          43.290550999936784,
          -72.6997950002212,
          43.858059999984356
        ]
      },
      "geometry": {
        "type": "Polygon",
        "coordinates": [
          [
            [
              -73.01708999994047,
              43.80485999998726
            ],
            [
              -73.02993799978135,
              43.8467160000397
            ],
            [
              -73.21895599968467,
              43.83729099994967
            ],
            [
              -73.20632200010402,
              43.766775000306204
            ],
            [
              -73.36282299984677,
              43.7530840000426
            ],
            [
              -73.37061199972288,
              43.72532900015874
            ],
            [
              -73.40497300041326,
              43.6897630000944
            ],
            [
              -73.42858299971591,
              43.63654300015028
            ],
            [
              -73.4176689999182,
              43.621687000058195
            ],
            [
              -73.42863700014259,
              43.583994000103
            ],
            [
              -73.3957679996295,
              43.56808699987378
            ],
            [
              -73.3832849996616,
              43.57720000012449
            ],
            [
              -73.38690099985287,
              43.590770000066726
            ],
            [
              -73.37246899977318,
              43.60484799983684
            ],
            [
              -73.37188999963995,
              43.624490000055076
            ],
            [
              -73.30674300023921,
              43.62840099987098
            ],
            [
              -73.29101899999876,
              43.59923500002415
            ],
            [
              -73.29572499978609,
              43.57714600023534
            ],
            [
              -73.26793199985453,
              43.57224999974321
            ],
            [
              -73.24864099982662,
              43.55385800016287
            ],
            [
              -73.24139099990073,
              43.532345999690165
            ],
            [
              -73.25464100032285,
              43.314499000265734
            ],
            [
              -72.98758999974645,
              43.305005000284375
            ],
            [
              -72.99232700039423,
              43.29071600013268
            ],
            [
              -72.97588500010339,
              43.290550999936784
            ],
            [
              -72.9752950000995,
              43.30415900015695
            ],
            [
              -72.86864699968737,
              43.300528999920765
            ],
            [
              -72.86497199994487,
              43.348699000024446
            ],
            [
              -72.85470000002958,
              43.34927700000697
            ],
            [
              -72.85238400039496,
              43.37627899968834
            ],
            [
              -72.82193299962374,
              43.380611000310125
            ],
            [
              -72.75849000011242,
              43.35330699989044
            ],
            [
              -72.76235599965061,
              43.37141399981713
            ],
            [
              -72.72256299962488,
              43.460076000262866
            ],
            [
              -72.72422300003167,
              43.468173999881614
            ],
            [
              -72.77141099974823,
              43.47857000016884
            ],
            [
              -72.7691400003195,
              43.491510999845374
            ],
            [
              -72.78993000019739,
              43.49454600023302
            ],
            [
              -72.7818840004033,
              43.54393300006355
            ],
            [
              -72.77150000033501,
              43.59109000010204
            ],
            [
              -72.7579479997891,
              43.58742399993588
            ],
            [
              -72.6997950002212,
              43.68457700018218
            ],
            [
              -72.81998500023519,
              43.71669699970033
            ],
            [
              -72.80392799990881,
              43.740972999903015
            ],
            [
              -72.81926200016191,
              43.74631299991341
            ],
            [
              -72.7828559999986,
              43.80400700000445
            ],
            [
              -72.79692400003022,
              43.82915799992306
            ],
            [
              -72.87387100040688,
              43.83962800018005
            ],
            [
              -72.87449800022067,
              43.858059999984356
            ],
            [
              -73.0170720003971,
              43.80486699984933
            ],
            [
              -73.01708999994047,
              43.80485999998726
            ]
          ]
        ]
      }
    },
    {
      "type": "Feature",
      "id": "us-county:50:023",
      "properties": {
        "boundary_id": "us-county:50:023",
        "boundary_type": "county",
        "name": "Washington County",
        "stateFips": "50",
        "countyFips": "023",
        "bbox": [
          -72.95220399975733,
          44.01281000015857,
          -72.21707799965758,
          44.50609799991508
        ]
      },
      "geometry": {
        "type": "Polygon",
        "coordinates": [
          [
            [
              -72.5597080002819,
              44.16291300021617
            ],
            [
              -72.44337600030853,
              44.12880000013452
            ],
            [
              -72.41919700002008,
              44.220781000064264
            ],
            [
              -72.36888000018398,
              44.20388800009105
            ],
            [
              -72.31665199987091,
              44.27222799999655
            ],
            [
              -72.31683400034413,
              44.298780999960485
            ],
            [
              -72.26998800003601,
              44.34053099968305
            ],
            [
              -72.21707799965758,
              44.411311000060834
            ],
            [
              -72.2201149997156,
              44.42116200010939
            ],
            [
              -72.43431500036311,
              44.50609799991508
            ],
            [
              -72.49356099990014,
              44.423977000130975
            ],
            [
              -72.59728500023215,
              44.47938500030593
            ],
            [
              -72.65433999980806,
              44.398296999870844
            ],
            [
              -72.8048569998464,
              44.451881999710395
            ],
            [
              -72.83982899955872,
              44.40345200027713
            ],
            [
              -72.80237499963214,
              44.38858000020963
            ],
            [
              -72.825957000244,
              44.35902499984291
            ],
            [
              -72.86125100017162,
              44.36690000007531
            ],
            [
              -72.95220399975733,
              44.16141199988456
            ],
            [
              -72.93407699984365,
              44.16282399971686
            ],
            [
              -72.91677799958524,
              44.071886000107476
            ],
            [
              -72.89690400012444,
              44.073659999808974
            ],
            [
              -72.68287400025456,
              44.01281000015857
            ],
            [
              -72.58655800003218,
              44.16026000014001
            ],
            [
              -72.56398499972383,
              44.1547820001284
            ],
            [
              -72.55984600037416,
              44.162651000302574
            ],
            [
              -72.5597080002819,
              44.16291300021617
            ]
          ]
        ]
      }
    },
    {
      "type": "Feature",
      "id": "us-county:50:025",
      "properties": {
        "boundary_id": "us-county:50:025",
        "boundary_type": "county",
        "name": "Windham County",
        "stateFips": "50",
        "countyFips": "025",
        "bbox": [
          -73.00813299975214,
          42.72693300027202,
          -72.43282200036091,
          43.26284700024544
        ]
      },
      "geometry": {
        "type": "Polygon",
        "coordinates": [
          [
            [
              -72.86480100024065,
              43.16618599975116
            ],
            [
              -72.86824199963141,
              43.1139310001302
            ],
            [
              -72.99713899958847,
              43.11745699989029
            ],
            [
              -73.00813299975214,
              42.93055600004968
            ],
            [
              -72.92378999985972,
              42.927442000222875
            ],
            [
              -72.93010199962717,
              42.73928999997744
            ],
            [
              -72.45841199973748,
              42.72693300027202
            ],
            [
              -72.49054700030663,
              42.772746999671895
            ],
            [
              -72.5154660003868,
              42.765629000070504
            ],
            [
              -72.5087369999695,
              42.77952199987482
            ],
            [
              -72.54151299969786,
              42.80709400000258
            ],
            [
              -72.5571239999604,
              42.85323600011383
            ],
            [
              -72.55262200038754,
              42.88504300001401
            ],
            [
              -72.53337999986515,
              42.89531200030388
            ],
            [
              -72.52449899984478,
              42.91514800003743
            ],
            [
              -72.53380800038563,
              42.952584999908744
            ],
            [
              -72.47371699967826,
              42.97212400026734
            ],
            [
              -72.46169999986569,
              42.982870999990965
            ],
            [
              -72.46251599982538,
              42.997445000141795
            ],
            [
              -72.44325900013266,
              43.007576999822696
            ],
            [
              -72.4626229999555,
              43.02578800008746
            ],
            [
              -72.46785699982243,
              43.052513999861354
            ],
            [
              -72.43398200027718,
              43.08445000001665
            ],
            [
              -72.44321399992681,
              43.102760000089674
            ],
            [
              -72.43282200036091,
              43.12023199998688
            ],
            [
              -72.45740499998209,
              43.147537000201936
            ],
            [
              -72.43461999996165,
              43.23325699974507
            ],
            [
              -72.54914299956532,
              43.23589700018291
            ],
            [
              -72.6854400001344,
              43.22257999982736
            ],
            [
              -72.8481120000776,
              43.26284700024544
            ],
            [
              -72.85162899963633,
              43.20483299968907
            ],
            [
              -72.86213599972828,
              43.2052159999531
            ],
            [
              -72.86480000041574,
              43.16620100004602
            ],
            [
              -72.86480100024065,
              43.16618599975116
            ]
          ]
        ]
      }
    },
    {
      "type": "Feature",
      "id": "us-county:50:027",
      "properties": {
        "boundary_id": "us-county:50:027",
        "boundary_type": "county",
        "name": "Windsor County",
        "stateFips": "50",
        "countyFips": "027",
        "bbox": [
          -72.98023000021571,
          43.22257999982736,
          -72.20516999962491,
          43.96224399988286
        ]
      },
      "geometry": {
        "type": "Polygon",
        "coordinates": [
          [
            [
              -72.54914299956532,
              43.23589700018291
            ],
            [
              -72.43461999996165,
              43.23325699974507
            ],
            [
              -72.43713999981074,
              43.25605599995486
            ],
            [
              -72.41603699993838,
              43.27023100022736
            ],
            [
              -72.39531499983256,
              43.31269599972285
            ],
            [
              -72.41055899967398,
              43.33112099994842
            ],
            [
              -72.38986800042859,
              43.35657200003193
            ],
            [
              -72.41264900025108,
              43.362279000188245
            ],
            [
              -72.41602199986977,
              43.37716399977818
            ],
            [
              -72.40350899976464,
              43.39158300026663
            ],
            [
              -72.39256900002765,
              43.4668839999829
            ],
            [
              -72.38147500030487,
              43.480029999853684
            ],
            [
              -72.38106299967791,
              43.4940369998392
            ],
            [
              -72.39887099974936,
              43.512653000281766
            ],
            [
              -72.38069699998002,
              43.54035500028504
            ],
            [
              -72.38023699967248,
              43.5734349997656
            ],
            [
              -72.32832700027507,
              43.60111400016259
            ],
            [
              -72.33482700036349,
              43.61795199976235
            ],
            [
              -72.30314899972882,
              43.66861900000844
            ],
            [
              -72.29956400039801,
              43.70627700027426
            ],
            [
              -72.27110500029457,
              43.733918000023365
            ],
            [
              -72.23417799972435,
              43.74596499981265
            ],
            [
              -72.20516999962491,
              43.77126099983707
            ],
            [
              -72.77350100032533,
              43.92453800022027
            ],
            [
              -72.77107799966231,
              43.93906400004193
            ],
            [
              -72.78995899961139,
              43.94531500004591
            ],
            [
              -72.79104300025799,
              43.96224399988286
            ],
            [
              -72.8652830002895,
              43.86165599997825
            ],
            [
              -72.87534400031761,
              43.86769600012746
            ],
            [
              -72.8765560001124,
              43.902765000132106
            ],
            [
              -72.9531889997714,
              43.87485800017166
            ],
            [
              -72.98014999984976,
              43.88292400000458
            ],
            [
              -72.98023000021571,
              43.86396600016274
            ],
            [
              -72.9728940000761,
              43.86676799998482
            ],
            [
              -72.95974400011141,
              43.826077000116555
            ],
            [
              -72.87449800022067,
              43.858059999984356
            ],
            [
              -72.87387100040688,
              43.83962800018005
            ],
            [
              -72.79692400003022,
              43.82915799992306
            ],
            [
              -72.7828559999986,
              43.80400700000445
            ],
            [
              -72.81926200016191,
              43.74631299991341
            ],
            [
              -72.80392799990881,
              43.740972999903015
            ],
            [
              -72.81998500023519,
              43.71669699970033
            ],
            [
              -72.6997950002212,
              43.68457700018218
            ],
            [
              -72.7579479997891,
              43.58742399993588
            ],
            [
              -72.77150000033501,
              43.59109000010204
            ],
            [
              -72.7818840004033,
              43.54393300006355
            ],
            [
              -72.78993000019739,
              43.49454600023302
            ],
            [
              -72.7691400003195,
              43.491510999845374
            ],
            [
              -72.77141099974823,
              43.47857000016884
            ],
            [
              -72.72422300003167,
              43.468173999881614
            ],
            [
              -72.72256299962488,
              43.460076000262866
            ],
            [
              -72.76235599965061,
              43.37141399981713
            ],
            [
              -72.75849000011242,
              43.35330699989044
            ],
            [
              -72.82193299962374,
              43.380611000310125
            ],
            [
              -72.85238400039496,
              43.37627899968834
            ],
            [
              -72.85470000002958,
              43.34927700000697
            ],
            [
              -72.86497199994487,
              43.348699000024446
            ],
            [
              -72.86864699968737,
              43.300528999920765
            ],
            [
              -72.81989499982349,
              43.29937199975096
            ],
            [
              -72.81961899963898,
              43.25600600016559
            ],
            [
              -72.6854400001344,
              43.22257999982736
            ],
            [
              -72.54923399980191,
              43.235888000072244
            ],
            [
              -72.54914299956532,
              43.23589700018291
            ]
          ]
        ]
      }
    },
    {
      "type": "Feature",
      "id": "us-state:50",
      "properties": {
        "boundary_id": "us-state:50",
        "boundary_type": "state",
        "name": "Vermont",
        "stateFips": "50",
        "bbox": [
          -73.43790499977723,
          42.72693300027202,
          -71.46504999985775,
          45.01665800001635
        ]
      },
      "geometry": {
        "type": "Polygon",
        "coordinates": [
          [
            [
              -72.04186699966998,
              44.15665200024775
            ],
            [
              -72.0661580001114,
              44.19012799996984
            ],
            [
              -72.04766399977662,
              44.23895600023932
            ],
            [
              -72.05833099970212,
              44.27008300026785
            ],
            [
              -72.06847799994395,
              44.27080099971527
            ],
            [
              -72.03287799969459,
              44.30216499969774
            ],
            [
              -72.03280200042492,
              44.32048999992246
            ],
            [
              -71.98142400040673,
              44.33736599995461
            ],
            [
              -71.93404400017126,
              44.33600099998328
            ],
            [
              -71.91242200044015,
              44.348124000167886
            ],
            [
              -71.87158800032383,
              44.33667999998026
            ],
            [
              -71.81584599992676,
              44.3540059999298
            ],
            [
              -71.81442700044272,
              44.38192200026372
            ],
            [
              -71.80057199994812,
              44.38402799987244
            ],
            [
              -71.79448299976342,
              44.39900400014003
            ],
            [
              -71.70258000032374,
              44.413542000301724
            ],
            [
              -71.66088300039208,
              44.43993699968091
            ],
            [
              -71.65421699972399,
              44.458823000081175
            ],
            [
              -71.63898600030136,
              44.464410999938295
            ],
            [
              -71.64683700010177,
              44.47320200029861
            ],
            [
              -71.6327819995906,
              44.48379600017395
            ],
            [
              -71.62466300000159,
              44.48174400025244
            ],
            [
              -71.63450499974658,
              44.47562500007325
            ],
            [
              -71.6262050004076,
              44.474466000141426
            ],
            [
              -71.61784300024604,
              44.485841000014396
            ],
            [
              -71.59860099972362,
              44.48682499980245
            ],
            [
              -71.58813299998971,
              44.506585000167014
            ],
            [
              -71.57702400019832,
              44.50206099986164
            ],
            [
              -71.59411400021939,
              44.52155399987722
            ],
            [
              -71.57186700032427,
              44.53791900018371
            ],
            [
              -71.59696799997931,
              44.55947100018657
            ],
            [
              -71.55971700044232,
              44.56397500024505
            ],
            [
              -71.54772599967067,
              44.571380999708275
            ],
            [
              -71.55236500040917,
              44.584392999991174
            ],
            [
              -71.54578800032786,
              44.57793399989558
            ],
            [
              -71.53490899979192,
              44.58789800018244
            ],
            [
              -71.5621309999862,
              44.601180999769724
            ],
            [
              -71.55363099973236,
              44.60613199997727
            ],
            [
              -71.55512700010762,
              44.62524400011239
            ],
            [
              -71.54633700032385,
              44.622955000075606
            ],
            [
              -71.557019000318,
              44.629485999864855
            ],
            [
              -71.54681900037272,
              44.629756000217974
            ],
            [
              -71.56372100007277,
              44.637247000148975
            ],
            [
              -71.5628060003789,
              44.65235599973037
            ],
            [
              -71.5873649997106,
              44.65971500016538
            ],
            [
              -71.58146300002198,
              44.673204000243224
            ],
            [
              -71.59661499980191,
              44.67808799990612
            ],
            [
              -71.59386099960108,
              44.69641499994482
            ],
            [
              -71.61710699975397,
              44.72871199971942
            ],
            [
              -71.62609300025461,
              44.728543000153905
            ],
            [
              -71.6320200000576,
              44.752058999887964
            ],
            [
              -71.57281700017828,
              44.79087099982585
            ],
            [
              -71.56838400020241,
              44.80704000004349
            ],
            [
              -71.57686500018968,
              44.81519699994443
            ],
            [
              -71.5511140002563,
              44.83696500030335
            ],
            [
              -71.54945100037479,
              44.86208400011812
            ],
            [
              -71.49490999990189,
              44.90429900001666
            ],
            [
              -71.52283799955265,
              44.93991500009581
            ],
            [
              -71.51479000010875,
              44.94369499987899
            ],
            [
              -71.5162990000045,
              44.964404000125974
            ],
            [
              -71.54133299971237,
              44.98393700019081
            ],
            [
              -71.53701400043764,
              44.99348099974665
            ],
            [
              -71.50853799971745,
              45.00789100000399
            ],
            [
              -71.48076800025041,
              45.002269999917935
            ],
            [
              -71.46504999985775,
              45.01363800026322
            ],
            [
              -72.3119469999085,
              45.0037869997467
            ],
            [
              -72.84698499977328,
              45.01665800001635
            ],
            [
              -73.34317799981652,
              45.01071300007722
            ],
            [
              -73.35463300011263,
              44.987352000148476
            ],
            [
              -73.33824400042356,
              44.96475100008612
            ],
            [
              -73.33897900019237,
              44.9176809999156
            ],
            [
              -73.35621800017636,
              44.90449199984075
            ],
            [
              -73.38158999999303,
              44.84935399982125
            ],
            [
              -73.37945199973537,
              44.83801000019156
            ],
            [
              -73.33504400015889,
              44.804109000129486
            ],
            [
              -73.33315399959834,
              44.788759000077214
            ],
            [
              -73.36556199997896,
              44.74178600005549
            ],
            [
              -73.36130800010325,
              44.694523999896056
            ],
            [
              -73.39023099981387,
              44.618353999715936
            ],
            [
              -73.3768490000456,
              44.599598999864
            ],
            [
              -73.37495000016253,
              44.575816999964005
            ],
            [
              -73.33875200041167,
              44.5480460002115
            ],
            [
              -73.30671300010198,
              44.50033499978849
            ],
            [
              -73.29362699971139,
              44.43890300019714
            ],
            [
              -73.33495000044756,
              44.364440000133946
            ],
            [
              -73.3127410001873,
              44.26541099975324
            ],
            [
              -73.32371500025948,
              44.24415999984496
            ],
            [
              -73.34337600018324,
              44.238190000081104
            ],
            [
              -73.36226600035315,
              44.20851800023396
            ],
            [
              -73.39062499999916,
              44.191068000083554
            ],
            [
              -73.40304500021789,
              44.144983999859484
            ],
            [
              -73.41613800028115,
              44.132355000092495
            ],
            [
              -73.41151199996143,
              44.11195199991209
            ],
            [
              -73.43790499977723,
              44.04512499981518
            ],
            [
              -73.4076449997,
              44.02111099985101
            ],
            [
              -73.40855400044443,
              43.93189400006909
            ],
            [
              -73.37416199979191,
              43.87624099980685
            ],
            [
              -73.38230899986833,
              43.856057999747186
            ],
            [
              -73.37258900032208,
              43.845353999755986
            ],
            [
              -73.39251700020954,
              43.82134000026343
            ],
            [
              -73.35076199965323,
              43.77138699996259
            ],
            [
              -73.36994399990121,
              43.7438549998807
            ],
            [
              -73.37061199972288,
              43.72532900015874
            ],
            [
              -73.40473900006155,
              43.69021399995136
            ],
            [
              -73.4264629998999,
              43.64259899968396
            ],
            [
              -73.4176689999182,
              43.621687000058195
            ],
            [
              -73.4312289999617,
              43.58828500017004
            ],
            [
              -73.3957679996295,
              43.56808699987378
            ],
            [
              -73.3832849996616,
              43.57720000012449
            ],
            [
              -73.38690099985287,
              43.590770000066726
            ],
            [
              -73.37246899977318,
              43.60484799983684
            ],
            [
              -73.37188999963995,
              43.624490000055076
            ],
            [
              -73.3064400002905,
              43.62833299969151
            ],
            [
              -73.29101899999876,
              43.59923500002415
            ],
            [
              -73.29732400009351,
              43.5793729997671
            ],
            [
              -73.25863099970961,
              43.564950000044796
            ],
            [
              -73.24157900022172,
              43.53495999977343
            ],
            [
              -73.27830599987708,
              42.83755800002334
            ],
            [
              -73.29094399965568,
              42.80192000022538
            ],
            [
              -73.2764210002377,
              42.74601899998954
            ],
            [
              -72.45841199973748,
              42.72693300027202
            ],
            [
              -72.49054700030663,
              42.772746999671895
            ],
            [
              -72.5154660003868,
              42.765629000070504
            ],
            [
              -72.5087369999695,
              42.77952199987482
            ],
            [
              -72.54151299969786,
              42.80709400000258
            ],
            [
              -72.5571239999604,
              42.85323600011383
            ],
            [
              -72.55262200038754,
              42.88504300001401
            ],
            [
              -72.53337999986515,
              42.89531200030388
            ],
            [
              -72.52449899984478,
              42.91514800003743
            ],
            [
              -72.53380800038563,
              42.952584999908744
            ],
            [
              -72.47371699967826,
              42.97212400026734
            ],
            [
              -72.46169999986569,
              42.982870999990965
            ],
            [
              -72.46251599982538,
              42.997445000141795
            ],
            [
              -72.44325900013266,
              43.007576999822696
            ],
            [
              -72.4626229999555,
              43.02578800008746
            ],
            [
              -72.46784199975383,
              43.052749999738005
            ],
            [
              -72.43398200027718,
              43.08445000001665
            ],
            [
              -72.44321399992681,
              43.102760000089674
            ],
            [
              -72.43282200036091,
              43.12023199998688
            ],
            [
              -72.45740499998209,
              43.147537000201936
            ],
            [
              -72.4439310001523,
              43.179778000013876
            ],
            [
              -72.45050800023361,
              43.19261099970304
            ],
            [
              -72.43822399955903,
              43.20291800027882
            ],
            [
              -72.43877299955501,
              43.25195899987671
            ],
            [
              -72.41603699993838,
              43.27023100022736
            ],
            [
              -72.39531499983256,
              43.31269599972285
            ],
            [
              -72.41055899967398,
              43.33112099994842
            ],
            [
              -72.38986800042859,
              43.35657200003193
            ],
            [
              -72.41264900025108,
              43.362279000188245
            ],
            [
              -72.41603699993838,
              43.37645400011089
            ],
            [
              -72.40350899976464,
              43.39158300026663
            ],
            [
              -72.39256900002765,
              43.4668839999829
            ],
            [
              -72.37999499982315,
              43.490032000322806
            ],
            [
              -72.39818700003416,
              43.510420000119574
            ],
            [
              -72.39609200033249,
              43.52341600021261
            ],
            [
              -72.38069699998002,
              43.54035500028504
            ],
            [
              -72.37982699959367,
              43.57416800028808
            ],
            [
              -72.32832700027507,
              43.60111400016259
            ],
            [
              -72.33482700036349,
              43.61795199976235
            ],
            [
              -72.30314899972882,
              43.66861900000844
            ],
            [
              -72.29970099976705,
              43.70610899973839
            ],
            [
              -72.27110500029457,
              43.733918000023365
            ],
            [
              -72.23417799972435,
              43.74596499981265
            ],
            [
              -72.20522999989939,
              43.770930000204125
            ],
            [
              -72.20553600022113,
              43.78458400021106
            ],
            [
              -72.18405099985905,
              43.80640399980529
            ],
            [
              -72.18461599974857,
              43.86414300005301
            ],
            [
              -72.16790700039236,
              43.86910899978716
            ],
            [
              -72.17210299964344,
              43.884985999994356
            ],
            [
              -72.12045099998889,
              43.91955500027287
            ],
            [
              -72.11834500041657,
              43.94653199978632
            ],
            [
              -72.0909399999242,
              43.9657800002582
            ],
            [
              -72.11437799969772,
              43.96805399971824
            ],
            [
              -72.11698700013359,
              43.994207000052576
            ],
            [
              -72.10276500011616,
              44.014577999881155
            ],
            [
              -72.09052700037064,
              44.009923999748516
            ],
            [
              -72.09542599960352,
              44.0217569997036
            ],
            [
              -72.08266899999923,
              44.021803000216615
            ],
            [
              -72.07831999968894,
              44.04337800009167
            ],
            [
              -72.06190099986263,
              44.04959600031652
            ],
            [
              -72.06809600035253,
              44.057377999777124
            ],
            [
              -72.04830499983412,
              44.069706999930226
            ],
            [
              -72.05286800040463,
              44.07630599985371
            ],
            [
              -72.03184099980196,
              44.078541999858174
            ],
            [
              -72.0452839996696,
              44.087308000041645
            ],
            [
              -72.03130600004967,
              44.10043000014077
            ],
            [
              -72.04787999968669,
              44.096585999724205
            ],
            [
              -72.05536999981207,
              44.110760000281736
            ],
            [
              -72.0332590003594,
              44.13141999972097
            ],
            [
              -72.04195700008167,
              44.13699800007659
            ],
            [
              -72.0418049997457,
              44.15666599975773
            ],
            [
              -72.04186699966998,
              44.15665200024775
            ]
          ]
        ]
      }
    }
  ]
}
