{
  "type": "FeatureCollection",
  "features": [
    {
      "type": "Feature",
      "id": "us-cd:118:08:01",
      "properties": {
        "boundary_id": "us-cd:118:08:01",
        "boundary_type": "congressional_district",
        "name": "Congressional District 1",
        "stateFips": "08",
        "congress": 118,
        "district": "01",
        "bbox": [
          -105.109924,
          39.614409,
          -104.599581,
          39.914178
        ]
      },
      "geometry": {
        "type": "Polygon",
        "coordinates": [
          [
            [
              -105.109883,
              39.629897
            ],
            [
              -105.073307,
              39.636563
            ],
            [
              -105.074454,
              39.644104
            ],
            [
              -105.053581,
              39.65116
            ],
            [
              -105.070833,
              39.649579
            ],
            [
              -105.067288,
              39.656879
            ],
            [
              -105.081453,
              39.662056
            ],
            [
              -105.081348,
              39.670133
            ],
            [
              -105.053256,
              39.667785
            ],
            [
              -105.06262,
              39.67928
            ],
            [
              -105.053221,
              39.682291
            ],
            [
              -105.053183,
              39.783797
            ],
            [
              -105.064405,
              39.79108
            ],
            [
              -104.97595,
              39.791038
            ],
            [
              -104.968716,
              39.798396
            ],
            [
              -104.968861,
              39.791041
            ],
            [
              -104.940476,
              39.794601
            ],
            [
              -104.927002,
              39.783778
            ],
            [
              -104.903439,
              39.783888
            ],
            [
              -104.903561,
              39.798391
            ],
            [
              -104.884474,
              39.798322
            ],
            [
              -104.884405,
              39.812815
            ],
            [
              -104.866074,
              39.812847
            ],
            [
              -104.866041,
              39.798386
            ],
            [
              -104.790895,
              39.798251
            ],
            [
              -104.790859,
              39.841802
            ],
            [
              -104.730962,
              39.845248
            ],
            [
              -104.73039,
              39.896131
            ],
            [
              -104.703311,
              39.895949
            ],
            [
              -104.692054,
              39.914178
            ],
            [
              -104.599581,
              39.899038
            ],
            [
              -104.605261,
              39.873114
            ],
            [
              -104.619152,
              39.87322
            ],
            [
              -104.619799,
              39.822417
            ],
            [
              -104.65539,
              39.822605
            ],
            [
              -104.655445,
              39.812999
            ],
            [
              -104.666182,
              39.813075
            ],
            [
              -104.666062,
              39.822791
            ],
            [
              -104.762462,
              39.823443
            ],
            [
              -104.762606,
              39.798433
            ],
            [
              -104.734399,
              39.798442
            ],
            [
              -104.734749,
              39.769211
            ],
            [
              -104.828163,
              39.772374
            ],
            [
              -104.856394,
              39.768581
            ],
            [
              -104.84694,
              39.754687
            ],
            [
              -104.879901,
              39.754652
            ],
            [
              -104.886613,
              39.729219
            ],
            [
              -104.865971,
              39.711053
            ],
            [
              -104.865962,
              39.696559
            ],
            [
              -104.903544,
              39.698535
            ],
            [
              -104.889308,
              39.682056
            ],
            [
              -104.903538,
              39.687376
            ],
            [
              -104.912811,
              39.678461
            ],
            [
              -104.890204,
              39.66451
            ],
            [
              -104.875981,
              39.664104
            ],
            [
              -104.870882,
              39.674764
            ],
            [
              -104.866334,
              39.660309
            ],
            [
              -104.847296,
              39.657102
            ],
            [
              -104.875573,
              39.64499
            ],
            [
              -104.88014,
              39.653057
            ],
            [
              -104.885264,
              39.624129
            ],
            [
              -104.913407,
              39.624083
            ],
            [
              -104.913227,
              39.638669
            ],
            [
              -104.931703,
              39.653044
            ],
            [
              -104.954983,
              39.652987
            ],
            [
              -104.973486,
              39.667684
            ],
            [
              -105.010941,
              39.660507
            ],
            [
              -105.008664,
              39.678627
            ],
            [
              -105.015696,
              39.678684
            ],
            [
              -105.0158,
              39.660508
            ],
            [
              -105.034615,
              39.653276
            ],
            [
              -105.034756,
              39.633177
            ],
            [
              -105.025422,
              39.628558
            ],
            [
              -105.059045,
              39.63876
            ],
            [
              -105.058232,
              39.614409
            ],
            [
              -105.097006,
              39.614514
            ],
            [
              -105.065141,
              39.618582
            ],
            [
              -105.080952,
              39.631327
            ],
            [
              -105.109924,
              39.627085
            ],
            [
              -105.109883,
              39.629897
            ]
          ]
        ]
      }
    },
    {
      "type": "Feature",
      "id": "us-cd:118:08:02",
      "properties": {
        "boundary_id": "us-cd:118:08:02",
        "boundary_type": "congressional_district",
        "name": "Congressional District 2",
        "stateFips": "08",
        "congress": 118,
        "district": "02",
        "bbox": [
          -107.442594,
          39.349469,
          -104.935353,
          41.0029672121675
        ]
      },
      "geometry": {
        "type": "Polygon",
        "coordinates": [
          [
            [
              -107.442594,
              40.334755
            ],
            [
              -107.432068,
              40.334879
            ],
            [
              -107.428813,
              40.542207
            ],
            [
              -107.371328,
              40.542399
            ],
            [
              -107.371487,
              40.600302
            ],
            [
              -107.314153,
              40.600281
            ],
            [
              -107.317793899405,
              41.0029672121675
            ],
            [
              -104.943371,
              40.9980837238089
            ],
            [
              -104.943127,
              40.903405
            ],
            [
              -104.965988,
              40.841357
            ],
            [
              -104.974654,
              40.841179
            ],
            [
              -104.989404,
              40.77471
            ],
            [
              -105.0002,
              40.761377
            ],
            [
              -105.000968,
              40.769616
            ],
            [
              -105.038002,
              40.765402
            ],
            [
              -105.03894,
              40.79824
            ],
            [
              -105.076118,
              40.798219
            ],
            [
              -105.07034,
              40.661534
            ],
            [
              -105.000663,
              40.653518
            ],
            [
              -104.999121,
              40.610916
            ],
            [
              -104.987609,
              40.602679
            ],
            [
              -104.99622,
              40.581381
            ],
            [
              -104.944194,
              40.580938
            ],
            [
              -104.935523,
              40.588467
            ],
            [
              -104.944013,
              40.582434
            ],
            [
              -104.935353,
              40.562642
            ],
            [
              -104.944735,
              40.565206
            ],
            [
              -104.948742,
              40.491741
            ],
            [
              -104.962866,
              40.498688
            ],
            [
              -104.963393,
              40.479442
            ],
            [
              -104.98206,
              40.479471
            ],
            [
              -104.981863,
              40.497571
            ],
            [
              -104.991363,
              40.497647
            ],
            [
              -104.992112,
              40.464725
            ],
            [
              -105.096481,
              40.465389
            ],
            [
              -105.096438,
              40.451018
            ],
            [
              -105.133091,
              40.45097
            ],
            [
              -105.115657,
              40.44384
            ],
            [
              -105.137645,
              40.443689
            ],
            [
              -105.133604,
              40.408146
            ],
            [
              -105.153638,
              40.407228
            ],
            [
              -105.15962,
              40.397273
            ],
            [
              -105.151109,
              40.381092
            ],
            [
              -105.150753,
              40.392937
            ],
            [
              -105.123309,
              40.392793
            ],
            [
              -105.119783,
              40.382267
            ],
            [
              -105.13035,
              40.384279
            ],
            [
              -105.131721,
              40.374795
            ],
            [
              -105.097159,
              40.378243
            ],
            [
              -105.110016,
              40.367244
            ],
            [
              -105.097261,
              40.363751
            ],
            [
              -105.105324,
              40.341747
            ],
            [
              -105.107586,
              40.349455
            ],
            [
              -105.135285,
              40.349502
            ],
            [
              -105.116032,
              40.347693
            ],
            [
              -105.12241,
              40.332856
            ],
            [
              -105.11457,
              40.336274
            ],
            [
              -105.13064,
              40.325245
            ],
            [
              -105.102803,
              40.325901
            ],
            [
              -105.112342,
              40.313558
            ],
            [
              -105.102451,
              40.261367
            ],
            [
              -105.055089,
              40.261793
            ],
            [
              -105.055076,
              40.232779
            ],
            [
              -105.027429,
              40.233014
            ],
            [
              -105.038535,
              40.231784
            ],
            [
              -105.026863,
              40.216862
            ],
            [
              -105.04588,
              40.211036
            ],
            [
              -105.0459,
              40.203727
            ],
            [
              -104.998476,
              40.196793
            ],
            [
              -104.998641,
              40.175159
            ],
            [
              -105.030284,
              40.174802
            ],
            [
              -105.036736,
              40.160304
            ],
            [
              -104.99869,
              40.157071
            ],
            [
              -104.989399,
              40.116959
            ],
            [
              -105.006881,
              40.116974
            ],
            [
              -105.006618,
              40.12783
            ],
            [
              -105.027931,
              40.12694
            ],
            [
              -105.041493,
              40.113122
            ],
            [
              -105.032132,
              40.101873
            ],
            [
              -105.042271,
              40.090229
            ],
            [
              -105.021002,
              40.083926
            ],
            [
              -105.013355,
              40.101059
            ],
            [
              -105.008357,
              40.087552
            ],
            [
              -104.980837,
              40.080317
            ],
            [
              -104.980048,
              40.029411
            ],
            [
              -104.999007,
              40.025776
            ],
            [
              -104.989647,
              40.007679
            ],
            [
              -105.052823,
              40.00026
            ],
            [
              -105.052889,
              39.957826
            ],
            [
              -105.071937,
              39.957938
            ],
            [
              -105.076637,
              39.943329
            ],
            [
              -105.109236,
              39.936135
            ],
            [
              -105.109409,
              39.925859
            ],
            [
              -105.118657,
              39.932965
            ],
            [
              -105.109333,
              39.95064
            ],
            [
              -105.128002,
              39.954173
            ],
            [
              -105.128165,
              39.939618
            ],
            [
              -105.147041,
              39.928938
            ],
            [
              -105.147143,
              39.913889
            ],
            [
              -105.238933,
              39.914367
            ],
            [
              -105.240265,
              39.865909
            ],
            [
              -105.303814,
              39.884161
            ],
            [
              -105.276073,
              39.843399
            ],
            [
              -105.332125,
              39.855328
            ],
            [
              -105.397948,
              39.84094
            ],
            [
              -105.398949,
              39.566056
            ],
            [
              -105.829662,
              39.564865
            ],
            [
              -105.815807,
              39.551976
            ],
            [
              -105.823206,
              39.529953
            ],
            [
              -105.845377,
              39.52375
            ],
            [
              -105.859507,
              39.531536
            ],
            [
              -105.868065,
              39.51949
            ],
            [
              -105.854117,
              39.50452
            ],
            [
              -105.879087,
              39.483767
            ],
            [
              -105.891974,
              39.484173
            ],
            [
              -105.905959,
              39.459657
            ],
            [
              -105.938663,
              39.458498
            ],
            [
              -105.944155,
              39.44091
            ],
            [
              -105.966786,
              39.438035
            ],
            [
              -105.951698,
              39.414619
            ],
            [
              -106.013851,
              39.386898
            ],
            [
              -106.021966,
              39.361713
            ],
            [
              -106.056096,
              39.358431
            ],
            [
              -106.097206,
              39.377987
            ],
            [
              -106.225627,
              39.37963
            ],
            [
              -106.251074,
              39.357832
            ],
            [
              -106.259075,
              39.362012
            ],
            [
              -106.283812,
              39.349469
            ],
            [
              -106.312371,
              39.362278
            ],
            [
              -106.358022,
              39.35514
            ],
            [
              -106.380633,
              39.37615
            ],
            [
              -106.400634,
              39.380962
            ],
            [
              -106.426487,
              39.361871
            ],
            [
              -106.509214,
              39.362298
            ],
            [
              -106.523824,
              39.393932
            ],
            [
              -106.543112,
              39.401888
            ],
            [
              -106.561086,
              39.42982
            ],
            [
              -106.646416,
              39.464231
            ],
            [
              -106.693594,
              39.45139
            ],
            [
              -106.74713,
              39.489753
            ],
            [
              -106.749414,
              39.527056
            ],
            [
              -106.763053,
              39.552951
            ],
            [
              -106.761292,
              39.595672
            ],
            [
              -106.740151,
              39.579642
            ],
            [
              -106.705472,
              39.587965
            ],
            [
              -106.668164,
              39.572744
            ],
            [
              -106.668052,
              39.595109
            ],
            [
              -106.74299,
              39.601464
            ],
            [
              -106.742909,
              39.610703
            ],
            [
              -106.695333,
              39.618868
            ],
            [
              -106.700641,
              39.6327
            ],
            [
              -106.705286,
              39.624346
            ],
            [
              -106.730383,
              39.624129
            ],
            [
              -106.72237,
              39.633344
            ],
            [
              -106.730579,
              39.633259
            ],
            [
              -106.727189,
              39.64192
            ],
            [
              -106.750156,
              39.654722
            ],
            [
              -106.781626,
              39.651977
            ],
            [
              -106.801323,
              39.660177
            ],
            [
              -106.823072,
              39.651577
            ],
            [
              -106.783753,
              39.639381
            ],
            [
              -106.783816,
              39.626315
            ],
            [
              -106.79461,
              39.628661
            ],
            [
              -106.783566,
              39.617767
            ],
            [
              -106.803999,
              39.617682
            ],
            [
              -106.804052,
              39.610308
            ],
            [
              -106.818786,
              39.610174
            ],
            [
              -106.818925,
              39.625058
            ],
            [
              -106.833701,
              39.632079
            ],
            [
              -106.845438,
              39.654981
            ],
            [
              -106.875562,
              39.652883
            ],
            [
              -106.860612,
              39.649785
            ],
            [
              -106.891256,
              39.638663
            ],
            [
              -106.884778,
              39.617016
            ],
            [
              -106.905909,
              39.630904
            ],
            [
              -106.925581,
              39.627381
            ],
            [
              -106.92561,
              39.638191
            ],
            [
              -106.93963,
              39.634538
            ],
            [
              -106.944369,
              39.609582
            ],
            [
              -106.938029,
              39.610119
            ],
            [
              -106.938136,
              39.595184
            ],
            [
              -106.91935,
              39.595334
            ],
            [
              -106.919652,
              39.580706
            ],
            [
              -106.972536,
              39.586435
            ],
            [
              -106.96695,
              39.615423
            ],
            [
              -106.958531,
              39.6197
            ],
            [
              -106.963146,
              39.638119
            ],
            [
              -106.975664,
              39.638184
            ],
            [
              -106.97203,
              39.655191
            ],
            [
              -107.027779,
              39.644067
            ],
            [
              -107.058816,
              39.654679
            ],
            [
              -107.113872,
              39.62489
            ],
            [
              -107.113672,
              39.919112
            ],
            [
              -107.033968,
              39.918913
            ],
            [
              -107.038097,
              40.225357
            ],
            [
              -107.439386,
              40.223379
            ],
            [
              -107.440109,
              40.249976
            ],
            [
              -107.442594,
              40.334755
            ]
          ]
        ]
      }
    },
    {
      "type": "Feature",
      "id": "us-cd:118:08:03",
      "properties": {
        "boundary_id": "us-cd:118:08:03",
        "boundary_type": "congressional_district",
        "name": "Congressional District 3",
        "stateFips": "08",
        "congress": 118,
        "district": "03",
        "bbox": [
          -109.060253,
          36.992729,
          -103.075938,
          41.0029672121675
        ]
      },
      "geometry": {
        "type": "Polygon",
        "coordinates": [
          [
            [
              -109.060253,
              38.599328
            ],
            [
              -109.051512,
              39.126095
            ],
            [
              -109.050076,
              41.000659
            ],
            [
              -107.317793899405,
              41.0029672121675
            ],
            [
              -107.314153,
              40.600281
            ],
            [
              -107.371487,
              40.600302
            ],
            [
              -107.371328,
              40.542399
            ],
            [
              -107.428813,
              40.542207
            ],
            [
              -107.432068,
              40.334879
            ],
            [
              -107.442594,
              40.334755
            ],
            [
              -107.439386,
              40.223379
            ],
            [
              -107.038097,
              40.225357
            ],
            [
              -107.033968,
              39.918913
            ],
            [
              -107.113672,
              39.919112
            ],
            [
              -107.113872,
              39.62489
            ],
            [
              -107.058816,
              39.654679
            ],
            [
              -107.027779,
              39.644067
            ],
            [
              -106.97203,
              39.655191
            ],
            [
              -106.975664,
              39.638184
            ],
            [
              -106.963146,
              39.638119
            ],
            [
              -106.958531,
              39.6197
            ],
            [
              -106.96695,
              39.615423
            ],
            [
              -106.972536,
              39.586435
            ],
            [
              -106.919652,
              39.580706
            ],
            [
              -106.91935,
              39.595334
            ],
            [
              -106.938136,
              39.595184
            ],
            [
              -106.938029,
              39.610119
            ],
            [
              -106.944369,
              39.609582
            ],
            [
              -106.93963,
              39.634538
            ],
            [
              -106.930193,
              39.638175
            ],
            [
              -106.925581,
              39.627381
            ],
            [
              -106.905909,
              39.630904
            ],
            [
              -106.884778,
              39.617016
            ],
            [
              -106.891256,
              39.638663
            ],
            [
              -106.860612,
              39.649785
            ],
            [
              -106.875562,
              39.652883
            ],
            [
              -106.845438,
              39.654981
            ],
            [
              -106.833701,
              39.632079
            ],
            [
              -106.818925,
              39.625058
            ],
            [
              -106.818786,
              39.610174
            ],
            [
              -106.804052,
              39.610308
            ],
            [
              -106.803999,
              39.617682
            ],
            [
              -106.783566,
              39.617767
            ],
            [
              -106.79461,
              39.628661
            ],
            [
              -106.783816,
              39.626315
            ],
            [
              -106.783753,
              39.639381
            ],
            [
              -106.824029,
              39.648684
            ],
            [
              -106.814591,
              39.657694
            ],
            [
              -106.735342,
              39.650951
            ],
            [
              -106.730579,
              39.633259
            ],
            [
              -106.72237,
              39.633344
            ],
            [
              -106.730383,
              39.624129
            ],
            [
              -106.705286,
              39.624346
            ],
            [
              -106.700641,
              39.6327
            ],
            [
              -106.695333,
              39.618868
            ],
            [
              -106.742909,
              39.610703
            ],
            [
              -106.74299,
              39.601464
            ],
            [
              -106.668052,
              39.595109
            ],
            [
              -106.668164,
              39.572744
            ],
            [
              -106.705472,
              39.587965
            ],
            [
              -106.740151,
              39.579642
            ],
            [
              -106.761292,
              39.595672
            ],
            [
              -106.763053,
              39.552951
            ],
            [
              -106.749414,
              39.527056
            ],
            [
              -106.753014,
              39.497656
            ],
            [
              -106.72895,
              39.480186
            ],
            [
              -106.728085,
              39.469161
            ],
            [
              -106.693594,
              39.45139
            ],
            [
              -106.646416,
              39.464231
            ],
            [
              -106.616809,
              39.457625
            ],
            [
              -106.549826,
              39.419886
            ],
            [
              -106.543112,
              39.401888
            ],
            [
              -106.523824,
              39.393932
            ],
            [
              -106.509214,
              39.362298
            ],
            [
              -106.426487,
              39.361871
            ],
            [
              -106.435104,
              39.347275
            ],
            [
              -106.432085,
              39.316698
            ],
            [
              -106.468272,
              39.307315
            ],
            [
              -106.485121,
              39.312566
            ],
            [
              -106.50269,
              39.298067
            ],
            [
              -106.504031,
              39.284761
            ],
            [
              -106.483292,
              39.272669
            ],
            [
              -106.48106,
              39.259888
            ],
            [
              -106.497349,
              39.242727
            ],
            [
              -106.489749,
              39.227718
            ],
            [
              -106.493649,
              39.198326
            ],
            [
              -106.511077,
              39.163532
            ],
            [
              -106.561265,
              39.155677
            ],
            [
              -106.558171,
              39.120223
            ],
            [
              -106.563989,
              39.106041
            ],
            [
              -106.586157,
              39.09405
            ],
            [
              -106.577551,
              39.05321
            ],
            [
              -106.597233,
              39.044821
            ],
            [
              -106.591692,
              39.024923
            ],
            [
              -106.599214,
              38.997994
            ],
            [
              -106.577161,
              38.990444
            ],
            [
              -106.554532,
              38.998757
            ],
            [
              -106.528389,
              38.980727
            ],
            [
              -106.526683,
              38.955411
            ],
            [
              -106.465032,
              38.910354
            ],
            [
              -106.437175,
              38.914906
            ],
            [
              -106.421831,
              38.928068
            ],
            [
              -106.402124,
              38.910617
            ],
            [
              -106.380836,
              38.925685
            ],
            [
              -106.37344,
              38.906608
            ],
            [
              -106.326099,
              38.911004
            ],
            [
              -106.321313,
              38.892599
            ],
            [
              -106.349261,
              38.855201
            ],
            [
              -106.364806,
              38.853081
            ],
            [
              -106.383592,
              38.824802
            ],
            [
              -106.416263,
              38.82385
            ],
            [
              -106.422726,
              38.808375
            ],
            [
              -106.41287,
              38.790911
            ],
            [
              -106.416665,
              38.727814
            ],
            [
              -106.425275,
              38.710307
            ],
            [
              -106.443493,
              38.709231
            ],
            [
              -106.451867,
              38.698343
            ],
            [
              -106.429545,
              38.651235
            ],
            [
              -106.379899,
              38.638483
            ],
            [
              -106.385368,
              38.624995
            ],
            [
              -106.363843,
              38.613625
            ],
            [
              -106.344619,
              38.568564
            ],
            [
              -106.354185,
              38.533384
            ],
            [
              -106.336308,
              38.49665
            ],
            [
              -106.311381,
              38.494652
            ],
            [
              -106.288933,
              38.461964
            ],
            [
              -106.272655,
              38.455196
            ],
            [
              -106.274119,
              38.446886
            ],
            [
              -106.245529,
              38.438905
            ],
            [
              -106.24694,
              38.422768
            ],
            [
              -106.075941,
              38.423788
            ],
            [
              -106.057982,
              38.444691
            ],
            [
              -106.058571,
              38.456945
            ],
            [
              -106.018054,
              38.453687
            ],
            [
              -105.996768,
              38.420303
            ],
            [
              -105.967933,
              38.408772
            ],
            [
              -105.944637,
              38.378638
            ],
            [
              -105.89364,
              38.346559
            ],
            [
              -105.858315,
              38.298359
            ],
            [
              -105.800013,
              38.269922
            ],
            [
              -105.787887,
              38.242056
            ],
            [
              -105.759438,
              38.228566
            ],
            [
              -105.699197,
              38.167973
            ],
            [
              -105.673042,
              38.159126
            ],
            [
              -105.670215,
              38.128554
            ],
            [
              -105.657663,
              38.117454
            ],
            [
              -105.66148,
              38.100912
            ],
            [
              -105.603527,
              38.031263
            ],
            [
              -105.597112,
              38.013638
            ],
            [
              -105.604636,
              38.005014
            ],
            [
              -105.581855,
              37.977972
            ],
            [
              -105.582616,
              37.965934
            ],
            [
              -105.560311,
              37.951886
            ],
            [
              -105.530378,
              37.953363
            ],
            [
              -105.473204,
              37.89597
            ],
            [
              -105.418689,
              37.889703
            ],
            [
              -105.324526,
              37.938434
            ],
            [
              -105.306574,
              37.932292
            ],
            [
              -105.300254,
              37.912488
            ],
            [
              -105.280549,
              37.901215
            ],
            [
              -105.249742,
              37.951521
            ],
            [
              -105.215366,
              37.97052
            ],
            [
              -105.194586,
              38.00756
            ],
            [
              -105.168652,
              38.018946
            ],
            [
              -105.147969,
              38.006239
            ],
            [
              -105.152491,
              37.992113
            ],
            [
              -105.131025,
              37.972681
            ],
            [
              -105.135647,
              37.965277
            ],
            [
              -105.126207,
              37.951534
            ],
            [
              -105.108507,
              37.943399
            ],
            [
              -105.0778,
              37.952964
            ],
            [
              -105.066056,
              37.944209
            ],
            [
              -105.0632,
              37.916976
            ],
            [
              -105.049917,
              37.915479
            ],
            [
              -105.049215,
              38.257973
            ],
            [
              -104.940366,
              38.258275
            ],
            [
              -104.941533,
              38.519569
            ],
            [
              -104.053921,
              38.522393
            ],
            [
              -104.058242,
              38.146492
            ],
            [
              -104.047045,
              38.141389
            ],
            [
              -103.994696,
              38.146654
            ],
            [
              -103.974991,
              38.140336
            ],
            [
              -103.974378,
              38.132119
            ],
            [
              -103.914396,
              38.12476
            ],
            [
              -103.906194,
              38.13486
            ],
            [
              -103.900662,
              38.125409
            ],
            [
              -103.866262,
              38.12876
            ],
            [
              -103.835616,
              38.11334
            ],
            [
              -103.619172,
              38.113355
            ],
            [
              -103.619283,
              38.171455
            ],
            [
              -103.509364,
              38.172514
            ],
            [
              -103.51006,
              38.265169
            ],
            [
              -103.399938,
              38.265435
            ],
            [
              -103.404339,
              37.643576
            ],
            [
              -103.075938,
              37.64342
            ],
            [
              -103.086102011771,
              37.0001738632313
            ],
            [
              -105.029228,
              36.992729
            ],
            [
              -109.045223,
              36.999084
            ],
            [
              -109.041762,
              38.16469
            ],
            [
              -109.060062,
              38.275489
            ],
            [
              -109.059962121448,
              38.500028459545
            ],
            [
              -109.060253,
              38.599328
            ]
          ]
        ]
      }
    },
    {
      "type": "Feature",
      "id": "us-cd:118:08:04",
      "properties": {
        "boundary_id": "us-cd:118:08:04",
        "boundary_type": "congressional_district",
        "name": "Congressional District 4",
        "stateFips": "08",
        "congress": 118,
        "district": "04",
        "bbox": [
          -105.329445,
          36.993016,
          -102.042089,
          41.002377
        ]
      },
      "geometry": {
        "type": "Polygon",
        "coordinates": [
          [
            [
              -105.327393,
              39.130873
            ],
            [
              -105.313063,
              39.160019
            ],
            [
              -105.287377,
              39.179442
            ],
            [
              -105.282929,
              39.199953
            ],
            [
              -105.259735,
              39.210905
            ],
            [
              -105.263568,
              39.228811
            ],
            [
              -105.253567,
              39.243156
            ],
            [
              -105.235631,
              39.244261
            ],
            [
              -105.23458,
              39.255091
            ],
            [
              -105.217833,
              39.260115
            ],
            [
              -105.220778,
              39.268662
            ],
            [
              -105.202576,
              39.293321
            ],
            [
              -105.207681,
              39.298194
            ],
            [
              -105.196,
              39.302082
            ],
            [
              -105.182305,
              39.329797
            ],
            [
              -105.187837,
              39.334186
            ],
            [
              -105.166574,
              39.361754
            ],
            [
              -105.170963,
              39.407825
            ],
            [
              -105.123471,
              39.434313
            ],
            [
              -105.134993,
              39.470785
            ],
            [
              -105.086751,
              39.493423
            ],
            [
              -105.077745,
              39.536706
            ],
            [
              -105.060714,
              39.559941
            ],
            [
              -104.791098,
              39.565974
            ],
            [
              -104.746365,
              39.558696
            ],
            [
              -104.736628,
              39.565888
            ],
            [
              -104.736728,
              39.551261
            ],
            [
              -104.679556,
              39.550707
            ],
            [
              -104.679311,
              39.5659
            ],
            [
              -104.642125,
              39.56589
            ],
            [
              -104.642013,
              39.574308
            ],
            [
              -104.660783,
              39.574349
            ],
            [
              -104.650932,
              39.608695
            ],
            [
              -104.660414,
              39.62391
            ],
            [
              -104.659964,
              39.652938
            ],
            [
              -104.678801,
              39.652873
            ],
            [
              -104.679012,
              39.638495
            ],
            [
              -104.686466,
              39.638337
            ],
            [
              -104.679026,
              39.638194
            ],
            [
              -104.679155,
              39.620324
            ],
            [
              -104.697751,
              39.631157
            ],
            [
              -104.716297,
              39.629392
            ],
            [
              -104.722797,
              39.60135
            ],
            [
              -104.742372,
              39.61176
            ],
            [
              -104.738231,
              39.623976
            ],
            [
              -104.753997,
              39.624002
            ],
            [
              -104.75247,
              39.652914
            ],
            [
              -104.734896,
              39.652975
            ],
            [
              -104.735058,
              39.638452
            ],
            [
              -104.719428,
              39.638549
            ],
            [
              -104.725708,
              39.638635
            ],
            [
              -104.725537,
              39.667512
            ],
            [
              -104.584314,
              39.666991
            ],
            [
              -104.583639,
              39.703211
            ],
            [
              -104.618886,
              39.688574
            ],
            [
              -104.622058,
              39.710788
            ],
            [
              -104.650227,
              39.711334
            ],
            [
              -104.678247,
              39.739994
            ],
            [
              -104.640656,
              39.738083
            ],
            [
              -104.65008,
              39.738923
            ],
            [
              -104.650126,
              39.725534
            ],
            [
              -104.622053,
              39.725472
            ],
            [
              -104.612384,
              39.753935
            ],
            [
              -104.589114,
              39.746341
            ],
            [
              -104.602222,
              39.739878
            ],
            [
              -104.536399,
              39.739383
            ],
            [
              -104.545793,
              39.753246
            ],
            [
              -104.526975,
              39.755218
            ],
            [
              -104.526952,
              39.739317
            ],
            [
              -104.470924,
              39.738438
            ],
            [
              -104.470669,
              39.766762
            ],
            [
              -104.489134,
              39.767137
            ],
            [
              -104.489294,
              39.825005
            ],
            [
              -104.619743,
              39.826852
            ],
            [
              -104.619152,
              39.87322
            ],
            [
              -104.605261,
              39.873114
            ],
            [
              -104.599581,
              39.899038
            ],
            [
              -104.640361,
              39.906711
            ],
            [
              -104.64064,
              40.000575
            ],
            [
              -104.697142,
              40.00051
            ],
            [
              -104.697909,
              40.01569
            ],
            [
              -104.652042,
              40.064681
            ],
            [
              -104.655993,
              40.080451
            ],
            [
              -104.621675,
              40.089451
            ],
            [
              -104.621701,
              40.101834
            ],
            [
              -104.64508,
              40.100796
            ],
            [
              -104.640725,
              40.116923
            ],
            [
              -104.603138,
              40.116665
            ],
            [
              -104.602356,
              40.275998
            ],
            [
              -104.527583,
              40.27601
            ],
            [
              -104.527162,
              40.319618
            ],
            [
              -104.489641,
              40.319642
            ],
            [
              -104.489495,
              40.348694
            ],
            [
              -104.462177,
              40.348175
            ],
            [
              -104.41557,
              40.32554
            ],
            [
              -104.42251,
              40.359525
            ],
            [
              -104.447091,
              40.37475
            ],
            [
              -104.4888,
              40.379447
            ],
            [
              -104.489039,
              40.391885
            ],
            [
              -104.508137,
              40.399261
            ],
            [
              -104.507785,
              40.464485
            ],
            [
              -104.470235,
              40.464755
            ],
            [
              -104.47999,
              40.493622
            ],
            [
              -104.507839,
              40.478868
            ],
            [
              -104.507594,
              40.49347
            ],
            [
              -104.659143,
              40.4935
            ],
            [
              -104.658851,
              40.508594
            ],
            [
              -104.832153,
              40.508907
            ],
            [
              -104.832409,
              40.479828
            ],
            [
              -104.851476,
              40.478613
            ],
            [
              -104.835116,
              40.476898
            ],
            [
              -104.841901,
              40.46463
            ],
            [
              -104.816269,
              40.45863
            ],
            [
              -104.841822,
              40.461486
            ],
            [
              -104.841437,
              40.443439
            ],
            [
              -104.858362,
              40.439972
            ],
            [
              -104.870107,
              40.414064
            ],
            [
              -104.874487,
              40.421293
            ],
            [
              -104.907026,
              40.42155
            ],
            [
              -104.907292,
              40.40721
            ],
            [
              -104.941785,
              40.40707
            ],
            [
              -104.963927,
              40.421715
            ],
            [
              -104.964324,
              40.407195
            ],
            [
              -104.992378,
              40.405014
            ],
            [
              -105.002528,
              40.379803
            ],
            [
              -104.981677,
              40.349165
            ],
            [
              -105.097342,
              40.34948
            ],
            [
              -105.097261,
              40.363751
            ],
            [
              -105.110016,
              40.367244
            ],
            [
              -105.097159,
              40.378243
            ],
            [
              -105.131721,
              40.374795
            ],
            [
              -105.13035,
              40.384279
            ],
            [
              -105.119783,
              40.382267
            ],
            [
              -105.125337,
              40.393658
            ],
            [
              -105.150753,
              40.392937
            ],
            [
              -105.151109,
              40.381092
            ],
            [
              -105.157058,
              40.389413
            ],
            [
              -105.153638,
              40.407228
            ],
            [
              -105.133604,
              40.408146
            ],
            [
              -105.137645,
              40.443689
            ],
            [
              -105.115657,
              40.44384
            ],
            [
              -105.133091,
              40.45097
            ],
            [
              -105.096438,
              40.451018
            ],
            [
              -105.096481,
              40.465389
            ],
            [
              -104.992112,
              40.464725
            ],
            [
              -104.991363,
              40.497647
            ],
            [
              -104.981863,
              40.497571
            ],
            [
              -104.98206,
              40.479471
            ],
            [
              -104.963393,
              40.479442
            ],
            [
              -104.962866,
              40.498688
            ],
            [
              -104.948742,
              40.491741
            ],
            [
              -104.944735,
              40.565206
            ],
            [
              -104.935353,
              40.562642
            ],
            [
              -104.944013,
              40.582434
            ],
            [
              -104.935523,
              40.588467
            ],
            [
              -104.944194,
              40.580938
            ],
            [
              -104.99622,
              40.581381
            ],
            [
              -104.987609,
              40.602679
            ],
            [
              -104.999121,
              40.610916
            ],
            [
              -105.000663,
              40.653518
            ],
            [
              -105.07034,
              40.661534
            ],
            [
              -105.076118,
              40.798219
            ],
            [
              -105.03894,
              40.79824
            ],
            [
              -105.038002,
              40.765402
            ],
            [
              -105.000968,
              40.769616
            ],
            [
              -105.0002,
              40.761377
            ],
            [
              -104.989404,
              40.77471
            ],
            [
              -104.974654,
              40.841179
            ],
            [
              -104.965988,
              40.841357
            ],
            [
              -104.943127,
              40.903405
            ],
            [
              -104.943371,
              40.9980837238089
            ],
            [
              -102.051614,
              41.002377
            ],
            [
              -102.042089,
              36.993016
            ],
            [
              -103.086102011771,
              37.0001738632313
            ],
            [
              -103.075938,
              37.64342
            ],
            [
              -103.404339,
              37.643576
            ],
            [
              -103.399938,
              38.265435
            ],
            [
              -103.51006,
              38.265169
            ],
            [
              -103.509364,
              38.172514
            ],
            [
              -103.619283,
              38.171455
            ],
            [
              -103.619172,
              38.113355
            ],
            [
              -103.835616,
              38.11334
            ],
            [
              -103.866262,
              38.12876
            ],
            [
              -103.900662,
              38.125409
            ],
            [
              -103.906194,
              38.13486
            ],
            [
              -103.914396,
              38.12476
            ],
            [
              -103.974378,
              38.132119
            ],
            [
              -103.974991,
              38.140336
            ],
            [
              -103.994696,
              38.146654
            ],
            [
              -104.047045,
              38.141389
            ],
            [
              -104.058242,
              38.146492
            ],
            [
              -104.053921,
              38.522393
            ],
            [
              -104.275471,
              38.521133
            ],
            [
              -104.276781,
              38.781439
            ],
            [
              -104.313743,
              38.781304
            ],
            [
              -104.313699,
              38.85338
            ],
            [
              -104.277716,
              38.85324
            ],
            [
              -104.277657,
              38.874657
            ],
            [
              -104.29112,
              38.863353
            ],
            [
              -104.351551,
              38.867451
            ],
            [
              -104.351064,
              38.881992
            ],
            [
              -104.332654,
              38.882015
            ],
            [
              -104.331588,
              38.925534
            ],
            [
              -104.350172,
              38.925304
            ],
            [
              -104.349812,
              38.939715
            ],
            [
              -104.331392,
              38.939902
            ],
            [
              -104.331003,
              38.954298
            ],
            [
              -104.367867,
              38.954055
            ],
            [
              -104.36792,
              38.997526
            ],
            [
              -104.386332,
              38.997218
            ],
            [
              -104.386428,
              39.026218
            ],
            [
              -104.404752,
              39.026191
            ],
            [
              -104.404838,
              39.041041
            ],
            [
              -104.54808,
              39.042547
            ],
            [
              -104.551765,
              39.129427
            ],
            [
              -105.329445,
              39.129487
            ],
            [
              -105.327393,
              39.130873
            ]
          ]
        ]
      }
    },
    {
      "type": "Feature",
      "id": "us-cd:118:08:05",
      "properties": {
        "boundary_id": "us-cd:118:08:05",
        "boundary_type": "congressional_district",
        "name": "Congressional District 5",
        "stateFips": "08",
        "congress": 118,
        "district": "05",
        "bbox": [
          -105.072529,
          38.519569,
          -104.275471,
          39.129783
        ]
      },
      "geometry": {
        "type": "Polygon",
        "coordinates": [
          [
            [
              -105.072529,
              38.8084
            ],
            [
              -105.066441,
              38.869177
            ],
            [
              -105.028633,
              38.86873
            ],
            [
              -105.027342,
              38.930811
            ],
            [
              -105.009242,
              38.927137
            ],
            [
              -105.013405,
              38.941403
            ],
            [
              -105.027212,
              38.941615
            ],
            [
              -105.033473,
              39.129783
            ],
            [
              -104.551765,
              39.129427
            ],
            [
              -104.54808,
              39.042547
            ],
            [
              -104.404838,
              39.041041
            ],
            [
              -104.404752,
              39.026191
            ],
            [
              -104.386428,
              39.026218
            ],
            [
              -104.386332,
              38.997218
            ],
            [
              -104.36792,
              38.997526
            ],
            [
              -104.367867,
              38.954055
            ],
            [
              -104.331003,
              38.954298
            ],
            [
              -104.331392,
              38.939902
            ],
            [
              -104.349812,
              38.939715
            ],
            [
              -104.350172,
              38.925304
            ],
            [
              -104.331588,
              38.925534
            ],
            [
              -104.332654,
              38.882015
            ],
            [
              -104.351064,
              38.881992
            ],
            [
              -104.351551,
              38.867451
            ],
            [
              -104.29112,
              38.863353
            ],
            [
              -104.277657,
              38.874657
            ],
            [
              -104.277716,
              38.85324
            ],
            [
              -104.313699,
              38.85338
            ],
            [
              -104.313743,
              38.781304
            ],
            [
              -104.276781,
              38.781439
            ],
            [
              -104.275471,
              38.521133
            ],
            [
              -104.941533,
              38.519569
            ],
            [
              -104.939869,
              38.796543
            ],
            [
              -105.072457,
              38.805007
            ],
            [
              -105.072529,
              38.8084
            ]
          ]
        ]
      }
    },
    {
      "type": "Feature",
      "id": "us-cd:118:08:06",
      "properties": {
        "boundary_id": "us-cd:118:08:06",
        "boundary_type": "congressional_district",
        "name": "Congressional District 6",
        "stateFips": "08",
        "congress": 118,
        "district": "06",
        "bbox": [
          -105.157331,
          39.536173,
          -104.470669,
          39.826852
        ]
      },
      "geometry": {
        "type": "Polygon",
        "coordinates": [
          [
            [
              -105.156317,
              39.600319
            ],
            [
              -105.135588,
              39.589156
            ],
            [
              -105.110172,
              39.593044
            ],
            [
              -105.109975,
              39.609734
            ],
            [
              -105.053625,
              39.609665
            ],
            [
              -105.059045,
              39.63876
            ],
            [
              -105.025422,
              39.628558
            ],
            [
              -105.034756,
              39.633177
            ],
            [
              -105.034615,
              39.653276
            ],
            [
              -105.0158,
              39.660508
            ],
            [
              -105.015696,
              39.678684
            ],
            [
              -105.006357,
              39.676759
            ],
            [
              -105.010941,
              39.660507
            ],
            [
              -104.973486,
              39.667684
            ],
            [
              -104.954983,
              39.652987
            ],
            [
              -104.931703,
              39.653044
            ],
            [
              -104.913227,
              39.638669
            ],
            [
              -104.913407,
              39.624083
            ],
            [
              -104.885264,
              39.624129
            ],
            [
              -104.88014,
              39.653057
            ],
            [
              -104.875573,
              39.64499
            ],
            [
              -104.847296,
              39.657102
            ],
            [
              -104.866334,
              39.660309
            ],
            [
              -104.870882,
              39.674764
            ],
            [
              -104.875981,
              39.664104
            ],
            [
              -104.890204,
              39.66451
            ],
            [
              -104.912811,
              39.678461
            ],
            [
              -104.903538,
              39.687376
            ],
            [
              -104.889308,
              39.682056
            ],
            [
              -104.903544,
              39.698535
            ],
            [
              -104.865962,
              39.696559
            ],
            [
              -104.865971,
              39.711053
            ],
            [
              -104.886613,
              39.729219
            ],
            [
              -104.884664,
              39.747467
            ],
            [
              -104.879901,
              39.754652
            ],
            [
              -104.84694,
              39.754687
            ],
            [
              -104.856394,
              39.768581
            ],
            [
              -104.78156,
              39.776483
            ],
            [
              -104.734749,
              39.769211
            ],
            [
              -104.734399,
              39.798442
            ],
            [
              -104.762606,
              39.798433
            ],
            [
              -104.762462,
              39.823443
            ],
            [
              -104.666062,
              39.822791
            ],
            [
              -104.666182,
              39.813075
            ],
            [
              -104.655445,
              39.812999
            ],
            [
              -104.65539,
              39.822605
            ],
            [
              -104.619743,
              39.826852
            ],
            [
              -104.489294,
              39.825005
            ],
            [
              -104.489134,
              39.767137
            ],
            [
              -104.470669,
              39.766762
            ],
            [
              -104.470924,
              39.738438
            ],
            [
              -104.526952,
              39.739317
            ],
            [
              -104.526975,
              39.755218
            ],
            [
              -104.545793,
              39.753246
            ],
            [
              -104.536399,
              39.739383
            ],
            [
              -104.602222,
              39.739878
            ],
            [
              -104.589114,
              39.746341
            ],
            [
              -104.612384,
              39.753935
            ],
            [
              -104.622053,
              39.725472
            ],
            [
              -104.650126,
              39.725534
            ],
            [
              -104.65008,
              39.738923
            ],
            [
              -104.640656,
              39.738083
            ],
            [
              -104.678247,
              39.739994
            ],
            [
              -104.650227,
              39.711334
            ],
            [
              -104.622058,
              39.710788
            ],
            [
              -104.618886,
              39.688574
            ],
            [
              -104.583639,
              39.703211
            ],
            [
              -104.584314,
              39.666991
            ],
            [
              -104.725537,
              39.667512
            ],
            [
              -104.725708,
              39.638635
            ],
            [
              -104.719428,
              39.638549
            ],
            [
              -104.735058,
              39.638452
            ],
            [
              -104.734896,
              39.652975
            ],
            [
              -104.75247,
              39.652914
            ],
            [
              -104.753997,
              39.624002
            ],
            [
              -104.738231,
              39.623976
            ],
            [
              -104.742372,
              39.61176
            ],
            [
              -104.722797,
              39.60135
            ],
            [
              -104.716297,
              39.629392
            ],
            [
              -104.697751,
              39.631157
            ],
            [
              -104.679155,
              39.620324
            ],
            [
              -104.679026,
              39.638194
            ],
            [
              -104.686466,
              39.638337
            ],
            [
              -104.679012,
              39.638495
            ],
            [
              -104.678801,
              39.652873
            ],
            [
              -104.659964,
              39.652938
            ],
            [
              -104.660414,
              39.62391
            ],
            [
              -104.650932,
              39.608695
            ],
            [
              -104.660783,
              39.574349
            ],
            [
              -104.642013,
              39.574308
            ],
            [
              -104.642125,
              39.56589
            ],
            [
              -104.679311,
              39.5659
            ],
            [
              -104.679556,
              39.550707
            ],
            [
              -104.736728,
              39.551261
            ],
            [
              -104.736628,
              39.565888
            ],
            [
              -104.746365,
              39.558696
            ],
            [
              -104.774389,
              39.565847
            ],
            [
              -105.04874,
              39.566088
            ],
            [
              -105.073045,
              39.545265
            ],
            [
              -105.11101,
              39.536173
            ],
            [
              -105.10689,
              39.547159
            ],
            [
              -105.133792,
              39.552663
            ],
            [
              -105.157331,
              39.598047
            ],
            [
              -105.156317,
              39.600319
            ]
          ]
        ]
      }
    },
    {
      "type": "Feature",
      "id": "us-cd:118:08:07",
      "properties": {
        "boundary_id": "us-cd:118:08:07",
        "boundary_type": "congressional_district",
        "name": "Congressional District 7",
        "stateFips": "08",
        "congress": 118,
        "district": "07",
        "bbox": [
          -106.599516,
          37.890527,
          -104.939869,
          40.044144
        ]
      },
      "geometry": {
        "type": "Polygon",
        "coordinates": [
          [
            [
              -106.598936,
              39.036768
            ],
            [
              -106.577551,
              39.05321
            ],
            [
              -106.586157,
              39.09405
            ],
            [
              -106.563989,
              39.106041
            ],
            [
              -106.558171,
              39.120223
            ],
            [
              -106.561265,
              39.155677
            ],
            [
              -106.511077,
              39.163532
            ],
            [
              -106.493649,
              39.198326
            ],
            [
              -106.489749,
              39.227718
            ],
            [
              -106.497349,
              39.242727
            ],
            [
              -106.48106,
              39.259888
            ],
            [
              -106.483292,
              39.272669
            ],
            [
              -106.504031,
              39.284761
            ],
            [
              -106.50269,
              39.298067
            ],
            [
              -106.485121,
              39.312566
            ],
            [
              -106.468272,
              39.307315
            ],
            [
              -106.432085,
              39.316698
            ],
            [
              -106.43348,
              39.354174
            ],
            [
              -106.403925,
              39.379848
            ],
            [
              -106.380633,
              39.37615
            ],
            [
              -106.358022,
              39.35514
            ],
            [
              -106.312371,
              39.362278
            ],
            [
              -106.283812,
              39.349469
            ],
            [
              -106.259075,
              39.362012
            ],
            [
              -106.251074,
              39.357832
            ],
            [
              -106.225627,
              39.37963
            ],
            [
              -106.097206,
              39.377987
            ],
            [
              -106.056096,
              39.358431
            ],
            [
              -106.034717,
              39.358376
            ],
            [
              -106.017619,
              39.365503
            ],
            [
              -106.016364,
              39.38439
            ],
            [
              -105.993025,
              39.401561
            ],
            [
              -105.951698,
              39.414619
            ],
            [
              -105.966786,
              39.438035
            ],
            [
              -105.944155,
              39.44091
            ],
            [
              -105.938663,
              39.458498
            ],
            [
              -105.905959,
              39.459657
            ],
            [
              -105.891974,
              39.484173
            ],
            [
              -105.879087,
              39.483767
            ],
            [
              -105.854117,
              39.50452
            ],
            [
              -105.868065,
              39.51949
            ],
            [
              -105.859507,
              39.531536
            ],
            [
              -105.845377,
              39.52375
            ],
            [
              -105.823206,
              39.529953
            ],
            [
              -105.815807,
              39.551976
            ],
            [
              -105.829662,
              39.564865
            ],
            [
              -105.398949,
              39.566056
            ],
            [
              -105.397948,
              39.84094
            ],
            [
              -105.332125,
              39.855328
            ],
            [
              -105.276073,
              39.843399
            ],
            [
              -105.303814,
              39.884161
            ],
            [
              -105.240265,
              39.865909
            ],
            [
              -105.238933,
              39.914367
            ],
            [
              -105.147143,
              39.913889
            ],
            [
              -105.147041,
              39.928938
            ],
            [
              -105.128165,
              39.939618
            ],
            [
              -105.128002,
              39.954173
            ],
            [
              -105.109333,
              39.95064
            ],
            [
              -105.118657,
              39.932965
            ],
            [
              -105.109409,
              39.925859
            ],
            [
              -105.109236,
              39.936135
            ],
            [
              -105.076637,
              39.943329
            ],
            [
              -105.071937,
              39.957938
            ],
            [
              -105.052889,
              39.957826
            ],
            [
              -105.052823,
              40.00026
            ],
            [
              -104.989647,
              40.007679
            ],
            [
              -104.999007,
              40.025776
            ],
            [
              -104.980048,
              40.029411
            ],
            [
              -104.979242,
              40.043758
            ],
            [
              -104.961157,
              40.044144
            ],
            [
              -104.961405,
              40.000337
            ],
            [
              -104.980944,
              40.000325
            ],
            [
              -104.987784,
              39.975746
            ],
            [
              -104.99708,
              39.973954
            ],
            [
              -104.988159,
              39.968466
            ],
            [
              -104.997118,
              39.968528
            ],
            [
              -104.997423,
              39.981213
            ],
            [
              -105.015845,
              39.981193
            ],
            [
              -105.016835,
              39.953117
            ],
            [
              -104.997025,
              39.943239
            ],
            [
              -105.015657,
              39.943131
            ],
            [
              -105.015469,
              39.921309
            ],
            [
              -105.052892,
              39.914224
            ],
            [
              -105.05327,
              39.820028
            ],
            [
              -105.04411,
              39.817488
            ],
            [
              -105.050026,
              39.803115
            ],
            [
              -105.040499,
              39.802874
            ],
            [
              -105.065005,
              39.790321
            ],
            [
              -105.053183,
              39.783797
            ],
            [
              -105.053221,
              39.682291
            ],
            [
              -105.06262,
              39.67928
            ],
            [
              -105.053256,
              39.667785
            ],
            [
              -105.081451,
              39.667743
            ],
            [
              -105.067288,
              39.656879
            ],
            [
              -105.070833,
              39.649579
            ],
            [
              -105.053581,
              39.65116
            ],
            [
              -105.074454,
              39.644104
            ],
            [
              -105.073307,
              39.636563
            ],
            [
              -105.109875,
              39.635072
            ],
            [
              -105.109924,
              39.627085
            ],
            [
              -105.080952,
              39.631327
            ],
            [
              -105.065141,
              39.618582
            ],
            [
              -105.097006,
              39.614514
            ],
            [
              -105.05808,
              39.617503
            ],
            [
              -105.053625,
              39.609665
            ],
            [
              -105.109975,
              39.609734
            ],
            [
              -105.110172,
              39.593044
            ],
            [
              -105.135588,
              39.589156
            ],
            [
              -105.157331,
              39.598047
            ],
            [
              -105.133792,
              39.552663
            ],
            [
              -105.10689,
              39.547159
            ],
            [
              -105.11101,
              39.536173
            ],
            [
              -105.073045,
              39.545265
            ],
            [
              -105.078402,
              39.51149
            ],
            [
              -105.091353,
              39.48928
            ],
            [
              -105.117646,
              39.485392
            ],
            [
              -105.134993,
              39.470785
            ],
            [
              -105.123471,
              39.434313
            ],
            [
              -105.170963,
              39.407825
            ],
            [
              -105.166574,
              39.361754
            ],
            [
              -105.187837,
              39.334186
            ],
            [
              -105.182305,
              39.329797
            ],
            [
              -105.196,
              39.302082
            ],
            [
              -105.207681,
              39.298194
            ],
            [
              -105.202576,
              39.293321
            ],
            [
              -105.220778,
              39.268662
            ],
            [
              -105.217204,
              39.261175
            ],
            [
              -105.23458,
              39.255091
            ],
            [
              -105.235631,
              39.244261
            ],
            [
              -105.253567,
              39.243156
            ],
            [
              -105.263568,
              39.228811
            ],
            [
              -105.259735,
              39.210905
            ],
            [
              -105.282929,
              39.199953
            ],
            [
              -105.287377,
              39.179442
            ],
            [
              -105.313063,
              39.160019
            ],
            [
              -105.329445,
              39.129487
            ],
            [
              -105.033473,
              39.129783
            ],
            [
              -105.027212,
              38.941615
            ],
            [
              -105.013405,
              38.941403
            ],
            [
              -105.009242,
              38.927137
            ],
            [
              -105.027342,
              38.930811
            ],
            [
              -105.028633,
              38.86873
            ],
            [
              -105.066441,
              38.869177
            ],
            [
              -105.072184,
              38.799382
            ],
            [
              -104.939869,
              38.796543
            ],
            [
              -104.940366,
              38.258275
            ],
            [
              -105.049215,
              38.257973
            ],
            [
              -105.049917,
              37.915479
            ],
            [
              -105.0632,
              37.916976
            ],
            [
              -105.066056,
              37.944209
            ],
            [
              -105.0778,
              37.952964
            ],
            [
              -105.108507,
              37.943399
            ],
            [
              -105.126207,
              37.951534
            ],
            [
              -105.135647,
              37.965277
            ],
            [
              -105.131025,
              37.972681
            ],
            [
              -105.152491,
              37.992113
            ],
            [
              -105.147969,
              38.006239
            ],
            [
              -105.168652,
              38.018946
            ],
            [
              -105.194586,
              38.00756
            ],
            [
              -105.215366,
              37.97052
            ],
            [
              -105.249742,
              37.951521
            ],
            [
              -105.280549,
              37.901215
            ],
            [
              -105.297431,
              37.909349
            ],
            [
              -105.317081,
              37.938949
            ],
            [
              -105.377088,
              37.916102
            ],
            [
              -105.413635,
              37.890527
            ],
            [
              -105.473204,
              37.89597
            ],
            [
              -105.530378,
              37.953363
            ],
            [
              -105.560311,
              37.951886
            ],
            [
              -105.583922,
              37.967196
            ],
            [
              -105.581855,
              37.977972
            ],
            [
              -105.604636,
              38.005014
            ],
            [
              -105.597112,
              38.013638
            ],
            [
              -105.603527,
              38.031263
            ],
            [
              -105.66148,
              38.100912
            ],
            [
              -105.657663,
              38.117454
            ],
            [
              -105.670215,
              38.128554
            ],
            [
              -105.673042,
              38.159126
            ],
            [
              -105.699197,
              38.167973
            ],
            [
              -105.759438,
              38.228566
            ],
            [
              -105.787887,
              38.242056
            ],
            [
              -105.800013,
              38.269922
            ],
            [
              -105.858315,
              38.298359
            ],
            [
              -105.89364,
              38.346559
            ],
            [
              -105.944637,
              38.378638
            ],
            [
              -105.967933,
              38.408772
            ],
            [
              -105.996768,
              38.420303
            ],
            [
              -106.018054,
              38.453687
            ],
            [
              -106.058571,
              38.456945
            ],
            [
              -106.057982,
              38.444691
            ],
            [
              -106.075941,
              38.423788
            ],
            [
              -106.24694,
              38.422768
            ],
            [
              -106.245529,
              38.438905
            ],
            [
              -106.274119,
              38.446886
            ],
            [
              -106.272655,
              38.455196
            ],
            [
              -106.288933,
              38.461964
            ],
            [
              -106.311381,
              38.494652
            ],
            [
              -106.330975,
              38.493905
            ],
            [
              -106.34423,
              38.50459
            ],
            [
              -106.342597,
              38.521537
            ],
            [
              -106.355386,
              38.542371
            ],
            [
              -106.344619,
              38.568564
            ],
            [
              -106.363843,
              38.613625
            ],
            [
              -106.385368,
              38.624995
            ],
            [
              -106.379899,
              38.638483
            ],
            [
              -106.429545,
              38.651235
            ],
            [
              -106.451867,
              38.698343
            ],
            [
              -106.443493,
              38.709231
            ],
            [
              -106.425275,
              38.710307
            ],
            [
              -106.416665,
              38.727814
            ],
            [
              -106.41287,
              38.790911
            ],
            [
              -106.422726,
              38.808375
            ],
            [
              -106.416263,
              38.82385
            ],
            [
              -106.383592,
              38.824802
            ],
            [
              -106.364806,
              38.853081
            ],
            [
              -106.349261,
              38.855201
            ],
            [
              -106.321313,
              38.892599
            ],
            [
              -106.326099,
              38.911004
            ],
            [
              -106.37344,
              38.906608
            ],
            [
              -106.380836,
              38.925685
            ],
            [
              -106.402124,
              38.910617
            ],
            [
              -106.421831,
              38.928068
            ],
            [
              -106.437175,
              38.914906
            ],
            [
              -106.465032,
              38.910354
            ],
            [
              -106.526683,
              38.955411
            ],
            [
              -106.528389,
              38.980727
            ],
            [
              -106.554532,
              38.998757
            ],
            [
              -106.595509,
              38.991277
            ],
            [
              -106.591692,
              39.024923
            ],
            [
              -106.599516,
              39.033788
            ],
            [
              -106.598936,
              39.036768
            ]
          ]
        ]
      }
    },
    {
      "type": "Feature",
      "id": "us-cd:118:08:08",
      "properties": {
        "boundary_id": "us-cd:118:08:08",
        "boundary_type": "congressional_district",
        "name": "Congressional District 8",
        "stateFips": "08",
        "congress": 118,
        "district": "08",
        "bbox": [
          -105.13533,
          39.783776,
          -104.414489,
          40.510183
        ]
      },
      "geometry": {
        "type": "Polygon",
        "coordinates": [
          [
            [
              -105.135285,
              40.349502
            ],
            [
              -105.107586,
              40.349455
            ],
            [
              -105.107634,
              40.341748
            ],
            [
              -105.105201,
              40.349463
            ],
            [
              -104.981677,
              40.349165
            ],
            [
              -105.002528,
              40.379803
            ],
            [
              -104.990923,
              40.406267
            ],
            [
              -104.964324,
              40.407195
            ],
            [
              -104.963927,
              40.421715
            ],
            [
              -104.941785,
              40.40707
            ],
            [
              -104.907292,
              40.40721
            ],
            [
              -104.907026,
              40.42155
            ],
            [
              -104.874487,
              40.421293
            ],
            [
              -104.870107,
              40.414064
            ],
            [
              -104.858362,
              40.439972
            ],
            [
              -104.841437,
              40.443439
            ],
            [
              -104.841822,
              40.461486
            ],
            [
              -104.816269,
              40.45863
            ],
            [
              -104.841901,
              40.46463
            ],
            [
              -104.835116,
              40.476898
            ],
            [
              -104.851476,
              40.478613
            ],
            [
              -104.832409,
              40.479828
            ],
            [
              -104.832396,
              40.508821
            ],
            [
              -104.734877,
              40.510183
            ],
            [
              -104.658851,
              40.508594
            ],
            [
              -104.659143,
              40.4935
            ],
            [
              -104.507594,
              40.49347
            ],
            [
              -104.507839,
              40.478868
            ],
            [
              -104.47999,
              40.493622
            ],
            [
              -104.470235,
              40.464755
            ],
            [
              -104.507785,
              40.464485
            ],
            [
              -104.508137,
              40.399261
            ],
            [
              -104.489039,
              40.391885
            ],
            [
              -104.4888,
              40.379447
            ],
            [
              -104.445922,
              40.374335
            ],
            [
              -104.414489,
              40.349188
            ],
            [
              -104.41557,
              40.32554
            ],
            [
              -104.462177,
              40.348175
            ],
            [
              -104.489495,
              40.348694
            ],
            [
              -104.489641,
              40.319642
            ],
            [
              -104.527162,
              40.319618
            ],
            [
              -104.527583,
              40.27601
            ],
            [
              -104.602356,
              40.275998
            ],
            [
              -104.603138,
              40.116665
            ],
            [
              -104.640725,
              40.116923
            ],
            [
              -104.64508,
              40.100796
            ],
            [
              -104.621701,
              40.101834
            ],
            [
              -104.621675,
              40.089451
            ],
            [
              -104.655993,
              40.080451
            ],
            [
              -104.652042,
              40.064681
            ],
            [
              -104.697909,
              40.01569
            ],
            [
              -104.697142,
              40.00051
            ],
            [
              -104.64064,
              40.000575
            ],
            [
              -104.640361,
              39.906711
            ],
            [
              -104.692054,
              39.914178
            ],
            [
              -104.703311,
              39.895949
            ],
            [
              -104.73039,
              39.896131
            ],
            [
              -104.730962,
              39.845248
            ],
            [
              -104.790859,
              39.841802
            ],
            [
              -104.790895,
              39.798251
            ],
            [
              -104.866041,
              39.798386
            ],
            [
              -104.866074,
              39.812847
            ],
            [
              -104.884405,
              39.812815
            ],
            [
              -104.884474,
              39.798322
            ],
            [
              -104.901416,
              39.800202
            ],
            [
              -104.903439,
              39.783888
            ],
            [
              -104.922274,
              39.783776
            ],
            [
              -104.940476,
              39.794601
            ],
            [
              -104.968861,
              39.791041
            ],
            [
              -104.968716,
              39.798396
            ],
            [
              -104.97595,
              39.791038
            ],
            [
              -105.053246,
              39.791063
            ],
            [
              -105.052886,
              39.800863
            ],
            [
              -105.040499,
              39.802874
            ],
            [
              -105.050026,
              39.803115
            ],
            [
              -105.04411,
              39.817488
            ],
            [
              -105.05327,
              39.820028
            ],
            [
              -105.052892,
              39.914224
            ],
            [
              -105.015469,
              39.921309
            ],
            [
              -105.015657,
              39.943131
            ],
            [
              -104.997025,
              39.943239
            ],
            [
              -105.016835,
              39.953117
            ],
            [
              -105.015845,
              39.981193
            ],
            [
              -104.997423,
              39.981213
            ],
            [
              -104.997118,
              39.968528
            ],
            [
              -104.988159,
              39.968466
            ],
            [
              -104.99708,
              39.973954
            ],
            [
              -104.987784,
              39.975746
            ],
            [
              -104.980944,
              40.000325
            ],
            [
              -104.961405,
              40.000337
            ],
            [
              -104.961157,
              40.044144
            ],
            [
              -104.98143,
              40.044031
            ],
            [
              -104.980837,
              40.080317
            ],
            [
              -105.008357,
              40.087552
            ],
            [
              -105.008335,
              40.100201
            ],
            [
              -105.021002,
              40.083926
            ],
            [
              -105.041564,
              40.087816
            ],
            [
              -105.032082,
              40.109622
            ],
            [
              -105.041493,
              40.113122
            ],
            [
              -105.027931,
              40.12694
            ],
            [
              -105.006618,
              40.12783
            ],
            [
              -105.006881,
              40.116974
            ],
            [
              -104.989399,
              40.116959
            ],
            [
              -104.99869,
              40.157071
            ],
            [
              -105.036736,
              40.160304
            ],
            [
              -105.030284,
              40.174802
            ],
            [
              -104.998641,
              40.175159
            ],
            [
              -104.998476,
              40.196793
            ],
            [
              -105.0459,
              40.203727
            ],
            [
              -105.04588,
              40.211036
            ],
            [
              -105.026863,
              40.216862
            ],
            [
              -105.038535,
              40.231784
            ],
            [
              -105.027429,
              40.233014
            ],
            [
              -105.055076,
              40.232779
            ],
            [
              -105.055089,
              40.261793
            ],
            [
              -105.102451,
              40.261367
            ],
            [
              -105.112342,
              40.313558
            ],
            [
              -105.102803,
              40.325901
            ],
            [
              -105.13064,
              40.325245
            ],
            [
              -105.11457,
              40.336274
            ],
            [
              -105.12241,
              40.332856
            ],
            [
              -105.116032,
              40.347693
            ],
            [
              -105.13533,
              40.347638
            ],
            [
              -105.135285,
              40.349502
            ]
          ]
        ]
      }
    }
  ]
}
