{
  "type": "FeatureCollection",
  "features": [
    {
      "type": "Feature",
      "id": "us-cd:119:49:01",
      "properties": {
        "boundary_id": "us-cd:119:49:01",
        "boundary_type": "congressional_district",
        "name": "1",
        "stateFips": "49",
        "congress": 119,
        "district": "01",
        "bbox": [
          -114.04201600037408,
          40.67739100022497,
          -110.85182699960426,
          42.00170199996529
        ]
      },
      "geometry": {
        "type": "Polygon",
        "coordinates": [
          [
            [
              -114.04201600037408,
              41.00156199985754
            ],
            [
              -112.79935900011084,
              40.999939000233184
            ],
            [
              -112.45162100001627,
              41.08733400024096
            ],
            [
              -112.12677099987431,
              41.089215999686836
            ],
            [
              -112.09749099978829,
              41.0352880003078
            ],
            [
              -112.06569099985319,
              41.02181500031394
            ],
            [
              -112.04429400025299,
              40.98962199995035
            ],
            [
              -112.00450000040236,
              40.98531400020895
            ],
            [
              -111.98044800033551,
              40.994038000153715
            ],
            [
              -111.97033399970564,
              40.98627199997615
            ],
            [
              -111.9309320003905,
              40.99617600012559
            ],
            [
              -111.93088800000956,
              41.00859899977598
            ],
            [
              -111.89222800013596,
              41.016527999850915
            ],
            [
              -111.87304500006306,
              40.974777000237445
            ],
            [
              -111.88001999962933,
              40.95216599987779
            ],
            [
              -111.86486899967434,
              40.91476500009961
            ],
            [
              -111.85340000003283,
              40.914829999976455
            ],
            [
              -111.86303300043878,
              40.90351700024804
            ],
            [
              -111.84760999959887,
              40.900021000165104
            ],
            [
              -111.83915799992394,
              40.878387000244224
            ],
            [
              -111.81537100017096,
              40.88557499970884
            ],
            [
              -111.81555399957075,
              40.8711400001973
            ],
            [
              -111.83462700003878,
              40.871175999887924
            ],
            [
              -111.83428999975489,
              40.85612200020279
            ],
            [
              -111.85344299969051,
              40.856436000185994
            ],
            [
              -111.85338199959116,
              40.8346679999706
            ],
            [
              -111.91555499958136,
              40.82181599984432
            ],
            [
              -111.91828500039107,
              40.80746900032421
            ],
            [
              -111.89110099983164,
              40.774250000193476
            ],
            [
              -111.89108099974014,
              40.74977500022967
            ],
            [
              -111.83032100028451,
              40.745492000049815
            ],
            [
              -111.83087399958015,
              40.687082000134275
            ],
            [
              -111.7767370002366,
              40.69053400027295
            ],
            [
              -111.78152500003971,
              40.70900699982879
            ],
            [
              -111.76818699975405,
              40.71089799999141
            ],
            [
              -111.60634400018934,
              40.71286200019525
            ],
            [
              -111.58664100043279,
              40.69943600023787
            ],
            [
              -111.58730199968346,
              40.6897630000155
            ],
            [
              -111.55774600031124,
              40.686906999732116
            ],
            [
              -111.55825400029937,
              40.67739100022497
            ],
            [
              -111.5085240000941,
              40.6866400000937
            ],
            [
              -111.47289100023276,
              40.682781000297446
            ],
            [
              -111.47233300001595,
              40.69755099969537
            ],
            [
              -111.46239500001148,
              40.68314200010706
            ],
            [
              -111.43687000003392,
              40.680587000166376
            ],
            [
              -111.43392000001452,
              40.739012000119814
            ],
            [
              -111.37932800038631,
              40.737891000251366
            ],
            [
              -111.3760250001895,
              40.75286900015765
            ],
            [
              -111.4078279995993,
              40.77361899980933
            ],
            [
              -111.40118500029406,
              40.813079999873075
            ],
            [
              -111.32789000009366,
              40.799840000087976
            ],
            [
              -111.3039779997689,
              40.807134000054376
            ],
            [
              -111.29973300011403,
              40.80038899987204
            ],
            [
              -111.24610700023334,
              40.81105600010539
            ],
            [
              -111.1816729999618,
              40.80885299974431
            ],
            [
              -111.16113199960591,
              40.82440000012902
            ],
            [
              -111.0912049998997,
              40.83010500004927
            ],
            [
              -111.04651899959056,
              40.846915000338
            ],
            [
              -110.99471999962292,
              40.85029399981523
            ],
            [
              -110.96722299996736,
              40.83806900027341
            ],
            [
              -110.96008199982141,
              40.84567199972705
            ],
            [
              -110.96768099972675,
              40.84805399978617
            ],
            [
              -110.9215979996749,
              40.86140900015749
            ],
            [
              -110.90286800023684,
              40.89782100032379
            ],
            [
              -110.87248000011311,
              40.91853400011806
            ],
            [
              -110.85182699960426,
              40.96362999974997
            ],
            [
              -110.87205699961548,
              40.99720899999768
            ],
            [
              -111.04681499986657,
              40.99787500010102
            ],
            [
              -111.04671399958423,
              42.00170199996529
            ],
            [
              -112.7056840001114,
              42.00015099970423
            ],
            [
              -113.87334899995753,
              41.988181999870925
            ],
            [
              -114.04147700042382,
              41.993872999699974
            ],
            [
              -114.04194799970372,
              41.010250999946926
            ],
            [
              -114.04201600037408,
              41.00156199985754
            ]
          ]
        ]
      }
    },
    {
      "type": "Feature",
      "id": "us-cd:119:49:02",
      "properties": {
        "boundary_id": "us-cd:119:49:02",
        "boundary_type": "congressional_district",
        "name": "2",
        "stateFips": "49",
        "congress": 119,
        "district": "02",
        "bbox": [
          -114.05288499996597,
          37.00019099985032,
          -109.88666100006222,
          41.089215999686836
        ]
      },
      "geometry": {
        "type": "Polygon",
        "coordinates": [
          [
            [
              -114.05288499996597,
              37.55313699984919
            ],
            [
              -114.05005200012243,
              37.00019099985032
            ],
            [
              -111.37143800022783,
              37.00158900019328
            ],
            [
              -111.32939800016449,
              37.02101299978552
            ],
            [
              -111.30549300041075,
              37.0130179997246
            ],
            [
              -111.30621099956282,
              37.026628000285164
            ],
            [
              -111.28166200027685,
              37.04172500033768
            ],
            [
              -111.30300299980057,
              37.04683300023916
            ],
            [
              -111.29975800022838,
              37.0667550000561
            ],
            [
              -111.26817900022625,
              37.05407300018514
            ],
            [
              -111.24218300007047,
              37.02135400013154
            ],
            [
              -111.22988099985254,
              37.03889800009338
            ],
            [
              -111.24784899975755,
              37.04924800027591
            ],
            [
              -111.24028400018742,
              37.067743000312575
            ],
            [
              -111.21786700041302,
              37.05687199994063
            ],
            [
              -111.17751699999536,
              37.10271900000664
            ],
            [
              -111.16608299961564,
              37.105511999672785
            ],
            [
              -111.13915900024553,
              37.08861300018668
            ],
            [
              -111.12173899961329,
              37.10804900024935
            ],
            [
              -111.06540200008779,
              37.107872999939254
            ],
            [
              -111.0535839995685,
              37.098883999919224
            ],
            [
              -111.01337200014146,
              37.11570500003557
            ],
            [
              -110.98907099965427,
              37.111703000284365
            ],
            [
              -110.98184699966767,
              37.12719300023322
            ],
            [
              -110.95662399981389,
              37.12577100032942
            ],
            [
              -110.95369800008392,
              37.15192100004118
            ],
            [
              -110.92858900003299,
              37.154563000356966
            ],
            [
              -110.92507999997184,
              37.17778999964256
            ],
            [
              -110.90227400003502,
              37.17276500008365
            ],
            [
              -110.88897199973435,
              37.19882299994756
            ],
            [
              -110.8980350002279,
              37.21494799964425
            ],
            [
              -110.87508000032815,
              37.228534000261035
            ],
            [
              -110.8881719996682,
              37.24890499997655
            ],
            [
              -110.86074100013487,
              37.2601160003058
            ],
            [
              -110.873246999669,
              37.286504999972045
            ],
            [
              -110.83774199985419,
              37.30338600000581
            ],
            [
              -110.84079099960779,
              37.31837599974515
            ],
            [
              -110.86724600024617,
              37.32783699964401
            ],
            [
              -110.87326000008781,
              37.34593000009456
            ],
            [
              -110.85740899962575,
              37.348810000021494
            ],
            [
              -110.8045059998183,
              37.32093099995992
            ],
            [
              -110.75906600037209,
              37.333024999862545
            ],
            [
              -110.75169199969933,
              37.352849000291776
            ],
            [
              -110.73578199968604,
              37.34639700020021
            ],
            [
              -110.72246000019221,
              37.3722670002224
            ],
            [
              -110.75328400033406,
              37.40452400027565
            ],
            [
              -110.71753500012176,
              37.40107299984988
            ],
            [
              -110.69948000017811,
              37.43209000012885
            ],
            [
              -110.72608600042923,
              37.435733000161164
            ],
            [
              -110.74758299958856,
              37.45848599984668
            ],
            [
              -110.72601600010903,
              37.45951100033322
            ],
            [
              -110.71805800017849,
              37.481513000219216
            ],
            [
              -110.667608000273,
              37.47765900028405
            ],
            [
              -110.64019799975776,
              37.48601999995348
            ],
            [
              -110.66767799969489,
              37.49616899974138
            ],
            [
              -110.66392400030969,
              37.518368000029255
            ],
            [
              -110.63664000019114,
              37.55352999990513
            ],
            [
              -110.59970699977312,
              37.56869600025504
            ],
            [
              -110.60297099961188,
              37.60337400024937
            ],
            [
              -110.5673889998042,
              37.61374499968003
            ],
            [
              -110.5590400000614,
              37.64226400013007
            ],
            [
              -110.53779700044697,
              37.63323700017917
            ],
            [
              -110.51356499955678,
              37.65693999989247
            ],
            [
              -110.49824399972245,
              37.6517379998801
            ],
            [
              -110.48442400028625,
              37.682183999941586
            ],
            [
              -110.48835099992385,
              37.7023229996766
            ],
            [
              -110.45021699958167,
              37.734770000149716
            ],
            [
              -110.44527999981565,
              37.76066500026183
            ],
            [
              -110.42609300044312,
              37.77538000010583
            ],
            [
              -110.46199999994084,
              37.77112999968386
            ],
            [
              -110.47696099992504,
              37.80001699996497
            ],
            [
              -110.46967800038722,
              37.80904699999984
            ],
            [
              -110.43748099989376,
              37.806977999768776
            ],
            [
              -110.43147600027301,
              37.83681300022111
            ],
            [
              -110.40274099998503,
              37.85217800010907
            ],
            [
              -110.40468500007394,
              37.88046599982857
            ],
            [
              -110.36211500028116,
              37.89256399999243
            ],
            [
              -110.30751600008195,
              37.890989000085845
            ],
            [
              -110.28327300021942,
              37.86592300010785
            ],
            [
              -110.269488000045,
              37.897550999763304
            ],
            [
              -110.2087949996382,
              37.89407100012307
            ],
            [
              -110.19840700027027,
              37.91592499980315
            ],
            [
              -110.20184900038426,
              37.94687699982753
            ],
            [
              -110.16801300029876,
              37.965018000114014
            ],
            [
              -110.13607600009631,
              38.005258999776665
            ],
            [
              -110.07838700013559,
              37.998173999839224
            ],
            [
              -110.07680100024697,
              38.02158600031246
            ],
            [
              -110.06478000023644,
              38.04227900032612
            ],
            [
              -110.045685999852,
              38.05027199996348
            ],
            [
              -110.04701800019575,
              38.070493000017535
            ],
            [
              -110.02603999999685,
              38.09722799980283
            ],
            [
              -110.01009999984636,
              38.1096850001659
            ],
            [
              -109.98688300000578,
              38.10052000027729
            ],
            [
              -109.9646729999206,
              38.11373199986475
            ],
            [
              -109.95615000010054,
              38.130352000066935
            ],
            [
              -109.92929199995434,
              38.140352000110745
            ],
            [
              -109.93092600042188,
              38.15878500013313
            ],
            [
              -109.88716599967728,
              38.18295899971843
            ],
            [
              -109.88666100006222,
              38.18988899998804
            ],
            [
              -109.90401999969677,
              38.19090799977218
            ],
            [
              -109.88780400026006,
              38.20787000028126
            ],
            [
              -109.92046600018558,
              38.22088199988608
            ],
            [
              -109.88852200031045,
              38.22971800003982
            ],
            [
              -109.89891100040163,
              38.2427839998228
            ],
            [
              -109.9182569997828,
              38.242770999684645
            ],
            [
              -109.90187999978927,
              38.256565000327164
            ],
            [
              -109.90750000034392,
              38.27057200024609
            ],
            [
              -109.93553599994975,
              38.262664999925214
            ],
            [
              -109.92823800034328,
              38.280541999994625
            ],
            [
              -109.94964199961619,
              38.29077899990707
            ],
            [
              -109.94637899960236,
              38.30919799981024
            ],
            [
              -109.9633489999728,
              38.31949199966213
            ],
            [
              -109.96499900033383,
              38.3318040000909
            ],
            [
              -109.94795600016846,
              38.33823500032191
            ],
            [
              -109.9412090002078,
              38.35364400007737
            ],
            [
              -109.95268100022238,
              38.35495899997219
            ],
            [
              -109.96331999966048,
              38.33960199987128
            ],
            [
              -109.98321300028616,
              38.35144299974386
            ],
            [
              -109.97668200023557,
              38.38899300004576
            ],
            [
              -110.01307199960706,
              38.364066999671515
            ],
            [
              -110.01024899980925,
              38.377605000227476
            ],
            [
              -110.03266200028402,
              38.38598499997861
            ],
            [
              -110.00312600010498,
              38.41410300003061
            ],
            [
              -110.02658800016795,
              38.44743200019957
            ],
            [
              -110.04431800042158,
              38.44901099982927
            ],
            [
              -110.0354969997774,
              38.45996100030523
            ],
            [
              -110.01075199977451,
              38.449493999938475
            ],
            [
              -110.00197700005937,
              38.48167799982225
            ],
            [
              -110.02528500013653,
              38.499982000075725
            ],
            [
              -111.30570099992488,
              38.49999800031196
            ],
            [
              -111.29936300021816,
              39.032310999713154
            ],
            [
              -111.85329700010067,
              39.032983999760624
            ],
            [
              -111.84988599994881,
              39.04557700032942
            ],
            [
              -112.01408299968128,
              39.04551800026205
            ],
            [
              -112.01600300037904,
              39.314560999946465
            ],
            [
              -112.0722179997058,
              39.31492300011279
            ],
            [
              -112.07210800010095,
              39.32969500013044
            ],
            [
              -112.1889220001232,
              39.329391999908914
            ],
            [
              -112.19327700028124,
              39.48983400033991
            ],
            [
              -112.20262600010673,
              39.48985799973264
            ],
            [
              -112.21196099968853,
              39.511579000212045
            ],
            [
              -112.2119730002824,
              39.52604200008421
            ],
            [
              -112.19324200012115,
              39.526023000005615
            ],
            [
              -112.19329200034987,
              39.540450999868185
            ],
            [
              -112.21204500025243,
              39.55398700032117
            ],
            [
              -112.3544670000929,
              39.5536839997574
            ],
            [
              -112.3008699996262,
              39.6461699997938
            ],
            [
              -112.20688800037838,
              39.709591999927824
            ],
            [
              -112.18003100005711,
              39.75739800028049
            ],
            [
              -112.11490399984953,
              39.75709999978047
            ],
            [
              -112.07675600016199,
              39.80012599978801
            ],
            [
              -112.06545300020183,
              39.82988999968728
            ],
            [
              -112.08129100024509,
              39.86476899982937
            ],
            [
              -112.05352400025279,
              39.89348199970701
            ],
            [
              -112.0852480000199,
              39.92549399996011
            ],
            [
              -112.10359000001873,
              39.9287670000239
            ],
            [
              -112.10342099996434,
              39.94699000013287
            ],
            [
              -112.09400299964354,
              39.95390400007237
            ],
            [
              -112.10986699962609,
              39.9737990002894
            ],
            [
              -112.1327289996394,
              39.977470999982096
            ],
            [
              -112.16032300027767,
              40.00698200004168
            ],
            [
              -112.17980000007842,
              40.01165600030816
            ],
            [
              -112.17198000024013,
              40.03957999988624
            ],
            [
              -112.1837690004471,
              40.059963999825165
            ],
            [
              -112.15089200043641,
              40.107297999716465
            ],
            [
              -112.17625099983431,
              40.13099899965873
            ],
            [
              -112.16776900002213,
              40.14666599982584
            ],
            [
              -112.17395000026832,
              40.15449100020964
            ],
            [
              -112.14438700032512,
              40.17348699980869
            ],
            [
              -112.15336100023188,
              40.18184699975726
            ],
            [
              -112.14862000028445,
              40.19567799980162
            ],
            [
              -112.16049900000476,
              40.19924500026636
            ],
            [
              -112.14948599957452,
              40.212173999774464
            ],
            [
              -112.17969299994829,
              40.23224000020932
            ],
            [
              -112.1793260004255,
              40.249365000331885
            ],
            [
              -112.19289800016458,
              40.26893899987356
            ],
            [
              -112.18735600032603,
              40.29203600021318
            ],
            [
              -112.19860499985951,
              40.306915000103544
            ],
            [
              -112.19618499956954,
              40.32601700000445
            ],
            [
              -112.1755329997839,
              40.33583700021644
            ],
            [
              -112.19471900022984,
              40.361330000331684
            ],
            [
              -112.18873399980221,
              40.372486999927084
            ],
            [
              -112.20160500010765,
              40.387991999762185
            ],
            [
              -112.19463899986388,
              40.42110900032859
            ],
            [
              -112.20952500040335,
              40.43226000030605
            ],
            [
              -112.21415800039573,
              40.452541000075875
            ],
            [
              -112.17156699978828,
              40.47118199990171
            ],
            [
              -112.18132800024073,
              40.49265099992327
            ],
            [
              -112.17584499995343,
              40.5001420001909
            ],
            [
              -112.18765000005392,
              40.51389900029904
            ],
            [
              -112.1787420002694,
              40.521910000214945
            ],
            [
              -112.18362499960872,
              40.57339400006684
            ],
            [
              -112.17533699996534,
              40.60398100022367
            ],
            [
              -112.19761700037071,
              40.62620599985081
            ],
            [
              -112.03501900004736,
              40.631229000176006
            ],
            [
              -112.02463400015414,
              40.638551000312034
            ],
            [
              -112.02474299993408,
              40.68207799968221
            ],
            [
              -111.83087399958015,
              40.687082000134275
            ],
            [
              -111.83032100028451,
              40.745492000049815
            ],
            [
              -111.89108099974014,
              40.74977500022967
            ],
            [
              -111.89110099983164,
              40.774250000193476
            ],
            [
              -111.91828500039107,
              40.80746900032421
            ],
            [
              -111.91555499958136,
              40.82181599984432
            ],
            [
              -111.85338199959116,
              40.8346679999706
            ],
            [
              -111.85344299969051,
              40.856436000185994
            ],
            [
              -111.83428999975489,
              40.85612200020279
            ],
            [
              -111.83462700003878,
              40.871175999887924
            ],
            [
              -111.81555399957075,
              40.8711400001973
            ],
            [
              -111.81537100017096,
              40.88557499970884
            ],
            [
              -111.83915799992394,
              40.878387000244224
            ],
            [
              -111.84760999959887,
              40.900021000165104
            ],
            [
              -111.86303300043878,
              40.90351700024804
            ],
            [
              -111.85340000003283,
              40.914829999976455
            ],
            [
              -111.86486899967434,
              40.91476500009961
            ],
            [
              -111.88001999962933,
              40.95216599987779
            ],
            [
              -111.87304500006306,
              40.974777000237445
            ],
            [
              -111.89222800013596,
              41.016527999850915
            ],
            [
              -111.93088800000956,
              41.00859899977598
            ],
            [
              -111.9309320003905,
              40.99617600012559
            ],
            [
              -111.97033399970564,
              40.98627199997615
            ],
            [
              -111.98044800033551,
              40.994038000153715
            ],
            [
              -112.0342549999662,
              40.98764300008112
            ],
            [
              -112.05025200001812,
              40.993296999690294
            ],
            [
              -112.06569099985319,
              41.02181500031394
            ],
            [
              -112.09700999956436,
              41.03474899999407
            ],
            [
              -112.12677099987431,
              41.089215999686836
            ],
            [
              -112.45162100001627,
              41.08733400024096
            ],
            [
              -112.79935900011084,
              40.999939000233184
            ],
            [
              -114.04202899989457,
              40.999896000112805
            ],
            [
              -114.05288499996597,
              37.55411700032238
            ],
            [
              -114.05288499996597,
              37.55313699984919
            ]
          ]
        ]
      }
    },
    {
      "type": "Feature",
      "id": "us-cd:119:49:03",
      "properties": {
        "boundary_id": "us-cd:119:49:03",
        "boundary_type": "congressional_district",
        "name": "3",
        "stateFips": "49",
        "congress": 119,
        "district": "03",
        "bbox": [
          -111.91428599988515,
          36.9989769999816,
          -109.04257199974066,
          41.00069099983698
        ]
      },
      "geometry": {
        "type": "Polygon",
        "coordinates": [
          [
            [
              -111.91428599988515,
              40.459196000117444
            ],
            [
              -111.879088000217,
              40.42094899999828
            ],
            [
              -111.80128899989563,
              40.370836000199276
            ],
            [
              -111.80054200043122,
              40.34236799995043
            ],
            [
              -111.78554200008897,
              40.33952599968435
            ],
            [
              -111.77929800009359,
              40.347660999710705
            ],
            [
              -111.77277700008875,
              40.34103799987241
            ],
            [
              -111.77226400007777,
              40.28014999982462
            ],
            [
              -111.7585869998584,
              40.27992199966743
            ],
            [
              -111.73056100029832,
              40.25665299966949
            ],
            [
              -111.74096200008506,
              40.23698500008964
            ],
            [
              -111.73169199990227,
              40.22349800030858
            ],
            [
              -111.73159700036604,
              40.19530000024131
            ],
            [
              -111.71822100044555,
              40.18215100018757
            ],
            [
              -111.73486200002972,
              40.1821909997093
            ],
            [
              -111.74756500010564,
              40.16645099986681
            ],
            [
              -111.72008500016852,
              40.15468999978299
            ],
            [
              -111.60065400021281,
              40.161055000098806
            ],
            [
              -111.59379900029715,
              40.171052000142325
            ],
            [
              -111.5599249996785,
              40.15227699982175
            ],
            [
              -111.51112400030914,
              40.15928700029962
            ],
            [
              -111.49277100043965,
              40.16605800000928
            ],
            [
              -111.49399499993004,
              40.194150999810674
            ],
            [
              -111.49887700034277,
              40.18908899967102
            ],
            [
              -111.50552700021902,
              40.19923100031972
            ],
            [
              -111.5025479998873,
              40.21287399986651
            ],
            [
              -111.5175780003668,
              40.24085199981736
            ],
            [
              -111.54237199987517,
              40.24719600030755
            ],
            [
              -111.54241500043119,
              40.26118699990734
            ],
            [
              -111.51309000013936,
              40.28259200028441
            ],
            [
              -111.45731599995524,
              40.30071400006491
            ],
            [
              -111.4266459997992,
              40.28702000007412
            ],
            [
              -111.37726399974845,
              40.29750700026582
            ],
            [
              -111.32844300028763,
              40.28227199985084
            ],
            [
              -111.31343100024979,
              40.28725500006288
            ],
            [
              -111.2648390002195,
              40.24227100026714
            ],
            [
              -111.27344900007817,
              40.22199399987255
            ],
            [
              -111.2252250002939,
              40.166367000030796
            ],
            [
              -111.23146699974117,
              40.14788800023739
            ],
            [
              -111.22152600026197,
              40.12452299988713
            ],
            [
              -111.2414590001723,
              40.0918180002825
            ],
            [
              -111.23588299999861,
              40.06963499973195
            ],
            [
              -111.24936699987411,
              40.05533400014192
            ],
            [
              -111.24620699979242,
              40.04746600011891
            ],
            [
              -111.22650099966283,
              40.03568600010435
            ],
            [
              -111.2038300003435,
              40.04929800005701
            ],
            [
              -111.19770799964854,
              40.03117900011032
            ],
            [
              -111.17166499963713,
              40.01065700019376
            ],
            [
              -111.16781400016755,
              39.99083200031738
            ],
            [
              -111.1430430002254,
              39.98695500004681
            ],
            [
              -111.11892099983838,
              39.96780000031244
            ],
            [
              -111.13124300014778,
              39.947392999926095
            ],
            [
              -111.08306100019632,
              39.94319800027248
            ],
            [
              -111.0831020002042,
              39.90005900012829
            ],
            [
              -110.85764700017543,
              39.899706999913725
            ],
            [
              -110.85778199989466,
              39.813014000043424
            ],
            [
              -111.24749599958014,
              39.81302800006482
            ],
            [
              -111.24774800037352,
              39.46719899987827
            ],
            [
              -111.30090499972587,
              39.46723700029998
            ],
            [
              -111.29843199973244,
              38.75180399968666
            ],
            [
              -111.29913800008727,
              38.67232900003623
            ],
            [
              -111.30701099962899,
              38.67233100026854
            ],
            [
              -111.30570099992488,
              38.49999800031196
            ],
            [
              -110.02528500013653,
              38.499982000075725
            ],
            [
              -110.00197700005937,
              38.48167799982225
            ],
            [
              -110.01075199977451,
              38.449493999938475
            ],
            [
              -110.0354969997774,
              38.45996100030523
            ],
            [
              -110.04431800042158,
              38.44901099982927
            ],
            [
              -110.02658800016795,
              38.44743200019957
            ],
            [
              -110.00312600010498,
              38.41410300003061
            ],
            [
              -110.03266200028402,
              38.38598499997861
            ],
            [
              -110.01024899980925,
              38.377605000227476
            ],
            [
              -110.01307199960706,
              38.364066999671515
            ],
            [
              -109.97668200023557,
              38.38899300004576
            ],
            [
              -109.98321300028616,
              38.35144299974386
            ],
            [
              -109.96331999966048,
              38.33960199987128
            ],
            [
              -109.95268100022238,
              38.35495899997219
            ],
            [
              -109.9412090002078,
              38.35364400007737
            ],
            [
              -109.94795600016846,
              38.33823500032191
            ],
            [
              -109.96499900033383,
              38.3318040000909
            ],
            [
              -109.9633489999728,
              38.31949199966213
            ],
            [
              -109.94637899960236,
              38.30919799981024
            ],
            [
              -109.94964199961619,
              38.29077899990707
            ],
            [
              -109.92823800034328,
              38.280541999994625
            ],
            [
              -109.93553599994975,
              38.262664999925214
            ],
            [
              -109.90750000034392,
              38.27057200024609
            ],
            [
              -109.90187999978927,
              38.256565000327164
            ],
            [
              -109.9182569997828,
              38.242770999684645
            ],
            [
              -109.89891100040163,
              38.2427839998228
            ],
            [
              -109.88852200031045,
              38.22971800003982
            ],
            [
              -109.92046600018558,
              38.22088199988608
            ],
            [
              -109.88780400026006,
              38.20787000028126
            ],
            [
              -109.90401999969677,
              38.19090799977218
            ],
            [
              -109.88666100006222,
              38.18988899998804
            ],
            [
              -109.88716599967728,
              38.18295899971843
            ],
            [
              -109.93092600042188,
              38.15878500013313
            ],
            [
              -109.92929199995434,
              38.140352000110745
            ],
            [
              -109.95615000010054,
              38.130352000066935
            ],
            [
              -109.9646729999206,
              38.11373199986475
            ],
            [
              -109.98688300000578,
              38.10052000027729
            ],
            [
              -110.01009999984636,
              38.1096850001659
            ],
            [
              -110.02603999999685,
              38.09722799980283
            ],
            [
              -110.04701800019575,
              38.070493000017535
            ],
            [
              -110.045685999852,
              38.05027199996348
            ],
            [
              -110.06478000023644,
              38.04227900032612
            ],
            [
              -110.07680100024697,
              38.02158600031246
            ],
            [
              -110.07838700013559,
              37.998173999839224
            ],
            [
              -110.13607600009631,
              38.005258999776665
            ],
            [
              -110.16801300029876,
              37.965018000114014
            ],
            [
              -110.20184900038426,
              37.94687699982753
            ],
            [
              -110.19840700027027,
              37.91592499980315
            ],
            [
              -110.2087949996382,
              37.89407100012307
            ],
            [
              -110.269488000045,
              37.897550999763304
            ],
            [
              -110.28327300021942,
              37.86592300010785
            ],
            [
              -110.30344299995619,
              37.8904970003085
            ],
            [
              -110.36211500028116,
              37.89256399999243
            ],
            [
              -110.40422099956845,
              37.8809459996545
            ],
            [
              -110.40274099998503,
              37.85217800010907
            ],
            [
              -110.43147600027301,
              37.83681300022111
            ],
            [
              -110.43748099989376,
              37.806977999768776
            ],
            [
              -110.46967800038722,
              37.80904699999984
            ],
            [
              -110.47696099992504,
              37.80001699996497
            ],
            [
              -110.46199999994084,
              37.77112999968386
            ],
            [
              -110.42609300044312,
              37.77538000010583
            ],
            [
              -110.44527999981565,
              37.76066500026183
            ],
            [
              -110.45021699958167,
              37.734770000149716
            ],
            [
              -110.48835099992385,
              37.7023229996766
            ],
            [
              -110.48442400028625,
              37.682183999941586
            ],
            [
              -110.49824399972245,
              37.6517379998801
            ],
            [
              -110.51356499955678,
              37.65693999989247
            ],
            [
              -110.53779700044697,
              37.63323700017917
            ],
            [
              -110.5590400000614,
              37.64226400013007
            ],
            [
              -110.5673889998042,
              37.61374499968003
            ],
            [
              -110.60297099961188,
              37.60337400024937
            ],
            [
              -110.59970699977312,
              37.56869600025504
            ],
            [
              -110.63664000019114,
              37.55352999990513
            ],
            [
              -110.66392400030969,
              37.518368000029255
            ],
            [
              -110.66767799969489,
              37.49616899974138
            ],
            [
              -110.64019799975776,
              37.48601999995348
            ],
            [
              -110.667608000273,
              37.47765900028405
            ],
            [
              -110.71805800017849,
              37.481513000219216
            ],
            [
              -110.72601600010903,
              37.45951100033322
            ],
            [
              -110.74758299958856,
              37.45848599984668
            ],
            [
              -110.72608600042923,
              37.435733000161164
            ],
            [
              -110.69948000017811,
              37.43209000012885
            ],
            [
              -110.71753500012176,
              37.40107299984988
            ],
            [
              -110.75328400033406,
              37.40452400027565
            ],
            [
              -110.72246000019221,
              37.3722670002224
            ],
            [
              -110.73578199968604,
              37.34639700020021
            ],
            [
              -110.75169199969933,
              37.352849000291776
            ],
            [
              -110.75906600037209,
              37.333024999862545
            ],
            [
              -110.8045059998183,
              37.32093099995992
            ],
            [
              -110.85740899962575,
              37.348810000021494
            ],
            [
              -110.87326000008781,
              37.34593000009456
            ],
            [
              -110.86724600024617,
              37.32783699964401
            ],
            [
              -110.84079099960779,
              37.31837599974515
            ],
            [
              -110.83859499962381,
              37.300217999675155
            ],
            [
              -110.8730480003757,
              37.28690400025671
            ],
            [
              -110.86074100013487,
              37.2601160003058
            ],
            [
              -110.88833599969973,
              37.24855800017273
            ],
            [
              -110.87505100001583,
              37.228899000246884
            ],
            [
              -110.89815200040378,
              37.21470500018689
            ],
            [
              -110.8904399996222,
              37.19306900032479
            ],
            [
              -110.90294500022975,
              37.172348000070706
            ],
            [
              -110.92507999997184,
              37.17778999964256
            ],
            [
              -110.93582800008821,
              37.14845500033667
            ],
            [
              -110.95449300012723,
              37.15125399968121
            ],
            [
              -110.9577229996308,
              37.124869999751
            ],
            [
              -110.98126699970952,
              37.12737700025207
            ],
            [
              -110.98839000031211,
              37.111906000250826
            ],
            [
              -111.01337200014146,
              37.11570500003557
            ],
            [
              -111.0526399995623,
              37.09891400016606
            ],
            [
              -111.06540200008779,
              37.107872999939254
            ],
            [
              -111.12173899961329,
              37.10804900024935
            ],
            [
              -111.13915900024553,
              37.08861300018668
            ],
            [
              -111.17594799982518,
              37.103271000209034
            ],
            [
              -111.21821600039246,
              37.056678000071436
            ],
            [
              -111.24028400018742,
              37.067743000312575
            ],
            [
              -111.24784899975755,
              37.04924800027591
            ],
            [
              -111.22988099985254,
              37.03889800009338
            ],
            [
              -111.23978500042011,
              37.02207100007341
            ],
            [
              -111.24951500001212,
              37.023708999718565
            ],
            [
              -111.26817900022625,
              37.05407300018514
            ],
            [
              -111.30006700002488,
              37.066744000101934
            ],
            [
              -111.30300299980057,
              37.04683300023916
            ],
            [
              -111.28166200027685,
              37.04172500033768
            ],
            [
              -111.30621099956282,
              37.026628000285164
            ],
            [
              -111.30623900005024,
              37.01255199983813
            ],
            [
              -111.32819499969219,
              37.02118299988431
            ],
            [
              -111.36815299957436,
              37.00203700011012
            ],
            [
              -111.41301399978568,
              37.0015039997974
            ],
            [
              -109.04517199995568,
              36.9989769999816
            ],
            [
              -109.04257199974066,
              38.15701599979706
            ],
            [
              -109.060204000085,
              38.27823799969793
            ],
            [
              -109.05002599988103,
              41.00069099983698
            ],
            [
              -110.87205699961548,
              40.99720899999768
            ],
            [
              -110.85182699960426,
              40.96362999974997
            ],
            [
              -110.85902100035194,
              40.94004500011956
            ],
            [
              -110.87608899973337,
              40.914492000054665
            ],
            [
              -110.90286800023684,
              40.89782100032379
            ],
            [
              -110.9215979996749,
              40.86140900015749
            ],
            [
              -110.96768099972675,
              40.84805399978617
            ],
            [
              -110.96008199982141,
              40.84567199972705
            ],
            [
              -110.96722299996736,
              40.83806900027341
            ],
            [
              -110.99471999962292,
              40.85029399981523
            ],
            [
              -111.04651899959056,
              40.846915000338
            ],
            [
              -111.0912049998997,
              40.83010500004927
            ],
            [
              -111.16113199960591,
              40.82440000012902
            ],
            [
              -111.1816729999618,
              40.80885299974431
            ],
            [
              -111.24610700023334,
              40.81105600010539
            ],
            [
              -111.29973300011403,
              40.80038899987204
            ],
            [
              -111.3039779997689,
              40.807134000054376
            ],
            [
              -111.32789000009366,
              40.799840000087976
            ],
            [
              -111.40118500029406,
              40.813079999873075
            ],
            [
              -111.4078279995993,
              40.77361899980933
            ],
            [
              -111.3760250001895,
              40.75286900015765
            ],
            [
              -111.37932800038631,
              40.737891000251366
            ],
            [
              -111.43392000001452,
              40.739012000119814
            ],
            [
              -111.43687000003392,
              40.680587000166376
            ],
            [
              -111.46239500001148,
              40.68314200010706
            ],
            [
              -111.47233300001595,
              40.69755099969537
            ],
            [
              -111.47289100023276,
              40.682781000297446
            ],
            [
              -111.5085240000941,
              40.6866400000937
            ],
            [
              -111.55825400029937,
              40.67739100022497
            ],
            [
              -111.55774600031124,
              40.686906999732116
            ],
            [
              -111.58730199968346,
              40.6897630000155
            ],
            [
              -111.58664100043279,
              40.69943600023787
            ],
            [
              -111.60634400018934,
              40.71286200019525
            ],
            [
              -111.76818699975405,
              40.71089799999141
            ],
            [
              -111.78152500003971,
              40.70900699982879
            ],
            [
              -111.7767370002366,
              40.69053400027295
            ],
            [
              -111.86551800012775,
              40.6870570002996
            ],
            [
              -111.86599299960558,
              40.6221839999229
            ],
            [
              -111.90570100014082,
              40.6151320001854
            ],
            [
              -111.89094900039397,
              40.49371900004562
            ],
            [
              -111.91427099981654,
              40.45949699968528
            ],
            [
              -111.91428599988515,
              40.459196000117444
            ]
          ]
        ]
      }
    },
    {
      "type": "Feature",
      "id": "us-cd:119:49:04",
      "properties": {
        "boundary_id": "us-cd:119:49:04",
        "boundary_type": "congressional_district",
        "name": "4",
        "stateFips": "49",
        "congress": 119,
        "district": "04",
        "bbox": [
          -112.35343900042109,
          39.032310999713154,
          -110.85764700017543,
          40.6870570002996
        ]
      },
      "geometry": {
        "type": "Polygon",
        "coordinates": [
          [
            [
              -112.35343900042109,
              39.555258999933365
            ],
            [
              -112.21204500025243,
              39.55398700032117
            ],
            [
              -112.19329200034987,
              39.540450999868185
            ],
            [
              -112.19324200012115,
              39.526023000005615
            ],
            [
              -112.2119730002824,
              39.52604200008421
            ],
            [
              -112.21196099968853,
              39.511579000212045
            ],
            [
              -112.20262600010673,
              39.48985799973264
            ],
            [
              -112.19327700028124,
              39.48983400033991
            ],
            [
              -112.1889220001232,
              39.329391999908914
            ],
            [
              -112.07210800010095,
              39.32969500013044
            ],
            [
              -112.0722179997058,
              39.31492300011279
            ],
            [
              -112.01600300037904,
              39.314560999946465
            ],
            [
              -112.01408299968128,
              39.04551800026205
            ],
            [
              -111.84988599994881,
              39.04557700032942
            ],
            [
              -111.85329700010067,
              39.032983999760624
            ],
            [
              -111.29936300021816,
              39.032310999713154
            ],
            [
              -111.30090499972587,
              39.46723700029998
            ],
            [
              -111.24774800037352,
              39.46719899987827
            ],
            [
              -111.24749599958014,
              39.81302800006482
            ],
            [
              -110.85778199989466,
              39.813014000043424
            ],
            [
              -110.85764700017543,
              39.899706999913725
            ],
            [
              -111.0831020002042,
              39.90005900012829
            ],
            [
              -111.08306100019632,
              39.94319800027248
            ],
            [
              -111.13124300014778,
              39.947392999926095
            ],
            [
              -111.11892099983838,
              39.96780000031244
            ],
            [
              -111.1430430002254,
              39.98695500004681
            ],
            [
              -111.16781400016755,
              39.99083200031738
            ],
            [
              -111.17166499963713,
              40.01065700019376
            ],
            [
              -111.19770799964854,
              40.03117900011032
            ],
            [
              -111.2038300003435,
              40.04929800005701
            ],
            [
              -111.22650099966283,
              40.03568600010435
            ],
            [
              -111.24620699979242,
              40.04746600011891
            ],
            [
              -111.24936699987411,
              40.05533400014192
            ],
            [
              -111.23588299999861,
              40.06963499973195
            ],
            [
              -111.2414590001723,
              40.0918180002825
            ],
            [
              -111.22152600026197,
              40.12452299988713
            ],
            [
              -111.23146699974117,
              40.14788800023739
            ],
            [
              -111.2252250002939,
              40.166367000030796
            ],
            [
              -111.27344900007817,
              40.22199399987255
            ],
            [
              -111.2648390002195,
              40.24227100026714
            ],
            [
              -111.31343100024979,
              40.28725500006288
            ],
            [
              -111.32844300028763,
              40.28227199985084
            ],
            [
              -111.37726399974845,
              40.29750700026582
            ],
            [
              -111.4266459997992,
              40.28702000007412
            ],
            [
              -111.45731599995524,
              40.30071400006491
            ],
            [
              -111.51309000013936,
              40.28259200028441
            ],
            [
              -111.54241500043119,
              40.26118699990734
            ],
            [
              -111.54237199987517,
              40.24719600030755
            ],
            [
              -111.5175780003668,
              40.24085199981736
            ],
            [
              -111.5025479998873,
              40.21287399986651
            ],
            [
              -111.50552700021902,
              40.19923100031972
            ],
            [
              -111.49887700034277,
              40.18908899967102
            ],
            [
              -111.49399499993004,
              40.194150999810674
            ],
            [
              -111.49277100043965,
              40.16605800000928
            ],
            [
              -111.51112400030914,
              40.15928700029962
            ],
            [
              -111.5599249996785,
              40.15227699982175
            ],
            [
              -111.59379900029715,
              40.171052000142325
            ],
            [
              -111.60065400021281,
              40.161055000098806
            ],
            [
              -111.72008500016852,
              40.15468999978299
            ],
            [
              -111.74756500010564,
              40.16645099986681
            ],
            [
              -111.73486200002972,
              40.1821909997093
            ],
            [
              -111.71822100044555,
              40.18215100018757
            ],
            [
              -111.73159700036604,
              40.19530000024131
            ],
            [
              -111.73169199990227,
              40.22349800030858
            ],
            [
              -111.74096200008506,
              40.23698500008964
            ],
            [
              -111.73056100029832,
              40.25665299966949
            ],
            [
              -111.7585869998584,
              40.27992199966743
            ],
            [
              -111.77226400007777,
              40.28014999982462
            ],
            [
              -111.77277700008875,
              40.34103799987241
            ],
            [
              -111.77929800009359,
              40.347660999710705
            ],
            [
              -111.78554200008897,
              40.33952599968435
            ],
            [
              -111.80054200043122,
              40.34236799995043
            ],
            [
              -111.80128899989563,
              40.370836000199276
            ],
            [
              -111.82995899988626,
              40.38362599980597
            ],
            [
              -111.91322499970306,
              40.45170099996804
            ],
            [
              -111.89094900039397,
              40.49371900004562
            ],
            [
              -111.90570100014082,
              40.6151320001854
            ],
            [
              -111.86599299960558,
              40.6221839999229
            ],
            [
              -111.86551800012775,
              40.6870570002996
            ],
            [
              -112.02474299993408,
              40.68207799968221
            ],
            [
              -112.02463400015414,
              40.638551000312034
            ],
            [
              -112.03501900004736,
              40.631229000176006
            ],
            [
              -112.196392999982,
              40.62933999971921
            ],
            [
              -112.17533699996534,
              40.60398100022367
            ],
            [
              -112.18362499960872,
              40.57339400006684
            ],
            [
              -112.1787420002694,
              40.521910000214945
            ],
            [
              -112.18765000005392,
              40.51389900029904
            ],
            [
              -112.17584499995343,
              40.5001420001909
            ],
            [
              -112.18132800024073,
              40.49265099992327
            ],
            [
              -112.1716320000856,
              40.47049299998478
            ],
            [
              -112.21417799958891,
              40.45230999972581
            ],
            [
              -112.20952500040335,
              40.43226000030605
            ],
            [
              -112.19463899986388,
              40.42110900032859
            ],
            [
              -112.20160500010765,
              40.387991999762185
            ],
            [
              -112.18873399980221,
              40.372486999927084
            ],
            [
              -112.19471900022984,
              40.361330000331684
            ],
            [
              -112.1755329997839,
              40.33583700021644
            ],
            [
              -112.19627599980615,
              40.325836000037626
            ],
            [
              -112.19860499985951,
              40.306915000103544
            ],
            [
              -112.18644999995468,
              40.28672899988012
            ],
            [
              -112.19219600000771,
              40.26449999983497
            ],
            [
              -112.17668799967731,
              40.22771699990789
            ],
            [
              -112.14948599957452,
              40.212173999774464
            ],
            [
              -112.16049900000476,
              40.19924500026636
            ],
            [
              -112.14862000028445,
              40.19567799980162
            ],
            [
              -112.15336100023188,
              40.18184699975726
            ],
            [
              -112.14438700032512,
              40.17348699980869
            ],
            [
              -112.17395000026832,
              40.15449100020964
            ],
            [
              -112.16776900002213,
              40.14666599982584
            ],
            [
              -112.17625099983431,
              40.13099899965873
            ],
            [
              -112.15089200043641,
              40.107297999716465
            ],
            [
              -112.1837690004471,
              40.059963999825165
            ],
            [
              -112.17198000024013,
              40.03957999988624
            ],
            [
              -112.17980000007842,
              40.01165600030816
            ],
            [
              -112.16032300027767,
              40.00698200004168
            ],
            [
              -112.1327289996394,
              39.977470999982096
            ],
            [
              -112.10986699962609,
              39.9737990002894
            ],
            [
              -112.09400299964354,
              39.95390400007237
            ],
            [
              -112.10342099996434,
              39.94699000013287
            ],
            [
              -112.10359000001873,
              39.9287670000239
            ],
            [
              -112.0852480000199,
              39.92549399996011
            ],
            [
              -112.05352400025279,
              39.89348199970701
            ],
            [
              -112.08129100024509,
              39.86476899982937
            ],
            [
              -112.06545300020183,
              39.82988999968728
            ],
            [
              -112.07675600016199,
              39.80012599978801
            ],
            [
              -112.11490399984953,
              39.75709999978047
            ],
            [
              -112.18003100005711,
              39.75739800028049
            ],
            [
              -112.20688800037838,
              39.709591999927824
            ],
            [
              -112.3008699996262,
              39.6461699997938
            ],
            [
              -112.35162800040158,
              39.55803599969334
            ],
            [
              -112.35343900042109,
              39.555258999933365
            ]
          ]
        ]
      }
    }
  ]
}
