{
  "type": "FeatureCollection",
  "features": [
    {
      "type": "Feature",
      "id": "us-cd:119:44:01",
      "properties": {
        "boundary_id": "us-cd:119:44:01",
        "boundary_type": "congressional_district",
        "name": "1",
        "stateFips": "44",
        "congress": 119,
        "district": "01",
        "bbox": [
          -71.60673100008158,
          41.30773199975954,
          -71.08857099962744,
          42.0187979997801
        ]
      },
      "geometry": {
        "type": "Polygon",
        "coordinates": [
          [
            [
              -71.60673100008158,
              42.01328000020948
            ],
            [
              -71.5746420004415,
              41.858747999993106
            ],
            [
              -71.4955450001116,
              41.868982999846175
            ],
            [
              -71.47245899979228,
              41.836980999786064
            ],
            [
              -71.42990599971796,
              41.861255000242124
            ],
            [
              -71.42662799963549,
              41.85308099992241
            ],
            [
              -71.43791999972498,
              41.85327100023431
            ],
            [
              -71.41150699981773,
              41.83139399978188
            ],
            [
              -71.4074780000729,
              41.81824899993002
            ],
            [
              -71.41650899988107,
              41.81772000005072
            ],
            [
              -71.40700500024488,
              41.81218699972838
            ],
            [
              -71.44000199990616,
              41.81127499981319
            ],
            [
              -71.4368359999767,
              41.78873800004876
            ],
            [
              -71.3781979999869,
              41.78440000016729
            ],
            [
              -71.37250800001037,
              41.74472699976466
            ],
            [
              -71.32566699972514,
              41.69321300004786
            ],
            [
              -71.3797179997533,
              41.656458000033446
            ],
            [
              -71.40109500016032,
              41.51774000003291
            ],
            [
              -71.4130269995841,
              41.49868999996585
            ],
            [
              -71.40904499969494,
              41.4683409999938
            ],
            [
              -71.45999900028892,
              41.37510200019537
            ],
            [
              -71.509442000439,
              41.30773199975954
            ],
            [
              -71.1245940003744,
              41.411474000117394
            ],
            [
              -71.08857099962744,
              41.431314999762186
            ],
            [
              -71.1211160002754,
              41.49278700008756
            ],
            [
              -71.13161999999431,
              41.59371599989452
            ],
            [
              -71.14195800003183,
              41.612532999683964
            ],
            [
              -71.13255700032782,
              41.66036300023152
            ],
            [
              -71.19547900033056,
              41.67509000022768
            ],
            [
              -71.26106699977227,
              41.75208200018372
            ],
            [
              -71.3284719999796,
              41.7806940001221
            ],
            [
              -71.34048100029456,
              41.79703300001129
            ],
            [
              -71.34754500044761,
              41.82324600013131
            ],
            [
              -71.33541700030695,
              41.83564500019505
            ],
            [
              -71.34255000005695,
              41.84465599971396
            ],
            [
              -71.33403999975737,
              41.86260399999971
            ],
            [
              -71.33878699955261,
              41.89859300001877
            ],
            [
              -71.38146299965057,
              41.89354600001753
            ],
            [
              -71.3814009997263,
              42.0187979997801
            ],
            [
              -71.60636899968335,
              42.01328800013303
            ],
            [
              -71.60673100008158,
              42.01328000020948
            ]
          ]
        ]
      }
    },
    {
      "type": "Feature",
      "id": "us-cd:119:44:02",
      "properties": {
        "boundary_id": "us-cd:119:44:02",
        "boundary_type": "congressional_district",
        "name": "2",
        "stateFips": "44",
        "congress": 119,
        "district": "02",
        "bbox": [
          -71.90722100018516,
          41.09583399969442,
          -71.32566699972514,
          42.01328000020948
        ]
      },
      "geometry": {
        "type": "MultiPolygon",
        "coordinates": [
          [
            [
              [
                -71.90722100018516,
                41.3045350003098
              ],
              [
                -71.79097200005245,
                41.18410100019588
              ],
              [
                -71.79148000004056,
                41.272164999947044
              ],
              [
                -71.69504300034266,
                41.282646999748664
              ],
              [
                -71.57525300036178,
                41.32095500016777
              ],
              [
                -71.509442000439,
                41.30773199975954
              ],
              [
                -71.45999900028892,
                41.37510200019537
              ],
              [
                -71.40909900012161,
                41.46820199975699
              ],
              [
                -71.4130269995841,
                41.49868999996585
              ],
              [
                -71.40109500016032,
                41.51774000003291
              ],
              [
                -71.3797179997533,
                41.656458000033446
              ],
              [
                -71.32566699972514,
                41.69321300004786
              ],
              [
                -71.37250800001037,
                41.74472699976466
              ],
              [
                -71.3781979999869,
                41.78440000016729
              ],
              [
                -71.4368359999767,
                41.78873800004876
              ],
              [
                -71.44000199990616,
                41.81127499981319
              ],
              [
                -71.40700500024488,
                41.81218699972838
              ],
              [
                -71.41650899988107,
                41.81772000005072
              ],
              [
                -71.4074780000729,
                41.81824899993002
              ],
              [
                -71.41150699981773,
                41.83139399978188
              ],
              [
                -71.43791999972498,
                41.85327100023431
              ],
              [
                -71.42662799963549,
                41.85308099992241
              ],
              [
                -71.42990599971796,
                41.861255000242124
              ],
              [
                -71.47245899979228,
                41.836980999786064
              ],
              [
                -71.4955450001116,
                41.868982999846175
              ],
              [
                -71.5746420004415,
                41.858747999993106
              ],
              [
                -71.60673100008158,
                42.01328000020948
              ],
              [
                -71.79918799972585,
                42.008052999761894
              ],
              [
                -71.78723899968534,
                41.65611099995739
              ],
              [
                -71.79774499995236,
                41.416726999672186
              ],
              [
                -71.81808799994151,
                41.41985200030671
              ],
              [
                -71.84242600023862,
                41.410260000130656
              ],
              [
                -71.82936499996238,
                41.342432000211026
              ],
              [
                -71.85745800036793,
                41.32078899970279
              ],
              [
                -71.89206699985712,
                41.330075000201894
              ],
              [
                -71.90711300023013,
                41.30469399971237
              ],
              [
                -71.90722100018516,
                41.3045350003098
              ]
            ]
          ],
          [
            [
              [
                -71.67880699991616,
                41.15891199997699
              ],
              [
                -71.67264400011162,
                41.134291999751014
              ],
              [
                -71.65763299989871,
                41.11987499978115
              ],
              [
                -71.62450099961988,
                41.10097899988983
              ],
              [
                -71.59351300034484,
                41.09583399969442
              ],
              [
                -71.50809300037685,
                41.11161499966445
              ],
              [
                -71.47702400001263,
                41.15565700003088
              ],
              [
                -71.49219599988402,
                41.24087599966914
              ],
              [
                -71.51635000005813,
                41.27154899995491
              ],
              [
                -71.5575690001389,
                41.29401800018583
              ],
              [
                -71.59159099999724,
                41.289317000207895
              ],
              [
                -71.63496800042718,
                41.26368199983054
              ],
              [
                -71.67626399960254,
                41.16886399976657
              ],
              [
                -71.67880699991616,
                41.15891199997699
              ]
            ]
          ]
        ]
      }
    }
  ]
}
