{
  "type": "FeatureCollection",
  "features": [
    {
      "type": "Feature",
      "id": "us-cd:119:50:00",
      "properties": {
        "boundary_id": "us-cd:119:50:00",
        "boundary_type": "congressional_district",
        "name": "Congressional District (at Large)",
        "stateFips": "50",
        "congress": 119,
        "district": "00",
        "bbox": [
          -73.4377059995856,
          42.72693300027202,
          -71.46504999985775,
          45.01665800001635
        ]
      },
      "geometry": {
        "type": "Polygon",
        "coordinates": [
          [
            [
              -73.4377059995856,
              44.04610399969494
            ],
            [
              -73.4076449997,
              44.02111099985101
            ],
            [
              -73.40855400044443,
              43.93189400006909
            ],
            [
              -73.37416199979191,
              43.87624099980685
            ],
            [
              -73.38230899986833,
              43.856057999747186
            ],
            [
              -73.37258900032208,
              43.845353999755986
            ],
            [
              -73.39251700020954,
              43.82134000026343
            ],
            [
              -73.35076199965323,
              43.77138699996259
            ],
            [
              -73.36994399990121,
              43.7438549998807
            ],
            [
              -73.37061199972288,
              43.72532900015874
            ],
            [
              -73.40473900006155,
              43.69021399995136
            ],
            [
              -73.4264629998999,
              43.64259899968396
            ],
            [
              -73.4176689999182,
              43.621687000058195
            ],
            [
              -73.43094799975431,
              43.58703599989631
            ],
            [
              -73.3957679996295,
              43.56808699987378
            ],
            [
              -73.3832849996616,
              43.57720000012449
            ],
            [
              -73.38690099985287,
              43.590770000066726
            ],
            [
              -73.37246899977318,
              43.60484799983684
            ],
            [
              -73.37188999963995,
              43.624490000055076
            ],
            [
              -73.3064400002905,
              43.62833299969151
            ],
            [
              -73.29101899999876,
              43.59923500002415
            ],
            [
              -73.29732400009351,
              43.5793729997671
            ],
            [
              -73.25863099970961,
              43.564950000044796
            ],
            [
              -73.24157900022172,
              43.53495999977343
            ],
            [
              -73.27830599987708,
              42.83755800002334
            ],
            [
              -73.29094399965568,
              42.80192000022538
            ],
            [
              -73.2764210002377,
              42.74601899998954
            ],
            [
              -72.45841199973748,
              42.72693300027202
            ],
            [
              -72.49054700030663,
              42.772746999671895
            ],
            [
              -72.5154660003868,
              42.765629000070504
            ],
            [
              -72.5087369999695,
              42.77952199987482
            ],
            [
              -72.54151299969786,
              42.80709400000258
            ],
            [
              -72.55707799992963,
              42.85286300029007
            ],
            [
              -72.55541500004811,
              42.874667000301024
            ],
            [
              -72.52449899984478,
              42.91514800003743
            ],
            [
              -72.53202199958214,
              42.954943000050875
            ],
            [
              -72.47371699967826,
              42.97212400026734
            ],
            [
              -72.46169999986569,
              42.982870999990965
            ],
            [
              -72.46251599982538,
              42.997445000141795
            ],
            [
              -72.44325900013266,
              43.007576999822696
            ],
            [
              -72.4626229999555,
              43.02578800008746
            ],
            [
              -72.46784199975383,
              43.052749999738005
            ],
            [
              -72.4352640003922,
              43.08148999988127
            ],
            [
              -72.44319800003328,
              43.10302000010745
            ],
            [
              -72.43250199979546,
              43.11889599969069
            ],
            [
              -72.45740499998209,
              43.147537000201936
            ],
            [
              -72.4439310001523,
              43.179778000013876
            ],
            [
              -72.45050800023361,
              43.19261099970304
            ],
            [
              -72.43822399955903,
              43.20291800027882
            ],
            [
              -72.43860500022386,
              43.25242400027806
            ],
            [
              -72.41603699993838,
              43.27023100022736
            ],
            [
              -72.39531499983256,
              43.31269599972285
            ],
            [
              -72.41055899967398,
              43.33112099994842
            ],
            [
              -72.38986800042859,
              43.35657200003193
            ],
            [
              -72.41264900025108,
              43.362279000188245
            ],
            [
              -72.41602199986977,
              43.37716399977818
            ],
            [
              -72.40350899976464,
              43.39158300026663
            ],
            [
              -72.39256900002765,
              43.4668839999829
            ],
            [
              -72.38147500030487,
              43.480029999853684
            ],
            [
              -72.38106299967791,
              43.4940369998392
            ],
            [
              -72.39887099974936,
              43.512653000281766
            ],
            [
              -72.38069699998002,
              43.54035500028504
            ],
            [
              -72.38023699967248,
              43.5734349997656
            ],
            [
              -72.32832700027507,
              43.60111400016259
            ],
            [
              -72.33482700036349,
              43.61795199976235
            ],
            [
              -72.30314899972882,
              43.66861900000844
            ],
            [
              -72.29956400039801,
              43.70627700027426
            ],
            [
              -72.27110500029457,
              43.733918000023365
            ],
            [
              -72.23417799972435,
              43.74596499981265
            ],
            [
              -72.20522999989939,
              43.770930000204125
            ],
            [
              -72.20553600022113,
              43.78458400021106
            ],
            [
              -72.18405099985905,
              43.80640399980529
            ],
            [
              -72.18461599974857,
              43.86414300005301
            ],
            [
              -72.16790700039236,
              43.86910899978716
            ],
            [
              -72.17210299964344,
              43.884985999994356
            ],
            [
              -72.12045099998889,
              43.91955500027287
            ],
            [
              -72.11834500041657,
              43.94653199978632
            ],
            [
              -72.0909399999242,
              43.9657800002582
            ],
            [
              -72.11437799969772,
              43.96805399971824
            ],
            [
              -72.11686499993485,
              43.99446700031749
            ],
            [
              -72.10276500011616,
              44.014577999881155
            ],
            [
              -72.09052700037064,
              44.009923999748516
            ],
            [
              -72.09542599960352,
              44.0217569997036
            ],
            [
              -72.08266899999923,
              44.021803000216615
            ],
            [
              -72.07831999968894,
              44.04337800009167
            ],
            [
              -72.06190099986263,
              44.04959600031652
            ],
            [
              -72.06809600035253,
              44.057377999777124
            ],
            [
              -72.04830499983412,
              44.069706999930226
            ],
            [
              -72.05286800040463,
              44.07630599985371
            ],
            [
              -72.03184099980196,
              44.078541999858174
            ],
            [
              -72.0452839996696,
              44.087308000041645
            ],
            [
              -72.03130600004967,
              44.10043000014077
            ],
            [
              -72.04787999968669,
              44.096585999724205
            ],
            [
              -72.05533999967484,
              44.11060000021981
            ],
            [
              -72.03326000018431,
              44.131680000275715
            ],
            [
              -72.04195700008167,
              44.13699800007659
            ],
            [
              -72.03899700001651,
              44.156796000020485
            ],
            [
              -72.0661580001114,
              44.19012799996984
            ],
            [
              -72.04766399977662,
              44.23895600023932
            ],
            [
              -72.05833099970212,
              44.27008300026785
            ],
            [
              -72.06847799994395,
              44.27080099971527
            ],
            [
              -72.03287799969459,
              44.30216499969774
            ],
            [
              -72.03280200042492,
              44.32048999992246
            ],
            [
              -71.98142400040673,
              44.33736599995461
            ],
            [
              -71.93404400017126,
              44.33600099998328
            ],
            [
              -71.91242200044015,
              44.348124000167886
            ],
            [
              -71.87158800032383,
              44.33667999998026
            ],
            [
              -71.81584599992676,
              44.3540059999298
            ],
            [
              -71.81442700044272,
              44.38192200026372
            ],
            [
              -71.80057199994812,
              44.38402799987244
            ],
            [
              -71.79448299976342,
              44.39900400014003
            ],
            [
              -71.70258000032374,
              44.413542000301724
            ],
            [
              -71.66088300039208,
              44.43993699968091
            ],
            [
              -71.65421699972399,
              44.458823000081175
            ],
            [
              -71.63898600030136,
              44.464410999938295
            ],
            [
              -71.64683700010177,
              44.47320200029861
            ],
            [
              -71.6327819995906,
              44.48379600017395
            ],
            [
              -71.62466300000159,
              44.48174400025244
            ],
            [
              -71.63450499974658,
              44.47562500007325
            ],
            [
              -71.6262050004076,
              44.474466000141426
            ],
            [
              -71.61784300024604,
              44.485841000014396
            ],
            [
              -71.59860099972362,
              44.48682499980245
            ],
            [
              -71.58813299998971,
              44.506585000167014
            ],
            [
              -71.57702400019832,
              44.50206099986164
            ],
            [
              -71.59411400021939,
              44.52155399987722
            ],
            [
              -71.57186700032427,
              44.53791900018371
            ],
            [
              -71.59696799997931,
              44.55947100018657
            ],
            [
              -71.55971700044232,
              44.56397500024505
            ],
            [
              -71.54772599967067,
              44.571380999708275
            ],
            [
              -71.55236500040917,
              44.584392999991174
            ],
            [
              -71.54578800032786,
              44.57793399989558
            ],
            [
              -71.53490899979192,
              44.58789800018244
            ],
            [
              -71.5621309999862,
              44.601180999769724
            ],
            [
              -71.55363099973236,
              44.60613199997727
            ],
            [
              -71.55512700010762,
              44.62524400011239
            ],
            [
              -71.54633700032385,
              44.622955000075606
            ],
            [
              -71.557019000318,
              44.629485999864855
            ],
            [
              -71.54681900037272,
              44.629756000217974
            ],
            [
              -71.56372100007277,
              44.637247000148975
            ],
            [
              -71.5628060003789,
              44.65235599973037
            ],
            [
              -71.5873649997106,
              44.65971500016538
            ],
            [
              -71.58146300002198,
              44.673204000243224
            ],
            [
              -71.59661499980191,
              44.67808799990612
            ],
            [
              -71.59386099960108,
              44.69641499994482
            ],
            [
              -71.61710699975397,
              44.72871199971942
            ],
            [
              -71.62609300025461,
              44.728543000153905
            ],
            [
              -71.6320200000576,
              44.752058999887964
            ],
            [
              -71.57281700017828,
              44.79087099982585
            ],
            [
              -71.56838400020241,
              44.80704000004349
            ],
            [
              -71.57686500018968,
              44.81519699994443
            ],
            [
              -71.5511140002563,
              44.83696500030335
            ],
            [
              -71.54945100037479,
              44.86208400011812
            ],
            [
              -71.49490999990189,
              44.90429900001666
            ],
            [
              -71.52283799955265,
              44.93991500009581
            ],
            [
              -71.51479000010875,
              44.94369499987899
            ],
            [
              -71.5162990000045,
              44.964404000125974
            ],
            [
              -71.54133299971237,
              44.98393700019081
            ],
            [
              -71.53701400043764,
              44.99348099974665
            ],
            [
              -71.50853799971745,
              45.00789100000399
            ],
            [
              -71.48076800025041,
              45.002269999917935
            ],
            [
              -71.46504999985775,
              45.01363800026322
            ],
            [
              -72.3119469999085,
              45.0037869997467
            ],
            [
              -72.84698499977328,
              45.01665800001635
            ],
            [
              -73.34317799981652,
              45.01071300007722
            ],
            [
              -73.35463300011263,
              44.987352000148476
            ],
            [
              -73.33824400042356,
              44.96475100008612
            ],
            [
              -73.33897900019237,
              44.9176809999156
            ],
            [
              -73.35621800017636,
              44.90449199984075
            ],
            [
              -73.38158999999303,
              44.84935399982125
            ],
            [
              -73.37945199973537,
              44.83801000019156
            ],
            [
              -73.33504400015889,
              44.804109000129486
            ],
            [
              -73.33315399959834,
              44.788759000077214
            ],
            [
              -73.36556199997896,
              44.74178600005549
            ],
            [
              -73.36130800010325,
              44.694523999896056
            ],
            [
              -73.39023099981387,
              44.618353999715936
            ],
            [
              -73.3768490000456,
              44.599598999864
            ],
            [
              -73.37495000016253,
              44.575816999964005
            ],
            [
              -73.33875200041167,
              44.5480460002115
            ],
            [
              -73.30671300010198,
              44.50033499978849
            ],
            [
              -73.29362699971139,
              44.43890300019714
            ],
            [
              -73.33495000044756,
              44.364440000133946
            ],
            [
              -73.3127410001873,
              44.26541099975324
            ],
            [
              -73.32371500025948,
              44.24415999984496
            ],
            [
              -73.34337600018324,
              44.238190000081104
            ],
            [
              -73.36226600035315,
              44.20851800023396
            ],
            [
              -73.39062499999916,
              44.191068000083554
            ],
            [
              -73.40304500021789,
              44.144983999859484
            ],
            [
              -73.41613800028115,
              44.132355000092495
            ],
            [
              -73.41151600015941,
              44.111936000054634
            ],
            [
              -73.4376360001637,
              44.04656899977679
            ],
            [
              -73.4377059995856,
              44.04610399969494
            ]
          ]
        ]
      }
    }
  ]
}
