{
  "type": "FeatureCollection",
  "features": [
    {
      "type": "Feature",
      "id": "us-cd:118:25:01",
      "properties": {
        "boundary_id": "us-cd:118:25:01",
        "boundary_type": "congressional_district",
        "name": "Congressional District 1",
        "stateFips": "25",
        "congress": 118,
        "district": "01",
        "bbox": [
          -73.508142,
          41.997595,
          -71.797177,
          42.74594
        ]
      },
      "geometry": {
        "type": "Polygon",
        "coordinates": [
          [
            [
              -73.508142,
              42.086257
            ],
            [
              -73.264957,
              42.74594
            ],
            [
              -72.8643005207143,
              42.7377560483853
            ],
            [
              -72.857661,
              42.67397
            ],
            [
              -72.842793,
              42.638098
            ],
            [
              -72.821506,
              42.636877
            ],
            [
              -72.772647,
              42.658334
            ],
            [
              -72.766092,
              42.62926
            ],
            [
              -72.735114,
              42.633108
            ],
            [
              -72.747049,
              42.618568
            ],
            [
              -72.831764,
              42.616568
            ],
            [
              -72.848454,
              42.559069
            ],
            [
              -72.877026,
              42.555425
            ],
            [
              -72.871136,
              42.484041
            ],
            [
              -72.855633,
              42.48092
            ],
            [
              -72.847905,
              42.43649
            ],
            [
              -72.90458,
              42.430385
            ],
            [
              -72.885635,
              42.340036
            ],
            [
              -72.840376,
              42.345077
            ],
            [
              -72.821122,
              42.33863
            ],
            [
              -72.814405,
              42.256819
            ],
            [
              -72.735758,
              42.266518
            ],
            [
              -72.736726,
              42.284241
            ],
            [
              -72.672091,
              42.291887
            ],
            [
              -72.609948,
              42.285224
            ],
            [
              -72.569306,
              42.304489
            ],
            [
              -72.464195,
              42.308053
            ],
            [
              -72.472287,
              42.351458
            ],
            [
              -72.409417,
              42.358762
            ],
            [
              -72.405455,
              42.336437
            ],
            [
              -72.354061,
              42.340085
            ],
            [
              -72.356018,
              42.303283
            ],
            [
              -72.328333,
              42.318558
            ],
            [
              -72.314253,
              42.343688
            ],
            [
              -72.284231,
              42.35201
            ],
            [
              -72.274639,
              42.301963
            ],
            [
              -72.210795,
              42.31138
            ],
            [
              -72.213973,
              42.294257
            ],
            [
              -72.207183,
              42.311522
            ],
            [
              -72.183785,
              42.306747
            ],
            [
              -72.158318,
              42.343243
            ],
            [
              -72.140217,
              42.344809
            ],
            [
              -72.123667,
              42.36393
            ],
            [
              -72.041168,
              42.308697
            ],
            [
              -71.967291,
              42.310682
            ],
            [
              -71.939356,
              42.189238
            ],
            [
              -71.895135,
              42.192425
            ],
            [
              -71.858096,
              42.160706
            ],
            [
              -71.825959,
              42.16582
            ],
            [
              -71.834485,
              42.157257
            ],
            [
              -71.824853,
              42.155332
            ],
            [
              -71.82953,
              42.129391
            ],
            [
              -71.817956,
              42.133264
            ],
            [
              -71.797177,
              42.099172
            ],
            [
              -71.881509,
              42.075893
            ],
            [
              -71.880387,
              42.055507
            ],
            [
              -71.8457122262748,
              42.023968475411
            ],
            [
              -72.528131,
              42.034295
            ],
            [
              -72.590233,
              42.024695
            ],
            [
              -72.755838,
              42.036195
            ],
            [
              -72.766739,
              42.002995
            ],
            [
              -72.816741,
              41.997595
            ],
            [
              -72.813541,
              42.036494
            ],
            [
              -73.496879,
              42.049675
            ],
            [
              -73.5030419422981,
              42.069692114015
            ],
            [
              -73.508142,
              42.086257
            ]
          ]
        ]
      }
    },
    {
      "type": "Feature",
      "id": "us-cd:118:25:02",
      "properties": {
        "boundary_id": "us-cd:118:25:02",
        "boundary_type": "congressional_district",
        "name": "Congressional District 2",
        "stateFips": "25",
        "congress": 118,
        "district": "02",
        "bbox": [
          -72.90458,
          42.008065,
          -71.375618,
          42.7377560483853
        ]
      },
      "geometry": {
        "type": "Polygon",
        "coordinates": [
          [
            [
              -72.90458,
              42.430385
            ],
            [
              -72.847905,
              42.43649
            ],
            [
              -72.855633,
              42.48092
            ],
            [
              -72.871136,
              42.484041
            ],
            [
              -72.877026,
              42.555425
            ],
            [
              -72.848454,
              42.559069
            ],
            [
              -72.831764,
              42.616568
            ],
            [
              -72.747049,
              42.618568
            ],
            [
              -72.735114,
              42.633108
            ],
            [
              -72.766092,
              42.62926
            ],
            [
              -72.772647,
              42.658334
            ],
            [
              -72.821506,
              42.636877
            ],
            [
              -72.842793,
              42.638098
            ],
            [
              -72.857661,
              42.67397
            ],
            [
              -72.8643005207143,
              42.7377560483853
            ],
            [
              -72.1110583499481,
              42.7172274274578
            ],
            [
              -72.116631,
              42.626607
            ],
            [
              -72.075749,
              42.625235
            ],
            [
              -72.035983,
              42.593857
            ],
            [
              -72.042024,
              42.579794
            ],
            [
              -72.016007,
              42.573773
            ],
            [
              -72.02701,
              42.563241
            ],
            [
              -71.949793,
              42.511886
            ],
            [
              -71.948677,
              42.524377
            ],
            [
              -71.920579,
              42.529684
            ],
            [
              -71.914489,
              42.523301
            ],
            [
              -71.902439,
              42.535679
            ],
            [
              -71.874865,
              42.50952
            ],
            [
              -71.856837,
              42.519083
            ],
            [
              -71.842004,
              42.514679
            ],
            [
              -71.837123,
              42.548551
            ],
            [
              -71.771342,
              42.559248
            ],
            [
              -71.749679,
              42.545202
            ],
            [
              -71.76295,
              42.563924
            ],
            [
              -71.745072,
              42.57386
            ],
            [
              -71.702236,
              42.533895
            ],
            [
              -71.71674,
              42.518971
            ],
            [
              -71.728385,
              42.475128
            ],
            [
              -71.718699,
              42.473374
            ],
            [
              -71.725979,
              42.390289
            ],
            [
              -71.701017,
              42.395808
            ],
            [
              -71.670551,
              42.386665
            ],
            [
              -71.677794,
              42.365154
            ],
            [
              -71.633942,
              42.358398
            ],
            [
              -71.58521,
              42.310952
            ],
            [
              -71.551126,
              42.326395
            ],
            [
              -71.486797,
              42.330189
            ],
            [
              -71.497046,
              42.289829
            ],
            [
              -71.419298,
              42.257281
            ],
            [
              -71.410022,
              42.218749
            ],
            [
              -71.380182,
              42.201759
            ],
            [
              -71.384765,
              42.192014
            ],
            [
              -71.404427,
              42.188433
            ],
            [
              -71.375618,
              42.135454
            ],
            [
              -71.478522,
              42.131378
            ],
            [
              -71.478027,
              42.165871
            ],
            [
              -71.497378,
              42.166643
            ],
            [
              -71.502626,
              42.191416
            ],
            [
              -71.539277,
              42.18973
            ],
            [
              -71.562017,
              42.178614
            ],
            [
              -71.570005,
              42.139184
            ],
            [
              -71.592748,
              42.121648
            ],
            [
              -71.5911031922974,
              42.0137712362848
            ],
            [
              -71.799242,
              42.008065
            ],
            [
              -71.80065,
              42.023569
            ],
            [
              -71.8457122262748,
              42.023968475411
            ],
            [
              -71.882325,
              42.058768
            ],
            [
              -71.881509,
              42.075893
            ],
            [
              -71.797177,
              42.099172
            ],
            [
              -71.817956,
              42.133264
            ],
            [
              -71.82953,
              42.129391
            ],
            [
              -71.824853,
              42.155332
            ],
            [
              -71.834485,
              42.157257
            ],
            [
              -71.825959,
              42.16582
            ],
            [
              -71.858096,
              42.160706
            ],
            [
              -71.895135,
              42.192425
            ],
            [
              -71.939356,
              42.189238
            ],
            [
              -71.967291,
              42.310682
            ],
            [
              -72.041168,
              42.308697
            ],
            [
              -72.123667,
              42.36393
            ],
            [
              -72.140217,
              42.344809
            ],
            [
              -72.158318,
              42.343243
            ],
            [
              -72.183785,
              42.306747
            ],
            [
              -72.207183,
              42.311522
            ],
            [
              -72.213973,
              42.294257
            ],
            [
              -72.210795,
              42.31138
            ],
            [
              -72.274639,
              42.301963
            ],
            [
              -72.284231,
              42.35201
            ],
            [
              -72.314253,
              42.343688
            ],
            [
              -72.328333,
              42.318558
            ],
            [
              -72.356018,
              42.303283
            ],
            [
              -72.354061,
              42.340085
            ],
            [
              -72.405455,
              42.336437
            ],
            [
              -72.409417,
              42.358762
            ],
            [
              -72.472287,
              42.351458
            ],
            [
              -72.464195,
              42.308053
            ],
            [
              -72.569306,
              42.304489
            ],
            [
              -72.609948,
              42.285224
            ],
            [
              -72.672091,
              42.291887
            ],
            [
              -72.736726,
              42.284241
            ],
            [
              -72.735758,
              42.266518
            ],
            [
              -72.814405,
              42.256819
            ],
            [
              -72.821122,
              42.33863
            ],
            [
              -72.840376,
              42.345077
            ],
            [
              -72.885635,
              42.340036
            ],
            [
              -72.90458,
              42.430385
            ]
          ]
        ]
      }
    },
    {
      "type": "Feature",
      "id": "us-cd:118:25:03",
      "properties": {
        "boundary_id": "us-cd:118:25:03",
        "boundary_type": "congressional_district",
        "name": "Congressional District 3",
        "stateFips": "25",
        "congress": 118,
        "district": "03",
        "bbox": [
          -72.116631,
          42.310952,
          -70.998602,
          42.8331080786315
        ]
      },
      "geometry": {
        "type": "Polygon",
        "coordinates": [
          [
            [
              -72.1110583499481,
              42.7172274274578
            ],
            [
              -71.294205,
              42.69699
            ],
            [
              -71.245504,
              42.742589
            ],
            [
              -71.181803,
              42.73759
            ],
            [
              -71.186104,
              42.790689
            ],
            [
              -71.149703,
              42.815489
            ],
            [
              -71.132503,
              42.821389
            ],
            [
              -71.064201,
              42.806289
            ],
            [
              -71.0535904200316,
              42.8331080786315
            ],
            [
              -70.998602,
              42.807531
            ],
            [
              -71.058883,
              42.732463
            ],
            [
              -71.115579,
              42.741104
            ],
            [
              -71.145713,
              42.698627
            ],
            [
              -71.134452,
              42.676778
            ],
            [
              -71.185511,
              42.67592
            ],
            [
              -71.188862,
              42.696268
            ],
            [
              -71.214948,
              42.701261
            ],
            [
              -71.24249,
              42.662346
            ],
            [
              -71.275154,
              42.656216
            ],
            [
              -71.277791,
              42.620847
            ],
            [
              -71.296319,
              42.612667
            ],
            [
              -71.225669,
              42.580036
            ],
            [
              -71.276395,
              42.544383
            ],
            [
              -71.258693,
              42.537567
            ],
            [
              -71.25249,
              42.524078
            ],
            [
              -71.306699,
              42.520593
            ],
            [
              -71.316606,
              42.507091
            ],
            [
              -71.321268,
              42.480515
            ],
            [
              -71.289302,
              42.464557
            ],
            [
              -71.36634,
              42.41272
            ],
            [
              -71.464349,
              42.4503
            ],
            [
              -71.478382,
              42.437104
            ],
            [
              -71.469443,
              42.402593
            ],
            [
              -71.486797,
              42.330189
            ],
            [
              -71.551126,
              42.326395
            ],
            [
              -71.58521,
              42.310952
            ],
            [
              -71.633942,
              42.358398
            ],
            [
              -71.677794,
              42.365154
            ],
            [
              -71.670551,
              42.386665
            ],
            [
              -71.701017,
              42.395808
            ],
            [
              -71.725979,
              42.390289
            ],
            [
              -71.718699,
              42.473374
            ],
            [
              -71.728385,
              42.475128
            ],
            [
              -71.71674,
              42.518971
            ],
            [
              -71.702236,
              42.533895
            ],
            [
              -71.745072,
              42.57386
            ],
            [
              -71.76295,
              42.563924
            ],
            [
              -71.749679,
              42.545202
            ],
            [
              -71.771342,
              42.559248
            ],
            [
              -71.837123,
              42.548551
            ],
            [
              -71.842004,
              42.514679
            ],
            [
              -71.856837,
              42.519083
            ],
            [
              -71.874865,
              42.50952
            ],
            [
              -71.902439,
              42.535679
            ],
            [
              -71.914489,
              42.523301
            ],
            [
              -71.920579,
              42.529684
            ],
            [
              -71.948677,
              42.524377
            ],
            [
              -71.949793,
              42.511886
            ],
            [
              -72.02701,
              42.563241
            ],
            [
              -72.016007,
              42.573773
            ],
            [
              -72.042024,
              42.579794
            ],
            [
              -72.035983,
              42.593857
            ],
            [
              -72.075749,
              42.625235
            ],
            [
              -72.116631,
              42.626607
            ],
            [
              -72.1110583499481,
              42.7172274274578
            ]
          ]
        ]
      }
    },
    {
      "type": "Feature",
      "id": "us-cd:118:25:04",
      "properties": {
        "boundary_id": "us-cd:118:25:04",
        "boundary_type": "congressional_district",
        "name": "Congressional District 4",
        "stateFips": "25",
        "congress": 118,
        "district": "04",
        "bbox": [
          -71.592748,
          41.6034285758646,
          -70.893777,
          42.367734
        ]
      },
      "geometry": {
        "type": "Polygon",
        "coordinates": [
          [
            [
              -71.592748,
              42.121648
            ],
            [
              -71.570005,
              42.139184
            ],
            [
              -71.562017,
              42.178614
            ],
            [
              -71.539277,
              42.18973
            ],
            [
              -71.502626,
              42.191416
            ],
            [
              -71.497378,
              42.166643
            ],
            [
              -71.478027,
              42.165871
            ],
            [
              -71.478522,
              42.131378
            ],
            [
              -71.402343,
              42.139543
            ],
            [
              -71.380188,
              42.132925
            ],
            [
              -71.404427,
              42.188433
            ],
            [
              -71.384765,
              42.192014
            ],
            [
              -71.380182,
              42.201759
            ],
            [
              -71.410022,
              42.218749
            ],
            [
              -71.419298,
              42.257281
            ],
            [
              -71.390365,
              42.271916
            ],
            [
              -71.332434,
              42.247729
            ],
            [
              -71.302922,
              42.248274
            ],
            [
              -71.309302,
              42.276379
            ],
            [
              -71.288317,
              42.295827
            ],
            [
              -71.26437,
              42.30018
            ],
            [
              -71.27712,
              42.31198
            ],
            [
              -71.24663,
              42.31573
            ],
            [
              -71.270292,
              42.330864
            ],
            [
              -71.25583,
              42.338996
            ],
            [
              -71.260385,
              42.353633
            ],
            [
              -71.231477,
              42.362319
            ],
            [
              -71.195206,
              42.367734
            ],
            [
              -71.196298,
              42.361802
            ],
            [
              -71.167625,
              42.360073
            ],
            [
              -71.174798,
              42.350265
            ],
            [
              -71.157036,
              42.33039
            ],
            [
              -71.124067,
              42.351552
            ],
            [
              -71.10657,
              42.349912
            ],
            [
              -71.116537,
              42.323939
            ],
            [
              -71.146883,
              42.29728
            ],
            [
              -71.164702,
              42.30383
            ],
            [
              -71.197043,
              42.269005
            ],
            [
              -71.229173,
              42.264148
            ],
            [
              -71.251416,
              42.202613
            ],
            [
              -71.269569,
              42.200499
            ],
            [
              -71.275025,
              42.148623
            ],
            [
              -71.303751,
              42.1495
            ],
            [
              -71.300223,
              42.12591
            ],
            [
              -71.280268,
              42.088492
            ],
            [
              -71.238804,
              42.106401
            ],
            [
              -71.23201,
              42.131458
            ],
            [
              -71.178247,
              42.165813
            ],
            [
              -71.163542,
              42.141457
            ],
            [
              -71.149166,
              42.138612
            ],
            [
              -71.131611,
              42.105205
            ],
            [
              -71.138607,
              42.072775
            ],
            [
              -71.168681,
              42.061161
            ],
            [
              -71.15645,
              42.001042
            ],
            [
              -71.070345,
              41.987841
            ],
            [
              -71.061447,
              41.964403
            ],
            [
              -71.08549,
              41.941743
            ],
            [
              -71.059826,
              41.944909
            ],
            [
              -71.051081,
              41.933829
            ],
            [
              -71.034721,
              41.932361
            ],
            [
              -71.035648,
              41.923657
            ],
            [
              -71.018837,
              41.92426
            ],
            [
              -71.011275,
              41.907129
            ],
            [
              -70.997397,
              41.918399
            ],
            [
              -70.993152,
              41.906445
            ],
            [
              -70.916432,
              41.876899
            ],
            [
              -70.918729,
              41.852063
            ],
            [
              -70.893777,
              41.826591
            ],
            [
              -70.8964,
              41.79432
            ],
            [
              -70.921782,
              41.791244
            ],
            [
              -70.907184,
              41.763543
            ],
            [
              -71.06663,
              41.685619
            ],
            [
              -71.114407,
              41.692804
            ],
            [
              -71.1385490700026,
              41.6034285758646
            ],
            [
              -71.132888,
              41.660102
            ],
            [
              -71.19569,
              41.675102
            ],
            [
              -71.261392,
              41.752301
            ],
            [
              -71.327896,
              41.780501
            ],
            [
              -71.340697,
              41.7983
            ],
            [
              -71.347197,
              41.8231
            ],
            [
              -71.335197,
              41.8355
            ],
            [
              -71.342198,
              41.8448
            ],
            [
              -71.333997,
              41.8623
            ],
            [
              -71.338698,
              41.898399
            ],
            [
              -71.3817,
              41.893199
            ],
            [
              -71.381401,
              42.018798
            ],
            [
              -71.5911031922974,
              42.0137712362848
            ],
            [
              -71.592634,
              42.114238
            ],
            [
              -71.592748,
              42.121648
            ]
          ]
        ]
      }
    },
    {
      "type": "Feature",
      "id": "us-cd:118:25:05",
      "properties": {
        "boundary_id": "us-cd:118:25:05",
        "boundary_type": "congressional_district",
        "name": "Congressional District 5",
        "stateFips": "25",
        "congress": 118,
        "district": "05",
        "bbox": [
          -71.497046,
          42.247729,
          -70.959698,
          42.530001
        ]
      },
      "geometry": {
        "type": "Polygon",
        "coordinates": [
          [
            [
              -71.493182,
              42.297282
            ],
            [
              -71.469443,
              42.402593
            ],
            [
              -71.478382,
              42.437104
            ],
            [
              -71.464349,
              42.4503
            ],
            [
              -71.36634,
              42.41272
            ],
            [
              -71.302282,
              42.46201
            ],
            [
              -71.272695,
              42.459704
            ],
            [
              -71.256693,
              42.478456
            ],
            [
              -71.256662,
              42.492925
            ],
            [
              -71.204317,
              42.465845
            ],
            [
              -71.168924,
              42.487087
            ],
            [
              -71.170033,
              42.515537
            ],
            [
              -71.135454,
              42.530001
            ],
            [
              -71.11976,
              42.500292
            ],
            [
              -71.090073,
              42.50118
            ],
            [
              -71.07524,
              42.488008
            ],
            [
              -71.078152,
              42.47402
            ],
            [
              -71.053365,
              42.475925
            ],
            [
              -71.010777,
              42.434568
            ],
            [
              -70.982294,
              42.431296
            ],
            [
              -70.968594,
              42.444396
            ],
            [
              -70.959698,
              42.440667
            ],
            [
              -70.990595,
              42.407098
            ],
            [
              -70.979791,
              42.390561
            ],
            [
              -70.967273,
              42.388229
            ],
            [
              -70.9700244514225,
              42.3552840314789
            ],
            [
              -70.972828,
              42.371928
            ],
            [
              -71.010363,
              42.365031
            ],
            [
              -70.986053,
              42.388116
            ],
            [
              -71.026468,
              42.406124
            ],
            [
              -71.028227,
              42.424202
            ],
            [
              -71.072825,
              42.41488
            ],
            [
              -71.075996,
              42.396396
            ],
            [
              -71.113868,
              42.400985
            ],
            [
              -71.126749,
              42.418152
            ],
            [
              -71.134528,
              42.405813
            ],
            [
              -71.128744,
              42.39601
            ],
            [
              -71.156362,
              42.395852
            ],
            [
              -71.13041,
              42.382918
            ],
            [
              -71.120974,
              42.393706
            ],
            [
              -71.102062,
              42.373897
            ],
            [
              -71.105104,
              42.364521
            ],
            [
              -71.130997,
              42.373892
            ],
            [
              -71.163888,
              42.358523
            ],
            [
              -71.195206,
              42.367734
            ],
            [
              -71.260385,
              42.353633
            ],
            [
              -71.25583,
              42.338996
            ],
            [
              -71.269958,
              42.328086
            ],
            [
              -71.252937,
              42.326756
            ],
            [
              -71.24663,
              42.31573
            ],
            [
              -71.27712,
              42.31198
            ],
            [
              -71.26437,
              42.30018
            ],
            [
              -71.288317,
              42.295827
            ],
            [
              -71.309302,
              42.276379
            ],
            [
              -71.302922,
              42.248274
            ],
            [
              -71.332434,
              42.247729
            ],
            [
              -71.390365,
              42.271916
            ],
            [
              -71.419298,
              42.257281
            ],
            [
              -71.497046,
              42.289829
            ],
            [
              -71.493182,
              42.297282
            ]
          ]
        ]
      }
    },
    {
      "type": "Feature",
      "id": "us-cd:118:25:06",
      "properties": {
        "boundary_id": "us-cd:118:25:06",
        "boundary_type": "congressional_district",
        "name": "Congressional District 6",
        "stateFips": "25",
        "congress": 118,
        "district": "06",
        "bbox": [
          -71.321268,
          42.416197,
          -70.573377,
          42.885326
        ]
      },
      "geometry": {
        "type": "MultiPolygon",
        "coordinates": [
          [
            [
              [
                -70.580285,
                42.636025
              ],
              [
                -70.573377,
                42.639507
              ],
              [
                -70.57871,
                42.634548
              ],
              [
                -70.580285,
                42.636025
              ]
            ]
          ],
          [
            [
              [
                -70.592189,
                42.629471
              ],
              [
                -70.588245,
                42.630605
              ],
              [
                -70.586819,
                42.628157
              ],
              [
                -70.588037,
                42.626413
              ],
              [
                -70.591607,
                42.627503
              ],
              [
                -70.592189,
                42.629471
              ]
            ]
          ],
          [
            [
              [
                -70.593681,
                42.660455
              ],
              [
                -70.587568,
                42.661908
              ],
              [
                -70.593092,
                42.659308
              ],
              [
                -70.593681,
                42.660455
              ]
            ]
          ],
          [
            [
              [
                -70.723148,
                42.568157
              ],
              [
                -70.721223,
                42.569933
              ],
              [
                -70.72064,
                42.569659
              ],
              [
                -70.720476,
                42.568882
              ],
              [
                -70.720532,
                42.568406
              ],
              [
                -70.721151,
                42.567764
              ],
              [
                -70.721038,
                42.567164
              ],
              [
                -70.720898,
                42.56673
              ],
              [
                -70.721207,
                42.566481
              ],
              [
                -70.721516,
                42.566351
              ],
              [
                -70.721656,
                42.566088
              ],
              [
                -70.722921,
                42.566502
              ],
              [
                -70.723736,
                42.567019
              ],
              [
                -70.723148,
                42.568157
              ]
            ]
          ],
          [
            [
              [
                -70.783055,
                42.553461
              ],
              [
                -70.781606,
                42.554016
              ],
              [
                -70.780695,
                42.553641
              ],
              [
                -70.780991,
                42.552408
              ],
              [
                -70.782303,
                42.551834
              ],
              [
                -70.783239,
                42.552342
              ],
              [
                -70.783055,
                42.553461
              ]
            ]
          ],
          [
            [
              [
                -70.788783,
                42.534006
              ],
              [
                -70.782252,
                42.533716
              ],
              [
                -70.789403,
                42.531931
              ],
              [
                -70.788783,
                42.534006
              ]
            ]
          ],
          [
            [
              [
                -70.802228,
                42.551048
              ],
              [
                -70.794397,
                42.548038
              ],
              [
                -70.80334,
                42.548299
              ],
              [
                -70.802228,
                42.551048
              ]
            ]
          ],
          [
            [
              [
                -70.817433,
                42.514027
              ],
              [
                -70.816396,
                42.514606
              ],
              [
                -70.815091,
                42.514051
              ],
              [
                -70.813635,
                42.512756
              ],
              [
                -70.812062,
                42.511992
              ],
              [
                -70.8119425108808,
                42.5110244948186
              ],
              [
                -70.811928,
                42.510907
              ],
              [
                -70.812146,
                42.510327
              ],
              [
                -70.812665,
                42.510117
              ],
              [
                -70.81407,
                42.510401
              ],
              [
                -70.815743,
                42.512349
              ],
              [
                -70.816898,
                42.513324
              ],
              [
                -70.817433,
                42.514027
              ]
            ]
          ],
          [
            [
              [
                -70.835581,
                42.483833
              ],
              [
                -70.834885,
                42.484883
              ],
              [
                -70.834286,
                42.485337
              ],
              [
                -70.833705,
                42.485272
              ],
              [
                -70.833,
                42.484187
              ],
              [
                -70.83345,
                42.483634
              ],
              [
                -70.83396,
                42.483545
              ],
              [
                -70.83405,
                42.483191
              ],
              [
                -70.83357,
                42.48287
              ],
              [
                -70.83349621875,
                42.48225515625
              ],
              [
                -70.833465,
                42.481995
              ],
              [
                -70.834621,
                42.481962
              ],
              [
                -70.835355,
                42.482255
              ],
              [
                -70.835549,
                42.482936
              ],
              [
                -70.835581,
                42.483833
              ]
            ]
          ],
          [
            [
              [
                -71.320806,
                42.482184
              ],
              [
                -71.306699,
                42.520593
              ],
              [
                -71.25249,
                42.524078
              ],
              [
                -71.258693,
                42.537567
              ],
              [
                -71.276395,
                42.544383
              ],
              [
                -71.225669,
                42.580036
              ],
              [
                -71.296319,
                42.612667
              ],
              [
                -71.277791,
                42.620847
              ],
              [
                -71.275154,
                42.656216
              ],
              [
                -71.24249,
                42.662346
              ],
              [
                -71.214948,
                42.701261
              ],
              [
                -71.188862,
                42.696268
              ],
              [
                -71.185511,
                42.67592
              ],
              [
                -71.134452,
                42.676778
              ],
              [
                -71.145713,
                42.698627
              ],
              [
                -71.115579,
                42.741104
              ],
              [
                -71.058883,
                42.732463
              ],
              [
                -71.018708,
                42.791605
              ],
              [
                -70.999834,
                42.80504
              ],
              [
                -71.0535904200316,
                42.8331080786315
              ],
              [
                -71.044401,
                42.848789
              ],
              [
                -70.927629,
                42.885326
              ],
              [
                -70.886136,
                42.88261
              ],
              [
                -70.848625,
                42.860939
              ],
              [
                -70.817296,
                42.87229
              ],
              [
                -70.80522,
                42.781798
              ],
              [
                -70.770453,
                42.704824
              ],
              [
                -70.776083,
                42.691264
              ],
              [
                -70.68463,
                42.651813
              ],
              [
                -70.663548,
                42.677603
              ],
              [
                -70.630077,
                42.692699
              ],
              [
                -70.620851,
                42.68684
              ],
              [
                -70.623927,
                42.661635
              ],
              [
                -70.597421,
                42.659605
              ],
              [
                -70.591742,
                42.648508
              ],
              [
                -70.594014,
                42.63503
              ],
              [
                -70.627173,
                42.621338
              ],
              [
                -70.654727,
                42.582234
              ],
              [
                -70.666037,
                42.584082
              ],
              [
                -70.658907,
                42.603504
              ],
              [
                -70.676733,
                42.607527
              ],
              [
                -70.684502,
                42.588858
              ],
              [
                -70.710349,
                42.572568
              ],
              [
                -70.737044,
                42.576863
              ],
              [
                -70.772132,
                42.559606
              ],
              [
                -70.794419,
                42.5645
              ],
              [
                -70.875195,
                42.544344
              ],
              [
                -70.882563,
                42.534887
              ],
              [
                -70.864207,
                42.533429
              ],
              [
                -70.886366,
                42.508611
              ],
              [
                -70.87472,
                42.504931
              ],
              [
                -70.857125,
                42.521492
              ],
              [
                -70.842091,
                42.519495
              ],
              [
                -70.853329,
                42.493015
              ],
              [
                -70.831091,
                42.503596
              ],
              [
                -70.835991,
                42.490496
              ],
              [
                -70.857791,
                42.490296
              ],
              [
                -70.894292,
                42.460896
              ],
              [
                -70.921993,
                42.466696
              ],
              [
                -70.934993,
                42.457896
              ],
              [
                -70.933402,
                42.433435
              ],
              [
                -70.908392,
                42.425197
              ],
              [
                -70.905692,
                42.416197
              ],
              [
                -70.919934,
                42.423587
              ],
              [
                -70.936393,
                42.418097
              ],
              [
                -70.943664,
                42.458338
              ],
              [
                -70.982294,
                42.431296
              ],
              [
                -71.010777,
                42.434568
              ],
              [
                -71.053365,
                42.475925
              ],
              [
                -71.078152,
                42.47402
              ],
              [
                -71.07524,
                42.488008
              ],
              [
                -71.090073,
                42.50118
              ],
              [
                -71.11976,
                42.500292
              ],
              [
                -71.135454,
                42.530001
              ],
              [
                -71.170033,
                42.515537
              ],
              [
                -71.168924,
                42.487087
              ],
              [
                -71.204317,
                42.465845
              ],
              [
                -71.253762,
                42.493324
              ],
              [
                -71.272695,
                42.459704
              ],
              [
                -71.321268,
                42.480515
              ],
              [
                -71.320806,
                42.482184
              ]
            ]
          ]
        ]
      }
    },
    {
      "type": "Feature",
      "id": "us-cd:118:25:07",
      "properties": {
        "boundary_id": "us-cd:118:25:07",
        "boundary_type": "congressional_district",
        "name": "Congressional District 7",
        "stateFips": "25",
        "congress": 118,
        "district": "07",
        "bbox": [
          -71.174798,
          42.135634,
          -70.985317,
          42.424202
        ]
      },
      "geometry": {
        "type": "Polygon",
        "coordinates": [
          [
            [
              -71.174798,
              42.350265
            ],
            [
              -71.130997,
              42.373892
            ],
            [
              -71.116921,
              42.364246
            ],
            [
              -71.10175,
              42.368302
            ],
            [
              -71.120974,
              42.393706
            ],
            [
              -71.13041,
              42.382918
            ],
            [
              -71.156362,
              42.395852
            ],
            [
              -71.128744,
              42.39601
            ],
            [
              -71.134528,
              42.405813
            ],
            [
              -71.126749,
              42.418152
            ],
            [
              -71.113868,
              42.400985
            ],
            [
              -71.075996,
              42.396396
            ],
            [
              -71.072825,
              42.41488
            ],
            [
              -71.028227,
              42.424202
            ],
            [
              -71.026468,
              42.406124
            ],
            [
              -70.987974,
              42.392817
            ],
            [
              -71.010363,
              42.365031
            ],
            [
              -70.985317,
              42.358316
            ],
            [
              -71.003741,
              42.356037
            ],
            [
              -71.005579,
              42.347362
            ],
            [
              -71.047018,
              42.37312
            ],
            [
              -71.087511,
              42.355557
            ],
            [
              -71.083749,
              42.34838
            ],
            [
              -71.049595,
              42.354497
            ],
            [
              -71.068747,
              42.318594
            ],
            [
              -71.053506,
              42.310493
            ],
            [
              -71.055347,
              42.288242
            ],
            [
              -71.0812,
              42.25837
            ],
            [
              -71.09351,
              42.25692
            ],
            [
              -71.093423,
              42.239123
            ],
            [
              -71.07664,
              42.22112
            ],
            [
              -71.093189,
              42.213936
            ],
            [
              -71.082727,
              42.20429
            ],
            [
              -71.04949,
              42.206669
            ],
            [
              -71.047271,
              42.194592
            ],
            [
              -71.019281,
              42.18692
            ],
            [
              -71.035093,
              42.135634
            ],
            [
              -71.142681,
              42.235998
            ],
            [
              -71.146642,
              42.255755
            ],
            [
              -71.160424,
              42.266823
            ],
            [
              -71.118415,
              42.293409
            ],
            [
              -71.102944,
              42.319298
            ],
            [
              -71.119515,
              42.322055
            ],
            [
              -71.10657,
              42.349912
            ],
            [
              -71.124067,
              42.351552
            ],
            [
              -71.157036,
              42.33039
            ],
            [
              -71.174265,
              42.349584
            ],
            [
              -71.174798,
              42.350265
            ]
          ]
        ]
      }
    },
    {
      "type": "Feature",
      "id": "us-cd:118:25:08",
      "properties": {
        "boundary_id": "us-cd:118:25:08",
        "boundary_type": "congressional_district",
        "name": "Congressional District 8",
        "stateFips": "25",
        "congress": 118,
        "district": "08",
        "bbox": [
          -71.303751,
          41.982716,
          -70.8246607239285,
          42.370697
        ]
      },
      "geometry": {
        "type": "MultiPolygon",
        "coordinates": [
          [
            [
              [
                -70.883352,
                42.340491
              ],
              [
                -70.873953,
                42.343634
              ],
              [
                -70.883465,
                42.340035
              ],
              [
                -70.883352,
                42.340491
              ]
            ]
          ],
          [
            [
              [
                -70.891755,
                42.338856
              ],
              [
                -70.884777,
                42.339328
              ],
              [
                -70.891804,
                42.338129
              ],
              [
                -70.891755,
                42.338856
              ]
            ]
          ],
          [
            [
              [
                -70.892296,
                42.328394
              ],
              [
                -70.89111,
                42.328445
              ],
              [
                -70.888954,
                42.328902
              ],
              [
                -70.888775,
                42.328461
              ],
              [
                -70.889151,
                42.32774
              ],
              [
                -70.89077,
                42.327607
              ],
              [
                -70.891952,
                42.327231
              ],
              [
                -70.892492,
                42.32803
              ],
              [
                -70.892296,
                42.328394
              ]
            ]
          ],
          [
            [
              [
                -70.898407,
                42.340266
              ],
              [
                -70.89721,
                42.343324
              ],
              [
                -70.8956,
                42.343892
              ],
              [
                -70.894605,
                42.342379
              ],
              [
                -70.894605,
                42.340309
              ],
              [
                -70.895156,
                42.338879
              ],
              [
                -70.896714,
                42.338475
              ],
              [
                -70.897354,
                42.339492
              ],
              [
                -70.898407,
                42.340266
              ]
            ]
          ],
          [
            [
              [
                -70.898439,
                42.331191
              ],
              [
                -70.897259,
                42.332644
              ],
              [
                -70.897063,
                42.333952
              ],
              [
                -70.896031,
                42.334715
              ],
              [
                -70.894601,
                42.335096
              ],
              [
                -70.894065,
                42.33498
              ],
              [
                -70.893967,
                42.334497
              ],
              [
                -70.895013,
                42.333807
              ],
              [
                -70.895692,
                42.331945
              ],
              [
                -70.89608,
                42.330355
              ],
              [
                -70.897554,
                42.330246
              ],
              [
                -70.897853,
                42.330678
              ],
              [
                -70.898586,
                42.330501
              ],
              [
                -70.898439,
                42.331191
              ]
            ]
          ],
          [
            [
              [
                -70.93091,
                42.321605
              ],
              [
                -70.930248,
                42.322292
              ],
              [
                -70.925969,
                42.321909
              ],
              [
                -70.925473,
                42.319212
              ],
              [
                -70.925308,
                42.317223
              ],
              [
                -70.928055,
                42.317223
              ],
              [
                -70.93076,
                42.319027
              ],
              [
                -70.93091,
                42.321605
              ]
            ]
          ],
          [
            [
              [
                -70.932091,
                42.332698
              ],
              [
                -70.922598,
                42.326144
              ],
              [
                -70.932464,
                42.332228
              ],
              [
                -70.932091,
                42.332698
              ]
            ]
          ],
          [
            [
              [
                -70.94278,
                42.327181
              ],
              [
                -70.934947,
                42.326807
              ],
              [
                -70.942948,
                42.325695
              ],
              [
                -70.94278,
                42.327181
              ]
            ]
          ],
          [
            [
              [
                -70.95108,
                42.289726
              ],
              [
                -70.92638,
                42.301406
              ],
              [
                -70.937332,
                42.284916
              ],
              [
                -70.94902,
                42.285946
              ],
              [
                -70.95108,
                42.289726
              ]
            ]
          ],
          [
            [
              [
                -70.958094,
                42.31165
              ],
              [
                -70.948515,
                42.311937
              ],
              [
                -70.957835,
                42.309831
              ],
              [
                -70.958094,
                42.31165
              ]
            ]
          ],
          [
            [
              [
                -70.968935,
                42.355925
              ],
              [
                -70.953022,
                42.343973
              ],
              [
                -70.9700244514225,
                42.3552840314789
              ],
              [
                -70.968935,
                42.355925
              ]
            ]
          ],
          [
            [
              [
                -70.977402,
                42.312294
              ],
              [
                -70.952805,
                42.330627
              ],
              [
                -70.977219,
                42.310249
              ],
              [
                -70.977402,
                42.312294
              ]
            ]
          ],
          [
            [
              [
                -70.989162,
                42.328304
              ],
              [
                -70.985667,
                42.318733
              ],
              [
                -70.991621,
                42.326294
              ],
              [
                -70.989162,
                42.328304
              ]
            ]
          ],
          [
            [
              [
                -71.016643,
                42.313731
              ],
              [
                -70.999534,
                42.31992
              ],
              [
                -71.017179,
                42.311751
              ],
              [
                -71.016643,
                42.313731
              ]
            ]
          ],
          [
            [
              [
                -71.303751,
                42.1495
              ],
              [
                -71.275025,
                42.148623
              ],
              [
                -71.269569,
                42.200499
              ],
              [
                -71.251416,
                42.202613
              ],
              [
                -71.229173,
                42.264148
              ],
              [
                -71.197043,
                42.269005
              ],
              [
                -71.178636,
                42.294595
              ],
              [
                -71.164702,
                42.30383
              ],
              [
                -71.152113,
                42.294588
              ],
              [
                -71.121528,
                42.323882
              ],
              [
                -71.102944,
                42.319298
              ],
              [
                -71.118415,
                42.293409
              ],
              [
                -71.160424,
                42.266823
              ],
              [
                -71.146642,
                42.255755
              ],
              [
                -71.142681,
                42.235998
              ],
              [
                -71.035093,
                42.135634
              ],
              [
                -71.019281,
                42.18692
              ],
              [
                -71.047271,
                42.194592
              ],
              [
                -71.04949,
                42.206669
              ],
              [
                -71.082727,
                42.20429
              ],
              [
                -71.093189,
                42.213936
              ],
              [
                -71.07664,
                42.22112
              ],
              [
                -71.093423,
                42.239123
              ],
              [
                -71.09351,
                42.25692
              ],
              [
                -71.0812,
                42.25837
              ],
              [
                -71.055347,
                42.288242
              ],
              [
                -71.053506,
                42.310493
              ],
              [
                -71.068747,
                42.318594
              ],
              [
                -71.049595,
                42.354497
              ],
              [
                -71.083749,
                42.34838
              ],
              [
                -71.087511,
                42.355557
              ],
              [
                -71.069478,
                42.369046
              ],
              [
                -71.0526194076875,
                42.370697
              ],
              [
                -71.049673,
                42.356598
              ],
              [
                -71.010926,
                42.339656
              ],
              [
                -71.015664,
                42.330518
              ],
              [
                -71.047648,
                42.328087
              ],
              [
                -71.033099,
                42.316116
              ],
              [
                -71.047616,
                42.303378
              ],
              [
                -71.039306,
                42.285495
              ],
              [
                -71.032108,
                42.288565
              ],
              [
                -71.036797,
                42.301392
              ],
              [
                -71.021523,
                42.294346
              ],
              [
                -70.99047,
                42.308023
              ],
              [
                -71.02231,
                42.288188
              ],
              [
                -70.985278,
                42.264347
              ],
              [
                -70.956219,
                42.270794
              ],
              [
                -70.953186,
                42.279854
              ],
              [
                -70.951185,
                42.261266
              ],
              [
                -70.965429,
                42.25969
              ],
              [
                -70.95727,
                42.254988
              ],
              [
                -70.962127,
                42.246413
              ],
              [
                -70.927227,
                42.257381
              ],
              [
                -70.918236,
                42.271861
              ],
              [
                -70.877753,
                42.248417
              ],
              [
                -70.882801,
                42.26811
              ],
              [
                -70.903238,
                42.281335
              ],
              [
                -70.878285,
                42.278311
              ],
              [
                -70.887317,
                42.297652
              ],
              [
                -70.923444,
                42.302398
              ],
              [
                -70.889456,
                42.310484
              ],
              [
                -70.851093,
                42.26827
              ],
              [
                -70.8246607239285,
                42.2659346457723
              ],
              [
                -70.844627,
                42.260426
              ],
              [
                -70.849277,
                42.247331
              ],
              [
                -70.841152,
                42.243346
              ],
              [
                -70.85338,
                42.239607
              ],
              [
                -70.827015,
                42.200786
              ],
              [
                -70.940768,
                42.151365
              ],
              [
                -70.931487,
                42.116549
              ],
              [
                -70.902412,
                42.085897
              ],
              [
                -70.912594,
                42.084493
              ],
              [
                -70.896618,
                42.023285
              ],
              [
                -70.899185,
                41.996321
              ],
              [
                -70.925364,
                42.008909
              ],
              [
                -70.979585,
                42.010999
              ],
              [
                -71.054184,
                41.982716
              ],
              [
                -71.15645,
                42.001042
              ],
              [
                -71.168681,
                42.061161
              ],
              [
                -71.138607,
                42.072775
              ],
              [
                -71.13129,
                42.10074
              ],
              [
                -71.149166,
                42.138612
              ],
              [
                -71.163542,
                42.141457
              ],
              [
                -71.180827,
                42.165484
              ],
              [
                -71.186885,
                42.153264
              ],
              [
                -71.23201,
                42.131458
              ],
              [
                -71.238804,
                42.106401
              ],
              [
                -71.280268,
                42.088492
              ],
              [
                -71.300223,
                42.12591
              ],
              [
                -71.300118,
                42.147176
              ],
              [
                -71.303751,
                42.1495
              ]
            ]
          ]
        ]
      }
    },
    {
      "type": "Feature",
      "id": "us-cd:118:25:09",
      "properties": {
        "boundary_id": "us-cd:118:25:09",
        "boundary_type": "congressional_district",
        "name": "Congressional District 9",
        "stateFips": "25",
        "congress": 118,
        "district": "09",
        "bbox": [
          -71.1385490700026,
          41.239916,
          -69.930418,
          42.264664
        ]
      },
      "geometry": {
        "type": "MultiPolygon",
        "coordinates": [
          [
            [
              [
                -70.234054,
                41.285653
              ],
              [
                -70.20173,
                41.276544
              ],
              [
                -70.191747,
                41.286546
              ],
              [
                -70.207434,
                41.288689
              ],
              [
                -70.199115,
                41.29619
              ],
              [
                -70.12446,
                41.293851
              ],
              [
                -70.062565,
                41.308726
              ],
              [
                -70.031332,
                41.339332
              ],
              [
                -70.024421,
                41.360622
              ],
              [
                -70.049053,
                41.391702
              ],
              [
                -70.02038,
                41.369006
              ],
              [
                -69.960277,
                41.278731
              ],
              [
                -69.960181,
                41.264546
              ],
              [
                -69.974983,
                41.246528
              ],
              [
                -70.001603,
                41.239916
              ],
              [
                -70.100495,
                41.240553
              ],
              [
                -70.237144,
                41.285117
              ],
              [
                -70.234054,
                41.285653
              ]
            ]
          ],
          [
            [
              [
                -70.276653,
                41.311283
              ],
              [
                -70.246552,
                41.306186
              ],
              [
                -70.242739,
                41.28919
              ],
              [
                -70.277262,
                41.310506
              ],
              [
                -70.276653,
                41.311283
              ]
            ]
          ],
          [
            [
              [
                -70.30897,
                41.336057
              ],
              [
                -70.289325,
                41.335022
              ],
              [
                -70.309245,
                41.334579
              ],
              [
                -70.30897,
                41.336057
              ]
            ]
          ],
          [
            [
              [
                -70.8071,
                41.458576
              ],
              [
                -70.710222,
                41.518915
              ],
              [
                -70.675188,
                41.513949
              ],
              [
                -70.707037,
                41.50149
              ],
              [
                -70.712266,
                41.49063
              ],
              [
                -70.756712,
                41.479057
              ],
              [
                -70.758138,
                41.463029
              ],
              [
                -70.790395,
                41.446535
              ],
              [
                -70.806625,
                41.455013
              ],
              [
                -70.8071,
                41.458576
              ]
            ]
          ],
          [
            [
              [
                -70.832039,
                41.259495
              ],
              [
                -70.811965,
                41.264839
              ],
              [
                -70.801561,
                41.25841
              ],
              [
                -70.809245,
                41.249068
              ],
              [
                -70.832333,
                41.258362
              ],
              [
                -70.832039,
                41.259495
              ]
            ]
          ],
          [
            [
              [
                -70.835735,
                41.602349
              ],
              [
                -70.824036,
                41.599554
              ],
              [
                -70.822066,
                41.583551
              ],
              [
                -70.838452,
                41.59646
              ],
              [
                -70.835735,
                41.602349
              ]
            ]
          ],
          [
            [
              [
                -70.838777,
                41.347209
              ],
              [
                -70.812309,
                41.355745
              ],
              [
                -70.774974,
                41.349176
              ],
              [
                -70.712432,
                41.40885
              ],
              [
                -70.700964,
                41.43401
              ],
              [
                -70.603555,
                41.482384
              ],
              [
                -70.596516,
                41.454122
              ],
              [
                -70.56328,
                41.469127
              ],
              [
                -70.547567,
                41.415831
              ],
              [
                -70.506984,
                41.400242
              ],
              [
                -70.501306,
                41.385391
              ],
              [
                -70.484503,
                41.38629
              ],
              [
                -70.471687,
                41.3962
              ],
              [
                -70.470788,
                41.412875
              ],
              [
                -70.452497,
                41.42143
              ],
              [
                -70.446233,
                41.39648
              ],
              [
                -70.452244,
                41.349828
              ],
              [
                -70.709826,
                41.341723
              ],
              [
                -70.747541,
                41.329952
              ],
              [
                -70.775665,
                41.300982
              ],
              [
                -70.8374100690638,
                41.3457972389252
              ],
              [
                -70.838777,
                41.347209
              ]
            ]
          ],
          [
            [
              [
                -70.840375,
                41.452875
              ],
              [
                -70.820595,
                41.458507
              ],
              [
                -70.808051,
                41.445037
              ],
              [
                -70.836868,
                41.441968
              ],
              [
                -70.841564,
                41.449134
              ],
              [
                -70.840375,
                41.452875
              ]
            ]
          ],
          [
            [
              [
                -70.903598,
                41.430782
              ],
              [
                -70.882207,
                41.432564
              ],
              [
                -70.857103,
                41.450253
              ],
              [
                -70.848563,
                41.432844
              ],
              [
                -70.871216,
                41.422085
              ],
              [
                -70.9055,
                41.425253
              ],
              [
                -70.903598,
                41.430782
              ]
            ]
          ],
          [
            [
              [
                -70.925416,
                41.451732
              ],
              [
                -70.915165,
                41.451034
              ],
              [
                -70.925781,
                41.449585
              ],
              [
                -70.925416,
                41.451732
              ]
            ]
          ],
          [
            [
              [
                -70.949185,
                41.415776
              ],
              [
                -70.927475,
                41.431811
              ],
              [
                -70.908587,
                41.422417
              ],
              [
                -70.95095,
                41.411882
              ],
              [
                -70.949185,
                41.415776
              ]
            ]
          ],
          [
            [
              [
                -71.138303,
                41.604054
              ],
              [
                -71.114407,
                41.692804
              ],
              [
                -71.06663,
                41.685619
              ],
              [
                -70.907184,
                41.763543
              ],
              [
                -70.921782,
                41.791244
              ],
              [
                -70.8964,
                41.79432
              ],
              [
                -70.893777,
                41.826591
              ],
              [
                -70.918729,
                41.852063
              ],
              [
                -70.916432,
                41.876899
              ],
              [
                -70.993152,
                41.906445
              ],
              [
                -70.997397,
                41.918399
              ],
              [
                -71.011275,
                41.907129
              ],
              [
                -71.018837,
                41.92426
              ],
              [
                -71.035648,
                41.923657
              ],
              [
                -71.034721,
                41.932361
              ],
              [
                -71.051081,
                41.933829
              ],
              [
                -71.059826,
                41.944909
              ],
              [
                -71.08549,
                41.941743
              ],
              [
                -71.061447,
                41.964403
              ],
              [
                -71.070345,
                41.987841
              ],
              [
                -71.054184,
                41.982716
              ],
              [
                -70.979585,
                42.010999
              ],
              [
                -70.925364,
                42.008909
              ],
              [
                -70.899185,
                41.996321
              ],
              [
                -70.896618,
                42.023285
              ],
              [
                -70.912594,
                42.084493
              ],
              [
                -70.902412,
                42.085897
              ],
              [
                -70.931487,
                42.116549
              ],
              [
                -70.940768,
                42.151365
              ],
              [
                -70.827015,
                42.200786
              ],
              [
                -70.85338,
                42.239607
              ],
              [
                -70.841152,
                42.243346
              ],
              [
                -70.848937,
                42.25214
              ],
              [
                -70.836237,
                42.264664
              ],
              [
                -70.784402,
                42.248584
              ],
              [
                -70.766338,
                42.254742
              ],
              [
                -70.74723,
                42.221816
              ],
              [
                -70.712993,
                42.204431
              ],
              [
                -70.714301,
                42.168783
              ],
              [
                -70.640169,
                42.088633
              ],
              [
                -70.64819,
                42.068441
              ],
              [
                -70.643208,
                42.050821
              ],
              [
                -70.597892,
                42.00455
              ],
              [
                -70.614046,
                42.006612
              ],
              [
                -70.639137,
                41.993895
              ],
              [
                -70.636387,
                42.01383
              ],
              [
                -70.629857,
                42.001456
              ],
              [
                -70.614223,
                42.011149
              ],
              [
                -70.650874,
                42.046247
              ],
              [
                -70.66936,
                42.037116
              ],
              [
                -70.670934,
                42.007786
              ],
              [
                -70.695809,
                42.013346
              ],
              [
                -70.712204,
                42.007586
              ],
              [
                -70.710034,
                41.999544
              ],
              [
                -70.646785,
                41.949309
              ],
              [
                -70.630321,
                41.947048
              ],
              [
                -70.652507,
                41.978871
              ],
              [
                -70.623945,
                41.943061
              ],
              [
                -70.583572,
                41.950007
              ],
              [
                -70.539189,
                41.926773
              ],
              [
                -70.54741,
                41.911934
              ],
              [
                -70.525567,
                41.85873
              ],
              [
                -70.543168,
                41.824446
              ],
              [
                -70.532656,
                41.804796
              ],
              [
                -70.471552,
                41.761563
              ],
              [
                -70.428309,
                41.747669
              ],
              [
                -70.295561,
                41.734412
              ],
              [
                -70.273879,
                41.72431
              ],
              [
                -70.382836,
                41.734679
              ],
              [
                -70.396384,
                41.727868
              ],
              [
                -70.362871,
                41.705088
              ],
              [
                -70.251195,
                41.707339
              ],
              [
                -70.240186,
                41.710649
              ],
              [
                -70.240777,
                41.727528
              ],
              [
                -70.216073,
                41.742981
              ],
              [
                -70.064314,
                41.772845
              ],
              [
                -70.022707,
                41.788352
              ],
              [
                -70.003842,
                41.80852
              ],
              [
                -70.009013,
                41.876625
              ],
              [
                -70.000188,
                41.886938
              ],
              [
                -70.02424,
                41.896343
              ],
              [
                -70.013369,
                41.905986
              ],
              [
                -70.032305,
                41.920441
              ],
              [
                -70.027392,
                41.929331
              ],
              [
                -70.044995,
                41.930049
              ],
              [
                -70.061617,
                41.923496
              ],
              [
                -70.054203,
                41.920949
              ],
              [
                -70.065671,
                41.911658
              ],
              [
                -70.06901,
                41.884924
              ],
              [
                -70.077421,
                41.985497
              ],
              [
                -70.095595,
                42.032832
              ],
              [
                -70.155415,
                42.062409
              ],
              [
                -70.178468,
                42.05642
              ],
              [
                -70.205889,
                42.032691
              ],
              [
                -70.192341,
                42.023157
              ],
              [
                -70.166884,
                42.034575
              ],
              [
                -70.190834,
                42.020028
              ],
              [
                -70.24354,
                42.060569
              ],
              [
                -70.225626,
                42.078601
              ],
              [
                -70.189305,
                42.082337
              ],
              [
                -70.115968,
                42.067638
              ],
              [
                -70.058531,
                42.040363
              ],
              [
                -70.033501,
                42.017736
              ],
              [
                -69.968598,
                41.9117
              ],
              [
                -69.938024,
                41.809507
              ],
              [
                -69.930418,
                41.691944
              ],
              [
                -69.957775,
                41.620364
              ],
              [
                -69.983183,
                41.608295
              ],
              [
                -69.988215,
                41.554704
              ],
              [
                -70.003861,
                41.540551
              ],
              [
                -70.013606,
                41.551046
              ],
              [
                -69.993879,
                41.576299
              ],
              [
                -69.992215,
                41.603319
              ],
              [
                -69.970489,
                41.645458
              ],
              [
                -70.014211,
                41.671971
              ],
              [
                -70.195193,
                41.647913
              ],
              [
                -70.245867,
                41.628479
              ],
              [
                -70.265424,
                41.609333
              ],
              [
                -70.28132,
                41.635125
              ],
              [
                -70.316626,
                41.625448
              ],
              [
                -70.351634,
                41.634687
              ],
              [
                -70.379151,
                41.611361
              ],
              [
                -70.437246,
                41.605329
              ],
              [
                -70.485571,
                41.554244
              ],
              [
                -70.633607,
                41.538254
              ],
              [
                -70.656625,
                41.514779
              ],
              [
                -70.685408,
                41.521335
              ],
              [
                -70.683269,
                41.5329
              ],
              [
                -70.676376,
                41.528986
              ],
              [
                -70.658659,
                41.543385
              ],
              [
                -70.640948,
                41.577325
              ],
              [
                -70.652449,
                41.60521
              ],
              [
                -70.640003,
                41.624616
              ],
              [
                -70.650724,
                41.64613
              ],
              [
                -70.620533,
                41.657266
              ],
              [
                -70.651956,
                41.663044
              ],
              [
                -70.632917,
                41.670448
              ],
              [
                -70.636347,
                41.680002
              ],
              [
                -70.662036,
                41.68094
              ],
              [
                -70.617572,
                41.701141
              ],
              [
                -70.626529,
                41.712995
              ],
              [
                -70.648805,
                41.718029
              ],
              [
                -70.674064,
                41.691371
              ],
              [
                -70.656596,
                41.715401
              ],
              [
                -70.718739,
                41.73574
              ],
              [
                -70.728526,
                41.722875
              ],
              [
                -70.712028,
                41.707028
              ],
              [
                -70.727477,
                41.702414
              ],
              [
                -70.714906,
                41.691938
              ],
              [
                -70.715593,
                41.675258
              ],
              [
                -70.748868,
                41.697446
              ],
              [
                -70.755347,
                41.694326
              ],
              [
                -70.743402,
                41.674726
              ],
              [
                -70.763842,
                41.676856
              ],
              [
                -70.757065,
                41.652891
              ],
              [
                -70.765463,
                41.641575
              ],
              [
                -70.809001,
                41.658391
              ],
              [
                -70.821598,
                41.654839
              ],
              [
                -70.801063,
                41.629513
              ],
              [
                -70.859654,
                41.624124
              ],
              [
                -70.843227,
                41.596565
              ],
              [
                -70.854804,
                41.582431
              ],
              [
                -70.872665,
                41.627816
              ],
              [
                -70.88876,
                41.632815
              ],
              [
                -70.913202,
                41.619266
              ],
              [
                -70.902051,
                41.591583
              ],
              [
                -70.930456,
                41.613271
              ],
              [
                -70.933777,
                41.58043
              ],
              [
                -70.950245,
                41.584598
              ],
              [
                -70.92852,
                41.539776
              ],
              [
                -70.946302,
                41.537564
              ],
              [
                -70.953299,
                41.51501
              ],
              [
                -70.966583,
                41.531655
              ],
              [
                -70.980131,
                41.527563
              ],
              [
                -70.983956,
                41.5089
              ],
              [
                -71.019354,
                41.508857
              ],
              [
                -71.035514,
                41.499047
              ],
              [
                -71.03551,
                41.481639
              ],
              [
                -71.041013,
                41.497534
              ],
              [
                -71.070687,
                41.508877
              ],
              [
                -71.12057,
                41.497448
              ],
              [
                -71.1385490700026,
                41.6034285758646
              ],
              [
                -71.138303,
                41.604054
              ]
            ]
          ]
        ]
      }
    }
  ]
}
