{
  "type": "FeatureCollection",
  "features": [
    {
      "type": "Feature",
      "id": "us-cd:118:11:98",
      "properties": {
        "boundary_id": "us-cd:118:11:98",
        "boundary_type": "congressional_district",
        "name": "Delegate District (at Large)",
        "stateFips": "11",
        "congress": 118,
        "district": "98",
        "bbox": [
          -77.119759,
          38.791645,
          -76.909395,
          38.99511
        ]
      },
      "geometry": {
        "type": "Polygon",
        "coordinates": [
          [
            [
              -77.119759,
              38.934343
            ],
            [
              -77.040999,
              38.99511
            ],
            [
              -76.909395,
              38.892812
            ],
            [
              -77.039006,
              38.791645
            ],
            [
              -77.044999,
              38.838512
            ],
            [
              -77.031698,
              38.850512
            ],
            [
              -77.040599,
              38.871212
            ],
            [
              -77.058254,
              38.880069
            ],
            [
              -77.068199,
              38.899811
            ],
            [
              -77.1012,
              38.911111
            ],
            [
              -77.1179,
              38.932411
            ],
            [
              -77.119759,
              38.934343
            ]
          ]
        ]
      }
    }
  ]
}
