{
  "type": "FeatureCollection",
  "features": [
    {
      "type": "Feature",
      "id": "us-cd:118:19:01",
      "properties": {
        "boundary_id": "us-cd:118:19:01",
        "boundary_type": "congressional_district",
        "name": "Congressional District 1",
        "stateFips": "19",
        "congress": 118,
        "district": "01",
        "bbox": [
          -93.790647,
          40.375659,
          -90.140061,
          42.382155
        ]
      },
      "geometry": {
        "type": "Polygon",
        "coordinates": [
          [
            [
              -93.790646,
              41.465017
            ],
            [
              -93.790612,
              41.511916
            ],
            [
              -93.413841,
              41.507415
            ],
            [
              -93.422577,
              41.494991
            ],
            [
              -93.400135,
              41.502009
            ],
            [
              -93.40467,
              41.486741
            ],
            [
              -93.383813,
              41.494799
            ],
            [
              -93.36349,
              41.486578
            ],
            [
              -93.356036,
              41.498158
            ],
            [
              -93.343814,
              41.481838
            ],
            [
              -93.328407,
              41.490794
            ],
            [
              -93.328681,
              41.601148
            ],
            [
              -93.348681,
              41.600999
            ],
            [
              -93.347933,
              41.863104
            ],
            [
              -92.765999,
              41.862373
            ],
            [
              -92.766759,
              41.601355
            ],
            [
              -92.757068,
              41.601411
            ],
            [
              -92.756508,
              41.508794
            ],
            [
              -92.297494,
              41.50979
            ],
            [
              -92.298164,
              41.862779
            ],
            [
              -91.366221,
              41.860069
            ],
            [
              -91.363263,
              42.296445
            ],
            [
              -90.665551,
              42.294699
            ],
            [
              -90.665029,
              42.382155
            ],
            [
              -90.473812167653,
              42.3814582098911
            ],
            [
              -90.416535,
              42.325109
            ],
            [
              -90.430884,
              42.27823
            ],
            [
              -90.391108,
              42.225473
            ],
            [
              -90.356964,
              42.205445
            ],
            [
              -90.234919,
              42.165431
            ],
            [
              -90.209479,
              42.15268
            ],
            [
              -90.197342,
              42.128163
            ],
            [
              -90.167533,
              42.122475
            ],
            [
              -90.164485,
              42.042105
            ],
            [
              -90.140061,
              42.003252
            ],
            [
              -90.164135,
              41.956178
            ],
            [
              -90.1516,
              41.931002
            ],
            [
              -90.153584,
              41.906614
            ],
            [
              -90.181901,
              41.843216
            ],
            [
              -90.181973,
              41.80707
            ],
            [
              -90.278633,
              41.767358
            ],
            [
              -90.310708,
              41.742214
            ],
            [
              -90.313435,
              41.698082
            ],
            [
              -90.334525,
              41.679559
            ],
            [
              -90.343452,
              41.646959
            ],
            [
              -90.343228,
              41.587833
            ],
            [
              -90.41283,
              41.565333
            ],
            [
              -90.461432,
              41.523533
            ],
            [
              -90.500633,
              41.518033
            ],
            [
              -90.540935,
              41.526133
            ],
            [
              -90.591037,
              41.512832
            ],
            [
              -90.655839,
              41.462132
            ],
            [
              -90.750142,
              41.449632
            ],
            [
              -90.846558,
              41.455141
            ],
            [
              -90.930016,
              41.421404
            ],
            [
              -90.979815,
              41.434321
            ],
            [
              -91.04589,
              41.414085
            ],
            [
              -91.06652,
              41.365246
            ],
            [
              -91.074841,
              41.305578
            ],
            [
              -91.113648,
              41.241401
            ],
            [
              -91.041536,
              41.166138
            ],
            [
              -90.99496,
              41.160624
            ],
            [
              -90.946627,
              41.096632
            ],
            [
              -90.942253,
              41.034702
            ],
            [
              -90.958142,
              40.979767
            ],
            [
              -90.952233,
              40.954047
            ],
            [
              -90.965344,
              40.921633
            ],
            [
              -91.009536,
              40.900565
            ],
            [
              -91.092993,
              40.821079
            ],
            [
              -91.091703,
              40.779708
            ],
            [
              -91.110424,
              40.745528
            ],
            [
              -91.11194,
              40.697018
            ],
            [
              -91.123928,
              40.669152
            ],
            [
              -91.18698,
              40.637297
            ],
            [
              -91.253074,
              40.637962
            ],
            [
              -91.339719,
              40.613488
            ],
            [
              -91.401482,
              40.559458
            ],
            [
              -91.404125,
              40.539127
            ],
            [
              -91.384531,
              40.530948
            ],
            [
              -91.364211,
              40.500043
            ],
            [
              -91.381769,
              40.442555
            ],
            [
              -91.372554,
              40.4012
            ],
            [
              -91.381958,
              40.387632
            ],
            [
              -91.419422,
              40.378264
            ],
            [
              -91.441243,
              40.386255
            ],
            [
              -91.463895,
              40.375659
            ],
            [
              -91.463386,
              40.385394
            ],
            [
              -91.484507,
              40.3839
            ],
            [
              -91.488481,
              40.404317
            ],
            [
              -91.524612,
              40.410765
            ],
            [
              -91.519134,
              40.432822
            ],
            [
              -91.533623,
              40.43832
            ],
            [
              -91.52509,
              40.457845
            ],
            [
              -91.574746,
              40.465664
            ],
            [
              -91.590817,
              40.492292
            ],
            [
              -91.621353,
              40.510072
            ],
            [
              -91.620071,
              40.540817
            ],
            [
              -91.6887,
              40.55739
            ],
            [
              -91.686357,
              40.580875
            ],
            [
              -91.729115,
              40.61364
            ],
            [
              -92.17978,
              40.600529
            ],
            [
              -92.179974,
              41.162662
            ],
            [
              -93.789196,
              41.162035
            ],
            [
              -93.790647,
              41.454225
            ],
            [
              -93.790646,
              41.465017
            ]
          ]
        ]
      }
    },
    {
      "type": "Feature",
      "id": "us-cd:118:19:02",
      "properties": {
        "boundary_id": "us-cd:118:19:02",
        "boundary_type": "congressional_district",
        "name": "Congressional District 2",
        "stateFips": "19",
        "congress": 118,
        "district": "02",
        "bbox": [
          -93.499485,
          41.508794,
          -90.473812167653,
          43.50055
        ]
      },
      "geometry": {
        "type": "Polygon",
        "coordinates": [
          [
            [
              -93.499485,
              42.5577
            ],
            [
              -93.027,
              42.55681
            ],
            [
              -93.025144,
              42.907549
            ],
            [
              -93.498617,
              42.908512
            ],
            [
              -93.4973524517344,
              43.4995921195252
            ],
            [
              -91.217706,
              43.50055
            ],
            [
              -91.216035,
              43.481142
            ],
            [
              -91.233367,
              43.455168
            ],
            [
              -91.200359,
              43.412701
            ],
            [
              -91.198953,
              43.389835
            ],
            [
              -91.21499,
              43.368006
            ],
            [
              -91.20662,
              43.352524
            ],
            [
              -91.107237,
              43.313645
            ],
            [
              -91.07371,
              43.274746
            ],
            [
              -91.072649,
              43.262129
            ],
            [
              -91.057918,
              43.255366
            ],
            [
              -91.066398,
              43.239293
            ],
            [
              -91.12217,
              43.197255
            ],
            [
              -91.1462,
              43.152405
            ],
            [
              -91.175253,
              43.134665
            ],
            [
              -91.179457,
              43.067427
            ],
            [
              -91.14543,
              42.958211
            ],
            [
              -91.14556,
              42.90798
            ],
            [
              -91.100565,
              42.883078
            ],
            [
              -91.09406,
              42.830813
            ],
            [
              -91.078665,
              42.827678
            ],
            [
              -91.069549,
              42.769628
            ],
            [
              -91.060261,
              42.761847
            ],
            [
              -91.06468,
              42.750914
            ],
            [
              -90.949213,
              42.685573
            ],
            [
              -90.709204,
              42.636078
            ],
            [
              -90.635983,
              42.518712
            ],
            [
              -90.655927,
              42.491703
            ],
            [
              -90.654027,
              42.478503
            ],
            [
              -90.565248,
              42.438742
            ],
            [
              -90.555018,
              42.416138
            ],
            [
              -90.473812167653,
              42.3814582098911
            ],
            [
              -90.665029,
              42.382155
            ],
            [
              -90.665551,
              42.294699
            ],
            [
              -91.363263,
              42.296445
            ],
            [
              -91.366221,
              41.860069
            ],
            [
              -92.298164,
              41.862779
            ],
            [
              -92.297494,
              41.50979
            ],
            [
              -92.756508,
              41.508794
            ],
            [
              -92.757068,
              41.601411
            ],
            [
              -92.766759,
              41.601355
            ],
            [
              -92.767463,
              42.21014
            ],
            [
              -93.463043,
              42.209302
            ],
            [
              -93.462635,
              42.470802
            ],
            [
              -93.499098,
              42.470975
            ],
            [
              -93.499485,
              42.5577
            ]
          ]
        ]
      }
    },
    {
      "type": "Feature",
      "id": "us-cd:118:19:03",
      "properties": {
        "boundary_id": "us-cd:118:19:03",
        "boundary_type": "congressional_district",
        "name": "Congressional District 3",
        "stateFips": "19",
        "congress": 118,
        "district": "03",
        "bbox": [
          -95.385483,
          40.571341,
          -92.17978,
          42.20992
        ]
      },
      "geometry": {
        "type": "Polygon",
        "coordinates": [
          [
            [
              -95.385342,
              40.742619
            ],
            [
              -95.384349,
              41.160011
            ],
            [
              -95.155851,
              41.159236
            ],
            [
              -95.154722,
              41.505211
            ],
            [
              -94.700629,
              41.504148
            ],
            [
              -94.700745,
              41.602184
            ],
            [
              -94.744204,
              41.602185
            ],
            [
              -94.744876,
              41.862394
            ],
            [
              -94.628724,
              41.862763
            ],
            [
              -94.628586,
              42.209569
            ],
            [
              -94.164704,
              42.20992
            ],
            [
              -94.164428,
              41.863243
            ],
            [
              -93.347933,
              41.863104
            ],
            [
              -93.348681,
              41.600999
            ],
            [
              -93.328681,
              41.601148
            ],
            [
              -93.328407,
              41.490794
            ],
            [
              -93.343814,
              41.481838
            ],
            [
              -93.356036,
              41.498158
            ],
            [
              -93.36349,
              41.486578
            ],
            [
              -93.383813,
              41.494799
            ],
            [
              -93.40467,
              41.486741
            ],
            [
              -93.400135,
              41.502009
            ],
            [
              -93.422577,
              41.494991
            ],
            [
              -93.413841,
              41.507415
            ],
            [
              -93.790612,
              41.511916
            ],
            [
              -93.789196,
              41.162035
            ],
            [
              -92.179974,
              41.162662
            ],
            [
              -92.17978,
              40.600529
            ],
            [
              -94.294813,
              40.571341
            ],
            [
              -95.3739230201308,
              40.580501370976
            ],
            [
              -95.370618,
              40.728241
            ],
            [
              -95.385483,
              40.731825
            ],
            [
              -95.385342,
              40.742619
            ]
          ]
        ]
      }
    },
    {
      "type": "Feature",
      "id": "us-cd:118:19:04",
      "properties": {
        "boundary_id": "us-cd:118:19:04",
        "boundary_type": "congressional_district",
        "name": "Congressional District 4",
        "stateFips": "19",
        "congress": 118,
        "district": "04",
        "bbox": [
          -96.638621,
          40.580501370976,
          -92.765999,
          43.500457
        ]
      },
      "geometry": {
        "type": "Polygon",
        "coordinates": [
          [
            [
              -96.6383589571896,
              42.735496024784
            ],
            [
              -96.619494,
              42.754792
            ],
            [
              -96.634934,
              42.770735
            ],
            [
              -96.597036,
              42.791888
            ],
            [
              -96.596008,
              42.815044
            ],
            [
              -96.577937,
              42.827645
            ],
            [
              -96.581604,
              42.837521
            ],
            [
              -96.565605,
              42.830434
            ],
            [
              -96.560572,
              42.839373
            ],
            [
              -96.551285,
              42.836606
            ],
            [
              -96.554709,
              42.846142
            ],
            [
              -96.54146,
              42.857682
            ],
            [
              -96.549659,
              42.870281
            ],
            [
              -96.537851,
              42.878475
            ],
            [
              -96.540116,
              42.889678
            ],
            [
              -96.526357,
              42.891852
            ],
            [
              -96.542847,
              42.903737
            ],
            [
              -96.536564,
              42.905656
            ],
            [
              -96.541689,
              42.922576
            ],
            [
              -96.525536,
              42.935511
            ],
            [
              -96.516888,
              42.932512
            ],
            [
              -96.519994,
              42.93976
            ],
            [
              -96.500308,
              42.959391
            ],
            [
              -96.520773,
              42.980385
            ],
            [
              -96.49167,
              43.009707
            ],
            [
              -96.518431,
              43.042068
            ],
            [
              -96.46085,
              43.064033
            ],
            [
              -96.454088,
              43.084197
            ],
            [
              -96.462855,
              43.091419
            ],
            [
              -96.436589,
              43.120842
            ],
            [
              -96.466537,
              43.150281
            ],
            [
              -96.475571,
              43.221054
            ],
            [
              -96.56044,
              43.224219
            ],
            [
              -96.571194,
              43.238961
            ],
            [
              -96.552963,
              43.247281
            ],
            [
              -96.553217,
              43.259141
            ],
            [
              -96.58522,
              43.268878
            ],
            [
              -96.577819,
              43.279938
            ],
            [
              -96.588492,
              43.296339
            ],
            [
              -96.530392,
              43.300034
            ],
            [
              -96.525564,
              43.312467
            ],
            [
              -96.534913,
              43.336473
            ],
            [
              -96.524289,
              43.347214
            ],
            [
              -96.521572,
              43.38564
            ],
            [
              -96.525453,
              43.396317
            ],
            [
              -96.537116,
              43.395063
            ],
            [
              -96.573579,
              43.419228
            ],
            [
              -96.570224,
              43.428601
            ],
            [
              -96.594254,
              43.434153
            ],
            [
              -96.602608,
              43.449649
            ],
            [
              -96.582475,
              43.467051
            ],
            [
              -96.580997,
              43.481384
            ],
            [
              -96.598928,
              43.500457
            ],
            [
              -93.4973524517344,
              43.4995921195252
            ],
            [
              -93.498617,
              42.908512
            ],
            [
              -93.025144,
              42.907549
            ],
            [
              -93.027,
              42.55681
            ],
            [
              -93.499485,
              42.5577
            ],
            [
              -93.499098,
              42.470975
            ],
            [
              -93.462635,
              42.470802
            ],
            [
              -93.463043,
              42.209302
            ],
            [
              -92.767463,
              42.21014
            ],
            [
              -92.765999,
              41.862373
            ],
            [
              -94.164428,
              41.863243
            ],
            [
              -94.164704,
              42.20992
            ],
            [
              -94.628586,
              42.209569
            ],
            [
              -94.628724,
              41.862763
            ],
            [
              -94.744876,
              41.862394
            ],
            [
              -94.744204,
              41.602185
            ],
            [
              -94.700745,
              41.602184
            ],
            [
              -94.700629,
              41.504148
            ],
            [
              -95.154722,
              41.505211
            ],
            [
              -95.155851,
              41.159236
            ],
            [
              -95.384349,
              41.160011
            ],
            [
              -95.385483,
              40.731825
            ],
            [
              -95.370618,
              40.728241
            ],
            [
              -95.3739230201308,
              40.580501370976
            ],
            [
              -95.765645,
              40.585208
            ],
            [
              -95.748626,
              40.603355
            ],
            [
              -95.768926,
              40.621264
            ],
            [
              -95.776251,
              40.647463
            ],
            [
              -95.842801,
              40.677496
            ],
            [
              -95.852615,
              40.702262
            ],
            [
              -95.883178,
              40.717579
            ],
            [
              -95.888907,
              40.731855
            ],
            [
              -95.879027,
              40.753081
            ],
            [
              -95.835232,
              40.779151
            ],
            [
              -95.845342,
              40.811324
            ],
            [
              -95.837186,
              40.835347
            ],
            [
              -95.84859,
              40.861061
            ],
            [
              -95.809474,
              40.891228
            ],
            [
              -95.839743,
              40.93278
            ],
            [
              -95.829074,
              40.975688
            ],
            [
              -95.867286,
              41.001599
            ],
            [
              -95.859654,
              41.035695
            ],
            [
              -95.882415,
              41.060411
            ],
            [
              -95.862587,
              41.088399
            ],
            [
              -95.883489,
              41.154898
            ],
            [
              -95.871912,
              41.168122
            ],
            [
              -95.846188,
              41.166698
            ],
            [
              -95.841288,
              41.174998
            ],
            [
              -95.856788,
              41.187098
            ],
            [
              -95.90969,
              41.184398
            ],
            [
              -95.92599,
              41.195698
            ],
            [
              -95.910891,
              41.233998
            ],
            [
              -95.921891,
              41.264598
            ],
            [
              -95.913991,
              41.271398
            ],
            [
              -95.928691,
              41.281398
            ],
            [
              -95.927491,
              41.298397
            ],
            [
              -95.90429,
              41.299597
            ],
            [
              -95.912491,
              41.279498
            ],
            [
              -95.90249,
              41.273398
            ],
            [
              -95.871489,
              41.295797
            ],
            [
              -95.883089,
              41.316697
            ],
            [
              -95.92569,
              41.322197
            ],
            [
              -95.956691,
              41.345496
            ],
            [
              -95.92879,
              41.370096
            ],
            [
              -95.93749,
              41.393095
            ],
            [
              -95.922529,
              41.455766
            ],
            [
              -96.011757,
              41.476212
            ],
            [
              -96.019224,
              41.489296
            ],
            [
              -95.992599,
              41.514174
            ],
            [
              -96.005112,
              41.54325
            ],
            [
              -96.026657,
              41.540366
            ],
            [
              -96.040701,
              41.507076
            ],
            [
              -96.082654,
              41.525974
            ],
            [
              -96.096586,
              41.545397
            ],
            [
              -96.081152,
              41.577289
            ],
            [
              -96.117558,
              41.609999
            ],
            [
              -96.095046,
              41.647365
            ],
            [
              -96.121401,
              41.688522
            ],
            [
              -96.073063,
              41.705004
            ],
            [
              -96.106425,
              41.73789
            ],
            [
              -96.079915,
              41.757895
            ],
            [
              -96.064537,
              41.793002
            ],
            [
              -96.075548,
              41.807811
            ],
            [
              -96.107592,
              41.820685
            ],
            [
              -96.110246,
              41.84885
            ],
            [
              -96.142045,
              41.868865
            ],
            [
              -96.161756,
              41.90182
            ],
            [
              -96.136743,
              41.920826
            ],
            [
              -96.144583,
              41.941544
            ],
            [
              -96.129505,
              41.971673
            ],
            [
              -96.186265,
              41.977417
            ],
            [
              -96.192141,
              41.984461
            ],
            [
              -96.183568,
              41.999987
            ],
            [
              -96.194556,
              42.008662
            ],
            [
              -96.215225,
              42.006701
            ],
            [
              -96.225463,
              41.994734
            ],
            [
              -96.242035,
              42.000911
            ],
            [
              -96.221901,
              42.029558
            ],
            [
              -96.238392,
              42.041088
            ],
            [
              -96.263886,
              42.039858
            ],
            [
              -96.275548,
              42.051976
            ],
            [
              -96.2689,
              42.11359
            ],
            [
              -96.310085,
              42.132523
            ],
            [
              -96.349688,
              42.172043
            ],
            [
              -96.348066,
              42.194747
            ],
            [
              -96.35987,
              42.210545
            ],
            [
              -96.323723,
              42.229887
            ],
            [
              -96.328905,
              42.254734
            ],
            [
              -96.365792,
              42.285875
            ],
            [
              -96.375307,
              42.318339
            ],
            [
              -96.417786,
              42.351449
            ],
            [
              -96.408436,
              42.376092
            ],
            [
              -96.413609,
              42.407894
            ],
            [
              -96.380707,
              42.446394
            ],
            [
              -96.386007,
              42.474495
            ],
            [
              -96.409408,
              42.487595
            ],
            [
              -96.477185,
              42.491046
            ],
            [
              -96.473339,
              42.503537
            ],
            [
              -96.49297,
              42.517282
            ],
            [
              -96.479909,
              42.524195
            ],
            [
              -96.476952,
              42.556079
            ],
            [
              -96.498544,
              42.558116
            ],
            [
              -96.485796,
              42.575001
            ],
            [
              -96.509468,
              42.61273
            ],
            [
              -96.531604,
              42.615148
            ],
            [
              -96.516338,
              42.630435
            ],
            [
              -96.537881,
              42.646446
            ],
            [
              -96.541754,
              42.660378
            ],
            [
              -96.559962,
              42.658543
            ],
            [
              -96.566684,
              42.675942
            ],
            [
              -96.576538,
              42.670771
            ],
            [
              -96.575295,
              42.682823
            ],
            [
              -96.598076,
              42.686637
            ],
            [
              -96.600313,
              42.698024
            ],
            [
              -96.611795,
              42.69513
            ],
            [
              -96.605596,
              42.70202
            ],
            [
              -96.630617,
              42.70588
            ],
            [
              -96.624704,
              42.725497
            ],
            [
              -96.63352,
              42.724188
            ],
            [
              -96.638621,
              42.734921
            ],
            [
              -96.6383589571896,
              42.735496024784
            ]
          ]
        ]
      }
    }
  ]
}
