{
  "type": "FeatureCollection",
  "features": [
    {
      "type": "Feature",
      "id": "us-cd:119:72:98",
      "properties": {
        "boundary_id": "us-cd:119:72:98",
        "boundary_type": "congressional_district",
        "name": "Resident Commissioner District (at Large)",
        "stateFips": "72",
        "congress": 119,
        "district": "98",
        "bbox": [
          -67.9986909997381,
          17.831675999837646,
          -65.16850299982104,
          18.56800200001186
        ]
      },
      "geometry": {
        "type": "MultiPolygon",
        "coordinates": [
          [
            [
              [
                -67.32325399976449,
                18.363875000373838
              ],
              [
                -67.31604200037175,
                18.33421599972872
              ],
              [
                -67.28184700026104,
                18.27577899972549
              ],
              [
                -67.26133299966935,
                18.256039999817332
              ],
              [
                -67.2304650000449,
                18.246559999678837
              ],
              [
                -67.21423600018939,
                18.211348999713373
              ],
              [
                -67.23589599955534,
                18.17570300034806
              ],
              [
                -67.23537400022182,
                18.12014500023898
              ],
              [
                -67.26017100010326,
                18.08480400031612
              ],
              [
                -67.25536499985849,
                18.0576720003004
              ],
              [
                -67.26749399982405,
                17.983071000115675
              ],
              [
                -67.26067999991628,
                17.92853999980776
              ],
              [
                -67.22909000004348,
                17.896003000207987
              ],
              [
                -67.19450400012052,
                17.881745000196787
              ],
              [
                -67.16692100025124,
                17.884556000162814
              ],
              [
                -67.14278999964336,
                17.900570000292376
              ],
              [
                -66.9209969998366,
                17.875175999580197
              ],
              [
                -66.8905610000323,
                17.893705000363397
              ],
              [
                -66.82530999997618,
                17.900449000053854
              ],
              [
                -66.7881539999754,
                17.916064000064107
              ],
              [
                -66.71339799955987,
                17.9128519998398
              ],
              [
                -66.6770650000898,
                17.89676200032112
              ],
              [
                -66.6416730002529,
                17.911973000220765
              ],
              [
                -66.57406700020412,
                17.91313999977337
              ],
              [
                -66.58573599986215,
                17.88850300003172
              ],
              [
                -66.5830849995935,
                17.862155000039444
              ],
              [
                -66.5642039996444,
                17.840094999852145
              ],
              [
                -66.5381740000518,
                17.831675999837646
              ],
              [
                -66.50426400034642,
                17.839042000251506
              ],
              [
                -66.46174200023425,
                17.86967000026868
              ],
              [
                -66.42448499995115,
                17.881992000011714
              ],
              [
                -66.38811899997081,
                17.86921699994516
              ],
              [
                -66.30309300018808,
                17.88211199975628
              ],
              [
                -66.22030100002422,
                17.86288899981271
              ],
              [
                -66.17971100030537,
                17.882564999685478
              ],
              [
                -66.12230500020188,
                17.879465000151615
              ],
              [
                -66.07672299956712,
                17.910671000138812
              ],
              [
                -66.01889100038959,
                17.894130999876445
              ],
              [
                -65.97288199995758,
                17.92324499974007
              ],
              [
                -65.92174699961363,
                17.922606999900367
              ],
              [
                -65.8525310002851,
                17.94148600026989
              ],
              [
                -65.79763900018291,
                17.976981999736015
              ],
              [
                -65.7823819999227,
                18.018997999680934
              ],
              [
                -65.74960500036944,
                18.038787999957954
              ],
              [
                -65.7160980001719,
                18.10626599995528
              ],
              [
                -65.68941999995077,
                18.126403999932364
              ],
              [
                -65.66652899962511,
                18.12773799963709
              ],
              [
                -65.61804999957272,
                18.154179999893557
              ],
              [
                -65.63097299975668,
                18.123019000259212
              ],
              [
                -65.62460400008783,
                18.07747299959027
              ],
              [
                -65.59480299959492,
                18.045081000171265
              ],
              [
                -65.54969899970936,
                18.02844900009521
              ],
              [
                -65.49586399959128,
                18.042021000137982
              ],
              [
                -65.44030100019268,
                18.037173999947058
              ],
              [
                -65.39099600013485,
                18.056388999869107
              ],
              [
                -65.24960000031636,
                18.084304999930392
              ],
              [
                -65.22324699978523,
                18.105223999577255
              ],
              [
                -65.21625499960221,
                18.143551999606977
              ],
              [
                -65.23201200035294,
                18.170844999840522
              ],
              [
                -65.27198600012862,
                18.196244000133465
              ],
              [
                -65.43150300001301,
                18.20867200023984
              ],
              [
                -65.46442500022954,
                18.22221399997439
              ],
              [
                -65.5242370003793,
                18.208513999786714
              ],
              [
                -65.5546430000464,
                18.184766999662525
              ],
              [
                -65.5338399997497,
                18.218359999914927
              ],
              [
                -65.4893800002947,
                18.225299000368242
              ],
              [
                -65.46536800041085,
                18.243676999626587
              ],
              [
                -65.45703600038648,
                18.268139999839963
              ],
              [
                -65.46153999960914,
                18.293299000166773
              ],
              [
                -65.42377299968811,
                18.291377000399702
              ],
              [
                -65.36039899977374,
                18.25343599961684
              ],
              [
                -65.28668000014915,
                18.225989999600365
              ],
              [
                -65.20064300041308,
                18.248012999574268
              ],
              [
                -65.16850299982104,
                18.313346999694105
              ],
              [
                -65.18561899978137,
                18.36438600014963
              ],
              [
                -65.2209429998462,
                18.395272000385592
              ],
              [
                -65.30292099970023,
                18.38750200028369
              ],
              [
                -65.32262500018,
                18.40329500039267
              ],
              [
                -65.3766579997665,
                18.421482999929808
              ],
              [
                -65.40824299961642,
                18.411261999903836
              ],
              [
                -65.42433299955476,
                18.390866999884935
              ],
              [
                -65.46397800034079,
                18.39348000026094
              ],
              [
                -65.62460599973765,
                18.451259999891562
              ],
              [
                -65.67861199955995,
                18.418533000035076
              ],
              [
                -65.75357899986267,
                18.47200400016621
              ],
              [
                -65.85771900012128,
                18.487249000240723
              ],
              [
                -65.8994060000072,
                18.504731999579942
              ],
              [
                -65.94813699995468,
                18.502646999912308
              ],
              [
                -65.99340099967382,
                18.516597999731424
              ],
              [
                -66.3024599996282,
                18.528279999878464
              ],
              [
                -66.33880800006519,
                18.540379999995743
              ],
              [
                -66.39964899971167,
                18.543761000238543
              ],
              [
                -66.45295099972726,
                18.53896000034424
              ],
              [
                -66.47856100009365,
                18.524419999818353
              ],
              [
                -66.60752400017294,
                18.543837000352582
              ],
              [
                -66.73460599991252,
                18.526012000401447
              ],
              [
                -66.80421899979939,
                18.54378399973873
              ],
              [
                -66.90810200014006,
                18.533297000048957
              ],
              [
                -66.96865599973137,
                18.542992000096145
              ],
              [
                -67.01709399977587,
                18.562644999669672
              ],
              [
                -67.08826499996229,
                18.56800200001186
              ],
              [
                -67.16046700019355,
                18.552543000240636
              ],
              [
                -67.1951500002009,
                18.52774099961036
              ],
              [
                -67.22236300017433,
                18.494061000068797
              ],
              [
                -67.20793699994242,
                18.442279999822606
              ],
              [
                -67.30271699960657,
                18.401559000007286
              ],
              [
                -67.32226600027566,
                18.36863599996466
              ],
              [
                -67.32325399976449,
                18.363875000373838
              ]
            ]
          ],
          [
            [
              [
                -67.5430249996645,
                18.386122999921188
              ],
              [
                -67.52832099959825,
                18.34912900009293
              ],
              [
                -67.48860700011356,
                18.326707999943707
              ],
              [
                -67.44522800003381,
                18.33644399959018
              ],
              [
                -67.41804299964947,
                18.373000000277212
              ],
              [
                -67.42502999980961,
                18.40684999968407
              ],
              [
                -67.4730150001176,
                18.438134999990154
              ],
              [
                -67.5153630001525,
                18.427554999802144
              ],
              [
                -67.54112099975858,
                18.396447000266743
              ],
              [
                -67.5430249996645,
                18.386122999921188
              ]
            ]
          ],
          [
            [
              [
                -67.9986909997381,
                18.17075999976146
              ],
              [
                -67.99667999970202,
                18.135072000335864
              ],
              [
                -67.98614800039405,
                18.119191999951088
              ],
              [
                -67.99782500044802,
                18.089332999758994
              ],
              [
                -67.99342199971106,
                18.062406999583573
              ],
              [
                -67.94583399996142,
                18.01753600022282
              ],
              [
                -67.90088700043471,
                17.999480000377115
              ],
              [
                -67.87139200026357,
                18.000313000153394
              ],
              [
                -67.830055000182,
                18.0196000000513
              ],
              [
                -67.79733499963183,
                18.05864900014142
              ],
              [
                -67.79459100037506,
                18.11587399997509
              ],
              [
                -67.8344129998148,
                18.16365299991458
              ],
              [
                -67.89493299996923,
                18.166673999848943
              ],
              [
                -67.91616999973587,
                18.20010399982823
              ],
              [
                -67.94478700002306,
                18.21004100040642
              ],
              [
                -67.98254300007343,
                18.19748400021605
              ],
              [
                -67.9986909997381,
                18.17077599979959
              ],
              [
                -67.9986909997381,
                18.17075999976146
              ]
            ]
          ]
        ]
      }
    }
  ]
}
