{
  "type": "FeatureCollection",
  "features": [
    {
      "type": "Feature",
      "id": "us-cd:119:31:01",
      "properties": {
        "boundary_id": "us-cd:119:31:01",
        "boundary_type": "congressional_district",
        "name": "1",
        "stateFips": "31",
        "congress": 119,
        "district": "01",
        "bbox": [
          -97.83453599985454,
          40.52301299969141,
          -95.80937900000218,
          42.0899569997385
        ]
      },
      "geometry": {
        "type": "Polygon",
        "coordinates": [
          [
            [
              -97.83453599985454,
              42.089750000275046
            ],
            [
              -97.82984599996074,
              41.52617400020649
            ],
            [
              -97.70362700003652,
              41.52679600005343
            ],
            [
              -97.70376500012878,
              41.39487600032168
            ],
            [
              -97.59846099975593,
              41.39506799987841
            ],
            [
              -97.59822200027963,
              41.32803700023451
            ],
            [
              -97.57960699957103,
              41.33406100005074
            ],
            [
              -97.57981900018144,
              41.23540100021766
            ],
            [
              -97.56048499959753,
              41.23540699968889
            ],
            [
              -97.56044000028999,
              41.191898999683694
            ],
            [
              -97.57931899969094,
              41.191882999687
            ],
            [
              -97.57951799988255,
              41.177408000107455
            ],
            [
              -97.56047000042723,
              41.177430000316996
            ],
            [
              -97.56054599969688,
              41.162867000125686
            ],
            [
              -97.36806099956522,
              41.16301400020027
            ],
            [
              -97.36840100022216,
              40.698625000280316
            ],
            [
              -96.91349300038195,
              40.697948000268056
            ],
            [
              -96.91263700023927,
              40.52362499977095
            ],
            [
              -96.4636319999126,
              40.52301299969141
            ],
            [
              -96.46376400015708,
              40.783959999829776
            ],
            [
              -95.83411999980709,
              40.78378299993583
            ],
            [
              -95.84534199957639,
              40.811323999846636
            ],
            [
              -95.83718600017744,
              40.83534700012046
            ],
            [
              -95.84859000041993,
              40.86106099968966
            ],
            [
              -95.81593299961897,
              40.879845999708685
            ],
            [
              -95.80937900000218,
              40.89327900024909
            ],
            [
              -95.83974299983646,
              40.93278000006764
            ],
            [
              -95.82979200031153,
              40.97734399972968
            ],
            [
              -95.86730300013954,
              41.001645000000565
            ],
            [
              -95.85965400000548,
              41.0356949998882
            ],
            [
              -95.88247599983585,
              41.06135999997145
            ],
            [
              -95.86242699957457,
              41.089686999754754
            ],
            [
              -95.88330000019145,
              41.152743999810156
            ],
            [
              -95.87206599982827,
              41.16731000026668
            ],
            [
              -95.84344299969332,
              41.169096000081694
            ],
            [
              -95.84335099963181,
              41.17967699969865
            ],
            [
              -95.85612499985285,
              41.186949000014586
            ],
            [
              -96.1743119996998,
              41.19064500017242
            ],
            [
              -96.15832600041684,
              41.186507999684274
            ],
            [
              -96.15739900012906,
              41.16536700002361
            ],
            [
              -96.17734000043531,
              41.157930000059416
            ],
            [
              -96.177347000108,
              41.15014700004285
            ],
            [
              -96.15814899996651,
              41.14704899986916
            ],
            [
              -96.1580140002473,
              41.13250200008448
            ],
            [
              -96.00451399967926,
              41.12904200022907
            ],
            [
              -96.00519099972179,
              41.06062400027051
            ],
            [
              -96.05625599974552,
              41.06535600016876
            ],
            [
              -96.10019200021719,
              41.05324800011883
            ],
            [
              -96.14469299968007,
              41.01759800032034
            ],
            [
              -96.21442500029097,
              40.994473000089755
            ],
            [
              -96.24760100005238,
              41.01777600026672
            ],
            [
              -96.29672100016228,
              41.02651699986555
            ],
            [
              -96.31919099964016,
              41.04499799989455
            ],
            [
              -96.34902700029315,
              41.0449500000673
            ],
            [
              -96.34947099980886,
              41.0152109997799
            ],
            [
              -96.36950699965134,
              41.01499099969349
            ],
            [
              -96.46386100024145,
              41.01606900014584
            ],
            [
              -96.46386899973906,
              41.04508300018024
            ],
            [
              -96.90850700021211,
              41.04609100003546
            ],
            [
              -96.90586199979124,
              41.45338899998133
            ],
            [
              -96.81520299993342,
              41.43958500024363
            ],
            [
              -96.74668700021363,
              41.44974999984699
            ],
            [
              -96.6945810000993,
              41.42572000008278
            ],
            [
              -96.6398999998843,
              41.43622700030995
            ],
            [
              -96.56903599984454,
              41.43328400015955
            ],
            [
              -96.49592999979006,
              41.39403100023898
            ],
            [
              -96.32901200036706,
              41.39313600008752
            ],
            [
              -96.32892299978027,
              41.43662099976412
            ],
            [
              -96.36733599978172,
              41.43669800002932
            ],
            [
              -96.36720000023757,
              41.45095299971583
            ],
            [
              -96.38647799984669,
              41.451253000007654
            ],
            [
              -96.38642000012038,
              41.46574899998436
            ],
            [
              -96.40562199956153,
              41.465820999831806
            ],
            [
              -96.40593600027918,
              41.48045999972834
            ],
            [
              -96.42521100041357,
              41.48034200027845
            ],
            [
              -96.42521999973609,
              41.494865000026394
            ],
            [
              -96.43479200004265,
              41.49492799977474
            ],
            [
              -96.43445999978164,
              41.52393099976461
            ],
            [
              -96.4438980001939,
              41.52393299992736
            ],
            [
              -96.44421700003612,
              41.74177499968246
            ],
            [
              -96.55517200002743,
              41.742018000072214
            ],
            [
              -96.55551099996116,
              42.0899569997385
            ],
            [
              -97.83393699962984,
              42.089804999718524
            ],
            [
              -97.83453599985454,
              42.089750000275046
            ]
          ]
        ]
      }
    },
    {
      "type": "Feature",
      "id": "us-cd:119:31:02",
      "properties": {
        "boundary_id": "us-cd:119:31:02",
        "boundary_type": "congressional_district",
        "name": "2",
        "stateFips": "31",
        "congress": 119,
        "district": "02",
        "bbox": [
          -96.90911200028461,
          40.99430800003105,
          -95.87114100008863,
          41.45338899998133
        ]
      },
      "geometry": {
        "type": "Polygon",
        "coordinates": [
          [
            [
              -96.90911200028461,
              41.26440299971906
            ],
            [
              -96.90850700021211,
              41.04609100003546
            ],
            [
              -96.46386899973906,
              41.04508300018024
            ],
            [
              -96.46386100024145,
              41.01606900014584
            ],
            [
              -96.36950699965134,
              41.01499099969349
            ],
            [
              -96.34947099980886,
              41.0152109997799
            ],
            [
              -96.34902700029315,
              41.0449500000673
            ],
            [
              -96.31919099964016,
              41.04499799989455
            ],
            [
              -96.29493199988407,
              41.025744999852314
            ],
            [
              -96.24760100005238,
              41.01777600026672
            ],
            [
              -96.21893899955936,
              40.99430800003105
            ],
            [
              -96.14469299968007,
              41.01759800032034
            ],
            [
              -96.10019200021719,
              41.05324800011883
            ],
            [
              -96.05625599974552,
              41.06535600016876
            ],
            [
              -96.00519099972179,
              41.06062400027051
            ],
            [
              -96.00451399967926,
              41.12904200022907
            ],
            [
              -96.1580140002473,
              41.13250200008448
            ],
            [
              -96.15814899996651,
              41.14704899986916
            ],
            [
              -96.177347000108,
              41.15014700004285
            ],
            [
              -96.17734000043531,
              41.157930000059416
            ],
            [
              -96.15739900012906,
              41.16536700002361
            ],
            [
              -96.15832600041684,
              41.186507999684274
            ],
            [
              -96.1743119996998,
              41.19064500017242
            ],
            [
              -95.92367800019818,
              41.19098400031011
            ],
            [
              -95.92718300006136,
              41.20897100023452
            ],
            [
              -95.91062899961751,
              41.234578999898254
            ],
            [
              -95.92230400002167,
              41.26301999980445
            ],
            [
              -95.914090999823,
              41.27242799989608
            ],
            [
              -95.92864599992635,
              41.28133200018008
            ],
            [
              -95.92764199964567,
              41.2984399999916
            ],
            [
              -95.90589900043906,
              41.3010379998699
            ],
            [
              -95.91258100010236,
              41.27952700008588
            ],
            [
              -95.90283999974139,
              41.27437399969438
            ],
            [
              -95.87748100034351,
              41.28458300008689
            ],
            [
              -95.87114100008863,
              41.29669000019619
            ],
            [
              -95.88555399990176,
              41.31809699970877
            ],
            [
              -95.9251850004441,
              41.32135499996576
            ],
            [
              -95.95529400001026,
              41.34189599996613
            ],
            [
              -95.95427100036135,
              41.353508000217175
            ],
            [
              -95.92968100016915,
              41.36705799971541
            ],
            [
              -95.93869000023602,
              41.393194999979954
            ],
            [
              -96.48815699980744,
              41.39330499967066
            ],
            [
              -96.56903599984454,
              41.43328400015955
            ],
            [
              -96.6398999998843,
              41.43622700030995
            ],
            [
              -96.6945810000993,
              41.42572000008278
            ],
            [
              -96.74668700021363,
              41.44974999984699
            ],
            [
              -96.81520299993342,
              41.43958500024363
            ],
            [
              -96.90586199979124,
              41.45338899998133
            ],
            [
              -96.90903100009376,
              41.26672799966645
            ],
            [
              -96.90911200028461,
              41.26440299971906
            ]
          ]
        ]
      }
    },
    {
      "type": "Feature",
      "id": "us-cd:119:31:03",
      "properties": {
        "boundary_id": "us-cd:119:31:03",
        "boundary_type": "congressional_district",
        "name": "3",
        "stateFips": "31",
        "congress": 119,
        "district": "03",
        "bbox": [
          -104.05351399972366,
          39.999998000215854,
          -95.3082900002008,
          43.00058499977365
        ]
      },
      "geometry": {
        "type": "Polygon",
        "coordinates": [
          [
            [
              -104.05351399972366,
              41.15725700032984
            ],
            [
              -104.0532490003081,
              41.001405999738765
            ],
            [
              -102.05171699982698,
              41.0023589997564
            ],
            [
              -102.05174399959115,
              40.00307800029882
            ],
            [
              -95.3082900002008,
              39.999998000215854
            ],
            [
              -95.34877699998748,
              40.02929700020018
            ],
            [
              -95.39152699970529,
              40.027057999777476
            ],
            [
              -95.41510599994412,
              40.04034099968896
            ],
            [
              -95.42133999989376,
              40.0607459997853
            ],
            [
              -95.39334699994565,
              40.119211999883326
            ],
            [
              -95.42740899998697,
              40.134607999960615
            ],
            [
              -95.43634799973363,
              40.15871999979878
            ],
            [
              -95.479192999886,
              40.1856520000733
            ],
            [
              -95.4823189996325,
              40.20066700007847
            ],
            [
              -95.46971799966381,
              40.22790799968974
            ],
            [
              -95.47869400011871,
              40.24366099999388
            ],
            [
              -95.55247300001777,
              40.26190399986298
            ],
            [
              -95.55162000024816,
              40.28866599972103
            ],
            [
              -95.56215699957902,
              40.29735899986191
            ],
            [
              -95.61043899998792,
              40.31397000007456
            ],
            [
              -95.65732799995374,
              40.31085600004829
            ],
            [
              -95.65372900037922,
              40.322582000255075
            ],
            [
              -95.62268400030446,
              40.34232300026568
            ],
            [
              -95.66060199983822,
              40.412408999822034
            ],
            [
              -95.65657499974324,
              40.438701000296014
            ],
            [
              -95.69465100035907,
              40.47145199981882
            ],
            [
              -95.69996899989161,
              40.50527499999936
            ],
            [
              -95.66168099956366,
              40.517311999757126
            ],
            [
              -95.65341600038477,
              40.54189900013806
            ],
            [
              -95.67871500040653,
              40.5625609999768
            ],
            [
              -95.69414699967061,
              40.55694200025518
            ],
            [
              -95.69549499990785,
              40.53202099975563
            ],
            [
              -95.70859100034419,
              40.521551000024616
            ],
            [
              -95.76691999963919,
              40.531562999931275
            ],
            [
              -95.76383300025074,
              40.55387300015211
            ],
            [
              -95.77470400039076,
              40.573574000170495
            ],
            [
              -95.74968499985317,
              40.60684199997195
            ],
            [
              -95.76892599965237,
              40.62126400032692
            ],
            [
              -95.78190900011079,
              40.653271999731025
            ],
            [
              -95.84280099981089,
              40.67749600025245
            ],
            [
              -95.85261499996679,
              40.70226199984082
            ],
            [
              -95.88317799999271,
              40.71757899972919
            ],
            [
              -95.8889070003273,
              40.73185500016002
            ],
            [
              -95.87902700004916,
              40.75308100027224
            ],
            [
              -95.83411999980709,
              40.78378299993583
            ],
            [
              -96.46376400015708,
              40.783959999829776
            ],
            [
              -96.4636319999126,
              40.52301299969141
            ],
            [
              -96.91263700023927,
              40.52362499977095
            ],
            [
              -96.91349300038195,
              40.697948000268056
            ],
            [
              -97.36840100022216,
              40.698625000280316
            ],
            [
              -97.36806099956522,
              41.16301400020027
            ],
            [
              -97.56054599969688,
              41.162867000125686
            ],
            [
              -97.56047000042723,
              41.177430000316996
            ],
            [
              -97.57951799988255,
              41.177408000107455
            ],
            [
              -97.57931899969094,
              41.191882999687
            ],
            [
              -97.56044000028999,
              41.191898999683694
            ],
            [
              -97.56048499959753,
              41.23540699968889
            ],
            [
              -97.57981900018144,
              41.23540100021766
            ],
            [
              -97.57960699957103,
              41.33406100005074
            ],
            [
              -97.59822200027963,
              41.32803700023451
            ],
            [
              -97.59846099975593,
              41.39506799987841
            ],
            [
              -97.70376500012878,
              41.39487600032168
            ],
            [
              -97.70362700003652,
              41.52679600005343
            ],
            [
              -97.82984599996074,
              41.52617400020649
            ],
            [
              -97.83453599985454,
              42.089750000275046
            ],
            [
              -96.55551099996116,
              42.0899569997385
            ],
            [
              -96.55517200002743,
              41.742018000072214
            ],
            [
              -96.44421700003612,
              41.74177499968246
            ],
            [
              -96.4438980001939,
              41.52393299992736
            ],
            [
              -96.43445999978164,
              41.52393099976461
            ],
            [
              -96.43479200004265,
              41.49492799977474
            ],
            [
              -96.42521999973609,
              41.494865000026394
            ],
            [
              -96.42521100041357,
              41.48034200027845
            ],
            [
              -96.40593600027918,
              41.48045999972834
            ],
            [
              -96.40562199956153,
              41.465820999831806
            ],
            [
              -96.38642000012038,
              41.46574899998436
            ],
            [
              -96.38647799984669,
              41.451253000007654
            ],
            [
              -96.36720000023757,
              41.45095299971583
            ],
            [
              -96.36733599978172,
              41.43669800002932
            ],
            [
              -96.32892299978027,
              41.43662099976412
            ],
            [
              -96.32901200036706,
              41.39313600008752
            ],
            [
              -95.93779100043564,
              41.390752000176214
            ],
            [
              -95.93277799960333,
              41.43081499977326
            ],
            [
              -95.91953700030037,
              41.448185999670294
            ],
            [
              -95.93590300042322,
              41.46516800011255
            ],
            [
              -95.966688000207,
              41.463425000227055
            ],
            [
              -96.01358499967041,
              41.478468999693554
            ],
            [
              -96.01954300033385,
              41.491591999726126
            ],
            [
              -95.99277700024918,
              41.51459599987392
            ],
            [
              -96.00511200007907,
              41.54325000017069
            ],
            [
              -96.0266569998173,
              41.54036600031819
            ],
            [
              -96.04061299969592,
              41.50689300017595
            ],
            [
              -96.09443699994335,
              41.53946299998343
            ],
            [
              -96.08138999991081,
              41.577900000161826
            ],
            [
              -96.10945499982896,
              41.59677500010568
            ],
            [
              -96.11827700029806,
              41.614967000040316
            ],
            [
              -96.09522100011597,
              41.65011400012904
            ],
            [
              -96.12260399996873,
              41.68303999985784
            ],
            [
              -96.11346100000756,
              41.697569000099726
            ],
            [
              -96.07322500029105,
              41.704062000014815
            ],
            [
              -96.10638000013608,
              41.73776200015972
            ],
            [
              -96.08089000031862,
              41.75752600014354
            ],
            [
              -96.06532699973664,
              41.79717300003344
            ],
            [
              -96.106565000084,
              41.819613000228266
            ],
            [
              -96.11054799979807,
              41.84919899970627
            ],
            [
              -96.14190800041543,
              41.868998999816796
            ],
            [
              -96.16175599993694,
              41.901820000082054
            ],
            [
              -96.13674300014546,
              41.92082600003354
            ],
            [
              -96.14458300007522,
              41.941544000297434
            ],
            [
              -96.13035500021003,
              41.97286299977435
            ],
            [
              -96.18721899999022,
              41.97794600021162
            ],
            [
              -96.18400200000713,
              42.0030629997442
            ],
            [
              -96.19455599995474,
              42.00866200022639
            ],
            [
              -96.21522500035712,
              42.00670099993537
            ],
            [
              -96.2271719998495,
              41.994331999682174
            ],
            [
              -96.24071299962644,
              41.99935100004657
            ],
            [
              -96.22190100017265,
              42.029557999690304
            ],
            [
              -96.23025300028849,
              42.03943299967788
            ],
            [
              -96.25835599984144,
              42.038337999827824
            ],
            [
              -96.27439300007636,
              42.04924399971367
            ],
            [
              -96.27947899980528,
              42.070879999950186
            ],
            [
              -96.26945899978506,
              42.114215999909376
            ],
            [
              -96.30975800014907,
              42.13210100017599
            ],
            [
              -96.34860200014572,
              42.16802700022328
            ],
            [
              -96.34737399955905,
              42.193075000292204
            ],
            [
              -96.35986999994576,
              42.21055300028263
            ],
            [
              -96.32372300024853,
              42.22988700001354
            ],
            [
              -96.32889699984102,
              42.25472300025433
            ],
            [
              -96.36575099971799,
              42.2858139997787
            ],
            [
              -96.37530700013103,
              42.318338999962776
            ],
            [
              -96.4177859996872,
              42.35144899995698
            ],
            [
              -96.40843600003679,
              42.376091999994706
            ],
            [
              -96.41518600037047,
              42.404203000051936
            ],
            [
              -96.38070500002951,
              42.44639299988408
            ],
            [
              -96.39264800022224,
              42.48140999979686
            ],
            [
              -96.44548300025762,
              42.49062999995488
            ],
            [
              -96.47877600019491,
              42.47970199979088
            ],
            [
              -96.50131900036601,
              42.48274900022567
            ],
            [
              -96.52877800038674,
              42.51326700022759
            ],
            [
              -96.54878900011488,
              42.52054699987012
            ],
            [
              -96.61148799963654,
              42.506086000275225
            ],
            [
              -96.62818099999755,
              42.51696400007993
            ],
            [
              -96.64358499967256,
              42.55760699980114
            ],
            [
              -96.68405899993876,
              42.57646199997986
            ],
            [
              -96.70982400011583,
              42.60510000015564
            ],
            [
              -96.70948699983192,
              42.6219310003214
            ],
            [
              -96.68778999975774,
              42.645993000027445
            ],
            [
              -96.69126799985675,
              42.65619799982613
            ],
            [
              -96.72802700019749,
              42.66687999976873
            ],
            [
              -96.79323499969757,
              42.66602099974344
            ],
            [
              -96.8021769998173,
              42.67223499993819
            ],
            [
              -96.80621300013311,
              42.70415400006874
            ],
            [
              -96.90679699957661,
              42.73379999982058
            ],
            [
              -96.93758899993139,
              42.71959700004264
            ],
            [
              -96.9615759997009,
              42.719841000174746
            ],
            [
              -96.96123000009449,
              42.74062300021933
            ],
            [
              -96.9791200001817,
              42.76009000001935
            ],
            [
              -97.13025700036115,
              42.77154099973539
            ],
            [
              -97.15076299965861,
              42.795565999836725
            ],
            [
              -97.21012600026981,
              42.80929600011821
            ],
            [
              -97.21882499981697,
              42.84584800016451
            ],
            [
              -97.28985899973604,
              42.855499000229564
            ],
            [
              -97.30667699977053,
              42.86760400026366
            ],
            [
              -97.35956899970729,
              42.854816000227
            ],
            [
              -97.41084700016637,
              42.86798399999658
            ],
            [
              -97.44490500000971,
              42.84593200007434
            ],
            [
              -97.50484699985584,
              42.85847699976964
            ],
            [
              -97.55789399960332,
              42.84753200013281
            ],
            [
              -97.61181099973716,
              42.85836700030282
            ],
            [
              -97.68647699974102,
              42.84221200007214
            ],
            [
              -97.77438099957311,
              42.84974000028145
            ],
            [
              -97.84539299975087,
              42.86771999972328
            ],
            [
              -97.87553099962933,
              42.858656000195246
            ],
            [
              -97.88864700015715,
              42.81717700030931
            ],
            [
              -97.9348270002934,
              42.776877999892974
            ],
            [
              -98.01307199978028,
              42.76221900017211
            ],
            [
              -98.05668400038684,
              42.770675999755625
            ],
            [
              -98.14710899989294,
              42.83963100021773
            ],
            [
              -98.18981099993019,
              42.841642999982
            ],
            [
              -98.2518099998431,
              42.87282399977381
            ],
            [
              -98.32586400010177,
              42.88650000025549
            ],
            [
              -98.4207400000254,
              42.93192399981169
            ],
            [
              -98.44414500018695,
              42.92924200016799
            ],
            [
              -98.46735600017975,
              42.9475560001641
            ],
            [
              -98.49855000021742,
              42.99855899984257
            ],
            [
              -104.05302800037515,
              43.00058499977365
            ],
            [
              -104.05342300038537,
              41.170539000050134
            ],
            [
              -104.05351399972366,
              41.15725700032984
            ]
          ]
        ]
      }
    }
  ]
}
