{
  "type": "FeatureCollection",
  "features": [
    {
      "type": "Feature",
      "id": "us-cd:118:35:01",
      "properties": {
        "boundary_id": "us-cd:118:35:01",
        "boundary_type": "congressional_district",
        "name": "Congressional District 1",
        "stateFips": "35",
        "congress": 118,
        "district": "01",
        "bbox": [
          -106.980896,
          32.992327,
          -103.716885,
          35.461598
        ]
      },
      "geometry": {
        "type": "Polygon",
        "coordinates": [
          [
            [
              -106.979987,
              35.260824
            ],
            [
              -106.973056,
              35.286411
            ],
            [
              -106.907955,
              35.300027
            ],
            [
              -106.856387,
              35.293404
            ],
            [
              -106.86223,
              35.356719
            ],
            [
              -106.842301,
              35.333613
            ],
            [
              -106.729357,
              35.336741
            ],
            [
              -106.718018,
              35.322313
            ],
            [
              -106.696973,
              35.326191
            ],
            [
              -106.702366,
              35.350708
            ],
            [
              -106.690861,
              35.35182
            ],
            [
              -106.686232,
              35.362831
            ],
            [
              -106.670261,
              35.351085
            ],
            [
              -106.646709,
              35.352719
            ],
            [
              -106.6346,
              35.371374
            ],
            [
              -106.566181,
              35.327346
            ],
            [
              -106.555592,
              35.333442
            ],
            [
              -106.558204,
              35.324122
            ],
            [
              -106.53936,
              35.326135
            ],
            [
              -106.539281,
              35.334338
            ],
            [
              -106.506978,
              35.334425
            ],
            [
              -106.480896,
              35.357986
            ],
            [
              -106.394803,
              35.348357
            ],
            [
              -106.399678,
              35.365237
            ],
            [
              -106.355168,
              35.365633
            ],
            [
              -106.356054,
              35.448865
            ],
            [
              -106.325153,
              35.461598
            ],
            [
              -106.248848,
              35.443282
            ],
            [
              -106.245162,
              35.238661
            ],
            [
              -106.22266,
              35.247954
            ],
            [
              -106.189787,
              35.230099
            ],
            [
              -106.156732,
              35.225114
            ],
            [
              -106.156108,
              35.142092
            ],
            [
              -105.98002,
              35.142093
            ],
            [
              -106.029524,
              35.040678
            ],
            [
              -105.290791,
              35.04203
            ],
            [
              -105.291169,
              35.216489
            ],
            [
              -104.125136,
              35.215696
            ],
            [
              -104.12888,
              34.605201
            ],
            [
              -103.948778,
              34.605058
            ],
            [
              -103.946019,
              34.082463
            ],
            [
              -103.841691,
              34.081909
            ],
            [
              -103.841933,
              33.8192
            ],
            [
              -103.716885,
              33.819558
            ],
            [
              -103.717934,
              33.703642
            ],
            [
              -103.770645,
              33.728188
            ],
            [
              -103.782239,
              33.712743
            ],
            [
              -103.882616,
              33.670301
            ],
            [
              -104.02804,
              33.666611
            ],
            [
              -104.206174,
              33.643653
            ],
            [
              -104.348681,
              33.588306
            ],
            [
              -104.379042,
              33.565588
            ],
            [
              -104.487897,
              33.437038
            ],
            [
              -104.509856,
              33.44981
            ],
            [
              -104.514503,
              33.437913
            ],
            [
              -104.559142,
              33.437599
            ],
            [
              -104.559075,
              33.423043
            ],
            [
              -104.595193,
              33.422593
            ],
            [
              -104.594992,
              33.39426
            ],
            [
              -104.69602,
              33.394151
            ],
            [
              -104.828488,
              33.368752
            ],
            [
              -104.885196,
              33.369244
            ],
            [
              -104.88513,
              33.305827
            ],
            [
              -104.903838,
              33.305904
            ],
            [
              -104.905424,
              33.138904
            ],
            [
              -105.316968,
              33.132303
            ],
            [
              -105.316224,
              33.002719
            ],
            [
              -105.413083,
              33.003845
            ],
            [
              -105.41885,
              32.992327
            ],
            [
              -105.436207,
              33.004329
            ],
            [
              -105.484474,
              33.005336
            ],
            [
              -105.460494,
              33.024482
            ],
            [
              -105.57625,
              33.061061
            ],
            [
              -105.63362,
              33.108372
            ],
            [
              -105.670889,
              33.1235
            ],
            [
              -105.694251,
              33.117193
            ],
            [
              -105.710228,
              33.193466
            ],
            [
              -105.732765,
              33.201301
            ],
            [
              -105.749457,
              33.229211
            ],
            [
              -105.788391,
              33.21539
            ],
            [
              -105.92963,
              33.218375
            ],
            [
              -105.931639,
              33.3899
            ],
            [
              -106.371885,
              33.390615
            ],
            [
              -106.37366,
              33.660504
            ],
            [
              -106.052718,
              33.650297
            ],
            [
              -106.052662,
              33.825606
            ],
            [
              -105.924685,
              33.825624
            ],
            [
              -105.925968,
              34.25999
            ],
            [
              -106.415972,
              34.259822
            ],
            [
              -106.416924,
              34.439687
            ],
            [
              -106.456314,
              34.437054
            ],
            [
              -106.564648,
              34.473894
            ],
            [
              -106.725553,
              34.638979
            ],
            [
              -106.714269,
              34.644713
            ],
            [
              -106.714594,
              34.658348
            ],
            [
              -106.737925,
              34.652849
            ],
            [
              -106.744667,
              34.659925
            ],
            [
              -106.748355,
              34.708088
            ],
            [
              -106.736345,
              34.724719
            ],
            [
              -106.740915,
              34.748261
            ],
            [
              -106.727218,
              34.77842
            ],
            [
              -106.740886,
              34.781942
            ],
            [
              -106.714882,
              34.813383
            ],
            [
              -106.720091,
              34.872141
            ],
            [
              -106.68572,
              34.872334
            ],
            [
              -106.684209,
              34.848306
            ],
            [
              -106.662748,
              34.84417
            ],
            [
              -106.667647,
              34.811213
            ],
            [
              -106.464546,
              34.810517
            ],
            [
              -106.463868,
              34.870194
            ],
            [
              -106.411781,
              34.870252
            ],
            [
              -106.413359,
              34.890187
            ],
            [
              -106.37982,
              34.906108
            ],
            [
              -106.380476,
              34.946884
            ],
            [
              -106.663667,
              34.946792
            ],
            [
              -106.628673,
              35.044928
            ],
            [
              -106.637625,
              35.047562
            ],
            [
              -106.639285,
              35.062978
            ],
            [
              -106.651051,
              35.063273
            ],
            [
              -106.64315,
              35.070654
            ],
            [
              -106.655794,
              35.080066
            ],
            [
              -106.667366,
              35.074992
            ],
            [
              -106.692339,
              35.106509
            ],
            [
              -106.726618,
              35.123995
            ],
            [
              -106.7093,
              35.138385
            ],
            [
              -106.718392,
              35.159512
            ],
            [
              -106.702193,
              35.172328
            ],
            [
              -106.686988,
              35.167008
            ],
            [
              -106.690416,
              35.185702
            ],
            [
              -106.680935,
              35.197421
            ],
            [
              -106.727654,
              35.192136
            ],
            [
              -106.727728,
              35.211933
            ],
            [
              -106.719966,
              35.212792
            ],
            [
              -106.72899,
              35.217978
            ],
            [
              -106.962038,
              35.218392
            ],
            [
              -106.974902,
              35.229846
            ],
            [
              -106.969986,
              35.253609
            ],
            [
              -106.980896,
              35.260048
            ],
            [
              -106.979987,
              35.260824
            ]
          ]
        ]
      }
    },
    {
      "type": "Feature",
      "id": "us-cd:118:35:02",
      "properties": {
        "boundary_id": "us-cd:118:35:02",
        "boundary_type": "congressional_district",
        "name": "Congressional District 2",
        "stateFips": "35",
        "congress": 118,
        "district": "02",
        "bbox": [
          -109.050173,
          31.332502,
          -103.064423,
          35.348314
        ]
      },
      "geometry": {
        "type": "Polygon",
        "coordinates": [
          [
            [
              -109.050173,
              31.480004
            ],
            [
              -109.046024192748,
              35.1755079878063
            ],
            [
              -108.847601,
              35.176628
            ],
            [
              -108.836943,
              35.165729
            ],
            [
              -108.838873,
              35.124907
            ],
            [
              -108.855935,
              35.106089
            ],
            [
              -108.807396,
              35.119208
            ],
            [
              -108.804835,
              35.102709
            ],
            [
              -108.825536,
              35.075195
            ],
            [
              -108.763249,
              35.055667
            ],
            [
              -108.739328,
              35.057518
            ],
            [
              -108.714878,
              35.065341
            ],
            [
              -108.736373,
              35.099411
            ],
            [
              -108.705781,
              35.111902
            ],
            [
              -108.636056,
              35.121801
            ],
            [
              -108.570395,
              35.105616
            ],
            [
              -108.539969,
              35.122142
            ],
            [
              -108.540974,
              35.249819
            ],
            [
              -108.530417,
              35.250066
            ],
            [
              -108.530417,
              35.259434
            ],
            [
              -108.540562,
              35.254965
            ],
            [
              -108.539132,
              35.291809
            ],
            [
              -108.521569,
              35.300287
            ],
            [
              -108.4921,
              35.306006
            ],
            [
              -108.468683,
              35.299243
            ],
            [
              -108.468715,
              35.306658
            ],
            [
              -107.734224,
              35.304987
            ],
            [
              -107.734241,
              35.348145
            ],
            [
              -107.628313,
              35.348314
            ],
            [
              -107.628788,
              35.304333
            ],
            [
              -107.23889,
              35.305507
            ],
            [
              -107.197244,
              35.219459
            ],
            [
              -106.723147,
              35.215639
            ],
            [
              -106.727654,
              35.192136
            ],
            [
              -106.679648,
              35.194436
            ],
            [
              -106.690416,
              35.185702
            ],
            [
              -106.686988,
              35.167008
            ],
            [
              -106.702193,
              35.172328
            ],
            [
              -106.718392,
              35.159512
            ],
            [
              -106.7093,
              35.138385
            ],
            [
              -106.726618,
              35.123995
            ],
            [
              -106.692339,
              35.106509
            ],
            [
              -106.667366,
              35.074992
            ],
            [
              -106.655794,
              35.080066
            ],
            [
              -106.64315,
              35.070654
            ],
            [
              -106.651051,
              35.063273
            ],
            [
              -106.639285,
              35.062978
            ],
            [
              -106.637625,
              35.047562
            ],
            [
              -106.628673,
              35.044928
            ],
            [
              -106.663667,
              34.946792
            ],
            [
              -106.380476,
              34.946884
            ],
            [
              -106.37982,
              34.906108
            ],
            [
              -106.413359,
              34.890187
            ],
            [
              -106.411781,
              34.870252
            ],
            [
              -106.463868,
              34.870194
            ],
            [
              -106.464546,
              34.810517
            ],
            [
              -106.667647,
              34.811213
            ],
            [
              -106.662748,
              34.84417
            ],
            [
              -106.684209,
              34.848306
            ],
            [
              -106.68572,
              34.872334
            ],
            [
              -106.720091,
              34.872141
            ],
            [
              -106.714882,
              34.813383
            ],
            [
              -106.740886,
              34.781942
            ],
            [
              -106.727218,
              34.77842
            ],
            [
              -106.740915,
              34.748261
            ],
            [
              -106.736345,
              34.724719
            ],
            [
              -106.748355,
              34.708088
            ],
            [
              -106.744667,
              34.659925
            ],
            [
              -106.737925,
              34.652849
            ],
            [
              -106.714594,
              34.658348
            ],
            [
              -106.714269,
              34.644713
            ],
            [
              -106.725553,
              34.638979
            ],
            [
              -106.564648,
              34.473894
            ],
            [
              -106.456314,
              34.437054
            ],
            [
              -106.416924,
              34.439687
            ],
            [
              -106.415972,
              34.259822
            ],
            [
              -105.925968,
              34.25999
            ],
            [
              -105.925156,
              34.172568
            ],
            [
              -105.924685,
              33.825624
            ],
            [
              -106.052662,
              33.825606
            ],
            [
              -106.052718,
              33.650297
            ],
            [
              -106.37366,
              33.660504
            ],
            [
              -106.371885,
              33.390615
            ],
            [
              -105.931639,
              33.3899
            ],
            [
              -105.92963,
              33.218375
            ],
            [
              -105.788391,
              33.21539
            ],
            [
              -105.749457,
              33.229211
            ],
            [
              -105.732765,
              33.201301
            ],
            [
              -105.710228,
              33.193466
            ],
            [
              -105.694251,
              33.117193
            ],
            [
              -105.676959,
              33.12554
            ],
            [
              -105.63362,
              33.108372
            ],
            [
              -105.57625,
              33.061061
            ],
            [
              -105.460494,
              33.024482
            ],
            [
              -105.484474,
              33.005336
            ],
            [
              -105.436207,
              33.004329
            ],
            [
              -105.41885,
              32.992327
            ],
            [
              -105.413083,
              33.003845
            ],
            [
              -105.316224,
              33.002719
            ],
            [
              -105.316968,
              33.132303
            ],
            [
              -104.905482,
              33.138903
            ],
            [
              -104.905161,
              32.962892
            ],
            [
              -104.550721,
              32.963997
            ],
            [
              -104.5625,
              32.921011
            ],
            [
              -104.594352,
              32.886297
            ],
            [
              -104.593454,
              32.842947
            ],
            [
              -104.631439,
              32.828166
            ],
            [
              -104.619498,
              32.828684
            ],
            [
              -104.608666,
              32.799264
            ],
            [
              -104.572613,
              32.799368
            ],
            [
              -104.543683,
              32.781692
            ],
            [
              -104.51795,
              32.786496
            ],
            [
              -104.518953,
              32.765234
            ],
            [
              -104.531423,
              32.755688
            ],
            [
              -104.481832,
              32.755975
            ],
            [
              -104.478878,
              32.780681
            ],
            [
              -104.41269,
              32.784523
            ],
            [
              -104.41263,
              32.828091
            ],
            [
              -104.395771,
              32.828212
            ],
            [
              -104.395661,
              32.784381
            ],
            [
              -104.360998,
              32.785296
            ],
            [
              -104.361067,
              32.775674
            ],
            [
              -104.328654,
              32.772601
            ],
            [
              -104.333425,
              32.767913
            ],
            [
              -104.32054,
              32.760305
            ],
            [
              -104.232907,
              32.791362
            ],
            [
              -104.202143,
              32.786492
            ],
            [
              -104.196172,
              32.795984
            ],
            [
              -104.150214,
              32.80021
            ],
            [
              -104.133829,
              32.899309
            ],
            [
              -104.121031,
              32.920251
            ],
            [
              -104.125023,
              32.949272
            ],
            [
              -104.107585,
              32.965381
            ],
            [
              -103.814507,
              32.965114
            ],
            [
              -103.814456,
              32.770237
            ],
            [
              -103.35101,
              32.769365
            ],
            [
              -103.350833,
              32.696736
            ],
            [
              -103.123933,
              32.696565
            ],
            [
              -103.112297,
              32.711169
            ],
            [
              -103.123259,
              32.715313
            ],
            [
              -103.114211,
              32.719831
            ],
            [
              -103.121105,
              32.729179
            ],
            [
              -103.110453,
              32.72869
            ],
            [
              -103.110523,
              32.737322
            ],
            [
              -103.094961,
              32.725884
            ],
            [
              -103.064826872699,
              32.7269505476614
            ],
            [
              -103.064423,
              32.000518
            ],
            [
              -106.618486,
              32.000495
            ],
            [
              -106.639529,
              31.980348
            ],
            [
              -106.619569,
              31.971578
            ],
            [
              -106.625123,
              31.954531
            ],
            [
              -106.614702,
              31.956
            ],
            [
              -106.616136,
              31.948439
            ],
            [
              -106.629747,
              31.92657
            ],
            [
              -106.611846,
              31.920003
            ],
            [
              -106.645479,
              31.89867
            ],
            [
              -106.629197,
              31.883717
            ],
            [
              -106.635926,
              31.866235
            ],
            [
              -106.602045,
              31.844405
            ],
            [
              -106.602727,
              31.825024
            ],
            [
              -106.577244,
              31.810406
            ],
            [
              -106.547144,
              31.807305
            ],
            [
              -106.528242,
              31.783148
            ],
            [
              -108.208394,
              31.783599
            ],
            [
              -108.208573,
              31.333395
            ],
            [
              -109.050044,
              31.332502
            ],
            [
              -109.050173,
              31.480004
            ]
          ]
        ]
      }
    },
    {
      "type": "Feature",
      "id": "us-cd:118:35:03",
      "properties": {
        "boundary_id": "us-cd:118:35:03",
        "boundary_type": "congressional_district",
        "name": "Congressional District 3",
        "stateFips": "35",
        "congress": 118,
        "district": "03",
        "bbox": [
          -109.046796,
          32.696565,
          -103.002199,
          37.000104
        ]
      },
      "geometry": {
        "type": "Polygon",
        "coordinates": [
          [
            [
              -109.046796,
              35.363606
            ],
            [
              -109.045223,
              36.999084
            ],
            [
              -105.029228,
              36.992729
            ],
            [
              -103.002199,
              37.000104
            ],
            [
              -103.002434,
              36.500397
            ],
            [
              -103.041924,
              36.500439
            ],
            [
              -103.043617,
              34.003633
            ],
            [
              -103.064826872699,
              32.7269505476614
            ],
            [
              -103.094961,
              32.725884
            ],
            [
              -103.110523,
              32.737322
            ],
            [
              -103.110453,
              32.72869
            ],
            [
              -103.121105,
              32.729179
            ],
            [
              -103.114211,
              32.719831
            ],
            [
              -103.123259,
              32.715313
            ],
            [
              -103.112297,
              32.711169
            ],
            [
              -103.123933,
              32.696565
            ],
            [
              -103.350833,
              32.696736
            ],
            [
              -103.35101,
              32.769365
            ],
            [
              -103.814456,
              32.770237
            ],
            [
              -103.814507,
              32.965114
            ],
            [
              -104.107585,
              32.965381
            ],
            [
              -104.125023,
              32.949272
            ],
            [
              -104.121031,
              32.920251
            ],
            [
              -104.133829,
              32.899309
            ],
            [
              -104.150214,
              32.80021
            ],
            [
              -104.196172,
              32.795984
            ],
            [
              -104.202143,
              32.786492
            ],
            [
              -104.232907,
              32.791362
            ],
            [
              -104.32054,
              32.760305
            ],
            [
              -104.333425,
              32.767913
            ],
            [
              -104.328654,
              32.772601
            ],
            [
              -104.361067,
              32.775674
            ],
            [
              -104.360998,
              32.785296
            ],
            [
              -104.395661,
              32.784381
            ],
            [
              -104.395771,
              32.828212
            ],
            [
              -104.41263,
              32.828091
            ],
            [
              -104.41269,
              32.784523
            ],
            [
              -104.478878,
              32.780681
            ],
            [
              -104.481832,
              32.755975
            ],
            [
              -104.531423,
              32.755688
            ],
            [
              -104.518953,
              32.765234
            ],
            [
              -104.51795,
              32.786496
            ],
            [
              -104.543683,
              32.781692
            ],
            [
              -104.572613,
              32.799368
            ],
            [
              -104.608666,
              32.799264
            ],
            [
              -104.619498,
              32.828684
            ],
            [
              -104.631439,
              32.828166
            ],
            [
              -104.593454,
              32.842947
            ],
            [
              -104.594352,
              32.886297
            ],
            [
              -104.5625,
              32.921011
            ],
            [
              -104.550721,
              32.963997
            ],
            [
              -104.905161,
              32.962892
            ],
            [
              -104.903838,
              33.305904
            ],
            [
              -104.88513,
              33.305827
            ],
            [
              -104.885196,
              33.369244
            ],
            [
              -104.828488,
              33.368752
            ],
            [
              -104.69602,
              33.394151
            ],
            [
              -104.594992,
              33.39426
            ],
            [
              -104.595193,
              33.422593
            ],
            [
              -104.559075,
              33.423043
            ],
            [
              -104.559142,
              33.437599
            ],
            [
              -104.514503,
              33.437913
            ],
            [
              -104.509856,
              33.44981
            ],
            [
              -104.487897,
              33.437038
            ],
            [
              -104.379042,
              33.565588
            ],
            [
              -104.348681,
              33.588306
            ],
            [
              -104.206174,
              33.643653
            ],
            [
              -104.02804,
              33.666611
            ],
            [
              -103.882616,
              33.670301
            ],
            [
              -103.782239,
              33.712743
            ],
            [
              -103.770645,
              33.728188
            ],
            [
              -103.717934,
              33.703642
            ],
            [
              -103.716885,
              33.819558
            ],
            [
              -103.841933,
              33.8192
            ],
            [
              -103.841691,
              34.081909
            ],
            [
              -103.946019,
              34.082463
            ],
            [
              -103.948778,
              34.605058
            ],
            [
              -104.12888,
              34.605201
            ],
            [
              -104.125136,
              35.215696
            ],
            [
              -105.291169,
              35.216489
            ],
            [
              -105.290791,
              35.04203
            ],
            [
              -106.029524,
              35.040678
            ],
            [
              -105.98002,
              35.142093
            ],
            [
              -106.156108,
              35.142092
            ],
            [
              -106.156732,
              35.225114
            ],
            [
              -106.189787,
              35.230099
            ],
            [
              -106.22266,
              35.247954
            ],
            [
              -106.245162,
              35.238661
            ],
            [
              -106.248848,
              35.443282
            ],
            [
              -106.325153,
              35.461598
            ],
            [
              -106.356054,
              35.448865
            ],
            [
              -106.355168,
              35.365633
            ],
            [
              -106.399678,
              35.365237
            ],
            [
              -106.394803,
              35.348357
            ],
            [
              -106.480896,
              35.357986
            ],
            [
              -106.506978,
              35.334425
            ],
            [
              -106.539281,
              35.334338
            ],
            [
              -106.53936,
              35.326135
            ],
            [
              -106.558204,
              35.324122
            ],
            [
              -106.555592,
              35.333442
            ],
            [
              -106.566181,
              35.327346
            ],
            [
              -106.6346,
              35.371374
            ],
            [
              -106.646709,
              35.352719
            ],
            [
              -106.670261,
              35.351085
            ],
            [
              -106.686232,
              35.362831
            ],
            [
              -106.690861,
              35.35182
            ],
            [
              -106.702366,
              35.350708
            ],
            [
              -106.696973,
              35.326191
            ],
            [
              -106.718018,
              35.322313
            ],
            [
              -106.729357,
              35.336741
            ],
            [
              -106.842301,
              35.333613
            ],
            [
              -106.86223,
              35.356719
            ],
            [
              -106.856387,
              35.293404
            ],
            [
              -106.907955,
              35.300027
            ],
            [
              -106.97617,
              35.283635
            ],
            [
              -106.970852,
              35.277746
            ],
            [
              -106.980896,
              35.260048
            ],
            [
              -106.967434,
              35.241552
            ],
            [
              -106.974902,
              35.229846
            ],
            [
              -106.962038,
              35.218392
            ],
            [
              -107.197244,
              35.219459
            ],
            [
              -107.23889,
              35.305507
            ],
            [
              -107.628788,
              35.304333
            ],
            [
              -107.628313,
              35.348314
            ],
            [
              -107.734241,
              35.348145
            ],
            [
              -107.734224,
              35.304987
            ],
            [
              -108.468715,
              35.306658
            ],
            [
              -108.468683,
              35.299243
            ],
            [
              -108.4921,
              35.306006
            ],
            [
              -108.539132,
              35.291809
            ],
            [
              -108.540562,
              35.254965
            ],
            [
              -108.530417,
              35.259434
            ],
            [
              -108.530417,
              35.250066
            ],
            [
              -108.540974,
              35.249819
            ],
            [
              -108.539969,
              35.122142
            ],
            [
              -108.570395,
              35.105616
            ],
            [
              -108.636056,
              35.121801
            ],
            [
              -108.705781,
              35.111902
            ],
            [
              -108.736373,
              35.099411
            ],
            [
              -108.714878,
              35.065341
            ],
            [
              -108.763249,
              35.055667
            ],
            [
              -108.825536,
              35.075195
            ],
            [
              -108.804835,
              35.102709
            ],
            [
              -108.807396,
              35.119208
            ],
            [
              -108.855935,
              35.106089
            ],
            [
              -108.838873,
              35.124907
            ],
            [
              -108.836943,
              35.165729
            ],
            [
              -108.847601,
              35.176628
            ],
            [
              -109.046024192748,
              35.1755079878063
            ],
            [
              -109.046794221037,
              35.36332221285
            ],
            [
              -109.046796,
              35.363606
            ]
          ]
        ]
      }
    }
  ]
}
