{
  "type": "FeatureCollection",
  "features": [
    {
      "type": "Feature",
      "id": "us-cd:118:28:01",
      "properties": {
        "boundary_id": "us-cd:118:28:01",
        "boundary_type": "congressional_district",
        "name": "Congressional District 1",
        "stateFips": "28",
        "congress": 118,
        "district": "01",
        "bbox": [
          -90.317741,
          33.108871,
          -88.097888,
          34.995694
        ]
      },
      "geometry": {
        "type": "Polygon",
        "coordinates": [
          [
            [
              -90.317741,
              34.871058
            ],
            [
              -90.257858,
              34.893385
            ],
            [
              -90.241334,
              34.919033
            ],
            [
              -90.245935,
              34.948721
            ],
            [
              -90.296057,
              34.976471
            ],
            [
              -90.308361,
              34.995694
            ],
            [
              -88.200064,
              34.995634
            ],
            [
              -88.154617,
              34.922392
            ],
            [
              -88.097888,
              34.892202
            ],
            [
              -88.3044169870825,
              33.2883179507206
            ],
            [
              -88.669076,
              33.286922
            ],
            [
              -88.671526,
              33.565135
            ],
            [
              -89.035677,
              33.562154
            ],
            [
              -89.036119,
              33.51274
            ],
            [
              -88.959617,
              33.498204
            ],
            [
              -88.966845,
              33.379797
            ],
            [
              -89.015307,
              33.363095
            ],
            [
              -89.000721,
              33.358552
            ],
            [
              -89.000817,
              33.343978
            ],
            [
              -88.967282,
              33.343887
            ],
            [
              -88.965963,
              33.286108
            ],
            [
              -89.108886,
              33.285937
            ],
            [
              -89.1089,
              33.198059
            ],
            [
              -89.213422,
              33.197543
            ],
            [
              -89.213921,
              33.109402
            ],
            [
              -89.317855,
              33.108871
            ],
            [
              -89.316408,
              33.285556
            ],
            [
              -89.453808,
              33.285942
            ],
            [
              -89.45405,
              33.4332
            ],
            [
              -89.446326,
              33.439837
            ],
            [
              -89.422202,
              33.429501
            ],
            [
              -89.406344,
              33.451463
            ],
            [
              -89.381092,
              33.460307
            ],
            [
              -89.506496,
              33.459806
            ],
            [
              -89.50944,
              34.19096
            ],
            [
              -89.72105,
              34.192545
            ],
            [
              -89.721341,
              34.554274
            ],
            [
              -90.21829,
              34.559491
            ],
            [
              -90.211076,
              34.573097
            ],
            [
              -90.239913,
              34.593204
            ],
            [
              -90.236291,
              34.605019
            ],
            [
              -90.243924,
              34.60215
            ],
            [
              -90.236591,
              34.607635
            ],
            [
              -90.239971,
              34.626237
            ],
            [
              -90.214558,
              34.657753
            ],
            [
              -90.225189,
              34.661575
            ],
            [
              -90.218452,
              34.664403
            ],
            [
              -90.2258,
              34.674823
            ],
            [
              -90.220218,
              34.688894
            ],
            [
              -90.231412,
              34.701991
            ],
            [
              -90.21329,
              34.722644
            ],
            [
              -90.200199,
              34.724418
            ],
            [
              -90.202126,
              34.860374
            ],
            [
              -90.314893,
              34.863955
            ],
            [
              -90.317741,
              34.871058
            ]
          ]
        ]
      }
    },
    {
      "type": "Feature",
      "id": "us-cd:118:28:02",
      "properties": {
        "boundary_id": "us-cd:118:28:02",
        "boundary_type": "congressional_district",
        "name": "Congressional District 2",
        "stateFips": "28",
        "congress": 118,
        "district": "02",
        "bbox": [
          -91.655009,
          30.999416,
          -89.316408,
          34.891738
        ]
      },
      "geometry": {
        "type": "Polygon",
        "coordinates": [
          [
            [
              -91.655009,
              31.251815
            ],
            [
              -91.641253,
              31.266917
            ],
            [
              -91.564192,
              31.261633
            ],
            [
              -91.512085,
              31.284177
            ],
            [
              -91.50866,
              31.315131
            ],
            [
              -91.548967,
              31.347255
            ],
            [
              -91.546207,
              31.38248
            ],
            [
              -91.568953,
              31.377629
            ],
            [
              -91.578334,
              31.399067
            ],
            [
              -91.565179,
              31.423447
            ],
            [
              -91.540647,
              31.430758
            ],
            [
              -91.532336,
              31.390275
            ],
            [
              -91.515978,
              31.370286
            ],
            [
              -91.47887,
              31.364955
            ],
            [
              -91.472465,
              31.371326
            ],
            [
              -91.472065,
              31.395925
            ],
            [
              -91.500046,
              31.42052
            ],
            [
              -91.51513,
              31.449206
            ],
            [
              -91.514917,
              31.510113
            ],
            [
              -91.522536,
              31.522078
            ],
            [
              -91.513963,
              31.532084
            ],
            [
              -91.479718,
              31.530366
            ],
            [
              -91.443916,
              31.542466
            ],
            [
              -91.407915,
              31.569366
            ],
            [
              -91.403915,
              31.589766
            ],
            [
              -91.422716,
              31.597065
            ],
            [
              -91.488618,
              31.587466
            ],
            [
              -91.516567,
              31.611818
            ],
            [
              -91.512336,
              31.634722
            ],
            [
              -91.494478,
              31.645013
            ],
            [
              -91.474318,
              31.625365
            ],
            [
              -91.429616,
              31.611365
            ],
            [
              -91.401015,
              31.620365
            ],
            [
              -91.397915,
              31.709364
            ],
            [
              -91.371804,
              31.742948
            ],
            [
              -91.338663,
              31.750005
            ],
            [
              -91.275545,
              31.745515
            ],
            [
              -91.263406,
              31.754468
            ],
            [
              -91.263043,
              31.766995
            ],
            [
              -91.286045,
              31.772062
            ],
            [
              -91.365529,
              31.761628
            ],
            [
              -91.345714,
              31.842861
            ],
            [
              -91.293413,
              31.86016
            ],
            [
              -91.282212,
              31.814762
            ],
            [
              -91.255611,
              31.812662
            ],
            [
              -91.245047,
              31.831447
            ],
            [
              -91.267712,
              31.86266
            ],
            [
              -91.18061,
              31.917959
            ],
            [
              -91.18471,
              31.935058
            ],
            [
              -91.19321,
              31.935658
            ],
            [
              -91.18481,
              31.965557
            ],
            [
              -91.16441,
              31.982557
            ],
            [
              -91.104108,
              31.990357
            ],
            [
              -91.075908,
              32.016828
            ],
            [
              -91.088108,
              32.034455
            ],
            [
              -91.15141,
              32.049255
            ],
            [
              -91.16031,
              32.070354
            ],
            [
              -91.139309,
              32.081754
            ],
            [
              -91.103708,
              32.050255
            ],
            [
              -91.080208,
              32.048355
            ],
            [
              -91.081508,
              32.077754
            ],
            [
              -91.034707,
              32.101053
            ],
            [
              -91.030907,
              32.120552
            ],
            [
              -91.005006,
              32.142852
            ],
            [
              -91.002906,
              32.162052
            ],
            [
              -91.025007,
              32.162552
            ],
            [
              -91.058307,
              32.180951
            ],
            [
              -91.048507,
              32.150152
            ],
            [
              -91.053175,
              32.124237
            ],
            [
              -91.08163,
              32.133992
            ],
            [
              -91.111294,
              32.125036
            ],
            [
              -91.162822,
              32.132694
            ],
            [
              -91.174552,
              32.154978
            ],
            [
              -91.164171,
              32.196888
            ],
            [
              -91.133587,
              32.213432
            ],
            [
              -91.108509,
              32.20815
            ],
            [
              -91.083708,
              32.22645
            ],
            [
              -91.061408,
              32.21865
            ],
            [
              -91.039007,
              32.242349
            ],
            [
              -91.002906,
              32.22305
            ],
            [
              -91.002467,
              32.19586
            ],
            [
              -90.995159,
              32.19212
            ],
            [
              -90.98029,
              32.243601
            ],
            [
              -90.969403,
              32.25252
            ],
            [
              -90.982985,
              32.270294
            ],
            [
              -90.979475,
              32.293702
            ],
            [
              -90.964149,
              32.296872
            ],
            [
              -90.947834,
              32.283486
            ],
            [
              -90.922231,
              32.298639
            ],
            [
              -90.875631,
              32.372434
            ],
            [
              -90.89206,
              32.370579
            ],
            [
              -90.912363,
              32.339454
            ],
            [
              -90.993625,
              32.354047
            ],
            [
              -91.004506,
              32.368144
            ],
            [
              -90.99408,
              32.403862
            ],
            [
              -90.966255,
              32.421027
            ],
            [
              -90.96959,
              32.43949
            ],
            [
              -90.993863,
              32.45085
            ],
            [
              -91.029606,
              32.433542
            ],
            [
              -91.052907,
              32.438442
            ],
            [
              -91.095308,
              32.458741
            ],
            [
              -91.116008,
              32.48314
            ],
            [
              -91.116708,
              32.500139
            ],
            [
              -91.093741,
              32.549128
            ],
            [
              -91.038106,
              32.49044
            ],
            [
              -90.999223,
              32.482615
            ],
            [
              -90.987202,
              32.495663
            ],
            [
              -90.994867,
              32.508611
            ],
            [
              -91.061685,
              32.536448
            ],
            [
              -91.080398,
              32.556442
            ],
            [
              -91.010228,
              32.601927
            ],
            [
              -91.002962,
              32.622555
            ],
            [
              -91.014286,
              32.640482
            ],
            [
              -91.025769,
              32.646573
            ],
            [
              -91.038415,
              32.636443
            ],
            [
              -91.049796,
              32.607188
            ],
            [
              -91.119854,
              32.584795
            ],
            [
              -91.144074,
              32.600613
            ],
            [
              -91.153556,
              32.626181
            ],
            [
              -91.152699,
              32.640757
            ],
            [
              -91.127723,
              32.665343
            ],
            [
              -91.076061,
              32.693751
            ],
            [
              -91.054749,
              32.719229
            ],
            [
              -91.077176,
              32.732534
            ],
            [
              -91.154461,
              32.742339
            ],
            [
              -91.165328,
              32.751301
            ],
            [
              -91.156918,
              32.780343
            ],
            [
              -91.164397,
              32.785821
            ],
            [
              -91.161669,
              32.812465
            ],
            [
              -91.145002,
              32.84287
            ],
            [
              -91.105631,
              32.858396
            ],
            [
              -91.064449,
              32.901064
            ],
            [
              -91.064804,
              32.926464
            ],
            [
              -91.081913,
              32.944768
            ],
            [
              -91.086802,
              32.976266
            ],
            [
              -91.106581,
              32.988938
            ],
            [
              -91.135517,
              32.979657
            ],
            [
              -91.131304,
              32.926919
            ],
            [
              -91.15169,
              32.901935
            ],
            [
              -91.196785,
              32.906784
            ],
            [
              -91.213972,
              32.927198
            ],
            [
              -91.201842,
              32.961212
            ],
            [
              -91.168973,
              32.992132
            ],
            [
              -91.161838,
              33.01985
            ],
            [
              -91.128326,
              33.034282
            ],
            [
              -91.120379,
              33.05453
            ],
            [
              -91.150217,
              33.082129
            ],
            [
              -91.200167,
              33.10693
            ],
            [
              -91.199662,
              33.128527
            ],
            [
              -91.169406,
              33.142639
            ],
            [
              -91.143334,
              33.129785
            ],
            [
              -91.087651,
              33.135398
            ],
            [
              -91.080787,
              33.182213
            ],
            [
              -91.10026,
              33.219428
            ],
            [
              -91.070697,
              33.227302
            ],
            [
              -91.045191,
              33.265404
            ],
            [
              -91.052369,
              33.285415
            ],
            [
              -91.07853,
              33.283306
            ],
            [
              -91.100818,
              33.238273
            ],
            [
              -91.141615,
              33.299539
            ],
            [
              -91.141793,
              33.350076
            ],
            [
              -91.064444,
              33.418462
            ],
            [
              -91.058077,
              33.446537
            ],
            [
              -91.070742,
              33.455851
            ],
            [
              -91.087034,
              33.45129
            ],
            [
              -91.099535,
              33.407209
            ],
            [
              -91.148816,
              33.378765
            ],
            [
              -91.176942,
              33.382841
            ],
            [
              -91.20922,
              33.40629
            ],
            [
              -91.199354,
              33.418321
            ],
            [
              -91.131885,
              33.430063
            ],
            [
              -91.116937,
              33.452033
            ],
            [
              -91.132152,
              33.481558
            ],
            [
              -91.171674,
              33.496997
            ],
            [
              -91.176507,
              33.444627
            ],
            [
              -91.206807,
              33.433846
            ],
            [
              -91.235181,
              33.438972
            ],
            [
              -91.231661,
              33.4571
            ],
            [
              -91.208535,
              33.468606
            ],
            [
              -91.1826,
              33.499185
            ],
            [
              -91.219487,
              33.530191
            ],
            [
              -91.233392,
              33.562747
            ],
            [
              -91.164855,
              33.570175
            ],
            [
              -91.13686,
              33.590193
            ],
            [
              -91.12868,
              33.608475
            ],
            [
              -91.159986,
              33.642897
            ],
            [
              -91.218855,
              33.660122
            ],
            [
              -91.229912,
              33.684346
            ],
            [
              -91.210659,
              33.700399
            ],
            [
              -91.160367,
              33.706602
            ],
            [
              -91.133416,
              33.67679
            ],
            [
              -91.091351,
              33.657764
            ],
            [
              -91.033917,
              33.673558
            ],
            [
              -91.030402,
              33.687766
            ],
            [
              -91.060529,
              33.71513
            ],
            [
              -91.117353,
              33.70526
            ],
            [
              -91.148807,
              33.73136
            ],
            [
              -91.144963,
              33.768075
            ],
            [
              -91.134059,
              33.782893
            ],
            [
              -91.108427,
              33.771712
            ],
            [
              -91.053386,
              33.778283
            ],
            [
              -91.01837,
              33.764131
            ],
            [
              -90.988466,
              33.78453
            ],
            [
              -91.00581,
              33.802046
            ],
            [
              -91.049083,
              33.816026
            ],
            [
              -91.070194,
              33.84534
            ],
            [
              -91.069777,
              33.872721
            ],
            [
              -91.034606,
              33.898264
            ],
            [
              -91.010194,
              33.93159
            ],
            [
              -91.023122,
              33.943216
            ],
            [
              -91.087753,
              33.959313
            ],
            [
              -91.086202,
              34.006418
            ],
            [
              -91.074691,
              34.009018
            ],
            [
              -91.048712,
              33.99268
            ],
            [
              -91.018948,
              34.003225
            ],
            [
              -91.000108,
              33.966428
            ],
            [
              -90.966173,
              33.964663
            ],
            [
              -90.961548,
              33.979945
            ],
            [
              -90.988184,
              34.019211
            ],
            [
              -90.964625,
              34.026798
            ],
            [
              -90.896253,
              34.025218
            ],
            [
              -90.871083,
              34.081177
            ],
            [
              -90.882628,
              34.096615
            ],
            [
              -90.917277,
              34.092635
            ],
            [
              -90.947689,
              34.109574
            ],
            [
              -90.958644,
              34.135484
            ],
            [
              -90.91001,
              34.165508
            ],
            [
              -90.847168,
              34.136884
            ],
            [
              -90.822593,
              34.144054
            ],
            [
              -90.807564,
              34.161821
            ],
            [
              -90.816572,
              34.183023
            ],
            [
              -90.887561,
              34.182414
            ],
            [
              -90.914425,
              34.195726
            ],
            [
              -90.934544,
              34.217854
            ],
            [
              -90.935548,
              34.237847
            ],
            [
              -90.906334,
              34.244382
            ],
            [
              -90.89658,
              34.2258
            ],
            [
              -90.847149,
              34.20613
            ],
            [
              -90.831773,
              34.276936
            ],
            [
              -90.765623,
              34.269513
            ],
            [
              -90.738025,
              34.289279
            ],
            [
              -90.736399,
              34.312067
            ],
            [
              -90.768691,
              34.347782
            ],
            [
              -90.764393,
              34.363675
            ],
            [
              -90.715803,
              34.360335
            ],
            [
              -90.676245,
              34.371111
            ],
            [
              -90.693129,
              34.32257
            ],
            [
              -90.669343,
              34.31302
            ],
            [
              -90.657488,
              34.322231
            ],
            [
              -90.666862,
              34.348569
            ],
            [
              -90.658542,
              34.375705
            ],
            [
              -90.640909,
              34.388863
            ],
            [
              -90.606039,
              34.393257
            ],
            [
              -90.586232,
              34.409172
            ],
            [
              -90.577694,
              34.430975
            ],
            [
              -90.592662,
              34.490579
            ],
            [
              -90.581294,
              34.51561
            ],
            [
              -90.545996,
              34.536181
            ],
            [
              -90.539623,
              34.553925
            ],
            [
              -90.591144,
              34.619204
            ],
            [
              -90.583173,
              34.651963
            ],
            [
              -90.568407,
              34.668878
            ],
            [
              -90.570102,
              34.693432
            ],
            [
              -90.541511,
              34.68309
            ],
            [
              -90.555104,
              34.646236
            ],
            [
              -90.547614,
              34.631656
            ],
            [
              -90.532108,
              34.627327
            ],
            [
              -90.4815,
              34.658017
            ],
            [
              -90.462816,
              34.684074
            ],
            [
              -90.474166,
              34.705277
            ],
            [
              -90.532444,
              34.696237
            ],
            [
              -90.571944,
              34.712777
            ],
            [
              -90.567778,
              34.733333
            ],
            [
              -90.545556,
              34.738889
            ],
            [
              -90.539444,
              34.755277
            ],
            [
              -90.544167,
              34.791667
            ],
            [
              -90.514071,
              34.800054
            ],
            [
              -90.492777,
              34.772499
            ],
            [
              -90.494393,
              34.757431
            ],
            [
              -90.524166,
              34.731388
            ],
            [
              -90.491666,
              34.721388
            ],
            [
              -90.448423,
              34.739117
            ],
            [
              -90.476455,
              34.793587
            ],
            [
              -90.469374,
              34.812604
            ],
            [
              -90.455379,
              34.820785
            ],
            [
              -90.481955,
              34.857805
            ],
            [
              -90.481264,
              34.881066
            ],
            [
              -90.462272,
              34.891738
            ],
            [
              -90.436561,
              34.882731
            ],
            [
              -90.429366,
              34.866609
            ],
            [
              -90.449691,
              34.83992
            ],
            [
              -90.438729,
              34.825248
            ],
            [
              -90.389393,
              34.830665
            ],
            [
              -90.338449,
              34.858517
            ],
            [
              -90.311312,
              34.844223
            ],
            [
              -90.3047758209481,
              34.8604147967561
            ],
            [
              -90.202126,
              34.860374
            ],
            [
              -90.200199,
              34.724418
            ],
            [
              -90.21329,
              34.722644
            ],
            [
              -90.231412,
              34.701991
            ],
            [
              -90.220218,
              34.688894
            ],
            [
              -90.2258,
              34.674823
            ],
            [
              -90.218452,
              34.664403
            ],
            [
              -90.225189,
              34.661575
            ],
            [
              -90.214558,
              34.657753
            ],
            [
              -90.239971,
              34.626237
            ],
            [
              -90.236591,
              34.607635
            ],
            [
              -90.243924,
              34.60215
            ],
            [
              -90.236291,
              34.605019
            ],
            [
              -90.239913,
              34.593204
            ],
            [
              -90.211076,
              34.573097
            ],
            [
              -90.21829,
              34.559491
            ],
            [
              -89.721341,
              34.554274
            ],
            [
              -89.72105,
              34.192545
            ],
            [
              -89.50944,
              34.19096
            ],
            [
              -89.506496,
              33.459806
            ],
            [
              -89.381092,
              33.460307
            ],
            [
              -89.406344,
              33.451463
            ],
            [
              -89.422202,
              33.429501
            ],
            [
              -89.446326,
              33.439837
            ],
            [
              -89.45405,
              33.4332
            ],
            [
              -89.453808,
              33.285942
            ],
            [
              -89.316408,
              33.285556
            ],
            [
              -89.317588,
              32.576458
            ],
            [
              -89.730152,
              32.577248
            ],
            [
              -89.730304,
              32.634228
            ],
            [
              -89.782867,
              32.596579
            ],
            [
              -89.785926,
              32.583734
            ],
            [
              -89.793953,
              32.592993
            ],
            [
              -89.795204,
              32.584547
            ],
            [
              -89.808592,
              32.5908
            ],
            [
              -89.813949,
              32.581899
            ],
            [
              -89.83695,
              32.585416
            ],
            [
              -89.839985,
              32.593295
            ],
            [
              -89.846548,
              32.582727
            ],
            [
              -89.858878,
              32.584836
            ],
            [
              -89.86696,
              32.564532
            ],
            [
              -89.886312,
              32.56323
            ],
            [
              -89.895893,
              32.55436
            ],
            [
              -89.893195,
              32.542437
            ],
            [
              -89.923261,
              32.52892
            ],
            [
              -89.931403,
              32.512336
            ],
            [
              -89.973369,
              32.523246
            ],
            [
              -89.994859,
              32.540542
            ],
            [
              -89.995226,
              32.560392
            ],
            [
              -90.039653,
              32.560324
            ],
            [
              -90.049634,
              32.579101
            ],
            [
              -90.060108,
              32.560599
            ],
            [
              -90.081736,
              32.56071
            ],
            [
              -90.089136,
              32.549954
            ],
            [
              -90.089103,
              32.557048
            ],
            [
              -90.13625,
              32.553292
            ],
            [
              -90.136499,
              32.583064
            ],
            [
              -90.215789,
              32.553328
            ],
            [
              -90.248918,
              32.56009
            ],
            [
              -90.274701,
              32.546055
            ],
            [
              -90.307419,
              32.545468
            ],
            [
              -90.316861,
              32.576434
            ],
            [
              -90.332282,
              32.571811
            ],
            [
              -90.363788,
              32.603331
            ],
            [
              -90.404369,
              32.57482
            ],
            [
              -90.427777,
              32.585707
            ],
            [
              -90.451396,
              32.578631
            ],
            [
              -90.449864,
              32.488394
            ],
            [
              -90.243641,
              32.487533
            ],
            [
              -90.243764,
              32.400098
            ],
            [
              -90.176566,
              32.400235
            ],
            [
              -90.15587,
              32.412475
            ],
            [
              -90.145892,
              32.405665
            ],
            [
              -90.130015,
              32.426285
            ],
            [
              -90.140723,
              32.399479
            ],
            [
              -90.123488,
              32.399451
            ],
            [
              -90.116613,
              32.385412
            ],
            [
              -90.141914,
              32.384225
            ],
            [
              -90.127781,
              32.370444
            ],
            [
              -90.149679,
              32.36673
            ],
            [
              -90.154391,
              32.348352
            ],
            [
              -90.175349,
              32.35019
            ],
            [
              -90.186816,
              32.326762
            ],
            [
              -90.175663,
              32.326712
            ],
            [
              -90.178014,
              32.312174
            ],
            [
              -90.160887,
              32.308692
            ],
            [
              -90.151387,
              32.291046
            ],
            [
              -90.165643,
              32.283924
            ],
            [
              -90.177724,
              32.290313
            ],
            [
              -90.184258,
              32.261864
            ],
            [
              -90.205292,
              32.251945
            ],
            [
              -90.199287,
              32.240948
            ],
            [
              -90.208464,
              32.235223
            ],
            [
              -90.191148,
              32.226802
            ],
            [
              -90.190544,
              32.203613
            ],
            [
              -90.181686,
              32.201603
            ],
            [
              -90.19664,
              32.195618
            ],
            [
              -90.19628,
              32.185226
            ],
            [
              -90.205727,
              32.19101
            ],
            [
              -90.212639,
              32.179966
            ],
            [
              -90.242043,
              32.177982
            ],
            [
              -90.241936,
              32.155083
            ],
            [
              -90.254799,
              32.151188
            ],
            [
              -90.242777,
              32.148922
            ],
            [
              -90.240997,
              32.121712
            ],
            [
              -90.251213,
              32.112396
            ],
            [
              -90.236694,
              32.100212
            ],
            [
              -90.24659,
              32.093143
            ],
            [
              -90.226837,
              32.09428
            ],
            [
              -90.235779,
              32.09037
            ],
            [
              -90.226723,
              32.079758
            ],
            [
              -90.236259,
              32.064686
            ],
            [
              -90.230038,
              32.046658
            ],
            [
              -90.247752,
              32.030681
            ],
            [
              -90.234294,
              32.017152
            ],
            [
              -90.213272,
              32.024299
            ],
            [
              -90.232814,
              32.008919
            ],
            [
              -90.222428,
              31.988524
            ],
            [
              -90.206096,
              31.987991
            ],
            [
              -90.19811,
              31.957869
            ],
            [
              -90.187526,
              31.952021
            ],
            [
              -90.198297,
              31.941904
            ],
            [
              -90.171642,
              31.934908
            ],
            [
              -90.170276,
              31.904472
            ],
            [
              -90.144083,
              31.891105
            ],
            [
              -90.132013,
              31.858302
            ],
            [
              -90.13891,
              31.848104
            ],
            [
              -90.158942,
              31.84546
            ],
            [
              -90.127292,
              31.825619
            ],
            [
              -90.136942,
              31.826019
            ],
            [
              -90.150702,
              31.799872
            ],
            [
              -90.140757,
              31.789353
            ],
            [
              -90.112508,
              31.79127
            ],
            [
              -90.107491,
              31.777685
            ],
            [
              -90.114114,
              31.768245
            ],
            [
              -90.128115,
              31.769668
            ],
            [
              -90.123103,
              31.751972
            ],
            [
              -90.131274,
              31.756048
            ],
            [
              -90.184139,
              31.731462
            ],
            [
              -90.229922,
              31.72373
            ],
            [
              -90.259003,
              31.703916
            ],
            [
              -90.380079,
              31.700205
            ],
            [
              -90.379409,
              31.685194
            ],
            [
              -90.41364,
              31.68528
            ],
            [
              -90.414198,
              31.700456
            ],
            [
              -90.736824,
              31.698491
            ],
            [
              -90.73733,
              31.611124
            ],
            [
              -90.633231,
              31.611409
            ],
            [
              -90.633302,
              31.349306
            ],
            [
              -90.548199,
              31.349574
            ],
            [
              -90.5476154821801,
              30.9997232645164
            ],
            [
              -91.636942,
              30.999416
            ],
            [
              -91.578413,
              31.02403
            ],
            [
              -91.559907,
              31.054119
            ],
            [
              -91.56415,
              31.06683
            ],
            [
              -91.626476,
              31.119125
            ],
            [
              -91.624217,
              31.133729
            ],
            [
              -91.591502,
              31.173118
            ],
            [
              -91.590051,
              31.193693
            ],
            [
              -91.654907,
              31.250175
            ],
            [
              -91.655009,
              31.251815
            ]
          ]
        ]
      }
    },
    {
      "type": "Feature",
      "id": "us-cd:118:28:03",
      "properties": {
        "boundary_id": "us-cd:118:28:03",
        "boundary_type": "congressional_district",
        "name": "Congressional District 3",
        "stateFips": "28",
        "congress": 118,
        "district": "03",
        "bbox": [
          -90.73733,
          30.9997232645164,
          -88.3044169870825,
          33.565135
        ]
      },
      "geometry": {
        "type": "Polygon",
        "coordinates": [
          [
            [
              -90.736824,
              31.698491
            ],
            [
              -90.414198,
              31.700456
            ],
            [
              -90.41364,
              31.68528
            ],
            [
              -90.379409,
              31.685194
            ],
            [
              -90.380079,
              31.700205
            ],
            [
              -90.259003,
              31.703916
            ],
            [
              -90.229922,
              31.72373
            ],
            [
              -90.184139,
              31.731462
            ],
            [
              -90.131274,
              31.756048
            ],
            [
              -90.123103,
              31.751972
            ],
            [
              -90.128115,
              31.769668
            ],
            [
              -90.114114,
              31.768245
            ],
            [
              -90.107491,
              31.777685
            ],
            [
              -90.112508,
              31.79127
            ],
            [
              -90.140757,
              31.789353
            ],
            [
              -90.150702,
              31.799872
            ],
            [
              -90.136942,
              31.826019
            ],
            [
              -90.127292,
              31.825619
            ],
            [
              -90.158942,
              31.84546
            ],
            [
              -90.13891,
              31.848104
            ],
            [
              -90.132013,
              31.858302
            ],
            [
              -90.144083,
              31.891105
            ],
            [
              -90.170276,
              31.904472
            ],
            [
              -90.171642,
              31.934908
            ],
            [
              -90.198297,
              31.941904
            ],
            [
              -90.187526,
              31.952021
            ],
            [
              -90.19811,
              31.957869
            ],
            [
              -90.206096,
              31.987991
            ],
            [
              -90.222428,
              31.988524
            ],
            [
              -90.232814,
              32.008919
            ],
            [
              -90.213272,
              32.024299
            ],
            [
              -90.234294,
              32.017152
            ],
            [
              -90.247752,
              32.030681
            ],
            [
              -90.230038,
              32.046658
            ],
            [
              -90.236259,
              32.064686
            ],
            [
              -90.226723,
              32.079758
            ],
            [
              -90.235779,
              32.09037
            ],
            [
              -90.226837,
              32.09428
            ],
            [
              -90.24659,
              32.093143
            ],
            [
              -90.236694,
              32.100212
            ],
            [
              -90.251213,
              32.112396
            ],
            [
              -90.240997,
              32.121712
            ],
            [
              -90.242777,
              32.148922
            ],
            [
              -90.254799,
              32.151188
            ],
            [
              -90.241936,
              32.155083
            ],
            [
              -90.242043,
              32.177982
            ],
            [
              -90.212639,
              32.179966
            ],
            [
              -90.205727,
              32.19101
            ],
            [
              -90.19628,
              32.185226
            ],
            [
              -90.19664,
              32.195618
            ],
            [
              -90.181686,
              32.201603
            ],
            [
              -90.190544,
              32.203613
            ],
            [
              -90.191148,
              32.226802
            ],
            [
              -90.208464,
              32.235223
            ],
            [
              -90.199287,
              32.240948
            ],
            [
              -90.205292,
              32.251945
            ],
            [
              -90.184258,
              32.261864
            ],
            [
              -90.177724,
              32.290313
            ],
            [
              -90.165643,
              32.283924
            ],
            [
              -90.151387,
              32.291046
            ],
            [
              -90.160887,
              32.308692
            ],
            [
              -90.178014,
              32.312174
            ],
            [
              -90.175663,
              32.326712
            ],
            [
              -90.186816,
              32.326762
            ],
            [
              -90.175349,
              32.35019
            ],
            [
              -90.154391,
              32.348352
            ],
            [
              -90.149679,
              32.36673
            ],
            [
              -90.127781,
              32.370444
            ],
            [
              -90.141914,
              32.384225
            ],
            [
              -90.116613,
              32.385412
            ],
            [
              -90.123488,
              32.399451
            ],
            [
              -90.140723,
              32.399479
            ],
            [
              -90.130015,
              32.426285
            ],
            [
              -90.145892,
              32.405665
            ],
            [
              -90.15587,
              32.412475
            ],
            [
              -90.176566,
              32.400235
            ],
            [
              -90.243764,
              32.400098
            ],
            [
              -90.243641,
              32.487533
            ],
            [
              -90.449864,
              32.488394
            ],
            [
              -90.451494,
              32.577818
            ],
            [
              -90.444056,
              32.584806
            ],
            [
              -90.404369,
              32.57482
            ],
            [
              -90.363788,
              32.603331
            ],
            [
              -90.332282,
              32.571811
            ],
            [
              -90.316861,
              32.576434
            ],
            [
              -90.307419,
              32.545468
            ],
            [
              -90.274701,
              32.546055
            ],
            [
              -90.248918,
              32.56009
            ],
            [
              -90.215789,
              32.553328
            ],
            [
              -90.136499,
              32.583064
            ],
            [
              -90.13625,
              32.553292
            ],
            [
              -90.089103,
              32.557048
            ],
            [
              -90.089136,
              32.549954
            ],
            [
              -90.081736,
              32.56071
            ],
            [
              -90.060108,
              32.560599
            ],
            [
              -90.049634,
              32.579101
            ],
            [
              -90.039653,
              32.560324
            ],
            [
              -89.995226,
              32.560392
            ],
            [
              -89.994859,
              32.540542
            ],
            [
              -89.973369,
              32.523246
            ],
            [
              -89.931403,
              32.512336
            ],
            [
              -89.923261,
              32.52892
            ],
            [
              -89.893195,
              32.542437
            ],
            [
              -89.895893,
              32.55436
            ],
            [
              -89.886312,
              32.56323
            ],
            [
              -89.86696,
              32.564532
            ],
            [
              -89.858878,
              32.584836
            ],
            [
              -89.846548,
              32.582727
            ],
            [
              -89.839985,
              32.593295
            ],
            [
              -89.83695,
              32.585416
            ],
            [
              -89.813949,
              32.581899
            ],
            [
              -89.808592,
              32.5908
            ],
            [
              -89.795204,
              32.584547
            ],
            [
              -89.793953,
              32.592993
            ],
            [
              -89.785926,
              32.583734
            ],
            [
              -89.782867,
              32.596579
            ],
            [
              -89.730304,
              32.634228
            ],
            [
              -89.730152,
              32.577248
            ],
            [
              -89.317588,
              32.576458
            ],
            [
              -89.317855,
              33.108871
            ],
            [
              -89.213921,
              33.109402
            ],
            [
              -89.213422,
              33.197543
            ],
            [
              -89.1089,
              33.198059
            ],
            [
              -89.108886,
              33.285937
            ],
            [
              -88.965963,
              33.286108
            ],
            [
              -88.967282,
              33.343887
            ],
            [
              -89.000817,
              33.343978
            ],
            [
              -89.000721,
              33.358552
            ],
            [
              -89.015307,
              33.363095
            ],
            [
              -88.966845,
              33.379797
            ],
            [
              -88.959617,
              33.498204
            ],
            [
              -89.036119,
              33.51274
            ],
            [
              -89.035677,
              33.562154
            ],
            [
              -88.671526,
              33.565135
            ],
            [
              -88.669076,
              33.286922
            ],
            [
              -88.3044169870825,
              33.2883179507206
            ],
            [
              -88.473227,
              31.893856
            ],
            [
              -88.640723,
              31.853912
            ],
            [
              -88.763411,
              31.835934
            ],
            [
              -88.943355,
              31.824565
            ],
            [
              -88.943169,
              31.784214
            ],
            [
              -89.011053,
              31.784373
            ],
            [
              -89.011358,
              31.769837
            ],
            [
              -89.084112,
              31.769851
            ],
            [
              -89.086174,
              31.750454
            ],
            [
              -89.11749,
              31.726024
            ],
            [
              -89.133981,
              31.730898
            ],
            [
              -89.14223,
              31.74833
            ],
            [
              -89.147096,
              31.711446
            ],
            [
              -89.165064,
              31.712218
            ],
            [
              -89.164537,
              31.729455
            ],
            [
              -89.184572,
              31.744587
            ],
            [
              -89.187909,
              31.769806
            ],
            [
              -89.265411,
              31.769363
            ],
            [
              -89.264668,
              31.80523
            ],
            [
              -89.401227,
              31.796863
            ],
            [
              -89.399178,
              31.434029
            ],
            [
              -89.654212,
              31.433805
            ],
            [
              -89.654038,
              31.002502
            ],
            [
              -90.5476154821801,
              30.9997232645164
            ],
            [
              -90.548199,
              31.349574
            ],
            [
              -90.633302,
              31.349306
            ],
            [
              -90.633231,
              31.611409
            ],
            [
              -90.73733,
              31.611124
            ],
            [
              -90.736824,
              31.698491
            ]
          ]
        ]
      }
    },
    {
      "type": "Feature",
      "id": "us-cd:118:28:04",
      "properties": {
        "boundary_id": "us-cd:118:28:04",
        "boundary_type": "congressional_district",
        "name": "Congressional District 4",
        "stateFips": "28",
        "congress": 118,
        "district": "04",
        "bbox": [
          -89.852263,
          30.175715,
          -88.394551,
          31.893856
        ]
      },
      "geometry": {
        "type": "MultiPolygon",
        "coordinates": [
          [
            [
              [
                -88.505022,
                30.215741
              ],
              [
                -88.453444,
                30.201236
              ],
              [
                -88.413087,
                30.206344
              ],
              [
                -88.453654,
                30.196584
              ],
              [
                -88.506567,
                30.214058
              ],
              [
                -88.505022,
                30.215741
              ]
            ]
          ],
          [
            [
              [
                -88.584342,
                30.337209
              ],
              [
                -88.570992,
                30.341033
              ],
              [
                -88.568226,
                30.332199
              ],
              [
                -88.584525,
                30.33562
              ],
              [
                -88.584342,
                30.337209
              ]
            ]
          ],
          [
            [
              [
                -88.764524,
                30.243752
              ],
              [
                -88.715302,
                30.252263
              ],
              [
                -88.595502,
                30.224173
              ],
              [
                -88.714941,
                30.243721
              ],
              [
                -88.764436,
                30.241415
              ],
              [
                -88.764524,
                30.243752
              ]
            ]
          ],
          [
            [
              [
                -88.866767,
                30.382974
              ],
              [
                -88.818817,
                30.360924
              ],
              [
                -88.866391,
                30.381493
              ],
              [
                -88.866767,
                30.382974
              ]
            ]
          ],
          [
            [
              [
                -88.903897,
                30.229522
              ],
              [
                -88.872771,
                30.247767
              ],
              [
                -88.903807,
                30.22847
              ],
              [
                -88.903897,
                30.229522
              ]
            ]
          ],
          [
            [
              [
                -88.980407,
                30.210516
              ],
              [
                -88.951881,
                30.212781
              ],
              [
                -88.97945,
                30.209331
              ],
              [
                -88.980407,
                30.210516
              ]
            ]
          ],
          [
            [
              [
                -89.131124,
                30.23104
              ],
              [
                -89.077995,
                30.22945
              ],
              [
                -89.065713,
                30.24569
              ],
              [
                -89.085071,
                30.213222
              ],
              [
                -89.132578,
                30.227587
              ],
              [
                -89.131124,
                30.23104
              ]
            ]
          ],
          [
            [
              [
                -89.852263,
                30.662934
              ],
              [
                -89.837894,
                30.672514
              ],
              [
                -89.847201,
                30.670038
              ],
              [
                -89.835478,
                30.691166
              ],
              [
                -89.846576,
                30.706209
              ],
              [
                -89.828061,
                30.725018
              ],
              [
                -89.83687,
                30.734661
              ],
              [
                -89.816075,
                30.739366
              ],
              [
                -89.828697,
                30.739451
              ],
              [
                -89.822459,
                30.754628
              ],
              [
                -89.833167,
                30.753314
              ],
              [
                -89.826121,
                30.759014
              ],
              [
                -89.830418,
                30.779842
              ],
              [
                -89.820087,
                30.782391
              ],
              [
                -89.817559,
                30.796054
              ],
              [
                -89.805107,
                30.790596
              ],
              [
                -89.811479,
                30.797996
              ],
              [
                -89.798654,
                30.820855
              ],
              [
                -89.781168,
                30.820123
              ],
              [
                -89.79247,
                30.850386
              ],
              [
                -89.7806,
                30.845508
              ],
              [
                -89.783384,
                30.856022
              ],
              [
                -89.771722,
                30.854677
              ],
              [
                -89.767789,
                30.865577
              ],
              [
                -89.779194,
                30.875185
              ],
              [
                -89.770027,
                30.882254
              ],
              [
                -89.773099,
                30.898338
              ],
              [
                -89.758719,
                30.897319
              ],
              [
                -89.764202,
                30.911906
              ],
              [
                -89.744448,
                30.920577
              ],
              [
                -89.756333,
                30.943498
              ],
              [
                -89.727072,
                30.967395
              ],
              [
                -89.737149,
                30.976081
              ],
              [
                -89.727698,
                30.993329
              ],
              [
                -89.73554,
                30.999715
              ],
              [
                -89.654038,
                31.002502
              ],
              [
                -89.654212,
                31.433805
              ],
              [
                -89.399178,
                31.434029
              ],
              [
                -89.401227,
                31.796863
              ],
              [
                -89.264668,
                31.80523
              ],
              [
                -89.265411,
                31.769363
              ],
              [
                -89.187909,
                31.769806
              ],
              [
                -89.184572,
                31.744587
              ],
              [
                -89.164537,
                31.729455
              ],
              [
                -89.165064,
                31.712218
              ],
              [
                -89.147096,
                31.711446
              ],
              [
                -89.14223,
                31.74833
              ],
              [
                -89.133981,
                31.730898
              ],
              [
                -89.11749,
                31.726024
              ],
              [
                -89.086174,
                31.750454
              ],
              [
                -89.084112,
                31.769851
              ],
              [
                -89.011358,
                31.769837
              ],
              [
                -89.011053,
                31.784373
              ],
              [
                -88.943169,
                31.784214
              ],
              [
                -88.943355,
                31.824565
              ],
              [
                -88.763411,
                31.835934
              ],
              [
                -88.640723,
                31.853912
              ],
              [
                -88.473227,
                31.893856
              ],
              [
                -88.394551,
                30.350091
              ],
              [
                -88.447671,
                30.358045
              ],
              [
                -88.45381,
                30.329626
              ],
              [
                -88.480117,
                30.318345
              ],
              [
                -88.504119,
                30.320073
              ],
              [
                -88.526936,
                30.342434
              ],
              [
                -88.579814,
                30.345846
              ],
              [
                -88.584998,
                30.368681
              ],
              [
                -88.611513,
                30.356017
              ],
              [
                -88.612263,
                30.373403
              ],
              [
                -88.637697,
                30.359848
              ],
              [
                -88.66382,
                30.362099
              ],
              [
                -88.700587,
                30.343689
              ],
              [
                -88.728893,
                30.342671
              ],
              [
                -88.811688,
                30.385245
              ],
              [
                -88.78981,
                30.386321
              ],
              [
                -88.841328,
                30.409598
              ],
              [
                -88.857786,
                30.430188
              ],
              [
                -88.871096,
                30.41789
              ],
              [
                -88.859152,
                30.406265
              ],
              [
                -88.859229,
                30.390009
              ],
              [
                -89.016378,
                30.384616
              ],
              [
                -89.089843,
                30.364733
              ],
              [
                -89.093331,
                30.347742
              ],
              [
                -89.098803,
                30.362554
              ],
              [
                -89.285744,
                30.303097
              ],
              [
                -89.294444,
                30.307596
              ],
              [
                -89.291844,
                30.328096
              ],
              [
                -89.268734,
                30.340588
              ],
              [
                -89.292499,
                30.365635
              ],
              [
                -89.311048,
                30.360951
              ],
              [
                -89.307986,
                30.373379
              ],
              [
                -89.335942,
                30.374016
              ],
              [
                -89.378257,
                30.34333
              ],
              [
                -89.372354,
                30.333398
              ],
              [
                -89.345934,
                30.343573
              ],
              [
                -89.332546,
                30.337895
              ],
              [
                -89.322345,
                30.319296
              ],
              [
                -89.329946,
                30.302896
              ],
              [
                -89.419348,
                30.25432
              ],
              [
                -89.420749,
                30.229429
              ],
              [
                -89.449419,
                30.203955
              ],
              [
                -89.447993,
                30.186509
              ],
              [
                -89.458107,
                30.177814
              ],
              [
                -89.466047,
                30.175715
              ],
              [
                -89.459829,
                30.182924
              ],
              [
                -89.468148,
                30.193813
              ],
              [
                -89.497708,
                30.182256
              ],
              [
                -89.522707,
                30.183215
              ],
              [
                -89.538652,
                30.195797
              ],
              [
                -89.570154,
                30.180297
              ],
              [
                -89.615856,
                30.223195
              ],
              [
                -89.614156,
                30.244595
              ],
              [
                -89.631789,
                30.256924
              ],
              [
                -89.625305,
                30.263532
              ],
              [
                -89.631411,
                30.279662
              ],
              [
                -89.647178,
                30.289367
              ],
              [
                -89.640401,
                30.306755
              ],
              [
                -89.626221,
                30.314255
              ],
              [
                -89.629727,
                30.339287
              ],
              [
                -89.657191,
                30.356515
              ],
              [
                -89.683686,
                30.405873
              ],
              [
                -89.68341,
                30.451793
              ],
              [
                -89.724614,
                30.491902
              ],
              [
                -89.768133,
                30.51502
              ],
              [
                -89.779565,
                30.544345
              ],
              [
                -89.803919,
                30.549349
              ],
              [
                -89.79196,
                30.548788
              ],
              [
                -89.803887,
                30.560581
              ],
              [
                -89.786865,
                30.569053
              ],
              [
                -89.808027,
                30.567998
              ],
              [
                -89.815077,
                30.585877
              ],
              [
                -89.807041,
                30.587145
              ],
              [
                -89.822334,
                30.604642
              ],
              [
                -89.81392,
                30.607721
              ],
              [
                -89.823208,
                30.608683
              ],
              [
                -89.821424,
                30.619815
              ],
              [
                -89.830825,
                30.617649
              ],
              [
                -89.813977,
                30.63818
              ],
              [
                -89.833261,
                30.657516
              ],
              [
                -89.851889,
                30.661199
              ],
              [
                -89.852263,
                30.662934
              ]
            ]
          ]
        ]
      }
    }
  ]
}
