{
  "type": "FeatureCollection",
  "features": [
    {
      "type": "Feature",
      "id": "us-cd:118:09:01",
      "properties": {
        "boundary_id": "us-cd:118:09:01",
        "boundary_type": "congressional_district",
        "name": "Congressional District 1",
        "stateFips": "09",
        "congress": 118,
        "district": "01",
        "bbox": [
          -73.201836,
          41.544279,
          -72.463899,
          42.0419641690369
        ]
      },
      "geometry": {
        "type": "Polygon",
        "coordinates": [
          [
            [
              -73.201836,
              41.790014
            ],
            [
              -73.1272774996918,
              42.0419641690369
            ],
            [
              -72.813541,
              42.036494
            ],
            [
              -72.816741,
              41.997595
            ],
            [
              -72.77475938856,
              42.0021288326822
            ],
            [
              -72.778412,
              41.98944
            ],
            [
              -72.708522,
              41.973829
            ],
            [
              -72.716169,
              41.949804
            ],
            [
              -72.613946,
              41.943542
            ],
            [
              -72.623434,
              41.934297
            ],
            [
              -72.51333,
              41.945401
            ],
            [
              -72.51833,
              41.856899
            ],
            [
              -72.49681,
              41.860616
            ],
            [
              -72.507531,
              41.809698
            ],
            [
              -72.476029,
              41.812997
            ],
            [
              -72.463899,
              41.745572
            ],
            [
              -72.613608,
              41.728157
            ],
            [
              -72.540135,
              41.689958
            ],
            [
              -72.550591,
              41.678507
            ],
            [
              -72.628021,
              41.666037
            ],
            [
              -72.630524,
              41.633282
            ],
            [
              -72.54423,
              41.642696
            ],
            [
              -72.531228,
              41.621112
            ],
            [
              -72.544489,
              41.615818
            ],
            [
              -72.542945,
              41.597065
            ],
            [
              -72.557674,
              41.578037
            ],
            [
              -72.560802,
              41.554049
            ],
            [
              -72.609901,
              41.562842
            ],
            [
              -72.641313,
              41.56136
            ],
            [
              -72.650333,
              41.552587
            ],
            [
              -72.655864,
              41.560648
            ],
            [
              -72.748878,
              41.544279
            ],
            [
              -72.752181,
              41.578894
            ],
            [
              -72.801243,
              41.573098
            ],
            [
              -72.819145,
              41.554298
            ],
            [
              -72.827644,
              41.570999
            ],
            [
              -72.848541,
              41.567329
            ],
            [
              -72.84428,
              41.544725
            ],
            [
              -72.86781,
              41.549028
            ],
            [
              -72.883885,
              41.563812
            ],
            [
              -72.94635,
              41.556797
            ],
            [
              -72.933644,
              41.607794
            ],
            [
              -72.938501,
              41.644311
            ],
            [
              -72.983084,
              41.639516
            ],
            [
              -72.99855,
              41.712498
            ],
            [
              -72.89827,
              41.723177
            ],
            [
              -72.883388,
              41.649468
            ],
            [
              -72.750357,
              41.650167
            ],
            [
              -72.762471,
              41.737702
            ],
            [
              -72.779064,
              41.730222
            ],
            [
              -72.782199,
              41.748224
            ],
            [
              -72.794973,
              41.747468
            ],
            [
              -72.800042,
              41.791827
            ],
            [
              -72.798552,
              41.824885
            ],
            [
              -72.783336,
              41.826907
            ],
            [
              -72.78444,
              41.855698
            ],
            [
              -72.758661,
              41.907064
            ],
            [
              -72.768154,
              41.917719
            ],
            [
              -72.905945,
              41.921696
            ],
            [
              -72.915346,
              41.896797
            ],
            [
              -72.940647,
              41.895196
            ],
            [
              -72.953651,
              41.84668
            ],
            [
              -72.936502,
              41.840263
            ],
            [
              -72.949024,
              41.806431
            ],
            [
              -73.082508,
              41.798389
            ],
            [
              -73.093181,
              41.815404
            ],
            [
              -73.143018,
              41.808066
            ],
            [
              -73.140166,
              41.789241
            ],
            [
              -73.154138,
              41.783705
            ],
            [
              -73.163181,
              41.793993
            ],
            [
              -73.200427,
              41.790165
            ],
            [
              -73.201836,
              41.790014
            ]
          ]
        ]
      }
    },
    {
      "type": "Feature",
      "id": "us-cd:118:09:02",
      "properties": {
        "boundary_id": "us-cd:118:09:02",
        "boundary_type": "congressional_district",
        "name": "Congressional District 2",
        "stateFips": "09",
        "congress": 118,
        "district": "02",
        "bbox": [
          -72.778412,
          41.248704,
          -71.789356,
          42.036195
        ]
      },
      "geometry": {
        "type": "MultiPolygon",
        "coordinates": [
          [
            [
              [
                -72.225931,
                41.293839
              ],
              [
                -72.225226,
                41.295258
              ],
              [
                -72.223756,
                41.294857
              ],
              [
                -72.223899,
                41.293464
              ],
              [
                -72.225325,
                41.293303
              ],
              [
                -72.225931,
                41.293839
              ]
            ]
          ],
          [
            [
              [
                -72.77475938856,
                42.0021288326822
              ],
              [
                -72.754038,
                42.025395
              ],
              [
                -72.755838,
                42.036195
              ],
              [
                -72.590233,
                42.024695
              ],
              [
                -72.528131,
                42.034295
              ],
              [
                -71.80065,
                42.023569
              ],
              [
                -71.789356,
                41.59691
              ],
              [
                -71.797683,
                41.416709
              ],
              [
                -71.82033,
                41.419382
              ],
              [
                -71.843472,
                41.40583
              ],
              [
                -71.830637,
                41.378772
              ],
              [
                -71.837873,
                41.360145
              ],
              [
                -71.829384,
                41.342413
              ],
              [
                -71.860513,
                41.320248
              ],
              [
                -71.877521,
                41.336025
              ],
              [
                -71.904655,
                41.327353
              ],
              [
                -71.945652,
                41.337799
              ],
              [
                -71.96244,
                41.321535
              ],
              [
                -71.982194,
                41.329861
              ],
              [
                -72.005143,
                41.306687
              ],
              [
                -72.021898,
                41.316838
              ],
              [
                -72.060535,
                41.312107
              ],
              [
                -72.074104,
                41.318993
              ],
              [
                -72.11182,
                41.299098
              ],
              [
                -72.134221,
                41.299398
              ],
              [
                -72.15632,
                41.313178
              ],
              [
                -72.164401,
                41.303715
              ],
              [
                -72.177622,
                41.322497
              ],
              [
                -72.191022,
                41.323197
              ],
              [
                -72.203022,
                41.313197
              ],
              [
                -72.205788,
                41.285883
              ],
              [
                -72.223828,
                41.301981
              ],
              [
                -72.251895,
                41.29862
              ],
              [
                -72.261487,
                41.282926
              ],
              [
                -72.31776,
                41.277782
              ],
              [
                -72.333894,
                41.282916
              ],
              [
                -72.350504,
                41.31175
              ],
              [
                -72.356446,
                41.291216
              ],
              [
                -72.34261,
                41.268846
              ],
              [
                -72.367617,
                41.263529
              ],
              [
                -72.386629,
                41.261798
              ],
              [
                -72.398688,
                41.278172
              ],
              [
                -72.451925,
                41.278885
              ],
              [
                -72.506974,
                41.256896
              ],
              [
                -72.529416,
                41.264421
              ],
              [
                -72.543941,
                41.248704
              ],
              [
                -72.583336,
                41.271698
              ],
              [
                -72.6545317521677,
                41.2657632719328
              ],
              [
                -72.63174,
                41.309447
              ],
              [
                -72.674961,
                41.348566
              ],
              [
                -72.678739,
                41.433797
              ],
              [
                -72.60896,
                41.44309
              ],
              [
                -72.637039,
                41.463829
              ],
              [
                -72.627903,
                41.485415
              ],
              [
                -72.633701,
                41.500201
              ],
              [
                -72.554912,
                41.51105
              ],
              [
                -72.551128,
                41.542994
              ],
              [
                -72.562767,
                41.558428
              ],
              [
                -72.542945,
                41.597065
              ],
              [
                -72.544489,
                41.615818
              ],
              [
                -72.52929,
                41.617435
              ],
              [
                -72.54423,
                41.642696
              ],
              [
                -72.630524,
                41.633282
              ],
              [
                -72.624792,
                41.668132
              ],
              [
                -72.541068,
                41.683864
              ],
              [
                -72.545511,
                41.695945
              ],
              [
                -72.613608,
                41.728157
              ],
              [
                -72.463899,
                41.745572
              ],
              [
                -72.476029,
                41.812997
              ],
              [
                -72.507531,
                41.809698
              ],
              [
                -72.49681,
                41.860616
              ],
              [
                -72.51833,
                41.856899
              ],
              [
                -72.51333,
                41.945401
              ],
              [
                -72.623434,
                41.934297
              ],
              [
                -72.613946,
                41.943542
              ],
              [
                -72.716169,
                41.949804
              ],
              [
                -72.707622,
                41.973353
              ],
              [
                -72.778412,
                41.98944
              ],
              [
                -72.77475938856,
                42.0021288326822
              ]
            ]
          ]
        ]
      }
    },
    {
      "type": "Feature",
      "id": "us-cd:118:09:03",
      "properties": {
        "boundary_id": "us-cd:118:09:03",
        "boundary_type": "congressional_district",
        "name": "Congressional District 3",
        "stateFips": "09",
        "congress": 118,
        "district": "03",
        "bbox": [
          -73.1647956314162,
          41.146797,
          -72.554393,
          41.562842
        ]
      },
      "geometry": {
        "type": "MultiPolygon",
        "coordinates": [
          [
            [
              [
                -72.761427,
                41.242333
              ],
              [
                -72.75886,
                41.253843
              ],
              [
                -72.740299,
                41.256454
              ],
              [
                -72.760341,
                41.241235
              ],
              [
                -72.761427,
                41.242333
              ]
            ]
          ],
          [
            [
              [
                -72.764251,
                41.259212
              ],
              [
                -72.763066,
                41.260377
              ],
              [
                -72.762344,
                41.260356
              ],
              [
                -72.761187,
                41.258996
              ],
              [
                -72.761419,
                41.258643
              ],
              [
                -72.763115,
                41.258037
              ],
              [
                -72.763977,
                41.258511
              ],
              [
                -72.764251,
                41.259212
              ]
            ]
          ],
          [
            [
              [
                -73.158754,
                41.173663
              ],
              [
                -73.153819,
                41.192533
              ],
              [
                -73.162827,
                41.220225
              ],
              [
                -73.140651,
                41.237987
              ],
              [
                -73.158673,
                41.279325
              ],
              [
                -73.145972,
                41.296827
              ],
              [
                -73.154133,
                41.313258
              ],
              [
                -73.145294,
                41.320719
              ],
              [
                -73.149236,
                41.333582
              ],
              [
                -73.123132,
                41.338861
              ],
              [
                -73.147555,
                41.367696
              ],
              [
                -73.110526,
                41.398104
              ],
              [
                -73.083585,
                41.403766
              ],
              [
                -73.092698,
                41.41345
              ],
              [
                -73.077366,
                41.465189
              ],
              [
                -73.103355,
                41.481737
              ],
              [
                -73.104532,
                41.492058
              ],
              [
                -73.094685,
                41.513805
              ],
              [
                -73.070114,
                41.514301
              ],
              [
                -73.08017,
                41.534915
              ],
              [
                -73.063649,
                41.528296
              ],
              [
                -73.040336,
                41.547608
              ],
              [
                -73.026428,
                41.54629
              ],
              [
                -73.00215,
                41.524754
              ],
              [
                -72.977629,
                41.533817
              ],
              [
                -72.948962,
                41.522682
              ],
              [
                -72.934647,
                41.501246
              ],
              [
                -72.952392,
                41.464589
              ],
              [
                -72.886667,
                41.447957
              ],
              [
                -72.846332,
                41.502756
              ],
              [
                -72.850299,
                41.515731
              ],
              [
                -72.74478,
                41.498183
              ],
              [
                -72.748878,
                41.544279
              ],
              [
                -72.609901,
                41.562842
              ],
              [
                -72.554393,
                41.550646
              ],
              [
                -72.554912,
                41.51105
              ],
              [
                -72.633701,
                41.500201
              ],
              [
                -72.627903,
                41.485415
              ],
              [
                -72.637039,
                41.463829
              ],
              [
                -72.60896,
                41.44309
              ],
              [
                -72.678739,
                41.433797
              ],
              [
                -72.674961,
                41.348566
              ],
              [
                -72.63174,
                41.309447
              ],
              [
                -72.6545317521677,
                41.2657632719328
              ],
              [
                -72.673216,
                41.26762
              ],
              [
                -72.677477,
                41.254767
              ],
              [
                -72.706139,
                41.243851
              ],
              [
                -72.713242,
                41.248802
              ],
              [
                -72.705788,
                41.259908
              ],
              [
                -72.732442,
                41.255122
              ],
              [
                -72.762057,
                41.267686
              ],
              [
                -72.816706,
                41.249297
              ],
              [
                -72.827621,
                41.264937
              ],
              [
                -72.836101,
                41.248812
              ],
              [
                -72.841794,
                41.259026
              ],
              [
                -72.861058,
                41.245804
              ],
              [
                -72.894578,
                41.242509
              ],
              [
                -72.904116,
                41.249554
              ],
              [
                -72.893845,
                41.259897
              ],
              [
                -72.913087,
                41.296737
              ],
              [
                -72.939163,
                41.280188
              ],
              [
                -72.931305,
                41.262293
              ],
              [
                -72.962062,
                41.251938
              ],
              [
                -72.975136,
                41.233829
              ],
              [
                -72.98687,
                41.235131
              ],
              [
                -73.01455,
                41.204735
              ],
              [
                -73.037941,
                41.201814
              ],
              [
                -73.049598,
                41.21078
              ],
              [
                -73.082045,
                41.192964
              ],
              [
                -73.108005,
                41.168765
              ],
              [
                -73.10302,
                41.151412
              ],
              [
                -73.130253,
                41.146797
              ],
              [
                -73.1647956314162,
                41.1569078620246
              ],
              [
                -73.158754,
                41.173663
              ]
            ]
          ]
        ]
      }
    },
    {
      "type": "Feature",
      "id": "us-cd:118:09:04",
      "properties": {
        "boundary_id": "us-cd:118:09:04",
        "boundary_type": "congressional_district",
        "name": "Congressional District 4",
        "stateFips": "09",
        "congress": 118,
        "district": "04",
        "bbox": [
          -73.727775,
          40.980144,
          -73.077366,
          41.489409
        ]
      },
      "geometry": {
        "type": "MultiPolygon",
        "coordinates": [
          [
            [
              [
                -73.217168,
                41.143906
              ],
              [
                -73.216107,
                41.144466
              ],
              [
                -73.214987,
                41.144473
              ],
              [
                -73.215269,
                41.142644
              ],
              [
                -73.216689,
                41.141968
              ],
              [
                -73.217629,
                41.142354
              ],
              [
                -73.217168,
                41.143906
              ]
            ]
          ],
          [
            [
              [
                -73.364244,
                41.088945
              ],
              [
                -73.355089,
                41.083483
              ],
              [
                -73.369775,
                41.088802
              ],
              [
                -73.364244,
                41.088945
              ]
            ]
          ],
          [
            [
              [
                -73.394189,
                41.067379
              ],
              [
                -73.381314,
                41.070686
              ],
              [
                -73.386178,
                41.058391
              ],
              [
                -73.395238,
                41.064431
              ],
              [
                -73.394189,
                41.067379
              ]
            ]
          ],
          [
            [
              [
                -73.416886,
                41.053932
              ],
              [
                -73.399148,
                41.06098
              ],
              [
                -73.422165,
                41.047562
              ],
              [
                -73.416886,
                41.053932
              ]
            ]
          ],
          [
            [
              [
                -73.613369,
                40.988883
              ],
              [
                -73.611501,
                40.990011
              ],
              [
                -73.609727,
                40.990786
              ],
              [
                -73.608327,
                40.990786
              ],
              [
                -73.607569,
                40.990397
              ],
              [
                -73.608233,
                40.989659
              ],
              [
                -73.609634,
                40.988742
              ],
              [
                -73.612528,
                40.987474
              ],
              [
                -73.613369,
                40.988883
              ]
            ]
          ],
          [
            [
              [
                -73.630573,
                40.980707
              ],
              [
                -73.622717,
                40.984559
              ],
              [
                -73.630081,
                40.980144
              ],
              [
                -73.630573,
                40.980707
              ]
            ]
          ],
          [
            [
              [
                -73.645767,
                40.996001
              ],
              [
                -73.639147,
                40.989542
              ],
              [
                -73.644725,
                40.995606
              ],
              [
                -73.645767,
                40.996001
              ]
            ]
          ],
          [
            [
              [
                -73.727775,
                41.100696
              ],
              [
                -73.482709,
                41.21276
              ],
              [
                -73.550961,
                41.295422
              ],
              [
                -73.5434148559124,
                41.3767540709835
              ],
              [
                -73.506444,
                41.377409
              ],
              [
                -73.470102,
                41.326421
              ],
              [
                -73.347055,
                41.350426
              ],
              [
                -73.333337,
                41.318343
              ],
              [
                -73.229076,
                41.370324
              ],
              [
                -73.21903,
                41.364495
              ],
              [
                -73.202136,
                41.372237
              ],
              [
                -73.194898,
                41.388529
              ],
              [
                -73.183269,
                41.391711
              ],
              [
                -73.184857,
                41.406296
              ],
              [
                -73.207688,
                41.420544
              ],
              [
                -73.163928,
                41.448885
              ],
              [
                -73.15789,
                41.489409
              ],
              [
                -73.104234,
                41.489396
              ],
              [
                -73.077366,
                41.465189
              ],
              [
                -73.092698,
                41.41345
              ],
              [
                -73.083585,
                41.403766
              ],
              [
                -73.110526,
                41.398104
              ],
              [
                -73.147555,
                41.367696
              ],
              [
                -73.123132,
                41.338861
              ],
              [
                -73.149236,
                41.333582
              ],
              [
                -73.145294,
                41.320719
              ],
              [
                -73.154133,
                41.313258
              ],
              [
                -73.145972,
                41.296827
              ],
              [
                -73.158673,
                41.279325
              ],
              [
                -73.140651,
                41.237987
              ],
              [
                -73.162827,
                41.220225
              ],
              [
                -73.153819,
                41.192533
              ],
              [
                -73.1647956314162,
                41.1569078620246
              ],
              [
                -73.177774,
                41.166697
              ],
              [
                -73.219741,
                41.15332
              ],
              [
                -73.262388,
                41.118193
              ],
              [
                -73.286759,
                41.127896
              ],
              [
                -73.352671,
                41.101611
              ],
              [
                -73.368249,
                41.107194
              ],
              [
                -73.365396,
                41.097343
              ],
              [
                -73.382787,
                41.0954
              ],
              [
                -73.392967,
                41.082117
              ],
              [
                -73.402474,
                41.086058
              ],
              [
                -73.408416,
                41.071008
              ],
              [
                -73.43325,
                41.055808
              ],
              [
                -73.459572,
                41.052544
              ],
              [
                -73.457817,
                41.058975
              ],
              [
                -73.468977,
                41.060079
              ],
              [
                -73.477366,
                41.036397
              ],
              [
                -73.482823,
                41.046216
              ],
              [
                -73.500582,
                41.046716
              ],
              [
                -73.523292,
                41.036664
              ],
              [
                -73.517013,
                41.030054
              ],
              [
                -73.529081,
                41.017075
              ],
              [
                -73.535338,
                41.03192
              ],
              [
                -73.561968,
                41.016797
              ],
              [
                -73.570068,
                41.001597
              ],
              [
                -73.603952,
                41.015054
              ],
              [
                -73.65676,
                40.987666
              ],
              [
                -73.655255,
                41.012246
              ],
              [
                -73.722575,
                41.093596
              ],
              [
                -73.727775,
                41.100696
              ]
            ]
          ]
        ]
      }
    },
    {
      "type": "Feature",
      "id": "us-cd:118:09:05",
      "properties": {
        "boundary_id": "us-cd:118:09:05",
        "boundary_type": "congressional_district",
        "name": "Congressional District 5",
        "stateFips": "09",
        "congress": 118,
        "district": "05",
        "bbox": [
          -73.5434148559124,
          41.318343,
          -72.74478,
          42.049638
        ]
      },
      "geometry": {
        "type": "Polygon",
        "coordinates": [
          [
            [
              -73.5424697738594,
              41.3890585701244
            ],
            [
              -73.487314,
              42.049638
            ],
            [
              -73.1272774996918,
              42.0419641690369
            ],
            [
              -73.201836,
              41.790014
            ],
            [
              -73.163181,
              41.793993
            ],
            [
              -73.154138,
              41.783705
            ],
            [
              -73.140166,
              41.789241
            ],
            [
              -73.143018,
              41.808066
            ],
            [
              -73.093181,
              41.815404
            ],
            [
              -73.082508,
              41.798389
            ],
            [
              -72.949024,
              41.806431
            ],
            [
              -72.936502,
              41.840263
            ],
            [
              -72.953651,
              41.84668
            ],
            [
              -72.940647,
              41.895196
            ],
            [
              -72.915346,
              41.896797
            ],
            [
              -72.905945,
              41.921696
            ],
            [
              -72.770587,
              41.918048
            ],
            [
              -72.758929,
              41.908145
            ],
            [
              -72.78444,
              41.855698
            ],
            [
              -72.783336,
              41.826907
            ],
            [
              -72.798552,
              41.824885
            ],
            [
              -72.800042,
              41.791827
            ],
            [
              -72.794973,
              41.747468
            ],
            [
              -72.782199,
              41.748224
            ],
            [
              -72.779064,
              41.730222
            ],
            [
              -72.762471,
              41.737702
            ],
            [
              -72.750357,
              41.650167
            ],
            [
              -72.883388,
              41.649468
            ],
            [
              -72.89827,
              41.723177
            ],
            [
              -72.99855,
              41.712498
            ],
            [
              -72.983084,
              41.639516
            ],
            [
              -72.938501,
              41.644311
            ],
            [
              -72.933644,
              41.607794
            ],
            [
              -72.94635,
              41.556797
            ],
            [
              -72.883885,
              41.563812
            ],
            [
              -72.86781,
              41.549028
            ],
            [
              -72.84428,
              41.544725
            ],
            [
              -72.848541,
              41.567329
            ],
            [
              -72.827644,
              41.570999
            ],
            [
              -72.819145,
              41.554298
            ],
            [
              -72.801243,
              41.573098
            ],
            [
              -72.752181,
              41.578894
            ],
            [
              -72.74478,
              41.498183
            ],
            [
              -72.850299,
              41.515731
            ],
            [
              -72.846332,
              41.502756
            ],
            [
              -72.886667,
              41.447957
            ],
            [
              -72.952392,
              41.464589
            ],
            [
              -72.934647,
              41.501246
            ],
            [
              -72.948962,
              41.522682
            ],
            [
              -72.977629,
              41.533817
            ],
            [
              -73.00215,
              41.524754
            ],
            [
              -73.026428,
              41.54629
            ],
            [
              -73.043476,
              41.547545
            ],
            [
              -73.063649,
              41.528296
            ],
            [
              -73.08017,
              41.534915
            ],
            [
              -73.070114,
              41.514301
            ],
            [
              -73.094685,
              41.513805
            ],
            [
              -73.104234,
              41.489396
            ],
            [
              -73.15789,
              41.489409
            ],
            [
              -73.163928,
              41.448885
            ],
            [
              -73.207688,
              41.420544
            ],
            [
              -73.184857,
              41.406296
            ],
            [
              -73.183269,
              41.391711
            ],
            [
              -73.194898,
              41.388529
            ],
            [
              -73.202136,
              41.372237
            ],
            [
              -73.21903,
              41.364495
            ],
            [
              -73.229076,
              41.370324
            ],
            [
              -73.333337,
              41.318343
            ],
            [
              -73.347055,
              41.350426
            ],
            [
              -73.470102,
              41.326421
            ],
            [
              -73.506444,
              41.377409
            ],
            [
              -73.5434148559124,
              41.3767540709835
            ],
            [
              -73.5424697738594,
              41.3890585701244
            ]
          ]
        ]
      }
    }
  ]
}
