{
  "type": "FeatureCollection",
  "features": [
    {
      "type": "Feature",
      "id": "us-cd:118:72:98",
      "properties": {
        "boundary_id": "us-cd:118:72:98",
        "boundary_type": "congressional_district",
        "name": "Resident Commissioner District (at Large)",
        "stateFips": "72",
        "congress": 118,
        "district": "98",
        "bbox": [
          -67.945404,
          17.8838969083007,
          -65.221077,
          18.515356
        ]
      },
      "geometry": {
        "type": "MultiPolygon",
        "coordinates": [
          [
            [
              [
                -65.237728,
                18.321184
              ],
              [
                -65.221416,
                18.321554
              ],
              [
                -65.221077,
                18.311575
              ],
              [
                -65.23801,
                18.319312
              ],
              [
                -65.237728,
                18.321184
              ]
            ]
          ],
          [
            [
              [
                -65.266694,
                18.341634
              ],
              [
                -65.246016,
                18.33464
              ],
              [
                -65.266099,
                18.339153
              ],
              [
                -65.266694,
                18.341634
              ]
            ]
          ],
          [
            [
              [
                -65.338387,
                18.310236
              ],
              [
                -65.329645,
                18.315859
              ],
              [
                -65.327817,
                18.295984
              ],
              [
                -65.338979,
                18.309253
              ],
              [
                -65.338387,
                18.310236
              ]
            ]
          ],
          [
            [
              [
                -65.341496,
                18.347145
              ],
              [
                -65.319026,
                18.329196
              ],
              [
                -65.308994,
                18.33746
              ],
              [
                -65.277283,
                18.332433
              ],
              [
                -65.244642,
                18.304488
              ],
              [
                -65.258663,
                18.308227
              ],
              [
                -65.26314,
                18.289726
              ],
              [
                -65.279308,
                18.30683
              ],
              [
                -65.30233,
                18.309526
              ],
              [
                -65.28077,
                18.288385
              ],
              [
                -65.287304,
                18.278247
              ],
              [
                -65.341464,
                18.34605
              ],
              [
                -65.341496,
                18.347145
              ]
            ]
          ],
          [
            [
              [
                -65.571467,
                18.376591
              ],
              [
                -65.570384,
                18.378481
              ],
              [
                -65.568452,
                18.378747
              ],
              [
                -65.567775,
                18.378038
              ],
              [
                -65.568028,
                18.377445
              ],
              [
                -65.570191,
                18.376159
              ],
              [
                -65.571144,
                18.376109
              ],
              [
                -65.571467,
                18.376591
              ]
            ]
          ],
          [
            [
              [
                -65.571524,
                18.351412
              ],
              [
                -65.567839,
                18.343893
              ],
              [
                -65.571572,
                18.350662
              ],
              [
                -65.571524,
                18.351412
              ]
            ]
          ],
          [
            [
              [
                -65.577015,
                18.119722
              ],
              [
                -65.544524,
                18.119996
              ],
              [
                -65.446529,
                18.147002
              ],
              [
                -65.436128,
                18.157964
              ],
              [
                -65.399983,
                18.162165
              ],
              [
                -65.302927,
                18.141222
              ],
              [
                -65.288468,
                18.14803
              ],
              [
                -65.267713,
                18.134003
              ],
              [
                -65.294664,
                18.127807
              ],
              [
                -65.308426,
                18.134595
              ],
              [
                -65.307564,
                18.127778
              ],
              [
                -65.334447,
                18.125276
              ],
              [
                -65.346418,
                18.11103
              ],
              [
                -65.352512,
                18.113918
              ],
              [
                -65.340363,
                18.119763
              ],
              [
                -65.361873,
                18.130666
              ],
              [
                -65.375293,
                18.121676
              ],
              [
                -65.376909,
                18.107386
              ],
              [
                -65.409269,
                18.113881
              ],
              [
                -65.418849,
                18.101408
              ],
              [
                -65.429162,
                18.11329
              ],
              [
                -65.436643,
                18.106408
              ],
              [
                -65.423243,
                18.096137
              ],
              [
                -65.437441,
                18.091527
              ],
              [
                -65.448234,
                18.104648
              ],
              [
                -65.441629,
                18.098292
              ],
              [
                -65.447371,
                18.087764
              ],
              [
                -65.479753,
                18.09657
              ],
              [
                -65.532844,
                18.080144
              ],
              [
                -65.569445,
                18.091991
              ],
              [
                -65.577238,
                18.118189
              ],
              [
                -65.577015,
                18.119722
              ]
            ]
          ],
          [
            [
              [
                -65.580154,
                18.247653
              ],
              [
                -65.578205,
                18.249531
              ],
              [
                -65.576555,
                18.250146
              ],
              [
                -65.575767,
                18.249155
              ],
              [
                -65.578126,
                18.246248
              ],
              [
                -65.579433,
                18.246377
              ],
              [
                -65.580154,
                18.247653
              ]
            ]
          ],
          [
            [
              [
                -65.593029,
                18.391488
              ],
              [
                -65.583699,
                18.383592
              ],
              [
                -65.594062,
                18.390712
              ],
              [
                -65.593029,
                18.391488
              ]
            ]
          ],
          [
            [
              [
                -65.5995,
                18.255629
              ],
              [
                -65.58561,
                18.256473
              ],
              [
                -65.582781,
                18.248302
              ],
              [
                -65.60046,
                18.254858
              ],
              [
                -65.5995,
                18.255629
              ]
            ]
          ],
          [
            [
              [
                -65.604838,
                18.213663
              ],
              [
                -65.599037,
                18.211088
              ],
              [
                -65.605113,
                18.211478
              ],
              [
                -65.604838,
                18.213663
              ]
            ]
          ],
          [
            [
              [
                -66.1374123199828,
                18.4722147904449
              ],
              [
                -66.136122,
                18.472827
              ],
              [
                -66.134534,
                18.472133
              ],
              [
                -66.13556,
                18.466571
              ],
              [
                -66.1370590023866,
                18.4666150883055
              ],
              [
                -66.137294,
                18.466622
              ],
              [
                -66.137473,
                18.472186
              ],
              [
                -66.1374123199828,
                18.4722147904449
              ]
            ]
          ],
          [
            [
              [
                -66.529902,
                17.883959
              ],
              [
                -66.510769,
                17.902053
              ],
              [
                -66.5297498341861,
                17.8838969083007
              ],
              [
                -66.529902,
                17.883959
              ]
            ]
          ],
          [
            [
              [
                -67.271223,
                18.362513
              ],
              [
                -67.193957,
                18.393068
              ],
              [
                -67.157294,
                18.417841
              ],
              [
                -67.166205,
                18.484642
              ],
              [
                -67.137804,
                18.507569
              ],
              [
                -67.098647,
                18.515356
              ],
              [
                -67.019411,
                18.510971
              ],
              [
                -66.97567,
                18.491108
              ],
              [
                -66.901649,
                18.483267
              ],
              [
                -66.789603,
                18.492918
              ],
              [
                -66.709911,
                18.471951
              ],
              [
                -66.672902,
                18.489417
              ],
              [
                -66.621441,
                18.493081
              ],
              [
                -66.454475,
                18.469249
              ],
              [
                -66.438313,
                18.48593
              ],
              [
                -66.39827,
                18.492584
              ],
              [
                -66.381522,
                18.482895
              ],
              [
                -66.335459,
                18.484545
              ],
              [
                -66.289607,
                18.471968
              ],
              [
                -66.26956,
                18.480069
              ],
              [
                -66.220123,
                18.466093
              ],
              [
                -66.193968,
                18.465797
              ],
              [
                -66.184263,
                18.475641
              ],
              [
                -66.183702,
                18.459465
              ],
              [
                -66.173021,
                18.450952
              ],
              [
                -66.140537,
                18.464329
              ],
              [
                -66.128755,
                18.442556
              ],
              [
                -66.110845,
                18.443301
              ],
              [
                -66.110885,
                18.428481
              ],
              [
                -66.081927,
                18.439523
              ],
              [
                -66.12403,
                18.471557
              ],
              [
                -66.023155,
                18.443889
              ],
              [
                -66.001113,
                18.447005
              ],
              [
                -65.990608,
                18.460362
              ],
              [
                -65.925878,
                18.444987
              ],
              [
                -65.897114,
                18.451071
              ],
              [
                -65.877504,
                18.437598
              ],
              [
                -65.836983,
                18.432048
              ],
              [
                -65.814779,
                18.409387
              ],
              [
                -65.789576,
                18.421274
              ],
              [
                -65.796105,
                18.404438
              ],
              [
                -65.770432,
                18.413106
              ],
              [
                -65.77267,
                18.401409
              ],
              [
                -65.743097,
                18.380365
              ],
              [
                -65.723524,
                18.389362
              ],
              [
                -65.70864,
                18.371801
              ],
              [
                -65.674962,
                18.362605
              ],
              [
                -65.653918,
                18.365253
              ],
              [
                -65.643457,
                18.378469
              ],
              [
                -65.633208,
                18.369681
              ],
              [
                -65.618436,
                18.387502
              ],
              [
                -65.620048,
                18.366156
              ],
              [
                -65.63596,
                18.347956
              ],
              [
                -65.625289,
                18.303673
              ],
              [
                -65.636246,
                18.288436
              ],
              [
                -65.625605,
                18.28085
              ],
              [
                -65.625176,
                18.256545
              ],
              [
                -65.606409,
                18.261756
              ],
              [
                -65.609432,
                18.251193
              ],
              [
                -65.590348,
                18.228147
              ],
              [
                -65.603283,
                18.230186
              ],
              [
                -65.61099,
                18.211576
              ],
              [
                -65.627891,
                18.235531
              ],
              [
                -65.639154,
                18.228204
              ],
              [
                -65.632758,
                18.200569
              ],
              [
                -65.665148,
                18.206895
              ],
              [
                -65.690818,
                18.196056
              ],
              [
                -65.692434,
                18.178929
              ],
              [
                -65.718021,
                18.190012
              ],
              [
                -65.733354,
                18.181802
              ],
              [
                -65.766867,
                18.149282
              ],
              [
                -65.801733,
                18.058716
              ],
              [
                -65.818651,
                18.062925
              ],
              [
                -65.83825,
                18.054005
              ],
              [
                -65.83043,
                18.030519
              ],
              [
                -65.835938,
                18.013217
              ],
              [
                -65.869251,
                18.006896
              ],
              [
                -65.884956,
                17.988712
              ],
              [
                -65.916368,
                17.976192
              ],
              [
                -65.977452,
                17.9676
              ],
              [
                -66.016431,
                17.980035
              ],
              [
                -66.047483,
                17.953194
              ],
              [
                -66.080844,
                17.966716
              ],
              [
                -66.155765,
                17.929201
              ],
              [
                -66.157993,
                17.938086
              ],
              [
                -66.208133,
                17.932383
              ],
              [
                -66.212987,
                17.94345
              ],
              [
                -66.183594,
                17.93874
              ],
              [
                -66.175308,
                17.948715
              ],
              [
                -66.206667,
                17.963151
              ],
              [
                -66.246252,
                17.938894
              ],
              [
                -66.278116,
                17.948156
              ],
              [
                -66.288297,
                17.94264
              ],
              [
                -66.29032,
                17.960596
              ],
              [
                -66.320661,
                17.978452
              ],
              [
                -66.36381,
                17.967356
              ],
              [
                -66.361383,
                17.958388
              ],
              [
                -66.37617,
                17.955747
              ],
              [
                -66.386202,
                17.938208
              ],
              [
                -66.464695,
                17.990886
              ],
              [
                -66.505053,
                17.987127
              ],
              [
                -66.579019,
                17.961722
              ],
              [
                -66.595797,
                17.97048
              ],
              [
                -66.613313,
                17.963252
              ],
              [
                -66.627506,
                17.982748
              ],
              [
                -66.673782,
                17.967079
              ],
              [
                -66.725262,
                17.99213
              ],
              [
                -66.746367,
                17.990264
              ],
              [
                -66.756566,
                17.975739
              ],
              [
                -66.763235,
                17.983183
              ],
              [
                -66.755295,
                18.001025
              ],
              [
                -66.767464,
                18.006869
              ],
              [
                -66.797552,
                17.995208
              ],
              [
                -66.798474,
                17.982011
              ],
              [
                -66.805936,
                17.985078
              ],
              [
                -66.805745,
                17.97507
              ],
              [
                -66.783661,
                17.98546
              ],
              [
                -66.787271,
                17.972727
              ],
              [
                -66.836074,
                17.950598
              ],
              [
                -66.85494,
                17.956591
              ],
              [
                -66.863643,
                17.945684
              ],
              [
                -66.902501,
                17.94906
              ],
              [
                -66.90555,
                17.9643
              ],
              [
                -66.925211,
                17.973153
              ],
              [
                -66.931217,
                17.961612
              ],
              [
                -66.909274,
                17.952403
              ],
              [
                -66.932531,
                17.939934
              ],
              [
                -66.919886,
                17.933279
              ],
              [
                -66.92413,
                17.926674
              ],
              [
                -66.95724,
                17.931422
              ],
              [
                -66.986802,
                17.970567
              ],
              [
                -67.004341,
                17.970983
              ],
              [
                -67.002988,
                17.96068
              ],
              [
                -67.013873,
                17.974525
              ],
              [
                -67.044486,
                17.967829
              ],
              [
                -67.065203,
                17.975573
              ],
              [
                -67.075849,
                17.972495
              ],
              [
                -67.07722,
                17.958521
              ],
              [
                -67.08797,
                17.965584
              ],
              [
                -67.090565,
                17.95164
              ],
              [
                -67.102911,
                17.946296
              ],
              [
                -67.180586,
                17.964435
              ],
              [
                -67.191889,
                17.953616
              ],
              [
                -67.186055,
                17.931152
              ],
              [
                -67.194406,
                17.932813
              ],
              [
                -67.199363,
                17.952678
              ],
              [
                -67.212744,
                17.952635
              ],
              [
                -67.215079,
                17.982932
              ],
              [
                -67.205448,
                17.999269
              ],
              [
                -67.174407,
                18.011004
              ],
              [
                -67.171792,
                18.021401
              ],
              [
                -67.209816,
                18.036242
              ],
              [
                -67.196721,
                18.066011
              ],
              [
                -67.184063,
                18.069995
              ],
              [
                -67.196016,
                18.072781
              ],
              [
                -67.199394,
                18.091108
              ],
              [
                -67.18225,
                18.109979
              ],
              [
                -67.186528,
                18.136633
              ],
              [
                -67.176783,
                18.150411
              ],
              [
                -67.185266,
                18.164908
              ],
              [
                -67.153315,
                18.206046
              ],
              [
                -67.173218,
                18.226733
              ],
              [
                -67.19556,
                18.289707
              ],
              [
                -67.236441,
                18.301441
              ],
              [
                -67.268899,
                18.355583
              ],
              [
                -67.271223,
                18.362513
              ]
            ]
          ],
          [
            [
              [
                -67.487426,
                18.385737
              ],
              [
                -67.473616,
                18.38222
              ],
              [
                -67.487305,
                18.384082
              ],
              [
                -67.487426,
                18.385737
              ]
            ]
          ],
          [
            [
              [
                -67.944691,
                18.084593
              ],
              [
                -67.933023,
                18.112538
              ],
              [
                -67.909115,
                18.119531
              ],
              [
                -67.887504,
                18.112523
              ],
              [
                -67.861027,
                18.121869
              ],
              [
                -67.843796,
                18.096116
              ],
              [
                -67.845795,
                18.082177
              ],
              [
                -67.882181,
                18.054767
              ],
              [
                -67.897274,
                18.05358
              ],
              [
                -67.945404,
                18.082673
              ],
              [
                -67.944691,
                18.084593
              ]
            ]
          ]
        ]
      }
    }
  ]
}
