{
  "type": "FeatureCollection",
  "features": [
    {
      "type": "Feature",
      "id": "us-cd:118:29:01",
      "properties": {
        "boundary_id": "us-cd:118:29:01",
        "boundary_type": "congressional_district",
        "name": "Congressional District 1",
        "stateFips": "29",
        "congress": 118,
        "district": "01",
        "bbox": [
          -90.489424,
          38.5320062026605,
          -90.117707,
          38.890261
        ]
      },
      "geometry": {
        "type": "Polygon",
        "coordinates": [
          [
            [
              -90.488664,
              38.687325
            ],
            [
              -90.472055,
              38.690068
            ],
            [
              -90.472006,
              38.699886
            ],
            [
              -90.450301,
              38.692911
            ],
            [
              -90.457613,
              38.703245
            ],
            [
              -90.446857,
              38.725356
            ],
            [
              -90.463332,
              38.726659
            ],
            [
              -90.46885,
              38.740713
            ],
            [
              -90.458537,
              38.755672
            ],
            [
              -90.482299,
              38.764348
            ],
            [
              -90.467811,
              38.797798
            ],
            [
              -90.440617,
              38.82765
            ],
            [
              -90.362163,
              38.82786
            ],
            [
              -90.344965,
              38.849372
            ],
            [
              -90.336387,
              38.882572
            ],
            [
              -90.3245,
              38.890261
            ],
            [
              -90.293712,
              38.885548
            ],
            [
              -90.256136,
              38.852128
            ],
            [
              -90.195678,
              38.821261
            ],
            [
              -90.141608,
              38.829448
            ],
            [
              -90.117707,
              38.805748
            ],
            [
              -90.166409,
              38.772649
            ],
            [
              -90.20991,
              38.72605
            ],
            [
              -90.20921,
              38.70275
            ],
            [
              -90.18261,
              38.66535
            ],
            [
              -90.17881,
              38.62915
            ],
            [
              -90.191811,
              38.598951
            ],
            [
              -90.224212,
              38.575051
            ],
            [
              -90.2577736606992,
              38.5320062026605
            ],
            [
              -90.313582,
              38.578768
            ],
            [
              -90.320515,
              38.594152
            ],
            [
              -90.306433,
              38.63359
            ],
            [
              -90.334952,
              38.629825
            ],
            [
              -90.332325,
              38.593808
            ],
            [
              -90.377194,
              38.575951
            ],
            [
              -90.378901,
              38.614093
            ],
            [
              -90.348532,
              38.624077
            ],
            [
              -90.362272,
              38.630544
            ],
            [
              -90.358711,
              38.653385
            ],
            [
              -90.395216,
              38.661067
            ],
            [
              -90.405318,
              38.655041
            ],
            [
              -90.405685,
              38.635602
            ],
            [
              -90.415432,
              38.63565
            ],
            [
              -90.410355,
              38.643902
            ],
            [
              -90.42468,
              38.647091
            ],
            [
              -90.421947,
              38.673377
            ],
            [
              -90.443283,
              38.670619
            ],
            [
              -90.489424,
              38.684978
            ],
            [
              -90.488664,
              38.687325
            ]
          ]
        ]
      }
    },
    {
      "type": "Feature",
      "id": "us-cd:118:29:02",
      "properties": {
        "boundary_id": "us-cd:118:29:02",
        "boundary_type": "congressional_district",
        "name": "Congressional District 2",
        "stateFips": "29",
        "congress": 118,
        "district": "02",
        "bbox": [
          -91.418637,
          38.204013,
          -90.2577736606992,
          38.846201
        ]
      },
      "geometry": {
        "type": "Polygon",
        "coordinates": [
          [
            [
              -91.418302,
              38.72075
            ],
            [
              -91.415832,
              38.8453
            ],
            [
              -91.237936,
              38.846201
            ],
            [
              -91.206965,
              38.826833
            ],
            [
              -91.169639,
              38.819619
            ],
            [
              -91.015228,
              38.830028
            ],
            [
              -90.90603,
              38.80437
            ],
            [
              -90.83584,
              38.80642
            ],
            [
              -90.77694,
              38.770449
            ],
            [
              -90.770179,
              38.771257
            ],
            [
              -90.77131,
              38.78533
            ],
            [
              -90.757267,
              38.788097
            ],
            [
              -90.772251,
              38.80396
            ],
            [
              -90.752174,
              38.803454
            ],
            [
              -90.755344,
              38.794035
            ],
            [
              -90.746717,
              38.793808
            ],
            [
              -90.73315,
              38.80297
            ],
            [
              -90.7001,
              38.80232
            ],
            [
              -90.69984,
              38.78021
            ],
            [
              -90.710232,
              38.772799
            ],
            [
              -90.67669,
              38.77234
            ],
            [
              -90.673713,
              38.76619
            ],
            [
              -90.70028,
              38.75086
            ],
            [
              -90.67492,
              38.71995
            ],
            [
              -90.658796,
              38.725819
            ],
            [
              -90.69034,
              38.71182
            ],
            [
              -90.67671,
              38.70821
            ],
            [
              -90.662749,
              38.687439
            ],
            [
              -90.550679,
              38.682354
            ],
            [
              -90.53173,
              38.695302
            ],
            [
              -90.529566,
              38.73275
            ],
            [
              -90.482299,
              38.764348
            ],
            [
              -90.458537,
              38.755672
            ],
            [
              -90.46885,
              38.740713
            ],
            [
              -90.463332,
              38.726659
            ],
            [
              -90.446857,
              38.725356
            ],
            [
              -90.457613,
              38.703245
            ],
            [
              -90.450301,
              38.692911
            ],
            [
              -90.472006,
              38.699886
            ],
            [
              -90.472055,
              38.690068
            ],
            [
              -90.488538,
              38.683173
            ],
            [
              -90.421947,
              38.673377
            ],
            [
              -90.42468,
              38.647091
            ],
            [
              -90.410355,
              38.643902
            ],
            [
              -90.415432,
              38.63565
            ],
            [
              -90.405685,
              38.635602
            ],
            [
              -90.405318,
              38.655041
            ],
            [
              -90.395216,
              38.661067
            ],
            [
              -90.358711,
              38.653385
            ],
            [
              -90.362272,
              38.630544
            ],
            [
              -90.348532,
              38.624077
            ],
            [
              -90.378901,
              38.614093
            ],
            [
              -90.377194,
              38.575951
            ],
            [
              -90.332325,
              38.593808
            ],
            [
              -90.334952,
              38.629825
            ],
            [
              -90.306433,
              38.63359
            ],
            [
              -90.320515,
              38.594152
            ],
            [
              -90.313582,
              38.578768
            ],
            [
              -90.2577736606992,
              38.5320062026605
            ],
            [
              -90.292782,
              38.428651
            ],
            [
              -90.3413309865561,
              38.3882145886649
            ],
            [
              -90.348122,
              38.430592
            ],
            [
              -90.336135,
              38.453491
            ],
            [
              -90.411214,
              38.453438
            ],
            [
              -90.422609,
              38.482056
            ],
            [
              -90.407949,
              38.483328
            ],
            [
              -90.405335,
              38.500598
            ],
            [
              -90.591123,
              38.501652
            ],
            [
              -90.613685,
              38.471328
            ],
            [
              -90.633746,
              38.485782
            ],
            [
              -90.655561,
              38.486737
            ],
            [
              -90.654733,
              38.456078
            ],
            [
              -90.678775,
              38.445877
            ],
            [
              -90.686546,
              38.447542
            ],
            [
              -90.676907,
              38.455309
            ],
            [
              -90.688669,
              38.453141
            ],
            [
              -90.696932,
              38.47191
            ],
            [
              -90.717805,
              38.468782
            ],
            [
              -90.71712,
              38.478267
            ],
            [
              -90.73203,
              38.482153
            ],
            [
              -90.780185,
              38.204112
            ],
            [
              -91.36763,
              38.204013
            ],
            [
              -91.369192,
              38.699324
            ],
            [
              -91.418637,
              38.709778
            ],
            [
              -91.418302,
              38.72075
            ]
          ]
        ]
      }
    },
    {
      "type": "Feature",
      "id": "us-cd:118:29:03",
      "properties": {
        "boundary_id": "us-cd:118:29:03",
        "boundary_type": "congressional_district",
        "name": "Congressional District 3",
        "stateFips": "29",
        "congress": 118,
        "district": "03",
        "bbox": [
          -93.059974,
          37.697198,
          -90.109107,
          39.147853
        ]
      },
      "geometry": {
        "type": "Polygon",
        "coordinates": [
          [
            [
              -93.059549,
              38.700905
            ],
            [
              -93.048245,
              38.972598
            ],
            [
              -92.934569,
              39.064547
            ],
            [
              -92.909654,
              39.015648
            ],
            [
              -92.852628,
              38.982183
            ],
            [
              -92.791809,
              38.972044
            ],
            [
              -92.719421,
              38.98426
            ],
            [
              -92.59776,
              38.967681
            ],
            [
              -92.558086,
              38.970692
            ],
            [
              -92.570156,
              38.979728
            ],
            [
              -92.556495,
              38.985426
            ],
            [
              -92.564481,
              38.992783
            ],
            [
              -92.54707,
              38.984734
            ],
            [
              -92.46452,
              38.98815
            ],
            [
              -92.410307,
              38.971019
            ],
            [
              -92.3961,
              38.95564
            ],
            [
              -92.291428,
              38.946298
            ],
            [
              -92.279483,
              38.949862
            ],
            [
              -92.279004,
              38.961319
            ],
            [
              -92.14979,
              38.954301
            ],
            [
              -92.131022,
              39.021455
            ],
            [
              -92.140784,
              39.030135
            ],
            [
              -92.128481,
              39.048504
            ],
            [
              -92.131512,
              39.064484
            ],
            [
              -91.633998,
              39.059057
            ],
            [
              -91.629598,
              39.147853
            ],
            [
              -91.260232,
              39.139845
            ],
            [
              -91.264287,
              38.992762
            ],
            [
              -91.18839,
              38.992141
            ],
            [
              -91.189348,
              38.932151
            ],
            [
              -91.110187,
              38.931901
            ],
            [
              -91.111251,
              38.872709
            ],
            [
              -90.958536,
              38.870865
            ],
            [
              -90.957555,
              38.893285
            ],
            [
              -90.949655,
              38.894943
            ],
            [
              -90.93322,
              38.885146
            ],
            [
              -90.871182,
              38.88873
            ],
            [
              -90.817827,
              38.875966
            ],
            [
              -90.806213,
              38.879016
            ],
            [
              -90.808333,
              38.899553
            ],
            [
              -90.797499,
              38.905145
            ],
            [
              -90.804418,
              38.911139
            ],
            [
              -90.791344,
              38.917895
            ],
            [
              -90.728841,
              38.931141
            ],
            [
              -90.724129,
              38.924362
            ],
            [
              -90.735737,
              38.916177
            ],
            [
              -90.708149,
              38.902591
            ],
            [
              -90.699324,
              38.907881
            ],
            [
              -90.714309,
              38.918164
            ],
            [
              -90.684562,
              38.9156
            ],
            [
              -90.696582,
              38.932784
            ],
            [
              -90.6634308380559,
              38.9342213237519
            ],
            [
              -90.625122,
              38.888654
            ],
            [
              -90.566557,
              38.868847
            ],
            [
              -90.507451,
              38.902767
            ],
            [
              -90.472122,
              38.958838
            ],
            [
              -90.450792,
              38.967764
            ],
            [
              -90.395816,
              38.960037
            ],
            [
              -90.309454,
              38.92412
            ],
            [
              -90.250248,
              38.919344
            ],
            [
              -90.113327,
              38.849306
            ],
            [
              -90.109107,
              38.837448
            ],
            [
              -90.117707,
              38.805748
            ],
            [
              -90.141608,
              38.829448
            ],
            [
              -90.188927,
              38.81851
            ],
            [
              -90.256136,
              38.852128
            ],
            [
              -90.293712,
              38.885548
            ],
            [
              -90.3245,
              38.890261
            ],
            [
              -90.336387,
              38.882572
            ],
            [
              -90.344965,
              38.849372
            ],
            [
              -90.362163,
              38.82786
            ],
            [
              -90.382268,
              38.821942
            ],
            [
              -90.430975,
              38.829806
            ],
            [
              -90.448117,
              38.82205
            ],
            [
              -90.485205,
              38.759229
            ],
            [
              -90.532943,
              38.728777
            ],
            [
              -90.529903,
              38.702036
            ],
            [
              -90.537616,
              38.688018
            ],
            [
              -90.588614,
              38.680503
            ],
            [
              -90.623805,
              38.69028
            ],
            [
              -90.662749,
              38.687439
            ],
            [
              -90.67671,
              38.70821
            ],
            [
              -90.69034,
              38.71182
            ],
            [
              -90.658796,
              38.725819
            ],
            [
              -90.67492,
              38.71995
            ],
            [
              -90.69908,
              38.74671
            ],
            [
              -90.70021,
              38.75693
            ],
            [
              -90.673713,
              38.76619
            ],
            [
              -90.678057,
              38.773952
            ],
            [
              -90.710232,
              38.772799
            ],
            [
              -90.69984,
              38.78021
            ],
            [
              -90.7001,
              38.80232
            ],
            [
              -90.73315,
              38.80297
            ],
            [
              -90.746717,
              38.793808
            ],
            [
              -90.755344,
              38.794035
            ],
            [
              -90.752174,
              38.803454
            ],
            [
              -90.772251,
              38.80396
            ],
            [
              -90.757267,
              38.788097
            ],
            [
              -90.77131,
              38.78533
            ],
            [
              -90.770179,
              38.771257
            ],
            [
              -90.77694,
              38.770449
            ],
            [
              -90.83584,
              38.80642
            ],
            [
              -90.90603,
              38.80437
            ],
            [
              -91.015228,
              38.830028
            ],
            [
              -91.169639,
              38.819619
            ],
            [
              -91.206965,
              38.826833
            ],
            [
              -91.237936,
              38.846201
            ],
            [
              -91.415832,
              38.8453
            ],
            [
              -91.418637,
              38.709778
            ],
            [
              -91.369192,
              38.699324
            ],
            [
              -91.36763,
              38.204013
            ],
            [
              -90.780185,
              38.204112
            ],
            [
              -90.73203,
              38.482153
            ],
            [
              -90.71712,
              38.478267
            ],
            [
              -90.717805,
              38.468782
            ],
            [
              -90.696932,
              38.47191
            ],
            [
              -90.688669,
              38.453141
            ],
            [
              -90.676907,
              38.455309
            ],
            [
              -90.686546,
              38.447542
            ],
            [
              -90.678775,
              38.445877
            ],
            [
              -90.654733,
              38.456078
            ],
            [
              -90.660703,
              38.479195
            ],
            [
              -90.654043,
              38.487541
            ],
            [
              -90.613685,
              38.471328
            ],
            [
              -90.591123,
              38.501652
            ],
            [
              -90.512523,
              38.501344
            ],
            [
              -90.519062,
              38.183721
            ],
            [
              -90.509478,
              38.175576
            ],
            [
              -90.50967,
              38.15447
            ],
            [
              -90.518651,
              38.155677
            ],
            [
              -90.4919,
              38.13862
            ],
            [
              -90.532659,
              38.144899
            ],
            [
              -90.52742,
              38.130936
            ],
            [
              -90.5447,
              38.12943
            ],
            [
              -90.5378,
              38.10752
            ],
            [
              -90.560006,
              38.114652
            ],
            [
              -90.5615,
              38.10209
            ],
            [
              -90.577331,
              38.099042
            ],
            [
              -90.584592,
              38.082487
            ],
            [
              -90.61754,
              38.089872
            ],
            [
              -90.618065,
              38.073322
            ],
            [
              -90.63998,
              38.076548
            ],
            [
              -90.645135,
              37.734813
            ],
            [
              -91.146521,
              37.740811
            ],
            [
              -91.146972,
              37.697198
            ],
            [
              -91.310655,
              37.700048
            ],
            [
              -91.308311,
              37.787186
            ],
            [
              -91.528797,
              37.788989
            ],
            [
              -91.525025,
              38.152433
            ],
            [
              -91.630554,
              38.153519
            ],
            [
              -91.632431,
              38.050951
            ],
            [
              -91.895132,
              38.051199
            ],
            [
              -91.935247,
              38.03087
            ],
            [
              -91.941852,
              38.041592
            ],
            [
              -91.953704,
              38.040155
            ],
            [
              -91.966333,
              38.009683
            ],
            [
              -92.515979,
              38.022336
            ],
            [
              -92.51558,
              38.036936
            ],
            [
              -92.533895,
              38.037467
            ],
            [
              -92.533554,
              38.051808
            ],
            [
              -92.552381,
              38.052145
            ],
            [
              -92.552081,
              38.066335
            ],
            [
              -92.570281,
              38.066635
            ],
            [
              -92.569682,
              38.095934
            ],
            [
              -92.587984,
              38.096134
            ],
            [
              -92.587688,
              38.110636
            ],
            [
              -92.596761,
              38.110754
            ],
            [
              -92.604957,
              38.157688
            ],
            [
              -92.638448,
              38.134787
            ],
            [
              -92.674576,
              38.124124
            ],
            [
              -92.689586,
              38.1104
            ],
            [
              -92.68998,
              38.089706
            ],
            [
              -92.710398,
              38.098002
            ],
            [
              -92.704562,
              38.108823
            ],
            [
              -92.737357,
              38.141759
            ],
            [
              -92.775851,
              38.134658
            ],
            [
              -92.77252,
              38.153159
            ],
            [
              -92.782757,
              38.174804
            ],
            [
              -92.749044,
              38.21756
            ],
            [
              -92.695886,
              38.222031
            ],
            [
              -92.689834,
              38.348472
            ],
            [
              -92.633756,
              38.348082
            ],
            [
              -92.625189,
              38.430778
            ],
            [
              -92.841871,
              38.596792
            ],
            [
              -92.839837,
              38.683974
            ],
            [
              -93.059974,
              38.693077
            ],
            [
              -93.059549,
              38.700905
            ]
          ]
        ]
      }
    },
    {
      "type": "Feature",
      "id": "us-cd:118:29:04",
      "properties": {
        "boundary_id": "us-cd:118:29:04",
        "boundary_type": "congressional_district",
        "name": "Congressional District 4",
        "stateFips": "29",
        "congress": 118,
        "district": "04",
        "bbox": [
          -94.617975,
          37.233506,
          -92.021165,
          39.411805
        ]
      },
      "geometry": {
        "type": "Polygon",
        "coordinates": [
          [
            [
              -94.6178411032141,
              37.7282141838004
            ],
            [
              -94.608033,
              38.847207
            ],
            [
              -94.278167,
              38.835056
            ],
            [
              -94.277089,
              38.855631
            ],
            [
              -94.266714,
              38.856812
            ],
            [
              -94.263096,
              38.915638
            ],
            [
              -94.277032,
              38.933722
            ],
            [
              -94.272178,
              39.021399
            ],
            [
              -94.304447,
              39.026334
            ],
            [
              -94.315305,
              39.054104
            ],
            [
              -94.293465,
              39.062465
            ],
            [
              -94.336352,
              39.061951
            ],
            [
              -94.309931,
              39.091797
            ],
            [
              -94.273425,
              39.082223
            ],
            [
              -94.269547,
              39.067304
            ],
            [
              -94.201157,
              39.064995
            ],
            [
              -94.191081,
              39.071863
            ],
            [
              -94.190968,
              39.078751
            ],
            [
              -94.200445,
              39.076299
            ],
            [
              -94.199822,
              39.094585
            ],
            [
              -94.106764,
              39.091703
            ],
            [
              -94.104823,
              39.143507
            ],
            [
              -94.078607,
              39.134247
            ],
            [
              -94.051166,
              39.13804
            ],
            [
              -94.024206,
              39.154537
            ],
            [
              -94.034494,
              39.187945
            ],
            [
              -93.980088,
              39.205874
            ],
            [
              -93.961479,
              39.187525
            ],
            [
              -93.988892,
              39.152786
            ],
            [
              -93.968748,
              39.142293
            ],
            [
              -93.942411,
              39.158083
            ],
            [
              -93.940043,
              39.17969
            ],
            [
              -93.899417,
              39.184539
            ],
            [
              -93.855434,
              39.212874
            ],
            [
              -93.824172,
              39.214897
            ],
            [
              -93.784391,
              39.200209
            ],
            [
              -93.746,
              39.209487
            ],
            [
              -93.71121,
              39.206262
            ],
            [
              -93.653777,
              39.248011
            ],
            [
              -93.58495,
              39.240431
            ],
            [
              -93.551528,
              39.217017
            ],
            [
              -93.500211,
              39.218005
            ],
            [
              -93.486573,
              39.233861
            ],
            [
              -93.495377,
              39.275459
            ],
            [
              -93.478254,
              39.292666
            ],
            [
              -93.459908,
              39.289375
            ],
            [
              -93.444231,
              39.268525
            ],
            [
              -93.404775,
              39.263274
            ],
            [
              -93.411414,
              39.231058
            ],
            [
              -93.373137,
              39.231331
            ],
            [
              -93.329121,
              39.255081
            ],
            [
              -93.34443,
              39.289364
            ],
            [
              -93.336856,
              39.307032
            ],
            [
              -93.277725,
              39.311549
            ],
            [
              -93.252726,
              39.338784
            ],
            [
              -93.221669,
              39.331326
            ],
            [
              -93.189569,
              39.370383
            ],
            [
              -93.200708,
              39.401787
            ],
            [
              -93.180646,
              39.411805
            ],
            [
              -93.139631,
              39.378643
            ],
            [
              -93.087759,
              39.378912
            ],
            [
              -93.077083,
              39.3655
            ],
            [
              -93.074438,
              39.337965
            ],
            [
              -93.052043,
              39.320725
            ],
            [
              -92.959801,
              39.312526
            ],
            [
              -92.957766,
              39.279336
            ],
            [
              -92.916749,
              39.25794
            ],
            [
              -92.919572,
              39.231615
            ],
            [
              -92.906142,
              39.222339
            ],
            [
              -92.862851,
              39.236437
            ],
            [
              -92.849224,
              39.226218
            ],
            [
              -92.790369,
              39.343586
            ],
            [
              -92.430229,
              39.248795
            ],
            [
              -92.104374,
              39.239809
            ],
            [
              -92.110387,
              39.064204
            ],
            [
              -92.131512,
              39.064484
            ],
            [
              -92.128481,
              39.048504
            ],
            [
              -92.140784,
              39.030135
            ],
            [
              -92.131022,
              39.021455
            ],
            [
              -92.14979,
              38.954301
            ],
            [
              -92.279004,
              38.961319
            ],
            [
              -92.279483,
              38.949862
            ],
            [
              -92.291428,
              38.946298
            ],
            [
              -92.3961,
              38.95564
            ],
            [
              -92.410307,
              38.971019
            ],
            [
              -92.46452,
              38.98815
            ],
            [
              -92.54707,
              38.984734
            ],
            [
              -92.564481,
              38.992783
            ],
            [
              -92.556495,
              38.985426
            ],
            [
              -92.570156,
              38.979728
            ],
            [
              -92.558086,
              38.970692
            ],
            [
              -92.59776,
              38.967681
            ],
            [
              -92.719421,
              38.98426
            ],
            [
              -92.791809,
              38.972044
            ],
            [
              -92.852628,
              38.982183
            ],
            [
              -92.909654,
              39.015648
            ],
            [
              -92.934569,
              39.064547
            ],
            [
              -93.048245,
              38.972598
            ],
            [
              -93.059974,
              38.693077
            ],
            [
              -92.839837,
              38.683974
            ],
            [
              -92.841871,
              38.596792
            ],
            [
              -92.625189,
              38.430778
            ],
            [
              -92.633756,
              38.348082
            ],
            [
              -92.689834,
              38.348472
            ],
            [
              -92.695886,
              38.222031
            ],
            [
              -92.755988,
              38.212465
            ],
            [
              -92.764539,
              38.189619
            ],
            [
              -92.775377,
              38.189925
            ],
            [
              -92.782757,
              38.174804
            ],
            [
              -92.77252,
              38.153159
            ],
            [
              -92.775851,
              38.134658
            ],
            [
              -92.737357,
              38.141759
            ],
            [
              -92.704562,
              38.108823
            ],
            [
              -92.710398,
              38.098002
            ],
            [
              -92.68998,
              38.089706
            ],
            [
              -92.689586,
              38.1104
            ],
            [
              -92.674576,
              38.124124
            ],
            [
              -92.638448,
              38.134787
            ],
            [
              -92.604957,
              38.157688
            ],
            [
              -92.596761,
              38.110754
            ],
            [
              -92.587688,
              38.110636
            ],
            [
              -92.587984,
              38.096134
            ],
            [
              -92.569682,
              38.095934
            ],
            [
              -92.570281,
              38.066635
            ],
            [
              -92.552081,
              38.066335
            ],
            [
              -92.552381,
              38.052145
            ],
            [
              -92.533554,
              38.051808
            ],
            [
              -92.533895,
              38.037467
            ],
            [
              -92.51558,
              38.036936
            ],
            [
              -92.515979,
              38.022336
            ],
            [
              -92.021165,
              38.010639
            ],
            [
              -92.029258,
              37.602542
            ],
            [
              -92.249463,
              37.604543
            ],
            [
              -92.252261,
              37.472944
            ],
            [
              -92.686671,
              37.481545
            ],
            [
              -92.692303,
              37.263514
            ],
            [
              -92.67897,
              37.263149
            ],
            [
              -92.679659,
              37.242363
            ],
            [
              -92.934851,
              37.247102
            ],
            [
              -92.94405,
              37.233866
            ],
            [
              -92.971861,
              37.233506
            ],
            [
              -92.980946,
              37.2439
            ],
            [
              -92.971553,
              37.248018
            ],
            [
              -92.97113,
              37.268234
            ],
            [
              -92.992036,
              37.270344
            ],
            [
              -93.012372,
              37.25596
            ],
            [
              -93.046247,
              37.270818
            ],
            [
              -93.037327,
              37.278392
            ],
            [
              -93.076771,
              37.270745
            ],
            [
              -93.07338,
              37.414989
            ],
            [
              -93.621153,
              37.427423
            ],
            [
              -93.625844,
              37.282011
            ],
            [
              -94.083833,
              37.290851
            ],
            [
              -94.082083,
              37.349291
            ],
            [
              -94.617537717162,
              37.3641671035633
            ],
            [
              -94.617975,
              37.722176
            ],
            [
              -94.6178411032141,
              37.7282141838004
            ]
          ]
        ]
      }
    },
    {
      "type": "Feature",
      "id": "us-cd:118:29:05",
      "properties": {
        "boundary_id": "us-cd:118:29:05",
        "boundary_type": "congressional_district",
        "name": "Congressional District 5",
        "stateFips": "29",
        "congress": 118,
        "district": "05",
        "bbox": [
          -94.608334,
          38.835056,
          -94.263096,
          39.333149
        ]
      },
      "geometry": {
        "type": "Polygon",
        "coordinates": [
          [
            [
              -94.608334,
              38.981806
            ],
            [
              -94.60829,
              39.117944
            ],
            [
              -94.588413,
              39.149869
            ],
            [
              -94.601733,
              39.159603
            ],
            [
              -94.600765,
              39.333149
            ],
            [
              -94.561186,
              39.33314
            ],
            [
              -94.555863,
              39.318626
            ],
            [
              -94.491977,
              39.31794
            ],
            [
              -94.492984,
              39.220681
            ],
            [
              -94.47441,
              39.218415
            ],
            [
              -94.492588,
              39.198555
            ],
            [
              -94.475188,
              39.194837
            ],
            [
              -94.475182,
              39.157366
            ],
            [
              -94.484112,
              39.145009
            ],
            [
              -94.467546,
              39.12478
            ],
            [
              -94.455429,
              39.123104
            ],
            [
              -94.419475,
              39.149318
            ],
            [
              -94.406649,
              39.130404
            ],
            [
              -94.390792,
              39.14509
            ],
            [
              -94.379228,
              39.128904
            ],
            [
              -94.313731,
              39.136653
            ],
            [
              -94.3044,
              39.118934
            ],
            [
              -94.281527,
              39.109761
            ],
            [
              -94.336352,
              39.061951
            ],
            [
              -94.293465,
              39.062465
            ],
            [
              -94.315305,
              39.054104
            ],
            [
              -94.304447,
              39.026334
            ],
            [
              -94.272178,
              39.021399
            ],
            [
              -94.277032,
              38.933722
            ],
            [
              -94.263096,
              38.915638
            ],
            [
              -94.266714,
              38.856812
            ],
            [
              -94.277089,
              38.855631
            ],
            [
              -94.278167,
              38.835056
            ],
            [
              -94.608033,
              38.847207
            ],
            [
              -94.6083185155548,
              38.9787245953992
            ],
            [
              -94.608334,
              38.981806
            ]
          ]
        ]
      }
    },
    {
      "type": "Feature",
      "id": "us-cd:118:29:06",
      "properties": {
        "boundary_id": "us-cd:118:29:06",
        "boundary_type": "congressional_district",
        "name": "Congressional District 6",
        "stateFips": "29",
        "congress": 118,
        "district": "06",
        "bbox": [
          -95.774704,
          38.870865,
          -90.6634308380559,
          40.61364
        ]
      },
      "geometry": {
        "type": "Polygon",
        "coordinates": [
          [
            [
              -95.773549,
              40.578205
            ],
            [
              -95.765645,
              40.585208
            ],
            [
              -94.089194,
              40.572806
            ],
            [
              -92.686693,
              40.589809
            ],
            [
              -91.729115,
              40.61364
            ],
            [
              -91.686357,
              40.580875
            ],
            [
              -91.6887,
              40.55739
            ],
            [
              -91.620071,
              40.540817
            ],
            [
              -91.621353,
              40.510072
            ],
            [
              -91.590817,
              40.492292
            ],
            [
              -91.574746,
              40.465664
            ],
            [
              -91.52509,
              40.457845
            ],
            [
              -91.533623,
              40.43832
            ],
            [
              -91.519134,
              40.432822
            ],
            [
              -91.524612,
              40.410765
            ],
            [
              -91.488481,
              40.404317
            ],
            [
              -91.484507,
              40.3839
            ],
            [
              -91.463386,
              40.385394
            ],
            [
              -91.463895,
              40.375659
            ],
            [
              -91.441243,
              40.386255
            ],
            [
              -91.419422,
              40.378264
            ],
            [
              -91.46214,
              40.342414
            ],
            [
              -91.492727,
              40.278217
            ],
            [
              -91.512974,
              40.181062
            ],
            [
              -91.510322,
              40.127994
            ],
            [
              -91.489606,
              40.057435
            ],
            [
              -91.494878,
              40.036453
            ],
            [
              -91.41936,
              39.927717
            ],
            [
              -91.446922,
              39.883034
            ],
            [
              -91.436051,
              39.84551
            ],
            [
              -91.377971,
              39.811273
            ],
            [
              -91.361571,
              39.787548
            ],
            [
              -91.370009,
              39.732524
            ],
            [
              -91.27614,
              39.665759
            ],
            [
              -91.229317,
              39.620853
            ],
            [
              -91.181936,
              39.602677
            ],
            [
              -91.153628,
              39.548248
            ],
            [
              -91.100307,
              39.538695
            ],
            [
              -91.03827,
              39.448436
            ],
            [
              -90.940766,
              39.403984
            ],
            [
              -90.928745,
              39.387544
            ],
            [
              -90.793461,
              39.309498
            ],
            [
              -90.751599,
              39.265432
            ],
            [
              -90.72996,
              39.255894
            ],
            [
              -90.707902,
              39.15086
            ],
            [
              -90.681086,
              39.10059
            ],
            [
              -90.713629,
              39.053977
            ],
            [
              -90.678193,
              38.991851
            ],
            [
              -90.6634308380559,
              38.9342213237519
            ],
            [
              -90.696582,
              38.932784
            ],
            [
              -90.684562,
              38.9156
            ],
            [
              -90.714309,
              38.918164
            ],
            [
              -90.699324,
              38.907881
            ],
            [
              -90.708149,
              38.902591
            ],
            [
              -90.735737,
              38.916177
            ],
            [
              -90.724129,
              38.924362
            ],
            [
              -90.728841,
              38.931141
            ],
            [
              -90.791344,
              38.917895
            ],
            [
              -90.804418,
              38.911139
            ],
            [
              -90.797499,
              38.905145
            ],
            [
              -90.808333,
              38.899553
            ],
            [
              -90.806213,
              38.879016
            ],
            [
              -90.817827,
              38.875966
            ],
            [
              -90.871182,
              38.88873
            ],
            [
              -90.93322,
              38.885146
            ],
            [
              -90.949655,
              38.894943
            ],
            [
              -90.957555,
              38.893285
            ],
            [
              -90.958536,
              38.870865
            ],
            [
              -91.111251,
              38.872709
            ],
            [
              -91.110187,
              38.931901
            ],
            [
              -91.189348,
              38.932151
            ],
            [
              -91.18839,
              38.992141
            ],
            [
              -91.264287,
              38.992762
            ],
            [
              -91.260232,
              39.139845
            ],
            [
              -91.629598,
              39.147853
            ],
            [
              -91.633998,
              39.059057
            ],
            [
              -92.110387,
              39.064204
            ],
            [
              -92.104374,
              39.239809
            ],
            [
              -92.430229,
              39.248795
            ],
            [
              -92.790369,
              39.343586
            ],
            [
              -92.849224,
              39.226218
            ],
            [
              -92.862851,
              39.236437
            ],
            [
              -92.906142,
              39.222339
            ],
            [
              -92.919572,
              39.231615
            ],
            [
              -92.916749,
              39.25794
            ],
            [
              -92.957766,
              39.279336
            ],
            [
              -92.959801,
              39.312526
            ],
            [
              -93.052043,
              39.320725
            ],
            [
              -93.074438,
              39.337965
            ],
            [
              -93.077083,
              39.3655
            ],
            [
              -93.087759,
              39.378912
            ],
            [
              -93.139631,
              39.378643
            ],
            [
              -93.177451,
              39.411714
            ],
            [
              -93.199282,
              39.404312
            ],
            [
              -93.189569,
              39.370383
            ],
            [
              -93.225221,
              39.328863
            ],
            [
              -93.252726,
              39.338784
            ],
            [
              -93.277725,
              39.311549
            ],
            [
              -93.336856,
              39.307032
            ],
            [
              -93.34443,
              39.289364
            ],
            [
              -93.329121,
              39.255081
            ],
            [
              -93.373137,
              39.231331
            ],
            [
              -93.411414,
              39.231058
            ],
            [
              -93.404775,
              39.263274
            ],
            [
              -93.444231,
              39.268525
            ],
            [
              -93.473272,
              39.293296
            ],
            [
              -93.49334,
              39.28067
            ],
            [
              -93.486573,
              39.233861
            ],
            [
              -93.505836,
              39.216712
            ],
            [
              -93.551528,
              39.217017
            ],
            [
              -93.58495,
              39.240431
            ],
            [
              -93.653777,
              39.248011
            ],
            [
              -93.71121,
              39.206262
            ],
            [
              -93.746,
              39.209487
            ],
            [
              -93.784391,
              39.200209
            ],
            [
              -93.824172,
              39.214897
            ],
            [
              -93.855434,
              39.212874
            ],
            [
              -93.899417,
              39.184539
            ],
            [
              -93.940043,
              39.17969
            ],
            [
              -93.942411,
              39.158083
            ],
            [
              -93.968748,
              39.142293
            ],
            [
              -93.988892,
              39.152786
            ],
            [
              -93.961479,
              39.187525
            ],
            [
              -93.980088,
              39.205874
            ],
            [
              -94.034494,
              39.187945
            ],
            [
              -94.024206,
              39.154537
            ],
            [
              -94.051166,
              39.13804
            ],
            [
              -94.078607,
              39.134247
            ],
            [
              -94.104823,
              39.143507
            ],
            [
              -94.106764,
              39.091703
            ],
            [
              -94.199822,
              39.094585
            ],
            [
              -94.200445,
              39.076299
            ],
            [
              -94.190968,
              39.078751
            ],
            [
              -94.191081,
              39.071863
            ],
            [
              -94.201157,
              39.064995
            ],
            [
              -94.269547,
              39.067304
            ],
            [
              -94.273425,
              39.082223
            ],
            [
              -94.307765,
              39.090136
            ],
            [
              -94.281527,
              39.109761
            ],
            [
              -94.3044,
              39.118934
            ],
            [
              -94.313731,
              39.136653
            ],
            [
              -94.379228,
              39.128904
            ],
            [
              -94.390792,
              39.14509
            ],
            [
              -94.406649,
              39.130404
            ],
            [
              -94.419475,
              39.149318
            ],
            [
              -94.465792,
              39.123302
            ],
            [
              -94.484112,
              39.145009
            ],
            [
              -94.475182,
              39.157366
            ],
            [
              -94.475188,
              39.194837
            ],
            [
              -94.492588,
              39.198555
            ],
            [
              -94.47441,
              39.218415
            ],
            [
              -94.492984,
              39.220681
            ],
            [
              -94.491977,
              39.31794
            ],
            [
              -94.555863,
              39.318626
            ],
            [
              -94.561186,
              39.33314
            ],
            [
              -94.600765,
              39.333149
            ],
            [
              -94.601733,
              39.159603
            ],
            [
              -94.655787,
              39.15568
            ],
            [
              -94.659162,
              39.174126
            ],
            [
              -94.680336,
              39.184303
            ],
            [
              -94.714137,
              39.170403
            ],
            [
              -94.752338,
              39.173203
            ],
            [
              -94.781518,
              39.206146
            ],
            [
              -94.831679,
              39.215938
            ],
            [
              -94.831471,
              39.256273
            ],
            [
              -94.900049,
              39.300192
            ],
            [
              -94.910017,
              39.352543
            ],
            [
              -94.88136,
              39.370383
            ],
            [
              -94.885026,
              39.389801
            ],
            [
              -94.942039,
              39.389499
            ],
            [
              -94.947864,
              39.408604
            ],
            [
              -94.972952,
              39.421705
            ],
            [
              -94.982144,
              39.440552
            ],
            [
              -95.04078,
              39.466387
            ],
            [
              -95.052177,
              39.499996
            ],
            [
              -95.092704,
              39.524241
            ],
            [
              -95.113557,
              39.553941
            ],
            [
              -95.103228,
              39.577783
            ],
            [
              -95.054804,
              39.582488
            ],
            [
              -95.046361,
              39.599557
            ],
            [
              -95.055152,
              39.621657
            ],
            [
              -95.049518,
              39.637876
            ],
            [
              -95.018318,
              39.672869
            ],
            [
              -94.971317,
              39.68641
            ],
            [
              -94.971206,
              39.729305
            ],
            [
              -94.960086,
              39.743065
            ],
            [
              -94.944741,
              39.744377
            ],
            [
              -94.902612,
              39.724202
            ],
            [
              -94.870143,
              39.734594
            ],
            [
              -94.859443,
              39.753694
            ],
            [
              -94.867143,
              39.771694
            ],
            [
              -94.912293,
              39.759338
            ],
            [
              -94.935782,
              39.778906
            ],
            [
              -94.925605,
              39.789754
            ],
            [
              -94.884084,
              39.794234
            ],
            [
              -94.878677,
              39.826522
            ],
            [
              -94.939767,
              39.85193
            ],
            [
              -94.927359,
              39.883966
            ],
            [
              -94.95154,
              39.900533
            ],
            [
              -95.013152,
              39.899953
            ],
            [
              -95.027931,
              39.871522
            ],
            [
              -95.042142,
              39.864805
            ],
            [
              -95.085003,
              39.861883
            ],
            [
              -95.128166,
              39.874165
            ],
            [
              -95.140601,
              39.881688
            ],
            [
              -95.149657,
              39.905948
            ],
            [
              -95.201935,
              39.904053
            ],
            [
              -95.204428,
              39.938949
            ],
            [
              -95.250254,
              39.948644
            ],
            [
              -95.269886,
              39.969396
            ],
            [
              -95.302507,
              39.984357
            ],
            [
              -95.315271,
              40.01207
            ],
            [
              -95.356876,
              40.031522
            ],
            [
              -95.40726,
              40.033112
            ],
            [
              -95.42164,
              40.058952
            ],
            [
              -95.393347,
              40.119212
            ],
            [
              -95.428749,
              40.135577
            ],
            [
              -95.436348,
              40.15872
            ],
            [
              -95.479193,
              40.185652
            ],
            [
              -95.482319,
              40.200667
            ],
            [
              -95.469718,
              40.227908
            ],
            [
              -95.477501,
              40.24272
            ],
            [
              -95.552473,
              40.261904
            ],
            [
              -95.55162,
              40.288666
            ],
            [
              -95.562157,
              40.297359
            ],
            [
              -95.610439,
              40.31397
            ],
            [
              -95.657328,
              40.310856
            ],
            [
              -95.653729,
              40.322582
            ],
            [
              -95.625204,
              40.334288
            ],
            [
              -95.623728,
              40.346567
            ],
            [
              -95.659134,
              40.40869
            ],
            [
              -95.65819,
              40.44188
            ],
            [
              -95.694651,
              40.471452
            ],
            [
              -95.699969,
              40.505275
            ],
            [
              -95.661687,
              40.517309
            ],
            [
              -95.655848,
              40.546609
            ],
            [
              -95.678718,
              40.56256
            ],
            [
              -95.694147,
              40.556942
            ],
            [
              -95.69505,
              40.533124
            ],
            [
              -95.708591,
              40.521551
            ],
            [
              -95.75711,
              40.52599
            ],
            [
              -95.768693,
              40.534106
            ],
            [
              -95.763833,
              40.553873
            ],
            [
              -95.774704,
              40.573574
            ],
            [
              -95.773549,
              40.578205
            ]
          ]
        ]
      }
    },
    {
      "type": "Feature",
      "id": "us-cd:118:29:07",
      "properties": {
        "boundary_id": "us-cd:118:29:07",
        "boundary_type": "congressional_district",
        "name": "Congressional District 7",
        "stateFips": "29",
        "congress": 118,
        "district": "07",
        "bbox": [
          -94.618658,
          36.497772,
          -92.679659,
          37.427423
        ]
      },
      "geometry": {
        "type": "Polygon",
        "coordinates": [
          [
            [
              -94.618658,
              36.880064
            ],
            [
              -94.617537717162,
              37.3641671035633
            ],
            [
              -94.082083,
              37.349291
            ],
            [
              -94.083833,
              37.290851
            ],
            [
              -93.625844,
              37.282011
            ],
            [
              -93.621153,
              37.427423
            ],
            [
              -93.07338,
              37.414989
            ],
            [
              -93.076771,
              37.270745
            ],
            [
              -93.037327,
              37.278392
            ],
            [
              -93.046247,
              37.270818
            ],
            [
              -93.012372,
              37.25596
            ],
            [
              -92.992036,
              37.270344
            ],
            [
              -92.97113,
              37.268234
            ],
            [
              -92.971553,
              37.248018
            ],
            [
              -92.980946,
              37.2439
            ],
            [
              -92.971861,
              37.233506
            ],
            [
              -92.94405,
              37.233866
            ],
            [
              -92.934851,
              37.247102
            ],
            [
              -92.679659,
              37.242363
            ],
            [
              -92.685867,
              37.067051
            ],
            [
              -92.903273,
              37.070651
            ],
            [
              -92.909336,
              36.809178
            ],
            [
              -92.764869,
              36.806097
            ],
            [
              -92.772333,
              36.497772
            ],
            [
              -94.617919,
              36.499414
            ],
            [
              -94.6186573555193,
              36.8799880903727
            ],
            [
              -94.618658,
              36.880064
            ]
          ]
        ]
      }
    },
    {
      "type": "Feature",
      "id": "us-cd:118:29:08",
      "properties": {
        "boundary_id": "us-cd:118:29:08",
        "boundary_type": "congressional_district",
        "name": "Congressional District 8",
        "stateFips": "29",
        "congress": 118,
        "district": "08",
        "bbox": [
          -92.909336,
          35.995683,
          -89.098843,
          38.501344
        ]
      },
      "geometry": {
        "type": "Polygon",
        "coordinates": [
          [
            [
              -92.908987,
              36.819885
            ],
            [
              -92.903273,
              37.070651
            ],
            [
              -92.685867,
              37.067051
            ],
            [
              -92.67897,
              37.263149
            ],
            [
              -92.692303,
              37.263514
            ],
            [
              -92.686671,
              37.481545
            ],
            [
              -92.252261,
              37.472944
            ],
            [
              -92.249463,
              37.604543
            ],
            [
              -92.029258,
              37.602542
            ],
            [
              -92.021165,
              38.010639
            ],
            [
              -91.966333,
              38.009683
            ],
            [
              -91.951911,
              38.04109
            ],
            [
              -91.935247,
              38.03087
            ],
            [
              -91.895132,
              38.051199
            ],
            [
              -91.632431,
              38.050951
            ],
            [
              -91.630554,
              38.153519
            ],
            [
              -91.525025,
              38.152433
            ],
            [
              -91.528797,
              37.788989
            ],
            [
              -91.308311,
              37.787186
            ],
            [
              -91.310655,
              37.700048
            ],
            [
              -91.146972,
              37.697198
            ],
            [
              -91.146521,
              37.740811
            ],
            [
              -90.645135,
              37.734813
            ],
            [
              -90.63998,
              38.076548
            ],
            [
              -90.618065,
              38.073322
            ],
            [
              -90.61754,
              38.089872
            ],
            [
              -90.584592,
              38.082487
            ],
            [
              -90.577331,
              38.099042
            ],
            [
              -90.5615,
              38.10209
            ],
            [
              -90.560006,
              38.114652
            ],
            [
              -90.5378,
              38.10752
            ],
            [
              -90.5447,
              38.12943
            ],
            [
              -90.52742,
              38.130936
            ],
            [
              -90.532659,
              38.144899
            ],
            [
              -90.4919,
              38.13862
            ],
            [
              -90.518651,
              38.155677
            ],
            [
              -90.50967,
              38.15447
            ],
            [
              -90.509478,
              38.175576
            ],
            [
              -90.519062,
              38.183721
            ],
            [
              -90.512523,
              38.501344
            ],
            [
              -90.405335,
              38.500598
            ],
            [
              -90.407949,
              38.483328
            ],
            [
              -90.422609,
              38.482056
            ],
            [
              -90.411214,
              38.453438
            ],
            [
              -90.336135,
              38.453491
            ],
            [
              -90.348122,
              38.430592
            ],
            [
              -90.3413309865561,
              38.3882145886649
            ],
            [
              -90.372519,
              38.323354
            ],
            [
              -90.366388,
              38.245874
            ],
            [
              -90.334258,
              38.189932
            ],
            [
              -90.274928,
              38.157615
            ],
            [
              -90.243116,
              38.112669
            ],
            [
              -90.17716,
              38.071152
            ],
            [
              -90.157855,
              38.074798
            ],
            [
              -90.130788,
              38.062341
            ],
            [
              -90.117423,
              38.031708
            ],
            [
              -90.08826,
              38.015772
            ],
            [
              -90.057269,
              38.014362
            ],
            [
              -90.00011,
              37.964563
            ],
            [
              -89.940754,
              37.971038
            ],
            [
              -89.93586,
              37.959574
            ],
            [
              -89.925085,
              37.960021
            ],
            [
              -89.932467,
              37.947497
            ],
            [
              -89.974918,
              37.926719
            ],
            [
              -89.950594,
              37.881526
            ],
            [
              -89.901832,
              37.869822
            ],
            [
              -89.842649,
              37.905196
            ],
            [
              -89.799333,
              37.881517
            ],
            [
              -89.80036,
              37.868625
            ],
            [
              -89.786369,
              37.851734
            ],
            [
              -89.739873,
              37.84693
            ],
            [
              -89.669644,
              37.799922
            ],
            [
              -89.66038,
              37.786296
            ],
            [
              -89.663352,
              37.750052
            ],
            [
              -89.617278,
              37.74972
            ],
            [
              -89.583316,
              37.713261
            ],
            [
              -89.516685,
              37.692762
            ],
            [
              -89.517718,
              37.641217
            ],
            [
              -89.475932,
              37.592998
            ],
            [
              -89.486062,
              37.580853
            ],
            [
              -89.519808,
              37.582748
            ],
            [
              -89.517051,
              37.537278
            ],
            [
              -89.475525,
              37.471388
            ],
            [
              -89.439769,
              37.4372
            ],
            [
              -89.421054,
              37.387668
            ],
            [
              -89.432836,
              37.347056
            ],
            [
              -89.489005,
              37.333368
            ],
            [
              -89.511842,
              37.310825
            ],
            [
              -89.51834,
              37.285497
            ],
            [
              -89.489915,
              37.251315
            ],
            [
              -89.458827,
              37.248661
            ],
            [
              -89.467631,
              37.2182
            ],
            [
              -89.456105,
              37.18812
            ],
            [
              -89.42558,
              37.138235
            ],
            [
              -89.37871,
              37.094586
            ],
            [
              -89.383937,
              37.046441
            ],
            [
              -89.278628,
              36.98867
            ],
            [
              -89.263527,
              37.00005
            ],
            [
              -89.260003,
              37.023288
            ],
            [
              -89.304752,
              37.047565
            ],
            [
              -89.30829,
              37.068371
            ],
            [
              -89.259936,
              37.064071
            ],
            [
              -89.25493,
              37.072014
            ],
            [
              -89.234053,
              37.037277
            ],
            [
              -89.200793,
              37.016164
            ],
            [
              -89.185491,
              36.973518
            ],
            [
              -89.125069,
              36.983499
            ],
            [
              -89.098843,
              36.95785
            ],
            [
              -89.137969,
              36.847349
            ],
            [
              -89.1704,
              36.841522
            ],
            [
              -89.178888,
              36.831368
            ],
            [
              -89.171069,
              36.798119
            ],
            [
              -89.12353,
              36.785309
            ],
            [
              -89.116563,
              36.767557
            ],
            [
              -89.126134,
              36.751735
            ],
            [
              -89.169106,
              36.759473
            ],
            [
              -89.197808,
              36.739412
            ],
            [
              -89.19948,
              36.716045
            ],
            [
              -89.169522,
              36.688878
            ],
            [
              -89.171882,
              36.672526
            ],
            [
              -89.15908,
              36.666352
            ],
            [
              -89.197654,
              36.628936
            ],
            [
              -89.217447,
              36.576159
            ],
            [
              -89.259994,
              36.565149
            ],
            [
              -89.326731,
              36.632186
            ],
            [
              -89.365548,
              36.625059
            ],
            [
              -89.41977,
              36.493896
            ],
            [
              -89.464153,
              36.457189
            ],
            [
              -89.486215,
              36.46162
            ],
            [
              -89.494074,
              36.473225
            ],
            [
              -89.465888,
              36.529946
            ],
            [
              -89.479093,
              36.568206
            ],
            [
              -89.542459,
              36.580566
            ],
            [
              -89.566817,
              36.564216
            ],
            [
              -89.571241,
              36.547343
            ],
            [
              -89.560344,
              36.525436
            ],
            [
              -89.519501,
              36.475419
            ],
            [
              -89.545255,
              36.427079
            ],
            [
              -89.509722,
              36.373626
            ],
            [
              -89.531822,
              36.339246
            ],
            [
              -89.605668,
              36.342234
            ],
            [
              -89.620255,
              36.323006
            ],
            [
              -89.578492,
              36.288317
            ],
            [
              -89.539487,
              36.277368
            ],
            [
              -89.534745,
              36.252576
            ],
            [
              -89.602374,
              36.238106
            ],
            [
              -89.652518,
              36.250692
            ],
            [
              -89.695235,
              36.252766
            ],
            [
              -89.703511,
              36.243412
            ],
            [
              -89.69263,
              36.224959
            ],
            [
              -89.607004,
              36.171179
            ],
            [
              -89.591605,
              36.144096
            ],
            [
              -89.601936,
              36.11947
            ],
            [
              -89.678821,
              36.084636
            ],
            [
              -89.688577,
              36.029238
            ],
            [
              -89.706932,
              36.000981
            ],
            [
              -90.37789,
              35.995683
            ],
            [
              -90.337146,
              36.047754
            ],
            [
              -90.333261,
              36.067504
            ],
            [
              -90.320746,
              36.071326
            ],
            [
              -90.319168,
              36.089976
            ],
            [
              -90.29991,
              36.098236
            ],
            [
              -90.293109,
              36.114368
            ],
            [
              -90.235585,
              36.139474
            ],
            [
              -90.23537,
              36.159153
            ],
            [
              -90.220425,
              36.184764
            ],
            [
              -90.126366,
              36.229367
            ],
            [
              -90.130565,
              36.242092
            ],
            [
              -90.114922,
              36.265595
            ],
            [
              -90.083731,
              36.272332
            ],
            [
              -90.06398,
              36.303038
            ],
            [
              -90.081961,
              36.322097
            ],
            [
              -90.064514,
              36.382085
            ],
            [
              -90.080426,
              36.400763
            ],
            [
              -90.138512,
              36.413952
            ],
            [
              -90.137323,
              36.455411
            ],
            [
              -90.155804,
              36.463555
            ],
            [
              -90.142269,
              36.472138
            ],
            [
              -90.159376,
              36.480084
            ],
            [
              -90.152481,
              36.497952
            ],
            [
              -92.772333,
              36.497772
            ],
            [
              -92.764869,
              36.806097
            ],
            [
              -92.909336,
              36.809178
            ],
            [
              -92.908987,
              36.819885
            ]
          ]
        ]
      }
    }
  ]
}
