{
  "type": "FeatureCollection",
  "features": [
    {
      "type": "Feature",
      "id": "us-cd:118:44:01",
      "properties": {
        "boundary_id": "us-cd:118:44:01",
        "boundary_type": "congressional_district",
        "name": "Congressional District 1",
        "stateFips": "44",
        "congress": 118,
        "district": "01",
        "bbox": [
          -71.6067340253166,
          41.448596,
          -71.12057,
          42.018798
        ]
      },
      "geometry": {
        "type": "MultiPolygon",
        "coordinates": [
          [
            [
              [
                -71.288017,
                41.645575
              ],
              [
                -71.278171,
                41.647309
              ],
              [
                -71.272129,
                41.637064
              ],
              [
                -71.288158,
                41.642948
              ],
              [
                -71.288017,
                41.645575
              ]
            ]
          ],
          [
            [
              [
                -71.301515,
                41.585658
              ],
              [
                -71.298562,
                41.584922
              ],
              [
                -71.298,
                41.583134
              ],
              [
                -71.297719,
                41.581767
              ],
              [
                -71.297156,
                41.579768
              ],
              [
                -71.299125,
                41.579768
              ],
              [
                -71.300812,
                41.58061
              ],
              [
                -71.301234,
                41.583029
              ],
              [
                -71.301515,
                41.585658
              ]
            ]
          ],
          [
            [
              [
                -71.327568,
                41.452868
              ],
              [
                -71.326348,
                41.45471
              ],
              [
                -71.324955,
                41.45469
              ],
              [
                -71.324296,
                41.453924
              ],
              [
                -71.325649,
                41.452106
              ],
              [
                -71.32689,
                41.45196
              ],
              [
                -71.327568,
                41.452868
              ]
            ]
          ],
          [
            [
              [
                -71.328827,
                41.492334
              ],
              [
                -71.326957,
                41.493116
              ],
              [
                -71.325657,
                41.490054
              ],
              [
                -71.325365,
                41.487601
              ],
              [
                -71.3264,
                41.483789
              ],
              [
                -71.327822,
                41.482985
              ],
              [
                -71.329002,
                41.48713
              ],
              [
                -71.328827,
                41.492334
              ]
            ]
          ],
          [
            [
              [
                -71.343126,
                41.497292
              ],
              [
                -71.341267,
                41.500494
              ],
              [
                -71.33978,
                41.498823
              ],
              [
                -71.338665,
                41.496179
              ],
              [
                -71.338665,
                41.494926
              ],
              [
                -71.343126,
                41.494926
              ],
              [
                -71.343126,
                41.497292
              ]
            ]
          ],
          [
            [
              [
                -71.345913,
                41.53695
              ],
              [
                -71.342568,
                41.52902
              ],
              [
                -71.346285,
                41.534168
              ],
              [
                -71.345913,
                41.53695
              ]
            ]
          ],
          [
            [
              [
                -71.353819,
                41.647466
              ],
              [
                -71.343274,
                41.653769
              ],
              [
                -71.35157,
                41.658602
              ],
              [
                -71.344821,
                41.667005
              ],
              [
                -71.332448,
                41.643789
              ],
              [
                -71.343666,
                41.6399
              ],
              [
                -71.308123,
                41.626239
              ],
              [
                -71.30264,
                41.605531
              ],
              [
                -71.3167,
                41.583134
              ],
              [
                -71.335949,
                41.585898
              ],
              [
                -71.325558,
                41.624137
              ],
              [
                -71.347352,
                41.631284
              ],
              [
                -71.352976,
                41.644734
              ],
              [
                -71.353819,
                41.647466
              ]
            ]
          ],
          [
            [
              [
                -71.362911,
                41.461746
              ],
              [
                -71.336442,
                41.481985
              ],
              [
                -71.335992,
                41.469647
              ],
              [
                -71.316519,
                41.47756
              ],
              [
                -71.328031,
                41.518848
              ],
              [
                -71.311251,
                41.522621
              ],
              [
                -71.310533,
                41.54692
              ],
              [
                -71.285142,
                41.577127
              ],
              [
                -71.271862,
                41.623986
              ],
              [
                -71.233234,
                41.64023
              ],
              [
                -71.220331,
                41.655572
              ],
              [
                -71.211822,
                41.639103
              ],
              [
                -71.19564,
                41.67509
              ],
              [
                -71.132888,
                41.660102
              ],
              [
                -71.14091,
                41.607405
              ],
              [
                -71.131312,
                41.592308
              ],
              [
                -71.12057,
                41.497448
              ],
              [
                -71.167345,
                41.471405
              ],
              [
                -71.168648,
                41.461452
              ],
              [
                -71.193979,
                41.456396
              ],
              [
                -71.190167,
                41.484285
              ],
              [
                -71.206382,
                41.499215
              ],
              [
                -71.204929,
                41.5408
              ],
              [
                -71.220998,
                41.560877
              ],
              [
                -71.209823,
                41.558709
              ],
              [
                -71.214674,
                41.585971
              ],
              [
                -71.203741,
                41.596103
              ],
              [
                -71.219336,
                41.625482
              ],
              [
                -71.240709,
                41.619225
              ],
              [
                -71.236642,
                41.535852
              ],
              [
                -71.227989,
                41.528297
              ],
              [
                -71.247992,
                41.49029
              ],
              [
                -71.237437,
                41.485711
              ],
              [
                -71.240428,
                41.476147
              ],
              [
                -71.247366,
                41.472996
              ],
              [
                -71.245859,
                41.481637
              ],
              [
                -71.258192,
                41.487921
              ],
              [
                -71.274861,
                41.479846
              ],
              [
                -71.285486,
                41.489004
              ],
              [
                -71.296918,
                41.485521
              ],
              [
                -71.310168,
                41.451124
              ],
              [
                -71.323751,
                41.460129
              ],
              [
                -71.334764,
                41.449516
              ],
              [
                -71.353609,
                41.449751
              ],
              [
                -71.36189,
                41.460196
              ],
              [
                -71.362911,
                41.461746
              ]
            ]
          ],
          [
            [
              [
                -71.367036,
                41.660703
              ],
              [
                -71.353398,
                41.657866
              ],
              [
                -71.360006,
                41.649882
              ],
              [
                -71.366333,
                41.658917
              ],
              [
                -71.367036,
                41.660703
              ]
            ]
          ],
          [
            [
              [
                -71.372238,
                41.599854
              ],
              [
                -71.36338,
                41.606688
              ],
              [
                -71.373363,
                41.597436
              ],
              [
                -71.372238,
                41.599854
              ]
            ]
          ],
          [
            [
              [
                -71.40056,
                41.46094
              ],
              [
                -71.399435,
                41.492977
              ],
              [
                -71.38401,
                41.493812
              ],
              [
                -71.378914,
                41.504948
              ],
              [
                -71.392137,
                41.524468
              ],
              [
                -71.384478,
                41.556736
              ],
              [
                -71.370194,
                41.573963
              ],
              [
                -71.359868,
                41.556308
              ],
              [
                -71.365612,
                41.513993
              ],
              [
                -71.357621,
                41.508705
              ],
              [
                -71.366541,
                41.494787
              ],
              [
                -71.354315,
                41.478891
              ],
              [
                -71.37509,
                41.473764
              ],
              [
                -71.38624,
                41.487687
              ],
              [
                -71.381594,
                41.468055
              ],
              [
                -71.399568,
                41.448596
              ],
              [
                -71.40078,
                41.454975
              ],
              [
                -71.40056,
                41.46094
              ]
            ]
          ],
          [
            [
              [
                -71.405096,
                41.498214
              ],
              [
                -71.397391,
                41.5062
              ],
              [
                -71.404475,
                41.497328
              ],
              [
                -71.405096,
                41.498214
              ]
            ]
          ],
          [
            [
              [
                -71.6067340253166,
                42.0134114250922
              ],
              [
                -71.381401,
                42.018798
              ],
              [
                -71.3817,
                41.893199
              ],
              [
                -71.338698,
                41.898399
              ],
              [
                -71.333997,
                41.8623
              ],
              [
                -71.342198,
                41.8448
              ],
              [
                -71.335197,
                41.8355
              ],
              [
                -71.347197,
                41.8231
              ],
              [
                -71.340697,
                41.7983
              ],
              [
                -71.327896,
                41.780501
              ],
              [
                -71.261392,
                41.752301
              ],
              [
                -71.224798,
                41.710498
              ],
              [
                -71.24581,
                41.697162
              ],
              [
                -71.235352,
                41.672134
              ],
              [
                -71.250326,
                41.665032
              ],
              [
                -71.25956,
                41.642595
              ],
              [
                -71.285502,
                41.68243
              ],
              [
                -71.301396,
                41.649978
              ],
              [
                -71.306095,
                41.672575
              ],
              [
                -71.291217,
                41.702666
              ],
              [
                -71.305468,
                41.708519
              ],
              [
                -71.307131,
                41.721648
              ],
              [
                -71.339456,
                41.724841
              ],
              [
                -71.34825,
                41.742046
              ],
              [
                -71.359896,
                41.745061
              ],
              [
                -71.367977,
                41.780695
              ],
              [
                -71.436482,
                41.788412
              ],
              [
                -71.440002,
                41.811275
              ],
              [
                -71.406833,
                41.814079
              ],
              [
                -71.416509,
                41.81772
              ],
              [
                -71.407478,
                41.818249
              ],
              [
                -71.411507,
                41.831394
              ],
              [
                -71.43792,
                41.853271
              ],
              [
                -71.426628,
                41.853081
              ],
              [
                -71.429906,
                41.861255
              ],
              [
                -71.472459,
                41.836981
              ],
              [
                -71.495545,
                41.868983
              ],
              [
                -71.574642,
                41.858748
              ],
              [
                -71.600443,
                41.983027
              ],
              [
                -71.6067340253166,
                42.0134114250922
              ]
            ]
          ]
        ]
      }
    },
    {
      "type": "Feature",
      "id": "us-cd:118:44:02",
      "properties": {
        "boundary_id": "us-cd:118:44:02",
        "boundary_type": "congressional_district",
        "name": "Congressional District 2",
        "stateFips": "44",
        "congress": 118,
        "district": "02",
        "bbox": [
          -71.862772,
          41.146339,
          -71.357282,
          42.0134114250922
        ]
      },
      "geometry": {
        "type": "MultiPolygon",
        "coordinates": [
          [
            [
              [
                -71.613133,
                41.160281
              ],
              [
                -71.592944,
                41.198911
              ],
              [
                -71.580634,
                41.203374
              ],
              [
                -71.577691,
                41.231232
              ],
              [
                -71.562546,
                41.224217
              ],
              [
                -71.554067,
                41.212957
              ],
              [
                -71.566345,
                41.184277
              ],
              [
                -71.544446,
                41.164912
              ],
              [
                -71.547051,
                41.153684
              ],
              [
                -71.5937,
                41.146339
              ],
              [
                -71.611567,
                41.153905
              ],
              [
                -71.613133,
                41.160281
              ]
            ]
          ],
          [
            [
              [
                -71.8626677422346,
                41.310863612697
              ],
              [
                -71.829384,
                41.342413
              ],
              [
                -71.842563,
                41.409855
              ],
              [
                -71.816904,
                41.419927
              ],
              [
                -71.797683,
                41.416709
              ],
              [
                -71.786994,
                41.655992
              ],
              [
                -71.799242,
                42.008065
              ],
              [
                -71.6067340253166,
                42.0134114250922
              ],
              [
                -71.574642,
                41.858748
              ],
              [
                -71.495545,
                41.868983
              ],
              [
                -71.472459,
                41.836981
              ],
              [
                -71.429906,
                41.861255
              ],
              [
                -71.426628,
                41.853081
              ],
              [
                -71.43792,
                41.853271
              ],
              [
                -71.411507,
                41.831394
              ],
              [
                -71.407478,
                41.818249
              ],
              [
                -71.416509,
                41.81772
              ],
              [
                -71.406833,
                41.814079
              ],
              [
                -71.440002,
                41.811275
              ],
              [
                -71.436482,
                41.788412
              ],
              [
                -71.3824715642505,
                41.7850991833895
              ],
              [
                -71.391745,
                41.78105
              ],
              [
                -71.376058,
                41.744174
              ],
              [
                -71.38105,
                41.727324
              ],
              [
                -71.357282,
                41.718188
              ],
              [
                -71.37791,
                41.666646
              ],
              [
                -71.38988,
                41.671903
              ],
              [
                -71.390551,
                41.684096
              ],
              [
                -71.450198,
                41.686459
              ],
              [
                -71.443541,
                41.663019
              ],
              [
                -71.426086,
                41.670484
              ],
              [
                -71.408621,
                41.663168
              ],
              [
                -71.403154,
                41.627468
              ],
              [
                -71.404342,
                41.611832
              ],
              [
                -71.416939,
                41.604901
              ],
              [
                -71.403613,
                41.602959
              ],
              [
                -71.40377,
                41.589321
              ],
              [
                -71.44705,
                41.578429
              ],
              [
                -71.415513,
                41.529858
              ],
              [
                -71.418404,
                41.472652
              ],
              [
                -71.430744,
                41.470636
              ],
              [
                -71.425817,
                41.456002
              ],
              [
                -71.43833,
                41.439585
              ],
              [
                -71.455845,
                41.432986
              ],
              [
                -71.452974,
                41.409676
              ],
              [
                -71.484203,
                41.371842
              ],
              [
                -71.480875,
                41.360248
              ],
              [
                -71.502926,
                41.3742
              ],
              [
                -71.551566,
                41.374423
              ],
              [
                -71.716036,
                41.331089
              ],
              [
                -71.862772,
                41.309791
              ],
              [
                -71.8626677422346,
                41.310863612697
              ]
            ]
          ]
        ]
      }
    }
  ]
}
