{
  "type": "FeatureCollection",
  "features": [
    {
      "type": "Feature",
      "id": "us-cd:118:54:01",
      "properties": {
        "boundary_id": "us-cd:118:54:01",
        "boundary_type": "congressional_district",
        "name": "Congressional District 1",
        "stateFips": "54",
        "congress": 118,
        "district": "01",
        "bbox": [
          -82.644739,
          37.201483,
          -79.057253,
          39.185572
        ]
      },
      "geometry": {
        "type": "Polygon",
        "coordinates": [
          [
            [
              -82.6431981036679,
              38.1690897960737
            ],
            [
              -82.611343,
              38.171548
            ],
            [
              -82.598437,
              38.217393
            ],
            [
              -82.61226,
              38.236087
            ],
            [
              -82.605333,
              38.247303
            ],
            [
              -82.584001,
              38.246371
            ],
            [
              -82.574656,
              38.263873
            ],
            [
              -82.583056,
              38.296829
            ],
            [
              -82.571756,
              38.317195
            ],
            [
              -82.597979,
              38.344909
            ],
            [
              -82.59348,
              38.421821
            ],
            [
              -82.571613,
              38.405138
            ],
            [
              -82.540199,
              38.403666
            ],
            [
              -82.404882,
              38.439347
            ],
            [
              -82.381773,
              38.434783
            ],
            [
              -82.330335,
              38.4445
            ],
            [
              -82.304223,
              38.496308
            ],
            [
              -82.291271,
              38.578983
            ],
            [
              -82.26207,
              38.598183
            ],
            [
              -82.205171,
              38.591719
            ],
            [
              -82.177267,
              38.603784
            ],
            [
              -82.172667,
              38.629684
            ],
            [
              -82.190867,
              38.680383
            ],
            [
              -82.182467,
              38.708782
            ],
            [
              -82.195606,
              38.752441
            ],
            [
              -82.216614,
              38.76835
            ],
            [
              -82.221566,
              38.787187
            ],
            [
              -82.144867,
              38.84048
            ],
            [
              -82.143167,
              38.898079
            ],
            [
              -82.111666,
              38.932579
            ],
            [
              -82.091565,
              38.973778
            ],
            [
              -82.051563,
              38.994378
            ],
            [
              -82.037749,
              39.023865
            ],
            [
              -82.00599,
              39.029387
            ],
            [
              -81.979371,
              38.993193
            ],
            [
              -81.951447,
              38.996032
            ],
            [
              -81.933186,
              38.987659
            ],
            [
              -81.89847,
              38.929603
            ],
            [
              -81.928,
              38.893492
            ],
            [
              -81.889233,
              38.874279
            ],
            [
              -81.855971,
              38.892734
            ],
            [
              -81.844486,
              38.928746
            ],
            [
              -81.827354,
              38.945898
            ],
            [
              -81.774106,
              38.922965
            ],
            [
              -81.756131,
              38.933545
            ],
            [
              -81.78182,
              38.964935
            ],
            [
              -81.764253,
              39.015279
            ],
            [
              -81.808955,
              39.055178
            ],
            [
              -81.810655,
              39.083278
            ],
            [
              -81.775554,
              39.078378
            ],
            [
              -81.7472527006579,
              39.0953784490132
            ],
            [
              -81.581447,
              39.026179
            ],
            [
              -81.424906,
              39.135679
            ],
            [
              -81.395176,
              39.14045
            ],
            [
              -81.298017,
              39.185572
            ],
            [
              -81.319007,
              39.163126
            ],
            [
              -81.310569,
              39.157942
            ],
            [
              -81.329129,
              39.150071
            ],
            [
              -81.299778,
              39.129827
            ],
            [
              -81.28781,
              39.132747
            ],
            [
              -81.276479,
              39.108137
            ],
            [
              -81.263361,
              39.106971
            ],
            [
              -81.25719,
              39.072103
            ],
            [
              -81.273939,
              39.059179
            ],
            [
              -81.253593,
              39.055924
            ],
            [
              -81.249958,
              39.034837
            ],
            [
              -81.228238,
              39.03228
            ],
            [
              -81.210741,
              39.045181
            ],
            [
              -81.162455,
              39.030608
            ],
            [
              -81.129635,
              39.045182
            ],
            [
              -81.116034,
              39.042482
            ],
            [
              -81.093934,
              39.015583
            ],
            [
              -81.007231,
              39.008785
            ],
            [
              -80.960203,
              39.038022
            ],
            [
              -80.911618,
              39.04624
            ],
            [
              -80.87767,
              39.073423
            ],
            [
              -80.85871,
              39.073957
            ],
            [
              -80.854581,
              39.08392
            ],
            [
              -80.835024,
              39.082376
            ],
            [
              -80.810777,
              39.09947
            ],
            [
              -80.81297,
              39.109401
            ],
            [
              -80.728326,
              39.095679
            ],
            [
              -80.716705,
              39.008326
            ],
            [
              -80.597049,
              38.895999
            ],
            [
              -80.58356,
              38.858916
            ],
            [
              -80.558463,
              38.867467
            ],
            [
              -80.541525,
              38.853902
            ],
            [
              -80.523992,
              38.862826
            ],
            [
              -80.47381,
              38.833229
            ],
            [
              -80.485528,
              38.800304
            ],
            [
              -80.463112,
              38.795882
            ],
            [
              -80.458482,
              38.776053
            ],
            [
              -80.44216,
              38.771616
            ],
            [
              -80.452895,
              38.761541
            ],
            [
              -80.452818,
              38.733579
            ],
            [
              -80.406133,
              38.722801
            ],
            [
              -80.401949,
              38.729899
            ],
            [
              -80.353105,
              38.730565
            ],
            [
              -80.330562,
              38.716962
            ],
            [
              -80.333008,
              38.705048
            ],
            [
              -80.320096,
              38.685172
            ],
            [
              -80.280059,
              38.694867
            ],
            [
              -80.183931,
              38.525386
            ],
            [
              -80.245518,
              38.388457
            ],
            [
              -80.11692,
              38.473953
            ],
            [
              -80.028404,
              38.459166
            ],
            [
              -79.863553,
              38.55065
            ],
            [
              -79.842183,
              38.608613
            ],
            [
              -79.846483,
              38.629913
            ],
            [
              -79.830441,
              38.6362
            ],
            [
              -79.833583,
              38.648012
            ],
            [
              -79.807883,
              38.683212
            ],
            [
              -79.802283,
              38.710311
            ],
            [
              -79.776483,
              38.739811
            ],
            [
              -79.754682,
              38.734011
            ],
            [
              -79.751181,
              38.722312
            ],
            [
              -79.73058,
              38.712012
            ],
            [
              -79.74388,
              38.686412
            ],
            [
              -79.73898,
              38.679513
            ],
            [
              -79.710179,
              38.685713
            ],
            [
              -79.697778,
              38.666113
            ],
            [
              -79.680277,
              38.664413
            ],
            [
              -79.678576,
              38.681911
            ],
            [
              -79.661376,
              38.690112
            ],
            [
              -79.627076,
              38.678913
            ],
            [
              -79.635376,
              38.661114
            ],
            [
              -79.623075,
              38.668814
            ],
            [
              -79.595357,
              38.663252
            ],
            [
              -79.597675,
              38.687614
            ],
            [
              -79.564507,
              38.713006
            ],
            [
              -79.508573,
              38.784412
            ],
            [
              -79.507873,
              38.800911
            ],
            [
              -79.529771,
              38.819315
            ],
            [
              -79.523173,
              38.830214
            ],
            [
              -79.539075,
              38.841411
            ],
            [
              -79.512674,
              38.867211
            ],
            [
              -79.519474,
              38.89201
            ],
            [
              -79.482573,
              38.88641
            ],
            [
              -79.444471,
              38.89861
            ],
            [
              -79.455472,
              38.92991
            ],
            [
              -79.374768,
              38.92101
            ],
            [
              -79.349867,
              38.957509
            ],
            [
              -79.057253,
              38.761413
            ],
            [
              -79.087255,
              38.720114
            ],
            [
              -79.092755,
              38.702315
            ],
            [
              -79.084355,
              38.686516
            ],
            [
              -79.092955,
              38.659517
            ],
            [
              -79.129757,
              38.655017
            ],
            [
              -79.170958,
              38.56812
            ],
            [
              -79.205859,
              38.524521
            ],
            [
              -79.210591,
              38.492913
            ],
            [
              -79.240059,
              38.469841
            ],
            [
              -79.242641,
              38.454168
            ],
            [
              -79.254435,
              38.455949
            ],
            [
              -79.282762,
              38.431647
            ],
            [
              -79.282971,
              38.418095
            ],
            [
              -79.312276,
              38.411876
            ],
            [
              -79.476638,
              38.457228
            ],
            [
              -79.53687,
              38.550917
            ],
            [
              -79.649075,
              38.591515
            ],
            [
              -79.672974,
              38.528717
            ],
            [
              -79.662074,
              38.515517
            ],
            [
              -79.680374,
              38.510617
            ],
            [
              -79.697572,
              38.487223
            ],
            [
              -79.689675,
              38.431439
            ],
            [
              -79.72635,
              38.38707
            ],
            [
              -79.725597,
              38.363828
            ],
            [
              -79.740615,
              38.354101
            ],
            [
              -79.764432,
              38.356514
            ],
            [
              -79.77309,
              38.335529
            ],
            [
              -79.810154,
              38.306707
            ],
            [
              -79.788945,
              38.268703
            ],
            [
              -79.845207,
              38.241082
            ],
            [
              -79.916344,
              38.186278
            ],
            [
              -79.918662,
              38.15479
            ],
            [
              -79.944843,
              38.131585
            ],
            [
              -79.938952,
              38.111619
            ],
            [
              -79.92633,
              38.107151
            ],
            [
              -79.954369,
              38.080397
            ],
            [
              -79.999384,
              37.995842
            ],
            [
              -80.102931,
              37.918911
            ],
            [
              -80.117747,
              37.89772
            ],
            [
              -80.162202,
              37.875122
            ],
            [
              -80.183062,
              37.850646
            ],
            [
              -80.179391,
              37.839751
            ],
            [
              -80.227092,
              37.798886
            ],
            [
              -80.215658,
              37.777481
            ],
            [
              -80.230458,
              37.778305
            ],
            [
              -80.257411,
              37.756084
            ],
            [
              -80.262765,
              37.738336
            ],
            [
              -80.253077,
              37.725899
            ],
            [
              -80.296138,
              37.691783
            ],
            [
              -80.267455,
              37.646108
            ],
            [
              -80.220984,
              37.627767
            ],
            [
              -80.258919,
              37.595499
            ],
            [
              -80.328504,
              37.564315
            ],
            [
              -80.312393,
              37.546239
            ],
            [
              -80.330306,
              37.536244
            ],
            [
              -80.309346,
              37.527381
            ],
            [
              -80.282385,
              37.533517
            ],
            [
              -80.299789,
              37.508271
            ],
            [
              -80.366838,
              37.484879
            ],
            [
              -80.371952,
              37.474069
            ],
            [
              -80.475601,
              37.422949
            ],
            [
              -80.494867,
              37.43507
            ],
            [
              -80.492981,
              37.457749
            ],
            [
              -80.511391,
              37.481672
            ],
            [
              -80.552036,
              37.473563
            ],
            [
              -80.705203,
              37.394618
            ],
            [
              -80.770082,
              37.372363
            ],
            [
              -80.784188,
              37.394587
            ],
            [
              -80.806129,
              37.398074
            ],
            [
              -80.837678,
              37.425658
            ],
            [
              -80.859556,
              37.429568
            ],
            [
              -80.883248,
              37.383933
            ],
            [
              -80.849451,
              37.346909
            ],
            [
              -80.900535,
              37.315
            ],
            [
              -80.966556,
              37.292158
            ],
            [
              -80.981322,
              37.293465
            ],
            [
              -80.979589,
              37.302279
            ],
            [
              -81.112596,
              37.278497
            ],
            [
              -81.225104,
              37.234874
            ],
            [
              -81.362156,
              37.337687
            ],
            [
              -81.374455,
              37.318614
            ],
            [
              -81.394287,
              37.316411
            ],
            [
              -81.416663,
              37.273214
            ],
            [
              -81.447655,
              37.272245
            ],
            [
              -81.480144,
              37.251121
            ],
            [
              -81.498874,
              37.258025
            ],
            [
              -81.508786,
              37.232564
            ],
            [
              -81.560625,
              37.206663
            ],
            [
              -81.67821,
              37.201483
            ],
            [
              -81.723061,
              37.240493
            ],
            [
              -81.744003,
              37.242528
            ],
            [
              -81.740974,
              37.254052
            ],
            [
              -81.757631,
              37.274003
            ],
            [
              -81.789294,
              37.284416
            ],
            [
              -81.849949,
              37.285227
            ],
            [
              -81.85446,
              37.30657
            ],
            [
              -81.865683,
              37.309484
            ],
            [
              -81.860267,
              37.315715
            ],
            [
              -81.878713,
              37.331753
            ],
            [
              -81.893773,
              37.330105
            ],
            [
              -81.933382,
              37.369341
            ],
            [
              -81.923481,
              37.411379
            ],
            [
              -81.93695,
              37.41992
            ],
            [
              -81.935621,
              37.438397
            ],
            [
              -81.987006,
              37.454878
            ],
            [
              -81.995649,
              37.469833
            ],
            [
              -81.992916,
              37.482969
            ],
            [
              -81.953264,
              37.491763
            ],
            [
              -81.953147,
              37.501314
            ],
            [
              -81.927194,
              37.515332
            ],
            [
              -81.943865,
              37.512879
            ],
            [
              -81.94401,
              37.530964
            ],
            [
              -81.967583,
              37.532815
            ],
            [
              -81.970147,
              37.546504
            ],
            [
              -82.009194,
              37.533243
            ],
            [
              -82.042825,
              37.548361
            ],
            [
              -82.046653,
              37.528193
            ],
            [
              -82.064418,
              37.53687
            ],
            [
              -82.07503,
              37.555824
            ],
            [
              -82.133247,
              37.552832
            ],
            [
              -82.144648,
              37.568315
            ],
            [
              -82.127303,
              37.572681
            ],
            [
              -82.127321,
              37.586667
            ],
            [
              -82.156718,
              37.59279
            ],
            [
              -82.156741,
              37.609202
            ],
            [
              -82.168534,
              37.608692
            ],
            [
              -82.164191,
              37.620192
            ],
            [
              -82.18143,
              37.621842
            ],
            [
              -82.172446,
              37.632589
            ],
            [
              -82.175264,
              37.647971
            ],
            [
              -82.190756,
              37.645137
            ],
            [
              -82.187298,
              37.626935
            ],
            [
              -82.213443,
              37.62522
            ],
            [
              -82.216848,
              37.641598
            ],
            [
              -82.24041,
              37.661567
            ],
            [
              -82.257111,
              37.656749
            ],
            [
              -82.282297,
              37.675826
            ],
            [
              -82.288174,
              37.668227
            ],
            [
              -82.294737,
              37.678277
            ],
            [
              -82.303953,
              37.67576
            ],
            [
              -82.296634,
              37.702403
            ],
            [
              -82.334035,
              37.743227
            ],
            [
              -82.312363,
              37.764774
            ],
            [
              -82.333994,
              37.76508
            ],
            [
              -82.323696,
              37.775028
            ],
            [
              -82.337596,
              37.775369
            ],
            [
              -82.339705,
              37.785509
            ],
            [
              -82.376169,
              37.80203
            ],
            [
              -82.386586,
              37.818212
            ],
            [
              -82.401652,
              37.810091
            ],
            [
              -82.39968,
              37.829935
            ],
            [
              -82.420616,
              37.846663
            ],
            [
              -82.414878,
              37.85624
            ],
            [
              -82.424674,
              37.861897
            ],
            [
              -82.407513,
              37.867297
            ],
            [
              -82.418197,
              37.871213
            ],
            [
              -82.419929,
              37.88487
            ],
            [
              -82.462881,
              37.914832
            ],
            [
              -82.474407,
              37.899955
            ],
            [
              -82.475534,
              37.911945
            ],
            [
              -82.488346,
              37.917724
            ],
            [
              -82.480338,
              37.925836
            ],
            [
              -82.502198,
              37.933052
            ],
            [
              -82.489514,
              37.937935
            ],
            [
              -82.497719,
              37.94566
            ],
            [
              -82.471555,
              37.959055
            ],
            [
              -82.48426,
              37.971383
            ],
            [
              -82.46938,
              37.973059
            ],
            [
              -82.464257,
              37.983412
            ],
            [
              -82.483968,
              37.984093
            ],
            [
              -82.489236,
              37.99898
            ],
            [
              -82.519193,
              38.001131
            ],
            [
              -82.551259,
              38.070799
            ],
            [
              -82.584039,
              38.090663
            ],
            [
              -82.587782,
              38.108879
            ],
            [
              -82.620351,
              38.121477
            ],
            [
              -82.622125,
              38.133414
            ],
            [
              -82.637306,
              38.13905
            ],
            [
              -82.644739,
              38.165487
            ],
            [
              -82.6431981036679,
              38.1690897960737
            ]
          ]
        ]
      }
    },
    {
      "type": "Feature",
      "id": "us-cd:118:54:02",
      "properties": {
        "boundary_id": "us-cd:118:54:02",
        "boundary_type": "congressional_district",
        "name": "Congressional District 2",
        "stateFips": "54",
        "congress": 118,
        "district": "02",
        "bbox": [
          -81.756254,
          38.388457,
          -77.719519,
          40.638801
        ]
      },
      "geometry": {
        "type": "Polygon",
        "coordinates": [
          [
            [
              -81.7558150545194,
              39.1805241965567
            ],
            [
              -81.726973,
              39.215068
            ],
            [
              -81.692395,
              39.226443
            ],
            [
              -81.69638,
              39.257035
            ],
            [
              -81.678331,
              39.273755
            ],
            [
              -81.608408,
              39.276043
            ],
            [
              -81.570247,
              39.267675
            ],
            [
              -81.557547,
              39.338774
            ],
            [
              -81.467744,
              39.403774
            ],
            [
              -81.446543,
              39.410374
            ],
            [
              -81.420578,
              39.400378
            ],
            [
              -81.406689,
              39.38809
            ],
            [
              -81.393794,
              39.351706
            ],
            [
              -81.375961,
              39.341697
            ],
            [
              -81.347567,
              39.34577
            ],
            [
              -81.270716,
              39.385914
            ],
            [
              -81.217315,
              39.38759
            ],
            [
              -81.185946,
              39.430731
            ],
            [
              -81.132534,
              39.446275
            ],
            [
              -81.070594,
              39.515991
            ],
            [
              -80.970436,
              39.590127
            ],
            [
              -80.925841,
              39.617396
            ],
            [
              -80.88036,
              39.620706
            ],
            [
              -80.866647,
              39.652616
            ],
            [
              -80.863698,
              39.691724
            ],
            [
              -80.829764,
              39.711839
            ],
            [
              -80.869092,
              39.766364
            ],
            [
              -80.826079,
              39.798584
            ],
            [
              -80.826124,
              39.844238
            ],
            [
              -80.790761,
              39.86728
            ],
            [
              -80.809011,
              39.903226
            ],
            [
              -80.806018,
              39.91713
            ],
            [
              -80.756432,
              39.91393
            ],
            [
              -80.764479,
              39.95025
            ],
            [
              -80.740126,
              39.970793
            ],
            [
              -80.741901,
              40.007929
            ],
            [
              -80.730904,
              40.046672
            ],
            [
              -80.738604,
              40.075672
            ],
            [
              -80.709102,
              40.101472
            ],
            [
              -80.704602,
              40.154823
            ],
            [
              -80.6681,
              40.199671
            ],
            [
              -80.652098,
              40.24497
            ],
            [
              -80.619297,
              40.26517
            ],
            [
              -80.599895,
              40.317669
            ],
            [
              -80.612796,
              40.347668
            ],
            [
              -80.609695,
              40.374968
            ],
            [
              -80.633596,
              40.390467
            ],
            [
              -80.612195,
              40.402667
            ],
            [
              -80.612295,
              40.434867
            ],
            [
              -80.595494,
              40.475266
            ],
            [
              -80.618003,
              40.502049
            ],
            [
              -80.627507,
              40.535793
            ],
            [
              -80.667957,
              40.582496
            ],
            [
              -80.627171,
              40.619936
            ],
            [
              -80.598764,
              40.625263
            ],
            [
              -80.576736,
              40.614224
            ],
            [
              -80.518991,
              40.638801
            ],
            [
              -80.519342,
              39.721403
            ],
            [
              -79.476662,
              39.721078
            ],
            [
              -79.486873,
              39.205961
            ],
            [
              -79.473215,
              39.202107
            ],
            [
              -79.425627,
              39.225725
            ],
            [
              -79.387753,
              39.267462
            ],
            [
              -79.343801,
              39.286096
            ],
            [
              -79.346011,
              39.29396
            ],
            [
              -79.314768,
              39.304381
            ],
            [
              -79.290236,
              39.299323
            ],
            [
              -79.282037,
              39.323048
            ],
            [
              -79.253891,
              39.337222
            ],
            [
              -79.256308,
              39.357227
            ],
            [
              -79.21428,
              39.363482
            ],
            [
              -79.197131,
              39.388595
            ],
            [
              -79.176959,
              39.389028
            ],
            [
              -79.178639,
              39.396632
            ],
            [
              -79.162052,
              39.388321
            ],
            [
              -79.160148,
              39.41638
            ],
            [
              -79.143751,
              39.405202
            ],
            [
              -79.14231,
              39.416687
            ],
            [
              -79.128381,
              39.417481
            ],
            [
              -79.129047,
              39.429542
            ],
            [
              -79.110602,
              39.4327
            ],
            [
              -79.116369,
              39.440482
            ],
            [
              -79.102469,
              39.45118
            ],
            [
              -79.107186,
              39.462006
            ],
            [
              -79.094549,
              39.465184
            ],
            [
              -79.10319,
              39.476004
            ],
            [
              -79.08327,
              39.471379
            ],
            [
              -79.06623,
              39.479944
            ],
            [
              -79.058093,
              39.470811
            ],
            [
              -79.04705,
              39.483351
            ],
            [
              -79.030343,
              39.465403
            ],
            [
              -78.956751,
              39.440264
            ],
            [
              -78.959214,
              39.461893
            ],
            [
              -78.940948,
              39.470541
            ],
            [
              -78.938751,
              39.483732
            ],
            [
              -78.916488,
              39.486544
            ],
            [
              -78.905513,
              39.511545
            ],
            [
              -78.892936,
              39.512755
            ],
            [
              -78.893317,
              39.523756
            ],
            [
              -78.874744,
              39.522611
            ],
            [
              -78.870687,
              39.538767
            ],
            [
              -78.838553,
              39.5673
            ],
            [
              -78.816764,
              39.561691
            ],
            [
              -78.826009,
              39.588829
            ],
            [
              -78.809347,
              39.608063
            ],
            [
              -78.795857,
              39.606934
            ],
            [
              -78.801741,
              39.627488
            ],
            [
              -78.775241,
              39.645687
            ],
            [
              -78.76504,
              39.646087
            ],
            [
              -78.777516,
              39.621712
            ],
            [
              -78.748499,
              39.626262
            ],
            [
              -78.733553,
              39.615533
            ],
            [
              -78.747063,
              39.60569
            ],
            [
              -78.77686,
              39.604027
            ],
            [
              -78.76749,
              39.587487
            ],
            [
              -78.746421,
              39.579544
            ],
            [
              -78.733979,
              39.586618
            ],
            [
              -78.72501,
              39.563973
            ],
            [
              -78.689455,
              39.54577
            ],
            [
              -78.655984,
              39.534695
            ],
            [
              -78.591633,
              39.536891
            ],
            [
              -78.565929,
              39.519444
            ],
            [
              -78.521388,
              39.52479
            ],
            [
              -78.471166,
              39.516103
            ],
            [
              -78.462849,
              39.535758
            ],
            [
              -78.448642,
              39.53996
            ],
            [
              -78.460224,
              39.551184
            ],
            [
              -78.438357,
              39.538753
            ],
            [
              -78.437397,
              39.553472
            ],
            [
              -78.417586,
              39.547155
            ],
            [
              -78.454376,
              39.574319
            ],
            [
              -78.457187,
              39.587379
            ],
            [
              -78.443175,
              39.591155
            ],
            [
              -78.408031,
              39.578593
            ],
            [
              -78.395317,
              39.584215
            ],
            [
              -78.425581,
              39.607599
            ],
            [
              -78.43025,
              39.62329
            ],
            [
              -78.374732,
              39.608635
            ],
            [
              -78.382487,
              39.628216
            ],
            [
              -78.35577,
              39.626258
            ],
            [
              -78.355218,
              39.640576
            ],
            [
              -78.265088,
              39.619274
            ],
            [
              -78.254077,
              39.640089
            ],
            [
              -78.223597,
              39.661097
            ],
            [
              -78.231564,
              39.674382
            ],
            [
              -78.202945,
              39.676653
            ],
            [
              -78.176625,
              39.695967
            ],
            [
              -78.08226,
              39.671166
            ],
            [
              -78.035992,
              39.63572
            ],
            [
              -78.009985,
              39.602893
            ],
            [
              -77.976686,
              39.599744
            ],
            [
              -77.957642,
              39.608614
            ],
            [
              -77.946182,
              39.584814
            ],
            [
              -77.936371,
              39.594508
            ],
            [
              -77.94194,
              39.61879
            ],
            [
              -77.888477,
              39.597343
            ],
            [
              -77.880993,
              39.602852
            ],
            [
              -77.885124,
              39.615775
            ],
            [
              -77.833568,
              39.602936
            ],
            [
              -77.83633,
              39.56637
            ],
            [
              -77.888945,
              39.55595
            ],
            [
              -77.865351,
              39.538381
            ],
            [
              -77.86368,
              39.515032
            ],
            [
              -77.84192,
              39.51847
            ],
            [
              -77.836935,
              39.53217
            ],
            [
              -77.825357,
              39.529177
            ],
            [
              -77.82565,
              39.516895
            ],
            [
              -77.845666,
              39.498628
            ],
            [
              -77.80183,
              39.489395
            ],
            [
              -77.781608,
              39.499067
            ],
            [
              -77.765993,
              39.495724
            ],
            [
              -77.796695,
              39.480498
            ],
            [
              -77.777815,
              39.461924
            ],
            [
              -77.798468,
              39.46067
            ],
            [
              -77.78558,
              39.445367
            ],
            [
              -77.803249,
              39.437136
            ],
            [
              -77.75309,
              39.423262
            ],
            [
              -77.735905,
              39.389665
            ],
            [
              -77.753389,
              39.382094
            ],
            [
              -77.743874,
              39.359947
            ],
            [
              -77.761115,
              39.339757
            ],
            [
              -77.719519,
              39.321314
            ],
            [
              -77.734899,
              39.312409
            ],
            [
              -77.770281,
              39.255977
            ],
            [
              -77.771415,
              39.236776
            ],
            [
              -77.793631,
              39.210125
            ],
            [
              -77.828157,
              39.132329
            ],
            [
              -78.347087,
              39.466012
            ],
            [
              -78.353227,
              39.436792
            ],
            [
              -78.346718,
              39.427618
            ],
            [
              -78.359918,
              39.409028
            ],
            [
              -78.343214,
              39.388807
            ],
            [
              -78.366867,
              39.35929
            ],
            [
              -78.339284,
              39.348605
            ],
            [
              -78.419422,
              39.257476
            ],
            [
              -78.399669,
              39.243874
            ],
            [
              -78.438651,
              39.198049
            ],
            [
              -78.403697,
              39.167451
            ],
            [
              -78.459869,
              39.113351
            ],
            [
              -78.49516,
              39.100992
            ],
            [
              -78.571901,
              39.031995
            ],
            [
              -78.550467,
              39.018065
            ],
            [
              -78.601655,
              38.964603
            ],
            [
              -78.625672,
              38.982575
            ],
            [
              -78.680456,
              38.925313
            ],
            [
              -78.718647,
              38.904561
            ],
            [
              -78.717076,
              38.936028
            ],
            [
              -78.786025,
              38.887187
            ],
            [
              -78.869276,
              38.762991
            ],
            [
              -78.993997,
              38.850102
            ],
            [
              -79.006552,
              38.823712
            ],
            [
              -79.019553,
              38.817912
            ],
            [
              -79.027253,
              38.792113
            ],
            [
              -79.054954,
              38.785713
            ],
            [
              -79.057253,
              38.761413
            ],
            [
              -79.349867,
              38.957509
            ],
            [
              -79.374768,
              38.92101
            ],
            [
              -79.455472,
              38.92991
            ],
            [
              -79.444471,
              38.89861
            ],
            [
              -79.482573,
              38.88641
            ],
            [
              -79.519474,
              38.89201
            ],
            [
              -79.512674,
              38.867211
            ],
            [
              -79.539075,
              38.841411
            ],
            [
              -79.523173,
              38.830214
            ],
            [
              -79.529771,
              38.819315
            ],
            [
              -79.507873,
              38.800911
            ],
            [
              -79.508573,
              38.784412
            ],
            [
              -79.564507,
              38.713006
            ],
            [
              -79.597675,
              38.687614
            ],
            [
              -79.595357,
              38.663252
            ],
            [
              -79.623075,
              38.668814
            ],
            [
              -79.635376,
              38.661114
            ],
            [
              -79.627076,
              38.678913
            ],
            [
              -79.661376,
              38.690112
            ],
            [
              -79.678576,
              38.681911
            ],
            [
              -79.680277,
              38.664413
            ],
            [
              -79.697778,
              38.666113
            ],
            [
              -79.710179,
              38.685713
            ],
            [
              -79.73898,
              38.679513
            ],
            [
              -79.74388,
              38.686412
            ],
            [
              -79.73058,
              38.712012
            ],
            [
              -79.751181,
              38.722312
            ],
            [
              -79.754682,
              38.734011
            ],
            [
              -79.776483,
              38.739811
            ],
            [
              -79.802283,
              38.710311
            ],
            [
              -79.807883,
              38.683212
            ],
            [
              -79.833583,
              38.648012
            ],
            [
              -79.830441,
              38.6362
            ],
            [
              -79.846483,
              38.629913
            ],
            [
              -79.842183,
              38.608613
            ],
            [
              -79.863553,
              38.55065
            ],
            [
              -80.028404,
              38.459166
            ],
            [
              -80.11692,
              38.473953
            ],
            [
              -80.245518,
              38.388457
            ],
            [
              -80.183931,
              38.525386
            ],
            [
              -80.280059,
              38.694867
            ],
            [
              -80.320096,
              38.685172
            ],
            [
              -80.333008,
              38.705048
            ],
            [
              -80.330562,
              38.716962
            ],
            [
              -80.353105,
              38.730565
            ],
            [
              -80.401949,
              38.729899
            ],
            [
              -80.406133,
              38.722801
            ],
            [
              -80.452818,
              38.733579
            ],
            [
              -80.452895,
              38.761541
            ],
            [
              -80.44216,
              38.771616
            ],
            [
              -80.458482,
              38.776053
            ],
            [
              -80.463112,
              38.795882
            ],
            [
              -80.485528,
              38.800304
            ],
            [
              -80.47381,
              38.833229
            ],
            [
              -80.523992,
              38.862826
            ],
            [
              -80.541525,
              38.853902
            ],
            [
              -80.558463,
              38.867467
            ],
            [
              -80.58356,
              38.858916
            ],
            [
              -80.597049,
              38.895999
            ],
            [
              -80.716705,
              39.008326
            ],
            [
              -80.728326,
              39.095679
            ],
            [
              -80.81297,
              39.109401
            ],
            [
              -80.810777,
              39.09947
            ],
            [
              -80.835024,
              39.082376
            ],
            [
              -80.854581,
              39.08392
            ],
            [
              -80.85871,
              39.073957
            ],
            [
              -80.87767,
              39.073423
            ],
            [
              -80.911618,
              39.04624
            ],
            [
              -80.960203,
              39.038022
            ],
            [
              -81.007231,
              39.008785
            ],
            [
              -81.093934,
              39.015583
            ],
            [
              -81.116034,
              39.042482
            ],
            [
              -81.129635,
              39.045182
            ],
            [
              -81.162455,
              39.030608
            ],
            [
              -81.210741,
              39.045181
            ],
            [
              -81.228238,
              39.03228
            ],
            [
              -81.249958,
              39.034837
            ],
            [
              -81.253593,
              39.055924
            ],
            [
              -81.273939,
              39.059179
            ],
            [
              -81.25719,
              39.072103
            ],
            [
              -81.263361,
              39.106971
            ],
            [
              -81.276479,
              39.108137
            ],
            [
              -81.28781,
              39.132747
            ],
            [
              -81.299778,
              39.129827
            ],
            [
              -81.329129,
              39.150071
            ],
            [
              -81.310569,
              39.157942
            ],
            [
              -81.319007,
              39.163126
            ],
            [
              -81.298017,
              39.185572
            ],
            [
              -81.395176,
              39.14045
            ],
            [
              -81.424906,
              39.135679
            ],
            [
              -81.581447,
              39.026179
            ],
            [
              -81.7472527006579,
              39.0953784490132
            ],
            [
              -81.743565,
              39.141933
            ],
            [
              -81.756254,
              39.177276
            ],
            [
              -81.7558150545194,
              39.1805241965567
            ]
          ]
        ]
      }
    }
  ]
}
