{
  "type": "FeatureCollection",
  "features": [
    {
      "type": "Feature",
      "id": "us-cd:119:38:00",
      "properties": {
        "boundary_id": "us-cd:119:38:00",
        "boundary_type": "congressional_district",
        "name": "Congressional District (at Large)",
        "stateFips": "38",
        "congress": 119,
        "district": "00",
        "bbox": [
          -104.04900899977777,
          45.9370950000525,
          -96.55441100031932,
          49.000454000242584
        ]
      },
      "geometry": {
        "type": "Polygon",
        "coordinates": [
          [
            [
              -104.04900399975489,
              48.93307200017488
            ],
            [
              -104.04141599972021,
              47.862685000193615
            ],
            [
              -104.0455469995723,
              45.94530799980371
            ],
            [
              -96.56280400044305,
              45.9370950000525
            ],
            [
              -96.5778819997048,
              46.02717699968935
            ],
            [
              -96.55441100031932,
              46.08407900021954
            ],
            [
              -96.5669200002265,
              46.11475000014133
            ],
            [
              -96.56023400036524,
              46.11656799989038
            ],
            [
              -96.57199900028274,
              46.12456700029767
            ],
            [
              -96.58027299968248,
              46.15107599970776
            ],
            [
              -96.57528099966486,
              46.16901099996308
            ],
            [
              -96.58386200010955,
              46.17059899982145
            ],
            [
              -96.5766359995748,
              46.1739439997119
            ],
            [
              -96.59268200003052,
              46.175211000085305
            ],
            [
              -96.5837609998272,
              46.208059000113685
            ],
            [
              -96.59111399968526,
              46.20868999999032
            ],
            [
              -96.59872900038242,
              46.242317000269715
            ],
            [
              -96.58371499979644,
              46.24980700026849
            ],
            [
              -96.60040200030969,
              46.26174999976877
            ],
            [
              -96.59486399977081,
              46.28634400030905
            ],
            [
              -96.60583299982011,
              46.29386699998249
            ],
            [
              -96.59728599971062,
              46.297760000261974
            ],
            [
              -96.6035859997825,
              46.30253000013476
            ],
            [
              -96.59676699985185,
              46.31700399983724
            ],
            [
              -96.60613800031696,
              46.3266039998134
            ],
            [
              -96.59937899976245,
              46.32998400019154
            ],
            [
              -96.6294029998381,
              46.354318999825395
            ],
            [
              -96.64519400002571,
              46.35066899981356
            ],
            [
              -96.64318499963947,
              46.361934999897585
            ],
            [
              -96.66713499959906,
              46.37557900025521
            ],
            [
              -96.66770899970942,
              46.39124399993267
            ],
            [
              -96.68911299988063,
              46.40683400017679
            ],
            [
              -96.68535500029746,
              46.41421199997456
            ],
            [
              -96.70154999981779,
              46.41506300028834
            ],
            [
              -96.69331300022799,
              46.42208500002899
            ],
            [
              -96.70458100002804,
              46.41799499982386
            ],
            [
              -96.70326899977582,
              46.43729499976068
            ],
            [
              -96.72185299962396,
              46.439829000213145
            ],
            [
              -96.71230299995702,
              46.44128799975678
            ],
            [
              -96.72170600020918,
              46.448821999782204
            ],
            [
              -96.71161099984589,
              46.459783000073664
            ],
            [
              -96.72308299986044,
              46.466717000094846
            ],
            [
              -96.71460600007114,
              46.47226099995988
            ],
            [
              -96.73887499987295,
              46.47870599995215
            ],
            [
              -96.7333930003089,
              46.49698300029602
            ],
            [
              -96.74241499989624,
              46.499975999932694
            ],
            [
              -96.73421599994128,
              46.51212500002708
            ],
            [
              -96.7461649999818,
              46.53488099990882
            ],
            [
              -96.73825999975472,
              46.539294000065496
            ],
            [
              -96.75011599990881,
              46.540758999949595
            ],
            [
              -96.73871500003938,
              46.54322800017262
            ],
            [
              -96.7505440004293,
              46.544131000033715
            ],
            [
              -96.74056899971661,
              46.54683799979629
            ],
            [
              -96.75439700044704,
              46.55681800030004
            ],
            [
              -96.74175000044761,
              46.56399699975834
            ],
            [
              -96.757499999729,
              46.57782999972714
            ],
            [
              -96.74726600034684,
              46.58202200012808
            ],
            [
              -96.76090099983512,
              46.58184300001417
            ],
            [
              -96.75078700010357,
              46.585185000298296
            ],
            [
              -96.76260800009756,
              46.58932399990201
            ],
            [
              -96.7559840001606,
              46.59537900019299
            ],
            [
              -96.77157899963129,
              46.59621299988294
            ],
            [
              -96.76824600019555,
              46.60632400016201
            ],
            [
              -96.77883199993022,
              46.607460000026784
            ],
            [
              -96.77084300003753,
              46.61527000000651
            ],
            [
              -96.79130599967728,
              46.624970999863805
            ],
            [
              -96.78217899960963,
              46.63141200021446
            ],
            [
              -96.79819499992814,
              46.62957300020345
            ],
            [
              -96.78581499989238,
              46.64052299976234
            ],
            [
              -96.80216500012173,
              46.66789699997874
            ],
            [
              -96.79132400011895,
              46.672389999737874
            ],
            [
              -96.79910999962203,
              46.67851800017158
            ],
            [
              -96.78752999965245,
              46.67710300026854
            ],
            [
              -96.79479899984489,
              46.68329700022424
            ],
            [
              -96.78406599979715,
              46.685269999855905
            ],
            [
              -96.79120399957004,
              46.70374700018441
            ],
            [
              -96.7821200000584,
              46.71688800023161
            ],
            [
              -96.79119699989734,
              46.71887399985802
            ],
            [
              -96.77913599970383,
              46.72664200030355
            ],
            [
              -96.78978900028393,
              46.756700999694175
            ],
            [
              -96.77785000028916,
              46.76158800022712
            ],
            [
              -96.7895189999472,
              46.76602400010799
            ],
            [
              -96.7754529995654,
              46.766751000144225
            ],
            [
              -96.78921699982342,
              46.77120999999703
            ],
            [
              -96.78379299998566,
              46.77824700008828
            ],
            [
              -96.79675600035262,
              46.77699899985758
            ],
            [
              -96.78713600036546,
              46.785651000283394
            ],
            [
              -96.80206999968718,
              46.796721999861695
            ],
            [
              -96.79573000033064,
              46.80773299999839
            ],
            [
              -96.80275000010275,
              46.81168999999062
            ],
            [
              -96.79239500034676,
              46.827291999958064
            ],
            [
              -96.78013599978652,
              46.825429000259106
            ],
            [
              -96.79395899959576,
              46.833064000083645
            ],
            [
              -96.77464800037468,
              46.83964700000533
            ],
            [
              -96.78182700015545,
              46.845641000271925
            ],
            [
              -96.77353399959085,
              46.8516880000429
            ],
            [
              -96.78546900028597,
              46.85341399995626
            ],
            [
              -96.77585400032171,
              46.85460100012542
            ],
            [
              -96.78395899966702,
              46.861662999729326
            ],
            [
              -96.78133099986292,
              46.87968700023791
            ],
            [
              -96.76920199989732,
              46.87815899983224
            ],
            [
              -96.77603400024677,
              46.89797699980751
            ],
            [
              -96.75453800001404,
              46.91442000016621
            ],
            [
              -96.76292199991693,
              46.92354000019515
            ],
            [
              -96.75265400019958,
              46.9235429997224
            ],
            [
              -96.76485299958703,
              46.92693799982556
            ],
            [
              -96.75632300009428,
              46.928588999935194
            ],
            [
              -96.76219200017096,
              46.934896999989164
            ],
            [
              -96.79150300021908,
              46.927688999976674
            ],
            [
              -96.79213400023086,
              46.945932999913474
            ],
            [
              -96.80414000017278,
              46.94691100026141
            ],
            [
              -96.79504499989218,
              46.96583800006559
            ],
            [
              -96.8226639997465,
              46.970019999716285
            ],
            [
              -96.82097599975062,
              47.00332600009778
            ],
            [
              -96.83954799990322,
              47.006727999840436
            ],
            [
              -96.82951600018743,
              47.02155000015979
            ],
            [
              -96.8147929998546,
              47.0244010001629
            ],
            [
              -96.8272680003249,
              47.03209500011146
            ],
            [
              -96.81265899979488,
              47.038633999700814
            ],
            [
              -96.82271599962502,
              47.03693700021137
            ],
            [
              -96.81786500007274,
              47.04707699998128
            ],
            [
              -96.82755899967971,
              47.046331999939966
            ],
            [
              -96.81770799971389,
              47.05230899994332
            ],
            [
              -96.83038599967547,
              47.06082299973724
            ],
            [
              -96.81973899984145,
              47.06172900010381
            ],
            [
              -96.8196300000615,
              47.07534200024939
            ],
            [
              -96.82927599998791,
              47.074620000223625
            ],
            [
              -96.8157510001045,
              47.078987000143165
            ],
            [
              -96.81597299986234,
              47.088466000139455
            ],
            [
              -96.82636299977842,
              47.08891999975452
            ],
            [
              -96.8172509997794,
              47.092087999864425
            ],
            [
              -96.81619100032056,
              47.108480999778436
            ],
            [
              -96.83756399963133,
              47.121980000008456
            ],
            [
              -96.82072300003063,
              47.13036899971833
            ],
            [
              -96.83041699963762,
              47.1292240000426
            ],
            [
              -96.8286480003492,
              47.14641900005028
            ],
            [
              -96.84124699976974,
              47.15185599999963
            ],
            [
              -96.82235900014797,
              47.15634099987374
            ],
            [
              -96.83199000000576,
              47.159430999756054
            ],
            [
              -96.81929699997558,
              47.163791999792366
            ],
            [
              -96.82248399982144,
              47.173078999949155
            ],
            [
              -96.83348399983288,
              47.17664399972033
            ],
            [
              -96.82155499988384,
              47.184314000081365
            ],
            [
              -96.84484700006747,
              47.19357999995595
            ],
            [
              -96.82716700004255,
              47.20131599984162
            ],
            [
              -96.83716399959825,
              47.2073240001232
            ],
            [
              -96.8336400003668,
              47.221577000196156
            ],
            [
              -96.84578799970065,
              47.2201100001012
            ],
            [
              -96.83145400042856,
              47.22671100029589
            ],
            [
              -96.8414690004259,
              47.233207999733374
            ],
            [
              -96.82867199974034,
              47.23328600024916
            ],
            [
              -96.84372099958809,
              47.23978799990789
            ],
            [
              -96.83219300039535,
              47.246829999992094
            ],
            [
              -96.8444129996992,
              47.25115500001404
            ],
            [
              -96.83576299965755,
              47.26223100019309
            ],
            [
              -96.84744800010745,
              47.26193300000898
            ],
            [
              -96.83470499984853,
              47.26615499980398
            ],
            [
              -96.8476780002612,
              47.271247000048625
            ],
            [
              -96.84009000022652,
              47.2755760002051
            ],
            [
              -96.84378800043355,
              47.29311300013774
            ],
            [
              -96.83066000021017,
              47.30606599981089
            ],
            [
              -96.84697600010433,
              47.31583400012678
            ],
            [
              -96.82876399980184,
              47.32799499981659
            ],
            [
              -96.84578600005084,
              47.32803700024256
            ],
            [
              -96.83064299959341,
              47.33878599993778
            ],
            [
              -96.84711400019658,
              47.34771099971409
            ],
            [
              -96.83736199996497,
              47.35553600015479
            ],
            [
              -96.85820600026955,
              47.36752999972523
            ],
            [
              -96.83714100003203,
              47.37129100008755
            ],
            [
              -96.85462199986532,
              47.37377999985579
            ],
            [
              -96.83746499989714,
              47.389526999931036
            ],
            [
              -96.85271399976143,
              47.40609399989958
            ],
            [
              -96.84207299977517,
              47.41173800008895
            ],
            [
              -96.87176299993999,
              47.419006000035814
            ],
            [
              -96.85281599986868,
              47.43202999993807
            ],
            [
              -96.86285900035342,
              47.43640299987851
            ],
            [
              -96.85429800000023,
              47.45457500019574
            ],
            [
              -96.86361900023662,
              47.45701000020149
            ],
            [
              -96.8539080000129,
              47.46040300022783
            ],
            [
              -96.86100200030316,
              47.47258800021848
            ],
            [
              -96.85194600038062,
              47.479054999993835
            ],
            [
              -96.86851900019273,
              47.47847300011711
            ],
            [
              -96.85215800009273,
              47.48635100025804
            ],
            [
              -96.86504000026882,
              47.491650999933654
            ],
            [
              -96.84228000036273,
              47.508635999978516
            ],
            [
              -96.85362500015566,
              47.511505999826994
            ],
            [
              -96.84236800022629,
              47.51611599981608
            ],
            [
              -96.86089199979999,
              47.51546500010262
            ],
            [
              -96.8711720001112,
              47.52726800011159
            ],
            [
              -96.85353399991907,
              47.5362130002397
            ],
            [
              -96.86230600015948,
              47.54119500013866
            ],
            [
              -96.84532300026854,
              47.53875199976566
            ],
            [
              -96.8604280001928,
              47.545946999847175
            ],
            [
              -96.84983499988714,
              47.553162999743954
            ],
            [
              -96.86174899976756,
              47.55927899993054
            ],
            [
              -96.84749900016105,
              47.56622599981751
            ],
            [
              -96.86893400029443,
              47.56700199976474
            ],
            [
              -96.85156800008885,
              47.568655000145846
            ],
            [
              -96.86047599987337,
              47.575022000273236
            ],
            [
              -96.8498969998114,
              47.590825999888786
            ],
            [
              -96.85893699984042,
              47.59574199970684
            ],
            [
              -96.85102099974269,
              47.59854399976333
            ],
            [
              -96.85708200033828,
              47.610744999712395
            ],
            [
              -96.8797259998934,
              47.619335999738944
            ],
            [
              -96.87437300020078,
              47.62782399998402
            ],
            [
              -96.88821000025372,
              47.63891099987834
            ],
            [
              -96.88511600029427,
              47.67380799995635
            ],
            [
              -96.89624600000205,
              47.67419399977067
            ],
            [
              -96.91201700009816,
              47.701465000278034
            ],
            [
              -96.92087499965398,
              47.699975999855724
            ],
            [
              -96.91186800013524,
              47.70681700005221
            ],
            [
              -96.9197990003016,
              47.7169280002247
            ],
            [
              -96.93097300039034,
              47.71554700012536
            ],
            [
              -96.91841300042952,
              47.72404099978659
            ],
            [
              -96.9328300004406,
              47.73752299986138
            ],
            [
              -96.92915200032506,
              47.750375999711046
            ],
            [
              -96.93968500035628,
              47.75478799978196
            ],
            [
              -96.92885400039923,
              47.75529599993614
            ],
            [
              -96.93488300030947,
              47.76720900029599
            ],
            [
              -96.96510300020371,
              47.783512000167924
            ],
            [
              -96.95705099966352,
              47.79100700006574
            ],
            [
              -96.96645899993857,
              47.79956900016486
            ],
            [
              -96.99157800003526,
              47.808186999788354
            ],
            [
              -96.97870000005715,
              47.80989200016651
            ],
            [
              -96.9741280001641,
              47.82347400016065
            ],
            [
              -96.98710499987642,
              47.825550000204125
            ],
            [
              -96.98627600039624,
              47.837112999872836
            ],
            [
              -96.99833699969146,
              47.841931999879016
            ],
            [
              -97.00182800020924,
              47.868134000267055
            ],
            [
              -97.02314199996879,
              47.874063000209844
            ],
            [
              -97.01785399967517,
              47.919910999851766
            ],
            [
              -97.05534100011205,
              47.94751500008919
            ],
            [
              -97.0524510003671,
              47.957421999858795
            ],
            [
              -97.06183100015473,
              47.964730999736275
            ],
            [
              -97.05308900005156,
              47.99044400004383
            ],
            [
              -97.07223899961416,
              48.019106999841306
            ],
            [
              -97.07225700005583,
              48.04806800007406
            ],
            [
              -97.10448299996325,
              48.07242799992884
            ],
            [
              -97.0997980000923,
              48.08588400010892
            ],
            [
              -97.10985699957229,
              48.09139499993784
            ],
            [
              -97.10187600007553,
              48.09589599970684
            ],
            [
              -97.12320200042896,
              48.10665000020677
            ],
            [
              -97.13346799959815,
              48.137100999917095
            ],
            [
              -97.12287600001572,
              48.1397500000489
            ],
            [
              -97.14650499958495,
              48.14222000009408
            ],
            [
              -97.12096799991181,
              48.15955199970297
            ],
            [
              -97.14195000030865,
              48.160202000158876
            ],
            [
              -97.14750999969051,
              48.170571999997904
            ],
            [
              -97.13601000008688,
              48.17673999982575
            ],
            [
              -97.14981000032988,
              48.183497999873936
            ],
            [
              -97.13567199997806,
              48.19712599995156
            ],
            [
              -97.14091000004296,
              48.20451999999869
            ],
            [
              -97.12927700036994,
              48.20837700010185
            ],
            [
              -97.13929599966694,
              48.21675499983382
            ],
            [
              -97.11783799996735,
              48.209763999769756
            ],
            [
              -97.1521900004369,
              48.21963600029903
            ],
            [
              -97.12069000007747,
              48.22475399998341
            ],
            [
              -97.14464500005991,
              48.23356200006206
            ],
            [
              -97.13373499956184,
              48.23907500016953
            ],
            [
              -97.14674399995954,
              48.24448400001936
            ],
            [
              -97.12510799998472,
              48.24998300019632
            ],
            [
              -97.13060200014266,
              48.25898200025703
            ],
            [
              -97.12295399983353,
              48.2616660000999
            ],
            [
              -97.14503199967422,
              48.26876599990211
            ],
            [
              -97.11657000009605,
              48.27966100022766
            ],
            [
              -97.12314299997941,
              48.29080899990038
            ],
            [
              -97.13733400003468,
              48.29175699981509
            ],
            [
              -97.1122309998315,
              48.2964720001841
            ],
            [
              -97.12668700020065,
              48.3040040002757
            ],
            [
              -97.12416599962833,
              48.31114199982404
            ],
            [
              -97.13774900013637,
              48.30972900004387
            ],
            [
              -97.11558099988399,
              48.32392800017625
            ],
            [
              -97.14171500013201,
              48.32572900019592
            ],
            [
              -97.12591999974644,
              48.34057900024253
            ],
            [
              -97.15626100001452,
              48.36557799977541
            ],
            [
              -97.13785299989344,
              48.37122400014288
            ],
            [
              -97.13334100027487,
              48.38219600007704
            ],
            [
              -97.16337600022119,
              48.39285700016227
            ],
            [
              -97.13117500042809,
              48.40728100026813
            ],
            [
              -97.13987999982302,
              48.41848700023516
            ],
            [
              -97.15399399988542,
              48.41812099994528
            ],
            [
              -97.12258300011274,
              48.41792099982026
            ],
            [
              -97.14587299974826,
              48.43114799990278
            ],
            [
              -97.12781799980459,
              48.43125599983665
            ],
            [
              -97.12482400030258,
              48.44189599977118
            ],
            [
              -97.15063299996227,
              48.44081599994053
            ],
            [
              -97.12854400025093,
              48.46030099995922
            ],
            [
              -97.147417999629,
              48.47275300003684
            ],
            [
              -97.12816299958611,
              48.474361999722575
            ],
            [
              -97.16266800021651,
              48.47778299974389
            ],
            [
              -97.14029099972677,
              48.48472199977988
            ],
            [
              -97.14301700033849,
              48.49233399975757
            ],
            [
              -97.13150000011811,
              48.48900599987008
            ],
            [
              -97.14919000018878,
              48.50083999972564
            ],
            [
              -97.15026700026439,
              48.5115999999795
            ],
            [
              -97.12675800034577,
              48.52015700022212
            ],
            [
              -97.1524230000654,
              48.52036400024863
            ],
            [
              -97.15359700022537,
              48.529507999904766
            ],
            [
              -97.14135799975664,
              48.535452000289894
            ],
            [
              -97.16598399993383,
              48.54893199995407
            ],
            [
              -97.13895099988544,
              48.55512000020583
            ],
            [
              -97.17542300017101,
              48.56195699977048
            ],
            [
              -97.14917000009729,
              48.570014000184926
            ],
            [
              -97.16063100024118,
              48.58093600008562
            ],
            [
              -97.14389100002452,
              48.58211199980198
            ],
            [
              -97.14227900019662,
              48.59261299989311
            ],
            [
              -97.15402700039569,
              48.59540599992871
            ],
            [
              -97.13429100012885,
              48.60739999998009
            ],
            [
              -97.15064899985582,
              48.61167599987513
            ],
            [
              -97.12957600012068,
              48.61369300025737
            ],
            [
              -97.13385900030872,
              48.622777999712746
            ],
            [
              -97.11949500000108,
              48.618559999994474
            ],
            [
              -97.13114000026799,
              48.63147299981184
            ],
            [
              -97.10944999986651,
              48.63246899986861
            ],
            [
              -97.11569200021208,
              48.64456099976239
            ],
            [
              -97.09869099987948,
              48.66099500014888
            ],
            [
              -97.10922899993356,
              48.66424999986859
            ],
            [
              -97.10056200017347,
              48.66840599982693
            ],
            [
              -97.1012760000259,
              48.6822990001578
            ],
            [
              -97.09031299982439,
              48.68440399994386
            ],
            [
              -97.11990400025499,
              48.701248000149526
            ],
            [
              -97.1101119998404,
              48.70797799985885
            ],
            [
              -97.13742400044636,
              48.72656599995167
            ],
            [
              -97.12834000003643,
              48.732135999861775
            ],
            [
              -97.14213299970844,
              48.7361720000791
            ],
            [
              -97.1375380002492,
              48.74964400025568
            ],
            [
              -97.15379499969379,
              48.75399300001913
            ],
            [
              -97.14545599999676,
              48.76478999996208
            ],
            [
              -97.15898300042828,
              48.77571100028704
            ],
            [
              -97.14746899968262,
              48.78144099979441
            ],
            [
              -97.17404099959855,
              48.793878999775856
            ],
            [
              -97.16326099969513,
              48.8005790001295
            ],
            [
              -97.18164000040221,
              48.79851700014557
            ],
            [
              -97.1581180000648,
              48.81031899995697
            ],
            [
              -97.19027399965204,
              48.815134999968976
            ],
            [
              -97.17388400013803,
              48.83799300005443
            ],
            [
              -97.18292300034213,
              48.846912000009205
            ],
            [
              -97.17309900014048,
              48.850624999937075
            ],
            [
              -97.17916599968557,
              48.862844000167904
            ],
            [
              -97.1905730003011,
              48.86427899971305
            ],
            [
              -97.17781400014866,
              48.875638999843396
            ],
            [
              -97.19939400004698,
              48.88111300009681
            ],
            [
              -97.20162699984088,
              48.891932000041926
            ],
            [
              -97.19001799955899,
              48.895516000015625
            ],
            [
              -97.21139900016401,
              48.90560200000669
            ],
            [
              -97.21980599963311,
              48.92214599978577
            ],
            [
              -97.21440600008481,
              48.93164100022269
            ],
            [
              -97.23399599986345,
              48.9474339998402
            ],
            [
              -97.22749800032317,
              48.962341999746435
            ],
            [
              -97.23861200013742,
              48.966500000268326
            ],
            [
              -97.23826099960984,
              48.98264999996623
            ],
            [
              -97.22896100018815,
              49.000454000242584
            ],
            [
              -104.04869199958536,
              48.99989899978115
            ],
            [
              -104.04900899977777,
              48.93359900013382
            ],
            [
              -104.04900399975489,
              48.93307200017488
            ]
          ]
        ]
      }
    }
  ]
}
