{
  "type": "FeatureCollection",
  "features": [
    {
      "type": "Feature",
      "id": "us-cd:119:60:98",
      "properties": {
        "boundary_id": "us-cd:119:60:98",
        "boundary_type": "congressional_district",
        "name": "Delegate District (at Large)",
        "stateFips": "60",
        "congress": 119,
        "district": "98",
        "bbox": [
          -171.14118100018445,
          -14.601338999679104,
          -168.10222900005152,
          -10.997202999610991
        ]
      },
      "geometry": {
        "type": "MultiPolygon",
        "coordinates": [
          [
            [
              [
                -170.8902909996915,
                -14.317193999908143
              ],
              [
                -170.88369799971665,
                -14.342694000380371
              ],
              [
                -170.86594300024697,
                -14.358575999670562
              ],
              [
                -170.82309899991952,
                -14.37178700006552
              ],
              [
                -170.7743439996826,
                -14.413141999609302
              ],
              [
                -170.73901999961774,
                -14.419949999641435
              ],
              [
                -170.6603900001664,
                -14.371381000415786
              ],
              [
                -170.63746299985576,
                -14.336914000207878
              ],
              [
                -170.58650199958907,
                -14.331033999693233
              ],
              [
                -170.55954100040904,
                -14.338045999649713
              ],
              [
                -170.50943899975977,
                -14.328762999629713
              ],
              [
                -170.4914950001442,
                -14.301690999962668
              ],
              [
                -170.49034100007572,
                -14.282475000064226
              ],
              [
                -170.51059799985114,
                -14.232129999830825
              ],
              [
                -170.5367780001299,
                -14.20433999982959
              ],
              [
                -170.60222800037766,
                -14.200369999693185
              ],
              [
                -170.63662599997966,
                -14.178740000399962
              ],
              [
                -170.66519999971078,
                -14.175947000399097
              ],
              [
                -170.6870919997787,
                -14.182239999787816
              ],
              [
                -170.75000000043602,
                -14.241235000282359
              ],
              [
                -170.84027099995632,
                -14.258017999680803
              ],
              [
                -170.87499999999443,
                -14.287596999775877
              ],
              [
                -170.88846399977848,
                -14.312975999615851
              ],
              [
                -170.8902909996915,
                -14.317193999908143
              ]
            ]
          ],
          [
            [
              [
                -168.22527299982542,
                -14.535906000064916
              ],
              [
                -168.22348000024755,
                -14.561343000276329
              ],
              [
                -168.20675699974933,
                -14.590091999675815
              ],
              [
                -168.1735380003302,
                -14.601338999679104
              ],
              [
                -168.1291020002663,
                -14.597259000270915
              ],
              [
                -168.11039899969416,
                -14.579165999609677
              ],
              [
                -168.10222900005152,
                -14.554034000211553
              ],
              [
                -168.115941000431,
                -14.50022500038028
              ],
              [
                -168.1522279998703,
                -14.477847999909448
              ],
              [
                -168.19952699991495,
                -14.490126000372879
              ],
              [
                -168.22452899983577,
                -14.524510000288116
              ],
              [
                -168.22527299982542,
                -14.535906000064916
              ]
            ]
          ],
          [
            [
              [
                -169.725894999707,
                -14.166149999912957
              ],
              [
                -169.7228040001206,
                -14.189369999864722
              ],
              [
                -169.6803520003286,
                -14.230597000424591
              ],
              [
                -169.6313510000444,
                -14.22796599986506
              ],
              [
                -169.6086460003899,
                -14.237914999951228
              ],
              [
                -169.56684700035098,
                -14.221478999683868
              ],
              [
                -169.5588719998037,
                -14.258916999621205
              ],
              [
                -169.53290199958724,
                -14.274007000024524
              ],
              [
                -169.51888399978432,
                -14.3018020003077
              ],
              [
                -169.50000000036047,
                -14.313015000160377
              ],
              [
                -169.39739800030992,
                -14.307178999860556
              ],
              [
                -169.37067400005802,
                -14.279525000240712
              ],
              [
                -169.36689600038338,
                -14.202075000280747
              ],
              [
                -169.3772050001086,
                -14.181256000406425
              ],
              [
                -169.39518200023446,
                -14.170006999770909
              ],
              [
                -169.50000000036047,
                -14.16605199959548
              ],
              [
                -169.54700899997692,
                -14.184332999620208
              ],
              [
                -169.56236599979624,
                -14.125000000164269
              ],
              [
                -169.5992420003128,
                -14.105391999843272
              ],
              [
                -169.7023160003665,
                -14.120344999662278
              ],
              [
                -169.72526899971808,
                -14.155622999808536
              ],
              [
                -169.725894999707,
                -14.166149999912957
              ]
            ]
          ],
          [
            [
              [
                -171.14118100018445,
                -11.046607999749419
              ],
              [
                -171.1338709999841,
                -11.090533999644016
              ],
              [
                -171.098344000428,
                -11.107868999671174
              ],
              [
                -171.03217299975682,
                -11.105087999844612
              ],
              [
                -171.01137799985602,
                -11.07814300021046
              ],
              [
                -171.01407099995748,
                -11.02370099997208
              ],
              [
                -171.03633799994407,
                -11.002910999743277
              ],
              [
                -171.0746320001198,
                -10.997202999610991
              ],
              [
                -171.11139999978306,
                -11.003791999742562
              ],
              [
                -171.13745399966513,
                -11.030090999711604
              ],
              [
                -171.14116199991787,
                -11.046223000231125
              ],
              [
                -171.14118100018445,
                -11.046607999749419
              ]
            ]
          ]
        ]
      }
    }
  ]
}
