{
  "type": "FeatureCollection",
  "features": [
    {
      "type": "Feature",
      "id": "us-cd:119:19:01",
      "properties": {
        "boundary_id": "us-cd:119:19:01",
        "boundary_type": "congressional_district",
        "name": "1",
        "stateFips": "19",
        "congress": 119,
        "district": "01",
        "bbox": [
          -93.79082799964512,
          40.375658999712776,
          -90.14006100004835,
          42.38215500031303
        ]
      },
      "geometry": {
        "type": "Polygon",
        "coordinates": [
          [
            [
              -93.79082799964512,
              41.394901000264525
            ],
            [
              -93.78919599972573,
              41.162035000256495
            ],
            [
              -92.17997399984553,
              41.16266200033138
            ],
            [
              -92.17977999967677,
              40.60052900008973
            ],
            [
              -91.7291149998416,
              40.61363999995376
            ],
            [
              -91.68635699972786,
              40.58087500004417
            ],
            [
              -91.68870000002495,
              40.557389999944945
            ],
            [
              -91.62007100032726,
              40.54081699976456
            ],
            [
              -91.62135300044226,
              40.51007200019013
            ],
            [
              -91.59081700018052,
              40.49229200020862
            ],
            [
              -91.57473399991488,
              40.465655000138995
            ],
            [
              -91.52508999992332,
              40.45784500034093
            ],
            [
              -91.53362299978912,
              40.43832000015318
            ],
            [
              -91.51913399980802,
              40.432821999668235
            ],
            [
              -91.52461200007244,
              40.41076499974858
            ],
            [
              -91.48848100026873,
              40.40431699967791
            ],
            [
              -91.48525500006481,
              40.38465700019551
            ],
            [
              -91.46355399979267,
              40.38554699968635
            ],
            [
              -91.4638950002745,
              40.375658999712776
            ],
            [
              -91.44124300032348,
              40.386255000044116
            ],
            [
              -91.41942200040073,
              40.37826400032657
            ],
            [
              -91.38420100026804,
              40.386429999965436
            ],
            [
              -91.37255400035133,
              40.40119999976067
            ],
            [
              -91.3817690002825,
              40.44255500013798
            ],
            [
              -91.364210999558,
              40.50004300023655
            ],
            [
              -91.38453099998092,
              40.53094799987357
            ],
            [
              -91.40412499995753,
              40.53912699977687
            ],
            [
              -91.4014820000848,
              40.55945799977442
            ],
            [
              -91.33971900017343,
              40.613487999877435
            ],
            [
              -91.25307399999181,
              40.63796200011664
            ],
            [
              -91.18698000021182,
              40.637296999917375
            ],
            [
              -91.12392799961442,
              40.66915199966745
            ],
            [
              -91.11194000011415,
              40.697018000009614
            ],
            [
              -91.1104239996474,
              40.74552799991186
            ],
            [
              -91.0917030004302,
              40.77970800032544
            ],
            [
              -91.09299300004281,
              40.82107900029624
            ],
            [
              -91.0095360004303,
              40.90056500018016
            ],
            [
              -90.9653439998656,
              40.92163300026804
            ],
            [
              -90.95223300025896,
              40.95404699980919
            ],
            [
              -90.95814199962028,
              40.97976700019891
            ],
            [
              -90.94225300042172,
              41.034702000298104
            ],
            [
              -90.94662500029821,
              41.09662800021577
            ],
            [
              -90.9949629998853,
              41.160630000311265
            ],
            [
              -91.04155700029833,
              41.16616200025672
            ],
            [
              -91.11365700042232,
              41.24140100022516
            ],
            [
              -91.07484100001479,
              41.30557800033002
            ],
            [
              -91.066231999981,
              41.36636700032604
            ],
            [
              -91.05157999979329,
              41.38528299972944
            ],
            [
              -91.04588999981677,
              41.414085000185636
            ],
            [
              -90.98291299956243,
              41.434170999960244
            ],
            [
              -90.92925400006976,
              41.42154400031974
            ],
            [
              -90.84655800016534,
              41.45514099982694
            ],
            [
              -90.74594600023445,
              41.4497300002153
            ],
            [
              -90.65583899984736,
              41.46213199981322
            ],
            [
              -90.59103700022813,
              41.51283200019315
            ],
            [
              -90.54093499957885,
              41.526133000295204
            ],
            [
              -90.5006329997401,
              41.51803300013439
            ],
            [
              -90.46143200026643,
              41.52353299977232
            ],
            [
              -90.4128250001675,
              41.565328999799206
            ],
            [
              -90.34322800017414,
              41.58783300022944
            ],
            [
              -90.34345199958182,
              41.646958999710144
            ],
            [
              -90.33452500042902,
              41.67955899970152
            ],
            [
              -90.31343500007716,
              41.69808200019769
            ],
            [
              -90.31087800041813,
              41.74232500009948
            ],
            [
              -90.27863300024413,
              41.76735800009197
            ],
            [
              -90.18197300006518,
              41.807069999714344
            ],
            [
              -90.18190100009515,
              41.84321600025381
            ],
            [
              -90.15358400028192,
              41.90661399979588
            ],
            [
              -90.15160000001005,
              41.93100200012452
            ],
            [
              -90.1641349998565,
              41.956177999978664
            ],
            [
              -90.14006100004835,
              42.00325199982218
            ],
            [
              -90.16448499966086,
              42.04210500005509
            ],
            [
              -90.16753299958954,
              42.12247500023209
            ],
            [
              -90.20140399983516,
              42.130936999754354
            ],
            [
              -90.21610700007649,
              42.156730000265725
            ],
            [
              -90.35696399994475,
              42.20544500003729
            ],
            [
              -90.39315099982494,
              42.22718599979431
            ],
            [
              -90.43088400030912,
              42.27823000001415
            ],
            [
              -90.4165350000701,
              42.3251089999697
            ],
            [
              -90.47379800005845,
              42.38145800028648
            ],
            [
              -90.66502899966419,
              42.38215500031303
            ],
            [
              -90.66555099989601,
              42.29469900027478
            ],
            [
              -91.36326300025215,
              42.29644499993172
            ],
            [
              -91.36622099976915,
              41.86006900028354
            ],
            [
              -92.29816399969408,
              41.86277900011305
            ],
            [
              -92.29749400022258,
              41.509790000168735
            ],
            [
              -92.75650799980052,
              41.50879399985983
            ],
            [
              -92.75706799966716,
              41.60141099999962
            ],
            [
              -92.7667589997994,
              41.60135500005628
            ],
            [
              -92.76599899991623,
              41.862372999759025
            ],
            [
              -93.34793300031784,
              41.8631039999129
            ],
            [
              -93.34868099960714,
              41.60099900009549
            ],
            [
              -93.32868099974968,
              41.60114799968782
            ],
            [
              -93.32840700011329,
              41.4907940001292
            ],
            [
              -93.3453749999356,
              41.48218500032283
            ],
            [
              -93.35624199987764,
              41.498158999772194
            ],
            [
              -93.36260700024687,
              41.48672300010414
            ],
            [
              -93.38381300005136,
              41.49479899996798
            ],
            [
              -93.40383700019831,
              41.48654800009466
            ],
            [
              -93.39952999972081,
              41.50180800003784
            ],
            [
              -93.42230999971838,
              41.494193999887536
            ],
            [
              -93.413841000325,
              41.507414999724745
            ],
            [
              -93.79061199973505,
              41.51191600016122
            ],
            [
              -93.79081699977446,
              41.39576900002559
            ],
            [
              -93.79082799964512,
              41.394901000264525
            ]
          ]
        ]
      }
    },
    {
      "type": "Feature",
      "id": "us-cd:119:19:02",
      "properties": {
        "boundary_id": "us-cd:119:19:02",
        "boundary_type": "congressional_district",
        "name": "2",
        "stateFips": "19",
        "congress": 119,
        "district": "02",
        "bbox": [
          -93.49957900031033,
          41.50879399985983,
          -90.47379800005845,
          43.500550000079734
        ]
      },
      "geometry": {
        "type": "Polygon",
        "coordinates": [
          [
            [
              -93.49957900031033,
              42.54406799999583
            ],
            [
              -93.49909800008639,
              42.470974999891894
            ],
            [
              -93.46263500002166,
              42.47080200019046
            ],
            [
              -93.46304299955234,
              42.20930200000666
            ],
            [
              -92.76746299960612,
              42.21014000026058
            ],
            [
              -92.7667589997994,
              41.60135500005628
            ],
            [
              -92.75706799966716,
              41.60141099999962
            ],
            [
              -92.75650799980052,
              41.50879399985983
            ],
            [
              -92.29749400022258,
              41.509790000168735
            ],
            [
              -92.29816399969408,
              41.86277900011305
            ],
            [
              -91.36622099976915,
              41.86006900028354
            ],
            [
              -91.36326300025215,
              42.29644499993172
            ],
            [
              -90.66555099989601,
              42.29469900027478
            ],
            [
              -90.66502899966419,
              42.38215500031303
            ],
            [
              -90.47379800005845,
              42.38145800028648
            ],
            [
              -90.5550179996791,
              42.416138000071726
            ],
            [
              -90.56796799962724,
              42.44038900001316
            ],
            [
              -90.65140099984863,
              42.47549000002099
            ],
            [
              -90.65646200036153,
              42.49096199998201
            ],
            [
              -90.63605300025013,
              42.51890899997063
            ],
            [
              -90.70920399961216,
              42.636078000316175
            ],
            [
              -90.94921000044462,
              42.685569000321074
            ],
            [
              -91.06505899964593,
              42.75133800016753
            ],
            [
              -91.0602609997971,
              42.761846999680664
            ],
            [
              -91.06954900042152,
              42.76962800011304
            ],
            [
              -91.07866499972019,
              42.82767799993532
            ],
            [
              -91.09406000007267,
              42.830812999805794
            ],
            [
              -91.10056500018396,
              42.883078000216855
            ],
            [
              -91.14561499964286,
              42.90800600013706
            ],
            [
              -91.14593500020831,
              42.96076999988506
            ],
            [
              -91.17945699957613,
              43.06742700031004
            ],
            [
              -91.17525299992913,
              43.13466499999594
            ],
            [
              -91.14619999962386,
              43.15240499967719
            ],
            [
              -91.12217000019666,
              43.19725500023596
            ],
            [
              -91.06639799966236,
              43.23929300005809
            ],
            [
              -91.05791800039832,
              43.25536600002259
            ],
            [
              -91.07264900022875,
              43.26212900001983
            ],
            [
              -91.07371000041083,
              43.274746000095476
            ],
            [
              -91.10723699980153,
              43.313644999901754
            ],
            [
              -91.20662000021919,
              43.35252399974826
            ],
            [
              -91.21498999987834,
              43.36800600027867
            ],
            [
              -91.19895299964347,
              43.38983500021844
            ],
            [
              -91.20035899960705,
              43.41270099983841
            ],
            [
              -91.2333670000373,
              43.45516799988607
            ],
            [
              -91.2160350001669,
              43.4811419998452
            ],
            [
              -91.21770600044435,
              43.500550000079734
            ],
            [
              -93.49735300018912,
              43.499622000154574
            ],
            [
              -93.49861699986245,
              42.90851199993116
            ],
            [
              -93.02514400044065,
              42.90754900013147
            ],
            [
              -93.02699999976768,
              42.55680999989302
            ],
            [
              -93.49948499970067,
              42.557699999918455
            ],
            [
              -93.49956400024172,
              42.544619000317425
            ],
            [
              -93.49957900031033,
              42.54406799999583
            ]
          ]
        ]
      }
    },
    {
      "type": "Feature",
      "id": "us-cd:119:19:03",
      "properties": {
        "boundary_id": "us-cd:119:19:03",
        "boundary_type": "congressional_district",
        "name": "3",
        "stateFips": "19",
        "congress": 119,
        "district": "03",
        "bbox": [
          -95.38548299972645,
          40.57153099989381,
          -92.17977999967677,
          42.20992000017916
        ]
      },
      "geometry": {
        "type": "Polygon",
        "coordinates": [
          [
            [
              -95.38548299972645,
              40.73182500023592
            ],
            [
              -95.3706180000017,
              40.728241000106834
            ],
            [
              -95.37392299984833,
              40.58050300009157
            ],
            [
              -94.27045600027218,
              40.57153099989381
            ],
            [
              -92.17977999967677,
              40.60052900008973
            ],
            [
              -92.17997399984553,
              41.16266200033138
            ],
            [
              -93.78919599972573,
              41.162035000256495
            ],
            [
              -93.79061199973505,
              41.51191600016122
            ],
            [
              -93.413841000325,
              41.507414999724745
            ],
            [
              -93.42230999971838,
              41.494193999887536
            ],
            [
              -93.39952999972081,
              41.50180800003784
            ],
            [
              -93.40383700019831,
              41.48654800009466
            ],
            [
              -93.38381300005136,
              41.49479899996798
            ],
            [
              -93.36260700024687,
              41.48672300010414
            ],
            [
              -93.35624199987764,
              41.498158999772194
            ],
            [
              -93.3453749999356,
              41.48218500032283
            ],
            [
              -93.32840700011329,
              41.4907940001292
            ],
            [
              -93.32868099974968,
              41.60114799968782
            ],
            [
              -93.34868099960714,
              41.60099900009549
            ],
            [
              -93.34793300031784,
              41.8631039999129
            ],
            [
              -94.16442800000114,
              41.86324299984584
            ],
            [
              -94.16470400018568,
              42.20992000017916
            ],
            [
              -94.62865100022998,
              42.20956400008163
            ],
            [
              -94.62872400002493,
              41.86276299992375
            ],
            [
              -94.74487600007326,
              41.86239400030194
            ],
            [
              -94.7442040000536,
              41.60218500002106
            ],
            [
              -94.7007449996079,
              41.602183999806606
            ],
            [
              -94.70062900015526,
              41.504148000209085
            ],
            [
              -95.15472199986071,
              41.50521099998564
            ],
            [
              -95.15585099981485,
              41.15923599978117
            ],
            [
              -95.38434899974942,
              41.160010999906234
            ],
            [
              -95.38545599996228,
              40.73195199966322
            ],
            [
              -95.38548299972645,
              40.73182500023592
            ]
          ]
        ]
      }
    },
    {
      "type": "Feature",
      "id": "us-cd:119:19:04",
      "properties": {
        "boundary_id": "us-cd:119:19:04",
        "boundary_type": "congressional_district",
        "name": "4",
        "stateFips": "19",
        "congress": 119,
        "district": "04",
        "bbox": [
          -96.6394839999577,
          40.58050300009157,
          -92.76599899991623,
          43.500456000202874
        ]
      },
      "geometry": {
        "type": "Polygon",
        "coordinates": [
          [
            [
              -96.6394839999577,
              42.73696299996138
            ],
            [
              -96.6341889999914,
              42.724305999951
            ],
            [
              -96.62441400019355,
              42.72521199985366
            ],
            [
              -96.63015400039878,
              42.70543799968013
            ],
            [
              -96.60559599999367,
              42.70202000002263
            ],
            [
              -96.61208600003634,
              42.695579999851795
            ],
            [
              -96.59963700040362,
              42.6988540001056
            ],
            [
              -96.59361299961793,
              42.68979399973134
            ],
            [
              -96.59963900005344,
              42.68689299976372
            ],
            [
              -96.57518000028082,
              42.682756999710925
            ],
            [
              -96.57839899991376,
              42.671839999850846
            ],
            [
              -96.56696399970912,
              42.67641699971938
            ],
            [
              -96.55899900010589,
              42.65767900018093
            ],
            [
              -96.54236500019444,
              42.66093400012474
            ],
            [
              -96.53747199991102,
              42.645951000191914
            ],
            [
              -96.51566100003402,
              42.6297110002405
            ],
            [
              -96.53133500004576,
              42.61364200003535
            ],
            [
              -96.50945300002364,
              42.612704000292716
            ],
            [
              -96.48579699979193,
              42.57501999988099
            ],
            [
              -96.4985440002488,
              42.55811600018372
            ],
            [
              -96.4769600001525,
              42.555971999925966
            ],
            [
              -96.4790070001736,
              42.52639400030283
            ],
            [
              -96.49372200011051,
              42.516742000157976
            ],
            [
              -96.47604799993336,
              42.5077830001758
            ],
            [
              -96.47646100038523,
              42.49012800027814
            ],
            [
              -96.40196199988763,
              42.486439999867926
            ],
            [
              -96.38600300036887,
              42.474495999752996
            ],
            [
              -96.38070500002951,
              42.44639299988408
            ],
            [
              -96.41518600037047,
              42.404203000051936
            ],
            [
              -96.40843600003679,
              42.376091999994706
            ],
            [
              -96.4177859996872,
              42.35144899995698
            ],
            [
              -96.37530700013103,
              42.318338999962776
            ],
            [
              -96.36575099971799,
              42.2858139997787
            ],
            [
              -96.32889699984102,
              42.25472300025433
            ],
            [
              -96.32372300024853,
              42.22988700001354
            ],
            [
              -96.35986999994576,
              42.21055300028263
            ],
            [
              -96.34737399955905,
              42.193075000292204
            ],
            [
              -96.34968800044213,
              42.17070200004794
            ],
            [
              -96.30975800014907,
              42.13210100017599
            ],
            [
              -96.26945899978506,
              42.114215999909376
            ],
            [
              -96.27947899980528,
              42.070879999950186
            ],
            [
              -96.2725450002469,
              42.046201999746124
            ],
            [
              -96.22382199979704,
              42.03334600026681
            ],
            [
              -96.22361099990982,
              42.022652000215196
            ],
            [
              -96.2419200002967,
              42.00696300031066
            ],
            [
              -96.23648800006303,
              41.996429000155715
            ],
            [
              -96.19455599995474,
              42.00866200022639
            ],
            [
              -96.18400200000713,
              42.0030629997442
            ],
            [
              -96.18721899999022,
              41.97794600021162
            ],
            [
              -96.12950499991516,
              41.97167299976022
            ],
            [
              -96.14458300007522,
              41.941544000297434
            ],
            [
              -96.13674300014546,
              41.92082600003354
            ],
            [
              -96.16175599993694,
              41.901820000082054
            ],
            [
              -96.14190800041543,
              41.868998999816796
            ],
            [
              -96.11054799979807,
              41.84919899970627
            ],
            [
              -96.106565000084,
              41.819613000228266
            ],
            [
              -96.06479000033453,
              41.794406000080635
            ],
            [
              -96.0812109998107,
              41.75708099991991
            ],
            [
              -96.10635400019682,
              41.73804599975463
            ],
            [
              -96.07322500029105,
              41.704062000014815
            ],
            [
              -96.11346100000756,
              41.697569000099726
            ],
            [
              -96.12260399996873,
              41.68303999985784
            ],
            [
              -96.09522100011597,
              41.65011400012904
            ],
            [
              -96.11827700029806,
              41.614967000040316
            ],
            [
              -96.10945499982896,
              41.59677500010568
            ],
            [
              -96.08138999991081,
              41.577900000161826
            ],
            [
              -96.09510899996299,
              41.54108899986928
            ],
            [
              -96.08265399958417,
              41.52597399996701
            ],
            [
              -96.04061299969592,
              41.50689300017595
            ],
            [
              -96.0266569998173,
              41.54036600031819
            ],
            [
              -96.00511200007907,
              41.54325000017069
            ],
            [
              -95.99277700024918,
              41.51459599987392
            ],
            [
              -96.01954300033385,
              41.491591999726126
            ],
            [
              -96.01358499967041,
              41.478468999693554
            ],
            [
              -95.966688000207,
              41.463425000227055
            ],
            [
              -95.93634000026624,
              41.46530399985403
            ],
            [
              -95.92119199978596,
              41.45513799976162
            ],
            [
              -95.93769400035127,
              41.39477000013392
            ],
            [
              -95.92968100016915,
              41.36705799971541
            ],
            [
              -95.95713699981683,
              41.345902000008046
            ],
            [
              -95.92583499982412,
              41.321579999743
            ],
            [
              -95.88291600005189,
              41.31664699968318
            ],
            [
              -95.87114100008863,
              41.29669000019619
            ],
            [
              -95.87748100034351,
              41.28458300008689
            ],
            [
              -95.90283999974139,
              41.27437399969438
            ],
            [
              -95.91258100010236,
              41.27952700008588
            ],
            [
              -95.90589900043906,
              41.3010379998699
            ],
            [
              -95.92764199964567,
              41.2984399999916
            ],
            [
              -95.92864599992635,
              41.28133200018008
            ],
            [
              -95.914090999823,
              41.27242799989608
            ],
            [
              -95.92230400002167,
              41.26301999980445
            ],
            [
              -95.91062899961751,
              41.234578999898254
            ],
            [
              -95.92725000000851,
              41.19708600003502
            ],
            [
              -95.9161189995775,
              41.185279000300845
            ],
            [
              -95.86165900019377,
              41.18796499999404
            ],
            [
              -95.84161599978027,
              41.17546899994696
            ],
            [
              -95.88254000030825,
              41.15588099975895
            ],
            [
              -95.86242699957457,
              41.089686999754754
            ],
            [
              -95.88234199994154,
              41.0594189997622
            ],
            [
              -95.85965400000548,
              41.0356949998882
            ],
            [
              -95.86695099978701,
              41.0010849998842
            ],
            [
              -95.82907400026112,
              40.97568800003116
            ],
            [
              -95.83974299983646,
              40.93278000006764
            ],
            [
              -95.80947400043672,
              40.891227999796406
            ],
            [
              -95.84859000041993,
              40.86106099968966
            ],
            [
              -95.83718600017744,
              40.83534700012046
            ],
            [
              -95.84534199957639,
              40.811323999846636
            ],
            [
              -95.83523200004278,
              40.77915100003638
            ],
            [
              -95.87902700004916,
              40.75308100027224
            ],
            [
              -95.8889070003273,
              40.73185500016002
            ],
            [
              -95.88317799999271,
              40.71757899972919
            ],
            [
              -95.85261499996679,
              40.70226199984082
            ],
            [
              -95.84280099981089,
              40.67749600025245
            ],
            [
              -95.77625099992132,
              40.64746300010643
            ],
            [
              -95.76892599965237,
              40.62126400032692
            ],
            [
              -95.74862600021923,
              40.603354999832995
            ],
            [
              -95.76564500009518,
              40.58520800014405
            ],
            [
              -95.37392299984833,
              40.58050300009157
            ],
            [
              -95.3706180000017,
              40.728241000106834
            ],
            [
              -95.38548299972645,
              40.73182500023592
            ],
            [
              -95.38434899974942,
              41.160010999906234
            ],
            [
              -95.15585099981485,
              41.15923599978117
            ],
            [
              -95.15472199986071,
              41.50521099998564
            ],
            [
              -94.70062900015526,
              41.504148000209085
            ],
            [
              -94.7007449996079,
              41.602183999806606
            ],
            [
              -94.7442040000536,
              41.60218500002106
            ],
            [
              -94.74487600007326,
              41.86239400030194
            ],
            [
              -94.62872400002493,
              41.86276299992375
            ],
            [
              -94.62870399993344,
              42.209547999798396
            ],
            [
              -94.16470400018568,
              42.20992000017916
            ],
            [
              -94.16442800000114,
              41.86324299984584
            ],
            [
              -92.76599899991623,
              41.862372999759025
            ],
            [
              -92.76746299960612,
              42.21014000026058
            ],
            [
              -93.46304299955234,
              42.20930200000666
            ],
            [
              -93.46263500002166,
              42.47080200019046
            ],
            [
              -93.49909800008639,
              42.470974999891894
            ],
            [
              -93.49948499970067,
              42.557699999918455
            ],
            [
              -93.02699999976768,
              42.55680999989302
            ],
            [
              -93.02514400044065,
              42.90754900013147
            ],
            [
              -93.49861699986245,
              42.90851199993116
            ],
            [
              -93.49735300018912,
              43.499622000154574
            ],
            [
              -96.59919100033979,
              43.500456000202874
            ],
            [
              -96.58108199996946,
              43.481497999829365
            ],
            [
              -96.58241900033606,
              43.466706000233074
            ],
            [
              -96.6030510000302,
              43.45082799997913
            ],
            [
              -96.59414099969754,
              43.433823999711684
            ],
            [
              -96.57028899964725,
              43.428546999728695
            ],
            [
              -96.57355500003415,
              43.41896900003678
            ],
            [
              -96.54442899993394,
              43.39618900021794
            ],
            [
              -96.52524199966311,
              43.396072000113286
            ],
            [
              -96.52166200035516,
              43.38590499970936
            ],
            [
              -96.5220590000152,
              43.37218999968564
            ],
            [
              -96.53096099995194,
              43.36843299987502
            ],
            [
              -96.52427900028864,
              43.34742200005331
            ],
            [
              -96.53508699978114,
              43.33650199986638
            ],
            [
              -96.52696200034435,
              43.305229000088445
            ],
            [
              -96.55205600032669,
              43.29285000021312
            ],
            [
              -96.5884919997289,
              43.296175000047675
            ],
            [
              -96.5794729996163,
              43.29568899982488
            ],
            [
              -96.57756000038785,
              43.27921200010722
            ],
            [
              -96.58565999971027,
              43.26935199976623
            ],
            [
              -96.55265999967595,
              43.25814800003355
            ],
            [
              -96.54918699959981,
              43.246813999755524
            ],
            [
              -96.57148600027176,
              43.2388470001628
            ],
            [
              -96.55932600034406,
              43.222933999962606
            ],
            [
              -96.47665399983076,
              43.221941000253956
            ],
            [
              -96.4740090003082,
              43.18963900025925
            ],
            [
              -96.46485600030128,
              43.18196000016561
            ],
            [
              -96.46849900025673,
              43.15188700023434
            ],
            [
              -96.43647199964262,
              43.120165999897466
            ],
            [
              -96.46231999966035,
              43.09288499986804
            ],
            [
              -96.45407999969751,
              43.083844999744336
            ],
            [
              -96.46074200016766,
              43.06433700015411
            ],
            [
              -96.52130199960673,
              43.039660000307535
            ],
            [
              -96.5110480001331,
              43.03972699979438
            ],
            [
              -96.51203200032228,
              43.02621199975072
            ],
            [
              -96.49198100041117,
              43.01019699975885
            ],
            [
              -96.52083799999956,
              42.98031400016859
            ],
            [
              -96.49896299965013,
              42.9578020000326
            ],
            [
              -96.5198699997039,
              42.93996900010796
            ],
            [
              -96.516835000194,
              42.932347000325024
            ],
            [
              -96.54128300009594,
              42.923926999941436
            ],
            [
              -96.53646699980546,
              42.9056429998798
            ],
            [
              -96.54293000008394,
              42.90375600008505
            ],
            [
              -96.52528699986894,
              42.891909999713064
            ],
            [
              -96.54348499992774,
              42.883765000270515
            ],
            [
              -96.53767000027773,
              42.87846200028093
            ],
            [
              -96.55045100017148,
              42.863547999750125
            ],
            [
              -96.54145499962509,
              42.85686800015504
            ],
            [
              -96.55608300042167,
              42.84923099982213
            ],
            [
              -96.55032200030006,
              42.837530999722155
            ],
            [
              -96.5609440000197,
              42.83913399972301
            ],
            [
              -96.56360399961089,
              42.82817400024241
            ],
            [
              -96.56838200026657,
              42.837781000230024
            ],
            [
              -96.58147000030696,
              42.83772599987574
            ],
            [
              -96.57765400009917,
              42.827791000320815
            ],
            [
              -96.59594500004438,
              42.8149540002767
            ],
            [
              -96.59521399957518,
              42.79289600011976
            ],
            [
              -96.63638199960234,
              42.769740000015034
            ],
            [
              -96.61926200034239,
              42.75460899979663
            ],
            [
              -96.6356119996734,
              42.74189399987402
            ],
            [
              -96.63058600021891,
              42.73528600013895
            ],
            [
              -96.63946700023926,
              42.73703400012326
            ],
            [
              -96.6394839999577,
              42.73696299996138
            ]
          ]
        ]
      }
    }
  ]
}
