{
  "type": "FeatureCollection",
  "features": [
    {
      "type": "Feature",
      "id": "us-cd:118:56:00",
      "properties": {
        "boundary_id": "us-cd:118:56:00",
        "boundary_type": "congressional_district",
        "name": "Congressional District (at Large)",
        "stateFips": "56",
        "congress": 118,
        "district": "00",
        "bbox": [
          -111.054556,
          40.997959,
          -104.053249,
          45.005815
        ]
      },
      "geometry": {
        "type": "Polygon",
        "coordinates": [
          [
            [
              -111.054556,
              45.000955
            ],
            [
              -110.790119,
              45.000883
            ],
            [
              -110.704476,
              44.992174
            ],
            [
              -110.105776,
              45.003533
            ],
            [
              -109.103228,
              45.005815
            ],
            [
              -109.082849,
              44.999551
            ],
            [
              -106.085879,
              44.993463
            ],
            [
              -105.928174,
              44.993487
            ],
            [
              -105.913149,
              45.000238
            ],
            [
              -104.057879,
              44.997605
            ],
            [
              -104.053249,
              41.001406
            ],
            [
              -111.046723,
              40.997959
            ],
            [
              -111.044168,
              43.189244
            ],
            [
              -111.054555345993,
              44.9997350003506
            ],
            [
              -111.054556,
              45.000955
            ]
          ]
        ]
      }
    }
  ]
}
