{
  "type": "FeatureCollection",
  "features": [
    {
      "type": "Feature",
      "id": "us-cd:118:69:98",
      "properties": {
        "boundary_id": "us-cd:118:69:98",
        "boundary_type": "congressional_district",
        "name": "Delegate District (at Large)",
        "stateFips": "69",
        "congress": 118,
        "district": "98",
        "bbox": [
          144.886369,
          14.110571,
          146.063048,
          20.553247
        ]
      },
      "geometry": {
        "type": "MultiPolygon",
        "coordinates": [
          [
            [
              [
                145.632698,
                16.366471
              ],
              [
                145.703519,
                16.369656
              ],
              [
                145.723837,
                16.351229
              ],
              [
                145.702461,
                16.333476
              ],
              [
                145.647191,
                16.332532
              ],
              [
                145.632549,
                16.363996
              ],
              [
                145.632698,
                16.366471
              ]
            ]
          ],
          [
            [
              [
                145.582412,
                15.017776
              ],
              [
                145.596818,
                15.053483
              ],
              [
                145.645259,
                15.100777
              ],
              [
                145.656325,
                15.085713
              ],
              [
                145.658825,
                15.057844
              ],
              [
                145.648607,
                15.033606
              ],
              [
                145.673572,
                15.006534
              ],
              [
                145.661521,
                14.964959
              ],
              [
                145.665449,
                14.949836
              ],
              [
                145.642254,
                14.924257
              ],
              [
                145.630921,
                14.927965
              ],
              [
                145.631751,
                14.954099
              ],
              [
                145.61343,
                14.971366
              ],
              [
                145.608312,
                14.99108
              ],
              [
                145.58489,
                14.995896
              ],
              [
                145.582461,
                15.016516
              ],
              [
                145.582412,
                15.017776
              ]
            ]
          ],
          [
            [
              [
                145.537435,
                14.845598
              ],
              [
                145.578339,
                14.863104
              ],
              [
                145.565047,
                14.845134
              ],
              [
                145.53773,
                14.844222
              ],
              [
                145.537435,
                14.845598
              ]
            ]
          ],
          [
            [
              [
                145.389569,
                19.692076
              ],
              [
                145.401569,
                19.706921
              ],
              [
                145.418065,
                19.69068
              ],
              [
                145.405038,
                19.676186
              ],
              [
                145.390074,
                19.684593
              ],
              [
                145.389569,
                19.692076
              ]
            ]
          ],
          [
            [
              [
                145.227716,
                20.01283
              ],
              [
                145.23345,
                20.028257
              ],
              [
                145.23873,
                20.020173
              ],
              [
                145.227905,
                20.0126074260869
              ],
              [
                145.227716,
                20.01283
              ]
            ]
          ],
          [
            [
              [
                145.215341,
                20.033108
              ],
              [
                145.229721,
                20.03188
              ],
              [
                145.214828,
                20.032291
              ],
              [
                145.215341,
                20.033108
              ]
            ]
          ],
          [
            [
              [
                145.207736,
                20.01971
              ],
              [
                145.210707,
                20.030875
              ],
              [
                145.217764,
                20.012132
              ],
              [
                145.207305,
                20.017293
              ],
              [
                145.207736,
                20.01971
              ]
            ]
          ],
          [
            [
              [
                145.121162,
                14.120639
              ],
              [
                145.159675,
                14.168084
              ],
              [
                145.196439,
                14.174087
              ],
              [
                145.241273,
                14.20024
              ],
              [
                145.290003,
                14.189997
              ],
              [
                145.28335,
                14.160675
              ],
              [
                145.241077,
                14.151374
              ],
              [
                145.212465,
                14.11529
              ],
              [
                145.169892,
                14.110571
              ],
              [
                145.164582,
                14.130235
              ],
              [
                145.14423,
                14.139576
              ],
              [
                145.121159,
                14.119962
              ],
              [
                145.121162,
                14.120639
              ]
            ]
          ],
          [
            [
              [
                144.886921,
                20.544166
              ],
              [
                144.893375,
                20.553247
              ],
              [
                144.902911,
                20.545739
              ],
              [
                144.894295,
                20.536497
              ],
              [
                144.886369,
                20.540206
              ],
              [
                144.886921,
                20.544166
              ]
            ]
          ],
          [
            [
              [
                146.051302,
                16.00657
              ],
              [
                146.063048,
                16.027651
              ],
              [
                146.051449,
                16.00576
              ],
              [
                146.051302,
                16.00657
              ]
            ]
          ],
          [
            [
              [
                145.832385,
                17.315472
              ],
              [
                145.842003,
                17.321288
              ],
              [
                145.852132,
                17.30938
              ],
              [
                145.842709,
                17.297184
              ],
              [
                145.832004,
                17.310947
              ],
              [
                145.832385,
                17.315472
              ]
            ]
          ],
          [
            [
              [
                145.814982,
                17.604046
              ],
              [
                145.823599,
                17.618046
              ],
              [
                145.838013,
                17.619196
              ],
              [
                145.850476,
                17.591756
              ],
              [
                145.829078,
                17.579891
              ],
              [
                145.814588,
                17.601982
              ],
              [
                145.814982,
                17.604046
              ]
            ]
          ],
          [
            [
              [
                145.813069722806,
                15.257911647627
              ],
              [
                145.813243910694,
                15.2581752147233
              ],
              [
                145.813446,
                15.258481
              ],
              [
                145.814487,
                15.258191
              ],
              [
                145.814335,
                15.256603
              ],
              [
                145.813443,
                15.25646
              ],
              [
                145.81276,
                15.257443
              ],
              [
                145.813069722806,
                15.257911647627
              ]
            ]
          ],
          [
            [
              [
                145.790009,
                15.150628
              ],
              [
                145.79094,
                15.151511
              ],
              [
                145.792588,
                15.150435
              ],
              [
                145.792603,
                15.149515
              ],
              [
                145.792556444617,
                15.1494522795532
              ],
              [
                145.792171,
                15.148933
              ],
              [
                145.790108,
                15.149316
              ],
              [
                145.790044597625,
                15.1501562415821
              ],
              [
                145.790009,
                15.150628
              ]
            ]
          ],
          [
            [
              [
                145.766704,
                16.705255
              ],
              [
                145.781164,
                16.717076
              ],
              [
                145.787215,
                16.691949
              ],
              [
                145.766533,
                16.703942
              ],
              [
                145.766704,
                16.705255
              ]
            ]
          ],
          [
            [
              [
                145.711576,
                15.242268
              ],
              [
                145.712805,
                15.242358
              ],
              [
                145.713727,
                15.241111
              ],
              [
                145.713057,
                15.240011
              ],
              [
                145.712143,
                15.240148
              ],
              [
                145.711529,
                15.240658
              ],
              [
                145.711576,
                15.242268
              ]
            ]
          ],
          [
            [
              [
                145.707909,
                18.047577
              ],
              [
                145.716955,
                18.075795
              ],
              [
                145.756529,
                18.099574
              ],
              [
                145.759171,
                18.159772
              ],
              [
                145.777429,
                18.168735
              ],
              [
                145.802003,
                18.162417
              ],
              [
                145.809476,
                18.13233
              ],
              [
                145.794919,
                18.102671
              ],
              [
                145.784773,
                18.109468
              ],
              [
                145.767394,
                18.10303
              ],
              [
                145.738782,
                18.058392
              ],
              [
                145.708696,
                18.045217
              ],
              [
                145.707909,
                18.047577
              ]
            ]
          ],
          [
            [
              [
                145.690141,
                15.120205
              ],
              [
                145.714131,
                15.182931
              ],
              [
                145.717093,
                15.219239
              ],
              [
                145.729582,
                15.218623
              ],
              [
                145.777505,
                15.252911
              ],
              [
                145.810197,
                15.289679
              ],
              [
                145.818875,
                15.286491
              ],
              [
                145.828157,
                15.261527
              ],
              [
                145.810695,
                15.258692
              ],
              [
                145.809827,
                15.240774
              ],
              [
                145.778741,
                15.208897
              ],
              [
                145.778111,
                15.189359
              ],
              [
                145.796123,
                15.166862
              ],
              [
                145.788282,
                15.150485
              ],
              [
                145.761537,
                15.163634
              ],
              [
                145.749538,
                15.158991
              ],
              [
                145.740845,
                15.139241
              ],
              [
                145.756592,
                15.120849
              ],
              [
                145.750483,
                15.093396
              ],
              [
                145.74065,
                15.105097
              ],
              [
                145.708076,
                15.106028
              ],
              [
                145.690466,
                15.119498
              ],
              [
                145.690141,
                15.120205
              ]
            ]
          ],
          [
            [
              [
                145.636306,
                18.777253
              ],
              [
                145.661216,
                18.812781
              ],
              [
                145.695692,
                18.791585
              ],
              [
                145.699524,
                18.762437
              ],
              [
                145.690558,
                18.740819
              ],
              [
                145.667479,
                18.726366
              ],
              [
                145.640691,
                18.753945
              ],
              [
                145.63662,
                18.775646
              ],
              [
                145.636306,
                18.777253
              ]
            ]
          ]
        ]
      }
    }
  ]
}
