{
  "type": "FeatureCollection",
  "features": [
    {
      "type": "Feature",
      "id": "us-cd:119:05:01",
      "properties": {
        "boundary_id": "us-cd:119:05:01",
        "boundary_type": "congressional_district",
        "name": "1",
        "stateFips": "05",
        "congress": 119,
        "district": "01",
        "bbox": [
          -93.30229999962945,
          33.004297999964535,
          -89.64358500014788,
          36.49843300021224
        ]
      },
      "geometry": {
        "type": "Polygon",
        "coordinates": [
          [
            [
              -93.30229999962945,
              36.48263299975426
            ],
            [
              -93.29604899996137,
              36.48163499971448
            ],
            [
              -93.29573000011914,
              36.42776900032284
            ],
            [
              -93.30082000004603,
              36.12154999999583
            ],
            [
              -92.94461799968263,
              36.11554699988166
            ],
            [
              -92.9454959995666,
              36.07167399978449
            ],
            [
              -92.9384690001218,
              36.07166499988307
            ],
            [
              -92.95137300003918,
              35.7246349996611
            ],
            [
              -92.63143000042433,
              35.71838099975596
            ],
            [
              -92.62983699996468,
              35.7908230002382
            ],
            [
              -92.54045699984883,
              35.79006200029762
            ],
            [
              -92.41684599963726,
              35.78863199970429
            ],
            [
              -92.41840899995967,
              35.71602799977315
            ],
            [
              -91.80683399979702,
              35.70455800008069
            ],
            [
              -91.78964500004177,
              35.71178399986297
            ],
            [
              -91.79357699970222,
              35.53407799964915
            ],
            [
              -91.58209400034393,
              35.530331999670274
            ],
            [
              -91.58445400035944,
              35.44230899970187
            ],
            [
              -91.3472569999794,
              35.439105999854135
            ],
            [
              -91.35775200037577,
              35.42927099973845
            ],
            [
              -91.34547299972405,
              35.424153999791535
            ],
            [
              -91.35040000034265,
              35.41043399987651
            ],
            [
              -91.36209300029013,
              35.41256200017682
            ],
            [
              -91.36564599983389,
              35.43052699968716
            ],
            [
              -91.36877800032647,
              35.4078829998159
            ],
            [
              -91.4006860002166,
              35.393100000306184
            ],
            [
              -91.38486800026482,
              35.37473900009301
            ],
            [
              -91.4104939996264,
              35.38522599965619
            ],
            [
              -91.42568099956642,
              35.37508300002371
            ],
            [
              -91.41037700034884,
              35.36149699984954
            ],
            [
              -91.4358100002649,
              35.37122299989432
            ],
            [
              -91.42316499991527,
              35.35690799966845
            ],
            [
              -91.4448140003089,
              35.34628200008381
            ],
            [
              -91.42480600005548,
              35.33182100005048
            ],
            [
              -91.43743399978835,
              35.296117999923155
            ],
            [
              -91.41277300034938,
              35.30334899992767
            ],
            [
              -91.41184199986365,
              35.264834999797
            ],
            [
              -91.38822199961695,
              35.251258999801664
            ],
            [
              -91.378531000383,
              35.26705600010613
            ],
            [
              -91.37104700010539,
              35.26286599970429
            ],
            [
              -91.3889790000254,
              35.236092000035576
            ],
            [
              -91.37819199955098,
              35.222259999646106
            ],
            [
              -91.39479200002556,
              35.221553000114824
            ],
            [
              -91.37994700039232,
              35.21565000010796
            ],
            [
              -91.39055200039355,
              35.20216799974923
            ],
            [
              -91.37763900025534,
              35.197075000248944
            ],
            [
              -91.37898300029462,
              35.18937800015051
            ],
            [
              -91.39367700031514,
              35.193154999695885
            ],
            [
              -91.40413900020123,
              35.21471300007864
            ],
            [
              -91.41306299987929,
              35.194275999710676
            ],
            [
              -91.4304099998183,
              35.193244000153015
            ],
            [
              -91.42641899970829,
              35.18385100009253
            ],
            [
              -91.43589700030354,
              35.18235200016834
            ],
            [
              -91.42131799991074,
              35.17743500030237
            ],
            [
              -91.46314999956162,
              35.16111099966125
            ],
            [
              -91.43393700032111,
              35.15286699985655
            ],
            [
              -91.42864499982952,
              35.1367310000418
            ],
            [
              -91.4518979996551,
              35.13671300025548
            ],
            [
              -91.43888999998063,
              35.118438999887815
            ],
            [
              -91.44409899973323,
              35.10486899964597
            ],
            [
              -91.42837200001804,
              35.111552000056406
            ],
            [
              -91.4252019998906,
              35.103300000010684
            ],
            [
              -91.4520099998081,
              35.102098999763555
            ],
            [
              -91.45208799962592,
              35.088280999995234
            ],
            [
              -91.46168699969665,
              35.102605999946775
            ],
            [
              -91.46526899955272,
              35.08945700035247
            ],
            [
              -91.58400499992256,
              35.09158399976218
            ],
            [
              -91.58516499983884,
              35.02521700001764
            ],
            [
              -91.60822100002093,
              35.020640999828416
            ],
            [
              -91.64023199984321,
              35.02705000012623
            ],
            [
              -91.65725599974202,
              35.05224899974871
            ],
            [
              -91.6800440001355,
              35.05054799967197
            ],
            [
              -91.70128500010011,
              35.063031000220285
            ],
            [
              -91.74458100033918,
              35.04705500033944
            ],
            [
              -91.79965599984116,
              35.04220599990983
            ],
            [
              -91.80250899977621,
              35.03069800022435
            ],
            [
              -91.87518399983547,
              35.023509999960694
            ],
            [
              -91.89473599997929,
              35.032924000205874
            ],
            [
              -91.90255699964247,
              35.02768699991551
            ],
            [
              -91.92837100022335,
              35.04690499973573
            ],
            [
              -91.94952699979913,
              35.044548999818836
            ],
            [
              -91.99575799998901,
              35.05897399974198
            ],
            [
              -92.01275199975059,
              35.076289000196674
            ],
            [
              -92.1193709998504,
              35.06686700011378
            ],
            [
              -92.12154000007023,
              35.01220399987233
            ],
            [
              -92.0708059995843,
              35.01156100005177
            ],
            [
              -92.07551100044503,
              34.84279900020388
            ],
            [
              -92.12217899957959,
              34.8443219998447
            ],
            [
              -92.15150800006938,
              34.82398199971262
            ],
            [
              -92.16142099995947,
              34.78141699969488
            ],
            [
              -92.22073199979384,
              34.754290999669266
            ],
            [
              -92.1505930003755,
              34.70274799987243
            ],
            [
              -92.15417799970629,
              34.673451999879774
            ],
            [
              -92.17323399955758,
              34.640940000313314
            ],
            [
              -92.1502629997643,
              34.60198099966026
            ],
            [
              -92.16757999956607,
              34.57331799970919
            ],
            [
              -92.16063900033498,
              34.56260899989051
            ],
            [
              -92.12670799981493,
              34.55860799994774
            ],
            [
              -92.11730399973786,
              34.54798899993268
            ],
            [
              -92.14555399960392,
              34.51525499995374
            ],
            [
              -92.14373400026186,
              34.49155699964789
            ],
            [
              -91.70525000027084,
              34.482731000236704
            ],
            [
              -91.71167500001619,
              34.233864000218055
            ],
            [
              -91.59910700037209,
              34.23147699997909
            ],
            [
              -91.59481800033626,
              34.21222000029406
            ],
            [
              -91.57650399992652,
              34.22343100036518
            ],
            [
              -91.53833399959935,
              34.2239639996477
            ],
            [
              -91.52830299970847,
              34.21499300005214
            ],
            [
              -91.52739600041048,
              34.18332299964361
            ],
            [
              -91.51469300033456,
              34.171918999750865
            ],
            [
              -91.51542200025561,
              34.14309199980683
            ],
            [
              -91.4964690003365,
              34.14999299989651
            ],
            [
              -91.49294400038184,
              34.12718000035345
            ],
            [
              -91.46308000013974,
              34.135681000327615
            ],
            [
              -91.44281699961822,
              34.12598500010117
            ],
            [
              -91.44245699976811,
              34.08796099965977
            ],
            [
              -91.43149699993964,
              34.08773699966709
            ],
            [
              -91.44507399970159,
              34.0805770000416
            ],
            [
              -91.46294100022257,
              34.085195000255695
            ],
            [
              -91.46221999979913,
              34.06496500001096
            ],
            [
              -91.48338799996878,
              34.058694000238354
            ],
            [
              -91.49035300038764,
              34.07449699993147
            ],
            [
              -91.50923699981145,
              34.075132999813256
            ],
            [
              -91.54519100006316,
              34.10447599981653
            ],
            [
              -91.60423499993381,
              34.08751500035834
            ],
            [
              -91.60570899966943,
              34.11439699977006
            ],
            [
              -91.58401199959526,
              34.12359299981134
            ],
            [
              -91.58599800041529,
              34.13124500017333
            ],
            [
              -91.62442999978495,
              34.12899400012531
            ],
            [
              -91.71762299973557,
              34.17613899971123
            ],
            [
              -91.72738099981497,
              34.17527600012605
            ],
            [
              -91.7267129999933,
              34.06511299982936
            ],
            [
              -91.74472899957888,
              34.06497900002498
            ],
            [
              -91.74509199980204,
              34.09401899975935
            ],
            [
              -91.95365900037444,
              34.09343500018225
            ],
            [
              -91.95302499998962,
              33.97718799980063
            ],
            [
              -91.97644199984674,
              33.977270000198246
            ],
            [
              -91.97586600008655,
              33.79172599994375
            ],
            [
              -91.6637380002871,
              33.79224600004556
            ],
            [
              -91.4502840001774,
              33.78054299986774
            ],
            [
              -91.46037500034272,
              33.00618899965244
            ],
            [
              -91.16589200040808,
              33.004297999964535
            ],
            [
              -91.16075599955212,
              33.02080599966023
            ],
            [
              -91.12763099984431,
              33.03495599981153
            ],
            [
              -91.12066899979853,
              33.05769500013658
            ],
            [
              -91.19991699974116,
              33.1067509996557
            ],
            [
              -91.20181200032458,
              33.124035999812534
            ],
            [
              -91.18321599988255,
              33.141804999974845
            ],
            [
              -91.13394099996194,
              33.129127999995355
            ],
            [
              -91.08601699975333,
              33.13628100010798
            ],
            [
              -91.0804049995946,
              33.180090999857654
            ],
            [
              -91.10025999968714,
              33.21942799997862
            ],
            [
              -91.07080300004912,
              33.22739599976276
            ],
            [
              -91.05050600009073,
              33.25123500025823
            ],
            [
              -91.04386399971207,
              33.27577799993807
            ],
            [
              -91.05518199974084,
              33.28631399971472
            ],
            [
              -91.07804499957909,
              33.28362700008657
            ],
            [
              -91.09851700033798,
              33.23869399982335
            ],
            [
              -91.10578700035535,
              33.24152600022213
            ],
            [
              -91.14137599983576,
              33.298821999781175
            ],
            [
              -91.14221899955962,
              33.348988999759705
            ],
            [
              -91.06469999962073,
              33.418161999873256
            ],
            [
              -91.05810900019402,
              33.44690699973562
            ],
            [
              -91.06912599992391,
              33.45566599991574
            ],
            [
              -91.08703399955446,
              33.45129000008117
            ],
            [
              -91.09971599971401,
              33.40696499970825
            ],
            [
              -91.14296000007455,
              33.37969400000767
            ],
            [
              -91.17250999959896,
              33.38123500012229
            ],
            [
              -91.20803500040358,
              33.401729999905875
            ],
            [
              -91.20004399996277,
              33.418057000094294
            ],
            [
              -91.13274599988556,
              33.42962200027571
            ],
            [
              -91.11705299960725,
              33.454978999943
            ],
            [
              -91.13087899978954,
              33.48055000027215
            ],
            [
              -91.16891799969714,
              33.49821300036772
            ],
            [
              -91.17723700020102,
              33.48591999991968
            ],
            [
              -91.16946599986824,
              33.45293600032464
            ],
            [
              -91.177165000231,
              33.44394199990495
            ],
            [
              -91.20647000043134,
              33.43392400016903
            ],
            [
              -91.23553999955675,
              33.43924200004695
            ],
            [
              -91.23168900008716,
              33.45685800000941
            ],
            [
              -91.20747899983657,
              33.46950999998207
            ],
            [
              -91.18249199998436,
              33.499829999716766
            ],
            [
              -91.21884299989608,
              33.5293819999426
            ],
            [
              -91.2340580003235,
              33.56141499997313
            ],
            [
              -91.16274599967177,
              33.57107199965319
            ],
            [
              -91.13450900022451,
              33.592670999708254
            ],
            [
              -91.12872999966122,
              33.60920399977618
            ],
            [
              -91.15252999983296,
              33.63807899980338
            ],
            [
              -91.21671800005721,
              33.65881800015561
            ],
            [
              -91.23068099960854,
              33.68007900017144
            ],
            [
              -91.21543400029238,
              33.699062000287256
            ],
            [
              -91.16036700028799,
              33.70660199970423
            ],
            [
              -91.13089800005612,
              33.674926000171155
            ],
            [
              -91.0913510000777,
              33.65776400020509
            ],
            [
              -91.03193999978592,
              33.67697200006763
            ],
            [
              -91.03032799995803,
              33.68771599991423
            ],
            [
              -91.05916899965287,
              33.714520000282754
            ],
            [
              -91.11764500015926,
              33.70529900036372
            ],
            [
              -91.1488070004099,
              33.73135999966759
            ],
            [
              -91.14489099974467,
              33.768340000156954
            ],
            [
              -91.13306300007798,
              33.783324000089664
            ],
            [
              -91.10866299985658,
              33.77166800018064
            ],
            [
              -91.05338599978994,
              33.7782830000193
            ],
            [
              -91.01936700030464,
              33.76411999979366
            ],
            [
              -90.98880599992854,
              33.783079000090396
            ],
            [
              -91.00047399976167,
              33.7994829996919
            ],
            [
              -91.04908300040873,
              33.81602599990529
            ],
            [
              -91.06938500038999,
              33.843311999939026
            ],
            [
              -91.07131100003724,
              33.87081300018814
            ],
            [
              -91.03302100005948,
              33.89982100002051
            ],
            [
              -91.01024600008478,
              33.93217200016101
            ],
            [
              -91.01912999957986,
              33.942081000103826
            ],
            [
              -91.08646000034243,
              33.95780400031779
            ],
            [
              -91.08638599982426,
              34.00612900012963
            ],
            [
              -91.07310000031546,
              34.00862000025725
            ],
            [
              -91.04666999979145,
              33.99243399979844
            ],
            [
              -91.01894800000498,
              34.00322500028738
            ],
            [
              -90.99895099962224,
              33.96560400035792
            ],
            [
              -90.96617300024407,
              33.96466300028876
            ],
            [
              -90.96141200020514,
              33.97924899964276
            ],
            [
              -90.98818400013761,
              34.0192110003212
            ],
            [
              -90.8939989996019,
              34.02620699994236
            ],
            [
              -90.87112200041825,
              34.080248999759405
            ],
            [
              -90.88312599981205,
              34.09672900036854
            ],
            [
              -90.91886099978063,
              34.092843000156996
            ],
            [
              -90.94564000028411,
              34.10796500036833
            ],
            [
              -90.95864399976061,
              34.135483999955284
            ],
            [
              -90.90995700019408,
              34.165511000251094
            ],
            [
              -90.84528299972304,
              34.13688600012082
            ],
            [
              -90.82259300013715,
              34.14405399980175
            ],
            [
              -90.80721899970108,
              34.16371299977407
            ],
            [
              -90.81748800014164,
              34.183197999803
            ],
            [
              -90.8867460002013,
              34.18250100012583
            ],
            [
              -90.90821499977152,
              34.19207099975716
            ],
            [
              -90.9345440000132,
              34.217853999831114
            ],
            [
              -90.93554800029386,
              34.237846999881384
            ],
            [
              -90.9063340003301,
              34.24438199997882
            ],
            [
              -90.89227899981896,
              34.222891000005184
            ],
            [
              -90.84714899999413,
              34.206129999731466
            ],
            [
              -90.83177299990824,
              34.27693599995768
            ],
            [
              -90.76562300005175,
              34.26951299967027
            ],
            [
              -90.73802500011385,
              34.28927899991934
            ],
            [
              -90.73639900004225,
              34.3120670000512
            ],
            [
              -90.76869100007191,
              34.34778199986428
            ],
            [
              -90.76439299981527,
              34.36367499983231
            ],
            [
              -90.71580300033311,
              34.360335000320525
            ],
            [
              -90.67630499986018,
              34.37126099975857
            ],
            [
              -90.69312899974243,
              34.322569999965815
            ],
            [
              -90.66934299981438,
              34.31308799966348
            ],
            [
              -90.65748800038351,
              34.3222309997173
            ],
            [
              -90.6668530001025,
              34.35577300011408
            ],
            [
              -90.65714199987876,
              34.377397000088045
            ],
            [
              -90.64090899982529,
              34.38886300028634
            ],
            [
              -90.60959699978683,
              34.391585999999904
            ],
            [
              -90.58623199980828,
              34.40917199998166
            ],
            [
              -90.57769399991959,
              34.43244500013448
            ],
            [
              -90.59266199957649,
              34.490579000134026
            ],
            [
              -90.57932400018915,
              34.518035000066305
            ],
            [
              -90.54408200014008,
              34.53774199999026
            ],
            [
              -90.53962300022494,
              34.5539250001368
            ],
            [
              -90.59159500044495,
              34.621011999706276
            ],
            [
              -90.56840700001838,
              34.668878000174935
            ],
            [
              -90.57010199968695,
              34.69343200020476
            ],
            [
              -90.54192799998887,
              34.68386200012987
            ],
            [
              -90.55488499960971,
              34.64516799972852
            ],
            [
              -90.5342069998848,
              34.62746199992124
            ],
            [
              -90.50604099968433,
              34.63823700030012
            ],
            [
              -90.46288300043582,
              34.683804999945615
            ],
            [
              -90.47416600030448,
              34.705277000166895
            ],
            [
              -90.52956200019683,
              34.69583399963226
            ],
            [
              -90.57194399966862,
              34.71277699982832
            ],
            [
              -90.56666700014397,
              34.735000000181756
            ],
            [
              -90.5455559998757,
              34.73888899988701
            ],
            [
              -90.53978600043156,
              34.75430399985097
            ],
            [
              -90.54416699963058,
              34.791667000016666
            ],
            [
              -90.51388900001,
              34.800000000019
            ],
            [
              -90.49277699991683,
              34.77249900023054
            ],
            [
              -90.4941479997203,
              34.757567999951846
            ],
            [
              -90.52416599994818,
              34.73138799998057
            ],
            [
              -90.51666599977706,
              34.72722200025411
            ],
            [
              -90.48333299965678,
              34.72222199964084
            ],
            [
              -90.44816799960059,
              34.7401029999565
            ],
            [
              -90.47658400004633,
              34.79400399994665
            ],
            [
              -90.47037400038613,
              34.81155400003441
            ],
            [
              -90.45537900006673,
              34.82078499969901
            ],
            [
              -90.48349800041153,
              34.860460000017675
            ],
            [
              -90.48090599969412,
              34.881592000054304
            ],
            [
              -90.46227199961723,
              34.8917380001373
            ],
            [
              -90.43656000004192,
              34.88273200010365
            ],
            [
              -90.42940800002533,
              34.86640600008347
            ],
            [
              -90.44969099974004,
              34.839919999787845
            ],
            [
              -90.43872900026173,
              34.825247999854845
            ],
            [
              -90.38939300024177,
              34.830665000282934
            ],
            [
              -90.33844899969355,
              34.85851699996823
            ],
            [
              -90.30849300028827,
              34.84548600004515
            ],
            [
              -90.30287899958141,
              34.85753500029499
            ],
            [
              -90.31774099983141,
              34.87105799985807
            ],
            [
              -90.25785800043484,
              34.89338499996745
            ],
            [
              -90.24133400012825,
              34.91903300023614
            ],
            [
              -90.24517999957494,
              34.9478989996735
            ],
            [
              -90.29515900020057,
              34.97563400002137
            ],
            [
              -90.30782399974335,
              34.99290399987929
            ],
            [
              -90.29660699999692,
              35.038671999650454
            ],
            [
              -90.26554400037882,
              35.040581999696236
            ],
            [
              -90.2069969997273,
              35.025849000075624
            ],
            [
              -90.18115700010547,
              35.053942999695494
            ],
            [
              -90.17931000010094,
              35.067803000064586
            ],
            [
              -90.18778699989024,
              35.073218000185484
            ],
            [
              -90.16790000001066,
              35.12113200012996
            ],
            [
              -90.13866900032846,
              35.131519000147776
            ],
            [
              -90.09190599986105,
              35.11945899976304
            ],
            [
              -90.06621000017927,
              35.13922400032089
            ],
            [
              -90.06823600028393,
              35.1556699999391
            ],
            [
              -90.11719099963909,
              35.18829700005341
            ],
            [
              -90.11590500022444,
              35.19874199996443
            ],
            [
              -90.09679800031955,
              35.19478100031177
            ],
            [
              -90.08879500018315,
              35.212199000000965
            ],
            [
              -90.07584299968688,
              35.213094000248304
            ],
            [
              -90.09109199955118,
              35.2450039997621
            ],
            [
              -90.1084050000533,
              35.255275999848735
            ],
            [
              -90.14885800040311,
              35.25427300033461
            ],
            [
              -90.1689169998118,
              35.27971099984211
            ],
            [
              -90.15732500014666,
              35.30149199965057
            ],
            [
              -90.10996599982757,
              35.30498800029135
            ],
            [
              -90.07916000012742,
              35.38246900031253
            ],
            [
              -90.1131150000386,
              35.41059500030101
            ],
            [
              -90.13223500036229,
              35.413662999890455
            ],
            [
              -90.14614000018729,
              35.39978799981796
            ],
            [
              -90.13567599975306,
              35.37669600001013
            ],
            [
              -90.16528200025229,
              35.37398200009809
            ],
            [
              -90.179341999888,
              35.385313000008935
            ],
            [
              -90.16888000000189,
              35.42187799971422
            ],
            [
              -90.1294350001307,
              35.4421189998097
            ],
            [
              -90.11903099997093,
              35.468039000172126
            ],
            [
              -90.10111999996732,
              35.47806800015322
            ],
            [
              -90.0682689998959,
              35.46707400008898
            ],
            [
              -90.0740979997896,
              35.4341400003082
            ],
            [
              -90.06201800022782,
              35.41517999999456
            ],
            [
              -90.0695280004447,
              35.40813200025054
            ],
            [
              -90.0543220002381,
              35.389277000150415
            ],
            [
              -90.04156300008567,
              35.39662000024838
            ],
            [
              -90.05678199981274,
              35.40386299987532
            ],
            [
              -90.04808599974032,
              35.4117370001101
            ],
            [
              -90.00266800003541,
              35.42998500018529
            ],
            [
              -90.0125309996968,
              35.463667999970575
            ],
            [
              -90.04833299961254,
              35.504246000113326
            ],
            [
              -90.03987599991471,
              35.54741799972399
            ],
            [
              -90.0300190001011,
              35.55480500028479
            ],
            [
              -89.98966700003365,
              35.56022100023439
            ],
            [
              -89.95809200022946,
              35.541226999656764
            ],
            [
              -89.95874900018049,
              35.52383700034808
            ],
            [
              -89.90893399958641,
              35.5142399999014
            ],
            [
              -89.90213200027252,
              35.52812199965181
            ],
            [
              -89.91336300026263,
              35.535942000071486
            ],
            [
              -89.91068100003183,
              35.547450999872126
            ],
            [
              -89.94210299967513,
              35.55699699969444
            ],
            [
              -89.95756800034782,
              35.58853099965055
            ],
            [
              -89.91127500023367,
              35.61759399965834
            ],
            [
              -89.8921349998185,
              35.615720999719585
            ],
            [
              -89.85813100040181,
              35.63343200034029
            ],
            [
              -89.85116199978502,
              35.65713900017643
            ],
            [
              -89.8631150000235,
              35.67051900028476
            ],
            [
              -89.89423600026625,
              35.65160499978649
            ],
            [
              -89.92545299987015,
              35.658206000250225
            ],
            [
              -89.95584099999388,
              35.690399000312695
            ],
            [
              -89.95811999981854,
              35.72693200008001
            ],
            [
              -89.90746099967569,
              35.75928799972853
            ],
            [
              -89.89284100017333,
              35.75058899973506
            ],
            [
              -89.86306399996987,
              35.75713400011454
            ],
            [
              -89.84418899986858,
              35.7430949999204
            ],
            [
              -89.82545100003463,
              35.74518800009982
            ],
            [
              -89.79941600041913,
              35.75810799982473
            ],
            [
              -89.79956500038205,
              35.788330999893965
            ],
            [
              -89.78166199987604,
              35.80522799981773
            ],
            [
              -89.76539100018773,
              35.81120699989446
            ],
            [
              -89.72920099993448,
              35.80252500000853
            ],
            [
              -89.70814900011577,
              35.812464000026026
            ],
            [
              -89.69480199960927,
              35.82295700031986
            ],
            [
              -89.69470899972285,
              35.83476900003584
            ],
            [
              -89.76792299973238,
              35.86001699975227
            ],
            [
              -89.77049899965797,
              35.88584900011899
            ],
            [
              -89.74666699969916,
              35.90946999978913
            ],
            [
              -89.73055199964647,
              35.91169999966001
            ],
            [
              -89.6632839997065,
              35.87470300022151
            ],
            [
              -89.64358500014788,
              35.8897419998037
            ],
            [
              -89.64430700039625,
              35.92094300028091
            ],
            [
              -89.71849700019905,
              35.963122999999364
            ],
            [
              -89.73305599960203,
              36.00080900023511
            ],
            [
              -90.37790000031082,
              35.995744999999246
            ],
            [
              -90.33687399967557,
              36.04723799973037
            ],
            [
              -90.33334500042128,
              36.067475999959974
            ],
            [
              -90.32062100042893,
              36.07131999973771
            ],
            [
              -90.31961200012539,
              36.089569999825954
            ],
            [
              -90.30018499965504,
              36.09771899974968
            ],
            [
              -90.29306000030095,
              36.11443000005642
            ],
            [
              -90.23544499996008,
              36.13939500027025
            ],
            [
              -90.2353470000508,
              36.15954000019728
            ],
            [
              -90.2203459998836,
              36.18453999970467
            ],
            [
              -90.12625699960736,
              36.2292139996634
            ],
            [
              -90.13088299992707,
              36.24137199981035
            ],
            [
              -90.11706799961544,
              36.2634870001383
            ],
            [
              -90.08352899963086,
              36.272122000269064
            ],
            [
              -90.06419300029542,
              36.30250200030505
            ],
            [
              -90.08238200013338,
              36.321996999818076
            ],
            [
              -90.06350399965902,
              36.384080999787734
            ],
            [
              -90.08152000014293,
              36.40109600008557
            ],
            [
              -90.13850299974881,
              36.41372599975548
            ],
            [
              -90.13440299985888,
              36.42287700018475
            ],
            [
              -90.14431199955102,
              36.4260180002303
            ],
            [
              -90.13395299959708,
              36.45378099965882
            ],
            [
              -90.1430069998698,
              36.46795999974526
            ],
            [
              -90.15540699999703,
              36.46379500013937
            ],
            [
              -90.14239199975155,
              36.47139900023911
            ],
            [
              -90.15954399969688,
              36.48024399967595
            ],
            [
              -90.1523070001898,
              36.4979820003251
            ],
            [
              -93.29317400028503,
              36.49843300021224
            ],
            [
              -93.30226700001748,
              36.48271100005093
            ],
            [
              -93.30229999962945,
              36.48263299975426
            ]
          ]
        ]
      }
    },
    {
      "type": "Feature",
      "id": "us-cd:119:05:02",
      "properties": {
        "boundary_id": "us-cd:119:05:02",
        "boundary_type": "congressional_district",
        "name": "2",
        "stateFips": "05",
        "congress": 119,
        "district": "02",
        "bbox": [
          -93.30588300020877,
          34.41110900001102,
          -91.34547299972405,
          35.7908230002382
        ]
      },
      "geometry": {
        "type": "Polygon",
        "coordinates": [
          [
            [
              -93.30588300020877,
              34.86119899981255
            ],
            [
              -93.28828299965146,
              34.860869999927914
            ],
            [
              -93.28778499970909,
              34.77324200001021
            ],
            [
              -92.96931699965475,
              34.772262999810344
            ],
            [
              -92.96975400039608,
              34.68476899982952
            ],
            [
              -92.97905399981775,
              34.68488600008606
            ],
            [
              -92.97997799973248,
              34.63724899977932
            ],
            [
              -92.87539399995818,
              34.63519600011825
            ],
            [
              -92.8769160002727,
              34.59116999993412
            ],
            [
              -92.80802800010892,
              34.5904060002058
            ],
            [
              -92.80895200002362,
              34.56224800011193
            ],
            [
              -92.79149799995452,
              34.561984999680114
            ],
            [
              -92.79318900032344,
              34.50357300025553
            ],
            [
              -92.73826399971098,
              34.50324100020424
            ],
            [
              -92.73882100010289,
              34.47393199997362
            ],
            [
              -92.68506600035076,
              34.473102000037535
            ],
            [
              -92.6861889995588,
              34.41469599987284
            ],
            [
              -92.62103200011232,
              34.41110900001102
            ],
            [
              -92.62337700005924,
              34.42539400021965
            ],
            [
              -92.58946900000369,
              34.455577000230214
            ],
            [
              -92.40466999981601,
              34.4518919997866
            ],
            [
              -92.40337199980748,
              34.495706999722366
            ],
            [
              -92.24584099984479,
              34.49358400025982
            ],
            [
              -92.24421200029846,
              34.58088999965441
            ],
            [
              -92.3486920003157,
              34.582289000106464
            ],
            [
              -92.34646100017162,
              34.62563500024984
            ],
            [
              -92.3819430004202,
              34.62633800003716
            ],
            [
              -92.38095000001019,
              34.65175100035918
            ],
            [
              -92.36317100025104,
              34.655086000338564
            ],
            [
              -92.36153000011086,
              34.67745499993697
            ],
            [
              -92.31688499980959,
              34.67977799983048
            ],
            [
              -92.29337199969302,
              34.70445099993306
            ],
            [
              -92.23715099962016,
              34.71687199990692
            ],
            [
              -92.23773899997421,
              34.69344699975669
            ],
            [
              -92.22094400040426,
              34.69310800020862
            ],
            [
              -92.22142399990497,
              34.67838599974327
            ],
            [
              -92.20386299970573,
              34.67824600001892
            ],
            [
              -92.20432100036345,
              34.66365299987513
            ],
            [
              -92.19024300028607,
              34.6633809996486
            ],
            [
              -92.19040800014251,
              34.63817999976561
            ],
            [
              -92.17319199972478,
              34.63842900006186
            ],
            [
              -92.15417799970629,
              34.673451999879774
            ],
            [
              -92.1505930003755,
              34.70274799987243
            ],
            [
              -92.22073199979384,
              34.754290999669266
            ],
            [
              -92.16142099995947,
              34.78141699969488
            ],
            [
              -92.15150800006938,
              34.82398199971262
            ],
            [
              -92.12217899957959,
              34.8443219998447
            ],
            [
              -92.07551100044503,
              34.84279900020388
            ],
            [
              -92.0708059995843,
              35.01156100005177
            ],
            [
              -92.12154000007023,
              35.01220399987233
            ],
            [
              -92.11974800031729,
              35.06655999970349
            ],
            [
              -92.01275199975059,
              35.076289000196674
            ],
            [
              -91.99575799998901,
              35.05897399974198
            ],
            [
              -91.94952699979913,
              35.044548999818836
            ],
            [
              -91.92837100022335,
              35.04690499973573
            ],
            [
              -91.90255699964247,
              35.02768699991551
            ],
            [
              -91.89473599997929,
              35.032924000205874
            ],
            [
              -91.87518399983547,
              35.023509999960694
            ],
            [
              -91.80250899977621,
              35.03069800022435
            ],
            [
              -91.79965599984116,
              35.04220599990983
            ],
            [
              -91.74458100033918,
              35.04705500033944
            ],
            [
              -91.70128500010011,
              35.063031000220285
            ],
            [
              -91.6800440001355,
              35.05054799967197
            ],
            [
              -91.65725599974202,
              35.05224899974871
            ],
            [
              -91.64023199984321,
              35.02705000012623
            ],
            [
              -91.60822100002093,
              35.020640999828416
            ],
            [
              -91.58516499983884,
              35.02521700001764
            ],
            [
              -91.58400499992256,
              35.09158399976218
            ],
            [
              -91.46526899955272,
              35.08945700035247
            ],
            [
              -91.46168699969665,
              35.102605999946775
            ],
            [
              -91.45059499962369,
              35.088607999769515
            ],
            [
              -91.45231899960459,
              35.10191400035815
            ],
            [
              -91.42412499981504,
              35.10559999986633
            ],
            [
              -91.4287629998303,
              35.11155699999087
            ],
            [
              -91.44409899973323,
              35.10486899964597
            ],
            [
              -91.43888999998063,
              35.118438999887815
            ],
            [
              -91.4514969997971,
              35.139710999991
            ],
            [
              -91.42806900006934,
              35.13814699965707
            ],
            [
              -91.43491599958908,
              35.15381900013944
            ],
            [
              -91.46314999956162,
              35.16111099966125
            ],
            [
              -91.42131799991074,
              35.17743500030237
            ],
            [
              -91.43589700030354,
              35.18235200016834
            ],
            [
              -91.42641899970829,
              35.18385100009253
            ],
            [
              -91.4304099998183,
              35.193244000153015
            ],
            [
              -91.41306299987929,
              35.194275999710676
            ],
            [
              -91.40413900020123,
              35.21471300007864
            ],
            [
              -91.39367700031514,
              35.193154999695885
            ],
            [
              -91.37898300029462,
              35.18937800015051
            ],
            [
              -91.37763900025534,
              35.197075000248944
            ],
            [
              -91.39055200039355,
              35.20216799974923
            ],
            [
              -91.37994700039232,
              35.21565000010796
            ],
            [
              -91.39479200002556,
              35.221553000114824
            ],
            [
              -91.37819199955098,
              35.222259999646106
            ],
            [
              -91.3889790000254,
              35.236092000035576
            ],
            [
              -91.37102199999106,
              35.260541000329184
            ],
            [
              -91.37809700001475,
              35.26730999981536
            ],
            [
              -91.38869100014531,
              35.251282999935036
            ],
            [
              -91.41184199986365,
              35.264834999797
            ],
            [
              -91.41400400041078,
              35.30461300003003
            ],
            [
              -91.43743399978835,
              35.296117999923155
            ],
            [
              -91.42480600005548,
              35.33182100005048
            ],
            [
              -91.4448140003089,
              35.34628200008381
            ],
            [
              -91.42297999996735,
              35.35806999987566
            ],
            [
              -91.43860899977325,
              35.36851499992097
            ],
            [
              -91.41101900023126,
              35.36091100014977
            ],
            [
              -91.42568099956642,
              35.37508300002371
            ],
            [
              -91.4064049996071,
              35.38639300001045
            ],
            [
              -91.38486800026482,
              35.37473900009301
            ],
            [
              -91.4006860002166,
              35.393100000306184
            ],
            [
              -91.36877800032647,
              35.4078829998159
            ],
            [
              -91.36564599983389,
              35.43052699968716
            ],
            [
              -91.36209300029013,
              35.41256200017682
            ],
            [
              -91.35040000034265,
              35.41043399987651
            ],
            [
              -91.34547299972405,
              35.424153999791535
            ],
            [
              -91.35775200037577,
              35.42927099973845
            ],
            [
              -91.3472569999794,
              35.439105999854135
            ],
            [
              -91.58445400035944,
              35.44230899970187
            ],
            [
              -91.58209400034393,
              35.530331999670274
            ],
            [
              -91.79357699970222,
              35.53407799964915
            ],
            [
              -91.78964500004177,
              35.71178399986297
            ],
            [
              -91.80683399979702,
              35.70455800008069
            ],
            [
              -92.41840899995967,
              35.71602799977315
            ],
            [
              -92.41684599963726,
              35.78863199970429
            ],
            [
              -92.62983699996468,
              35.7908230002382
            ],
            [
              -92.63143000042433,
              35.71838099975596
            ],
            [
              -92.8097450004171,
              35.72241700031273
            ],
            [
              -92.81346199999241,
              35.5489169996605
            ],
            [
              -92.84927700032691,
              35.54947399996103
            ],
            [
              -92.85509600017488,
              35.17383899976614
            ],
            [
              -92.92495099991109,
              35.16798199985742
            ],
            [
              -92.97878699985408,
              35.13153200017015
            ],
            [
              -92.98131799957382,
              35.116837999918104
            ],
            [
              -93.01871600032224,
              35.11847899964807
            ],
            [
              -93.03965799963778,
              35.109881999638134
            ],
            [
              -93.02543399997056,
              35.09000200020998
            ],
            [
              -93.05125299967598,
              35.076874999968524
            ],
            [
              -93.05149100022567,
              35.06235200016444
            ],
            [
              -93.06922300012913,
              35.06262600027324
            ],
            [
              -93.06942499979549,
              35.048087000291815
            ],
            [
              -93.08720100007989,
              35.04827500021605
            ],
            [
              -93.08726300000416,
              35.03394200017269
            ],
            [
              -93.10556399999513,
              35.03427699976805
            ],
            [
              -93.1059489999596,
              35.018127999847444
            ],
            [
              -93.12373600011465,
              35.01860500020777
            ],
            [
              -93.1240650000026,
              35.00409999965428
            ],
            [
              -93.14176900031698,
              35.00463899995719
            ],
            [
              -93.1421650001521,
              34.990165000313816
            ],
            [
              -93.16016200036944,
              34.990457000048046
            ],
            [
              -93.1601940001565,
              34.97584799981111
            ],
            [
              -93.18135399993024,
              34.97629500009615
            ],
            [
              -93.18173300004693,
              34.96190300005118
            ],
            [
              -93.20001700031943,
              34.96232599990118
            ],
            [
              -93.20049199979728,
              34.94759100022396
            ],
            [
              -93.21733800031917,
              34.947781999751115
            ],
            [
              -93.21745200012198,
              34.932697999828825
            ],
            [
              -93.2350629996516,
              34.93259200011578
            ],
            [
              -93.2350180003441,
              34.918091000142944
            ],
            [
              -93.25230099981067,
              34.91820899999003
            ],
            [
              -93.25257500034537,
              34.90379099987075
            ],
            [
              -93.27037400019599,
              34.90368000025928
            ],
            [
              -93.27066700009895,
              34.88912300004178
            ],
            [
              -93.28818399991727,
              34.88887199968853
            ],
            [
              -93.2883499995986,
              34.87526799965481
            ],
            [
              -93.30568200036731,
              34.875462999787565
            ],
            [
              -93.30588200038385,
              34.86138699989289
            ],
            [
              -93.30588300020877,
              34.86119899981255
            ]
          ]
        ]
      }
    },
    {
      "type": "Feature",
      "id": "us-cd:119:05:03",
      "properties": {
        "boundary_id": "us-cd:119:05:03",
        "boundary_type": "congressional_district",
        "name": "3",
        "stateFips": "05",
        "congress": 119,
        "district": "03",
        "bbox": [
          -94.61785700008286,
          35.12895199982726,
          -93.29298500013915,
          36.4995320000372
        ]
      },
      "geometry": {
        "type": "Polygon",
        "coordinates": [
          [
            [
              -94.61785700008286,
              36.4995320000372
            ],
            [
              -94.43101400024715,
              35.393167000274346
            ],
            [
              -94.43679100026232,
              35.24671999980038
            ],
            [
              -94.37264700041901,
              35.23786399990128
            ],
            [
              -94.35487399960934,
              35.22411400034936
            ],
            [
              -94.35668299997904,
              35.162457000218616
            ],
            [
              -94.2366290004075,
              35.16191200028558
            ],
            [
              -94.22811200043522,
              35.14967500036097
            ],
            [
              -94.23798699979217,
              35.14571000012394
            ],
            [
              -94.17550900020345,
              35.14434899977352
            ],
            [
              -94.17584800013715,
              35.129596000316965
            ],
            [
              -94.13967600032558,
              35.12895199982726
            ],
            [
              -94.13933900004167,
              35.143520999962064
            ],
            [
              -94.03123600016049,
              35.140907999881385
            ],
            [
              -94.02887199994701,
              35.21417600022758
            ],
            [
              -94.04656500039073,
              35.2140810001069
            ],
            [
              -94.04702200032523,
              35.19946600002778
            ],
            [
              -94.06477900034305,
              35.19987699985362
            ],
            [
              -94.06431400001263,
              35.21453600021679
            ],
            [
              -94.08221999999337,
              35.21478200034319
            ],
            [
              -94.07443699996502,
              35.44499700006591
            ],
            [
              -94.03946299970454,
              35.46461099983304
            ],
            [
              -94.05762499977831,
              35.473547999961305
            ],
            [
              -94.04021300044029,
              35.48251899994414
            ],
            [
              -94.04878399994094,
              35.49322899968852
            ],
            [
              -94.02900099981844,
              35.50750100016125
            ],
            [
              -94.04066500035194,
              35.5421019999611
            ],
            [
              -94.02340600027648,
              35.556689000106864
            ],
            [
              -94.02287599964873,
              35.57427999964736
            ],
            [
              -94.07620299977869,
              35.57561600014375
            ],
            [
              -94.07395800028922,
              35.6624629999996
            ],
            [
              -93.98423500004168,
              35.66065899983452
            ],
            [
              -93.98284499997163,
              35.70402399975501
            ],
            [
              -93.96503500025038,
              35.70331400030422
            ],
            [
              -93.9642350001842,
              35.73202900003565
            ],
            [
              -93.91166799993745,
              35.73080500000427
            ],
            [
              -93.91118800043674,
              35.74531899984656
            ],
            [
              -93.89286200033142,
              35.74506499976286
            ],
            [
              -93.89225200023606,
              35.75941999973152
            ],
            [
              -93.91083600008422,
              35.75975200014047
            ],
            [
              -93.91058500001405,
              35.77429800012791
            ],
            [
              -93.5191849999825,
              35.76348699984564
            ],
            [
              -93.52364600044578,
              35.88151400030126
            ],
            [
              -93.50599999985772,
              35.88102900010599
            ],
            [
              -93.50486599988072,
              35.92514199981569
            ],
            [
              -93.486919999717,
              35.92433299990119
            ],
            [
              -93.48623199980383,
              35.95335500015381
            ],
            [
              -93.46839399959516,
              35.95315699989474
            ],
            [
              -93.46808200032395,
              35.967582000067374
            ],
            [
              -93.45078800008841,
              35.967496999766006
            ],
            [
              -93.4457399999943,
              36.0807870001933
            ],
            [
              -93.48027400003872,
              36.08155399972777
            ],
            [
              -93.47952099982821,
              36.12505399964389
            ],
            [
              -93.30082000004603,
              36.12154999999583
            ],
            [
              -93.29573000011914,
              36.42776900032284
            ],
            [
              -93.29604899996137,
              36.48163499971448
            ],
            [
              -93.30229999962945,
              36.48263299975426
            ],
            [
              -93.29298500013915,
              36.49808899982344
            ],
            [
              -94.61777900026506,
              36.4995320000372
            ],
            [
              -94.61785700008286,
              36.4995320000372
            ]
          ]
        ]
      }
    },
    {
      "type": "Feature",
      "id": "us-cd:119:05:04",
      "properties": {
        "boundary_id": "us-cd:119:05:04",
        "boundary_type": "congressional_district",
        "name": "4",
        "stateFips": "05",
        "congress": 119,
        "district": "04",
        "bbox": [
          -94.48590299997628,
          33.00618899965244,
          -91.43149699993964,
          36.12505399964389
        ]
      },
      "geometry": {
        "type": "Polygon",
        "coordinates": [
          [
            [
              -94.48590299997628,
              33.63785800018994
            ],
            [
              -94.44834000026975,
              33.6424489998667
            ],
            [
              -94.44850099992823,
              33.634435000166825
            ],
            [
              -94.46274999970981,
              33.630792999716355
            ],
            [
              -94.45304199985914,
              33.61717899977491
            ],
            [
              -94.47170600007323,
              33.60262100021205
            ],
            [
              -94.43065000019907,
              33.59157399963033
            ],
            [
              -94.41245100031539,
              33.56901900000039
            ],
            [
              -94.38064899983216,
              33.581864000091606
            ],
            [
              -94.38014699969182,
              33.568824999719105
            ],
            [
              -94.40145899980155,
              33.560531000155784
            ],
            [
              -94.38166399998347,
              33.54403499996493
            ],
            [
              -94.35271199996055,
              33.54423499993419
            ],
            [
              -94.35262900011986,
              33.561866999824986
            ],
            [
              -94.34371299993943,
              33.56795500017309
            ],
            [
              -94.33150299978298,
              33.5530870000346
            ],
            [
              -94.30954299994306,
              33.55163099979413
            ],
            [
              -94.28787299963305,
              33.582510999637805
            ],
            [
              -94.280744000081,
              33.57510400003274
            ],
            [
              -94.29083199987329,
              33.55902900007062
            ],
            [
              -94.27732399970832,
              33.55732899967077
            ],
            [
              -94.24251799967733,
              33.58974400009851
            ],
            [
              -94.23692899998316,
              33.58004200005205
            ],
            [
              -94.25069499989098,
              33.55710799965402
            ],
            [
              -94.22825499965205,
              33.552306999882674
            ],
            [
              -94.20581699996124,
              33.56709900024928
            ],
            [
              -94.19544700013665,
              33.555161999950045
            ],
            [
              -94.19447800001608,
              33.57366899985963
            ],
            [
              -94.2173040000444,
              33.580245000048144
            ],
            [
              -94.19669200044174,
              33.58122300001774
            ],
            [
              -94.18377400028065,
              33.594666000157474
            ],
            [
              -94.16181699991546,
              33.58869400021135
            ],
            [
              -94.15698300008161,
              33.575802000037136
            ],
            [
              -94.14202799994519,
              33.58112800024497
            ],
            [
              -94.15144799991579,
              33.56846599995874
            ],
            [
              -94.1351439997172,
              33.571033000262
            ],
            [
              -94.12873800023841,
              33.550920000208905
            ],
            [
              -94.1206689999798,
              33.56698599968211
            ],
            [
              -94.07249899972389,
              33.572315000307654
            ],
            [
              -94.07382100002187,
              33.58474899977807
            ],
            [
              -94.05561499956715,
              33.56157700028809
            ],
            [
              -94.07341799961574,
              33.55491600032308
            ],
            [
              -94.04331300024754,
              33.55158399983055
            ],
            [
              -94.0430150003217,
              33.01926199992495
            ],
            [
              -91.46037500034272,
              33.00618899965244
            ],
            [
              -91.4502840001774,
              33.78054299986774
            ],
            [
              -91.6637380002871,
              33.79224600004556
            ],
            [
              -91.97586600008655,
              33.79172599994375
            ],
            [
              -91.97644199984674,
              33.977270000198246
            ],
            [
              -91.95302499998962,
              33.97718799980063
            ],
            [
              -91.95365900037444,
              34.09343500018225
            ],
            [
              -91.74509199980204,
              34.09401899975935
            ],
            [
              -91.74472899957888,
              34.06497900002498
            ],
            [
              -91.7267129999933,
              34.06511299982936
            ],
            [
              -91.72738099981497,
              34.17527600012605
            ],
            [
              -91.71400900009245,
              34.17623099981213
            ],
            [
              -91.62442999978495,
              34.12899400012531
            ],
            [
              -91.58599800041529,
              34.13124500017333
            ],
            [
              -91.58401199959526,
              34.12359299981134
            ],
            [
              -91.60570899966943,
              34.11439699977006
            ],
            [
              -91.61066899989999,
              34.096806000181004
            ],
            [
              -91.60207300028499,
              34.0866879996568
            ],
            [
              -91.54519100006316,
              34.10447599981653
            ],
            [
              -91.50923699981145,
              34.075132999813256
            ],
            [
              -91.49035300038764,
              34.07449699993147
            ],
            [
              -91.48204700030256,
              34.058586999632354
            ],
            [
              -91.46221999979913,
              34.06496500001096
            ],
            [
              -91.46294100022257,
              34.085195000255695
            ],
            [
              -91.44507399970159,
              34.0805770000416
            ],
            [
              -91.43149699993964,
              34.08773699966709
            ],
            [
              -91.4424140001104,
              34.08783199973967
            ],
            [
              -91.44274299999837,
              34.125837000344916
            ],
            [
              -91.45220399997685,
              34.1340929998007
            ],
            [
              -91.49237100009638,
              34.127027000346835
            ],
            [
              -91.49516999960474,
              34.1492890002245
            ],
            [
              -91.515695999892,
              34.143413999752624
            ],
            [
              -91.51469300033456,
              34.171918999750865
            ],
            [
              -91.52739600041048,
              34.18332299964361
            ],
            [
              -91.52830299970847,
              34.21499300005214
            ],
            [
              -91.53666999989291,
              34.22318499967312
            ],
            [
              -91.57650399992652,
              34.22343100036518
            ],
            [
              -91.59481800033626,
              34.21222000029406
            ],
            [
              -91.59910700037209,
              34.23147699997909
            ],
            [
              -91.71167500001619,
              34.233864000218055
            ],
            [
              -91.70525000027084,
              34.482731000236704
            ],
            [
              -92.14373400026186,
              34.49155699964789
            ],
            [
              -92.14555399960392,
              34.51525499995374
            ],
            [
              -92.11938199972106,
              34.53688700025562
            ],
            [
              -92.1174760001653,
              34.550392999762074
            ],
            [
              -92.16429800018395,
              34.56638000008141
            ],
            [
              -92.15383200009988,
              34.609310999713585
            ],
            [
              -92.17319199972478,
              34.63842900006186
            ],
            [
              -92.19040800014251,
              34.63817999976561
            ],
            [
              -92.19024300028607,
              34.6633809996486
            ],
            [
              -92.20432100036345,
              34.66365299987513
            ],
            [
              -92.20386299970573,
              34.67824600001892
            ],
            [
              -92.22142399990497,
              34.67838599974327
            ],
            [
              -92.22094400040426,
              34.69310800020862
            ],
            [
              -92.23773899997421,
              34.69344699975669
            ],
            [
              -92.23715099962016,
              34.71687199990692
            ],
            [
              -92.24984399965035,
              34.716803999704666
            ],
            [
              -92.29417400030732,
              34.70404999970155
            ],
            [
              -92.31603200004,
              34.68006900008846
            ],
            [
              -92.36153000011086,
              34.67745499993697
            ],
            [
              -92.36317100025104,
              34.655086000338564
            ],
            [
              -92.38095000001019,
              34.65175100035918
            ],
            [
              -92.3819430004202,
              34.62633800003716
            ],
            [
              -92.34646100017162,
              34.62563500024984
            ],
            [
              -92.3486920003157,
              34.582289000106464
            ],
            [
              -92.24421200029846,
              34.58088999965441
            ],
            [
              -92.24584099984479,
              34.49358400025982
            ],
            [
              -92.40337199980748,
              34.495706999722366
            ],
            [
              -92.40466999981601,
              34.4518919997866
            ],
            [
              -92.58946900000369,
              34.455577000230214
            ],
            [
              -92.62337700005924,
              34.42539400021965
            ],
            [
              -92.62103200011232,
              34.41110900001102
            ],
            [
              -92.6861889995588,
              34.41469599987284
            ],
            [
              -92.68506600035076,
              34.473102000037535
            ],
            [
              -92.73882100010289,
              34.47393199997362
            ],
            [
              -92.73826399971098,
              34.50324100020424
            ],
            [
              -92.79318900032344,
              34.50357300025553
            ],
            [
              -92.79149799995452,
              34.561984999680114
            ],
            [
              -92.80895200002362,
              34.56224800011193
            ],
            [
              -92.80802800010892,
              34.5904060002058
            ],
            [
              -92.8769160002727,
              34.59116999993412
            ],
            [
              -92.87539399995818,
              34.63519600011825
            ],
            [
              -92.97997799973248,
              34.63724899977932
            ],
            [
              -92.97905399981775,
              34.68488600008606
            ],
            [
              -92.96975400039608,
              34.68476899982952
            ],
            [
              -92.96931699965475,
              34.772262999810344
            ],
            [
              -93.28778499970909,
              34.77324200001021
            ],
            [
              -93.28828299965146,
              34.860869999927914
            ],
            [
              -93.30586399994219,
              34.86104899998131
            ],
            [
              -93.30568200036731,
              34.875462999787565
            ],
            [
              -93.2883499995986,
              34.87526799965481
            ],
            [
              -93.28818399991727,
              34.88887199968853
            ],
            [
              -93.27066700009895,
              34.88912300004178
            ],
            [
              -93.27037400019599,
              34.90368000025928
            ],
            [
              -93.25257500034537,
              34.90379099987075
            ],
            [
              -93.25230099981067,
              34.91820899999003
            ],
            [
              -93.2350180003441,
              34.918091000142944
            ],
            [
              -93.2350629996516,
              34.93259200011578
            ],
            [
              -93.21745200012198,
              34.932697999828825
            ],
            [
              -93.21733800031917,
              34.947781999751115
            ],
            [
              -93.20049199979728,
              34.94759100022396
            ],
            [
              -93.20001700031943,
              34.96232599990118
            ],
            [
              -93.18173300004693,
              34.96190300005118
            ],
            [
              -93.18135399993024,
              34.97629500009615
            ],
            [
              -93.1601940001565,
              34.97584799981111
            ],
            [
              -93.16016200036944,
              34.990457000048046
            ],
            [
              -93.1421650001521,
              34.990165000313816
            ],
            [
              -93.14176900031698,
              35.00463899995719
            ],
            [
              -93.1240650000026,
              35.00409999965428
            ],
            [
              -93.12373600011465,
              35.01860500020777
            ],
            [
              -93.1059489999596,
              35.018127999847444
            ],
            [
              -93.10556399999513,
              35.03427699976805
            ],
            [
              -93.08726300000416,
              35.03394200017269
            ],
            [
              -93.08720100007989,
              35.04827500021605
            ],
            [
              -93.06942499979549,
              35.048087000291815
            ],
            [
              -93.06922300012913,
              35.06262600027324
            ],
            [
              -93.05149100022567,
              35.06235200016444
            ],
            [
              -93.05125299967598,
              35.076874999968524
            ],
            [
              -93.02543399997056,
              35.09000200020998
            ],
            [
              -93.03965799963778,
              35.109881999638134
            ],
            [
              -93.01871600032224,
              35.11847899964807
            ],
            [
              -92.98131799957382,
              35.116837999918104
            ],
            [
              -92.97878699985408,
              35.13153200017015
            ],
            [
              -92.92495099991109,
              35.16798199985742
            ],
            [
              -92.85509600017488,
              35.17383899976614
            ],
            [
              -92.84927700032691,
              35.54947399996103
            ],
            [
              -92.81346199999241,
              35.5489169996605
            ],
            [
              -92.8097450004171,
              35.72241700031273
            ],
            [
              -92.95137300003918,
              35.7246349996611
            ],
            [
              -92.9384690001218,
              36.07166499988307
            ],
            [
              -92.9454959995666,
              36.07167399978449
            ],
            [
              -92.94461799968263,
              36.11554699988166
            ],
            [
              -93.47952099982821,
              36.12505399964389
            ],
            [
              -93.48027400003872,
              36.08155399972777
            ],
            [
              -93.4457399999943,
              36.0807870001933
            ],
            [
              -93.45078800008841,
              35.967496999766006
            ],
            [
              -93.46808200032395,
              35.967582000067374
            ],
            [
              -93.46839399959516,
              35.95315699989474
            ],
            [
              -93.48623199980383,
              35.95335500015381
            ],
            [
              -93.486919999717,
              35.92433299990119
            ],
            [
              -93.50486599988072,
              35.92514199981569
            ],
            [
              -93.50599999985772,
              35.88102900010599
            ],
            [
              -93.52364600044578,
              35.88151400030126
            ],
            [
              -93.5191849999825,
              35.76348699984564
            ],
            [
              -93.91058500001405,
              35.77429800012791
            ],
            [
              -93.91083600008422,
              35.75975200014047
            ],
            [
              -93.89225200023606,
              35.75941999973152
            ],
            [
              -93.89286200033142,
              35.74506499976286
            ],
            [
              -93.91118800043674,
              35.74531899984656
            ],
            [
              -93.91166799993745,
              35.73080500000427
            ],
            [
              -93.9642350001842,
              35.73202900003565
            ],
            [
              -93.96503500025038,
              35.70331400030422
            ],
            [
              -93.98284499997163,
              35.70402399975501
            ],
            [
              -93.98423500004168,
              35.66065899983452
            ],
            [
              -94.07395800028922,
              35.6624629999996
            ],
            [
              -94.07620299977869,
              35.57561600014375
            ],
            [
              -94.02287599964873,
              35.57427999964736
            ],
            [
              -94.02340600027648,
              35.556689000106864
            ],
            [
              -94.04066500035194,
              35.5421019999611
            ],
            [
              -94.02900099981844,
              35.50750100016125
            ],
            [
              -94.04878399994094,
              35.49322899968852
            ],
            [
              -94.04021300044029,
              35.48251899994414
            ],
            [
              -94.05762499977831,
              35.473547999961305
            ],
            [
              -94.03946299970454,
              35.46461099983304
            ],
            [
              -94.07443699996502,
              35.44499700006591
            ],
            [
              -94.08221999999337,
              35.21478200034319
            ],
            [
              -94.06431400001263,
              35.21453600021679
            ],
            [
              -94.06477900034305,
              35.19987699985362
            ],
            [
              -94.04702200032523,
              35.19946600002778
            ],
            [
              -94.04656500039073,
              35.2140810001069
            ],
            [
              -94.02887199994701,
              35.21417600022758
            ],
            [
              -94.03123600016049,
              35.140907999881385
            ],
            [
              -94.13933900004167,
              35.143520999962064
            ],
            [
              -94.13967600032558,
              35.12895199982726
            ],
            [
              -94.17584800013715,
              35.129596000316965
            ],
            [
              -94.17550900020345,
              35.14434899977352
            ],
            [
              -94.23798699979217,
              35.14571000012394
            ],
            [
              -94.22811200043522,
              35.14967500036097
            ],
            [
              -94.2366290004075,
              35.16191200028558
            ],
            [
              -94.35668299997904,
              35.162457000218616
            ],
            [
              -94.35487399960934,
              35.22411400034936
            ],
            [
              -94.37264700041901,
              35.23786399990128
            ],
            [
              -94.43679100026232,
              35.24671999980038
            ],
            [
              -94.48587299983906,
              33.63919000012061
            ],
            [
              -94.48590299997628,
              33.63785800018994
            ]
          ]
        ]
      }
    }
  ]
}
