{
  "type": "FeatureCollection",
  "features": [
    {
      "type": "Feature",
      "id": "us-cd:118:50:00",
      "properties": {
        "boundary_id": "us-cd:118:50:00",
        "boundary_type": "congressional_district",
        "name": "Congressional District (at Large)",
        "stateFips": "50",
        "congress": 118,
        "district": "00",
        "bbox": [
          -73.43774,
          42.726853,
          -71.464555,
          45.016659
        ]
      },
      "geometry": {
        "type": "Polygon",
        "coordinates": [
          [
            [
              -73.43774,
              44.045006
            ],
            [
              -73.411316,
              44.112686
            ],
            [
              -73.415761,
              44.132826
            ],
            [
              -73.402381,
              44.145856
            ],
            [
              -73.390583,
              44.190886
            ],
            [
              -73.362013,
              44.208545
            ],
            [
              -73.34323,
              44.238049
            ],
            [
              -73.323596,
              44.243897
            ],
            [
              -73.312852,
              44.265346
            ],
            [
              -73.334939,
              44.364441
            ],
            [
              -73.293855,
              44.437556
            ],
            [
              -73.306707,
              44.500334
            ],
            [
              -73.338751,
              44.548046
            ],
            [
              -73.374389,
              44.575455
            ],
            [
              -73.381848,
              44.589316
            ],
            [
              -73.376849,
              44.599598
            ],
            [
              -73.390231,
              44.618353
            ],
            [
              -73.361308,
              44.694523
            ],
            [
              -73.365561,
              44.741786
            ],
            [
              -73.333154,
              44.788759
            ],
            [
              -73.335443,
              44.804602
            ],
            [
              -73.381359,
              44.845021
            ],
            [
              -73.35808,
              44.901325
            ],
            [
              -73.338979,
              44.917681
            ],
            [
              -73.338243,
              44.96475
            ],
            [
              -73.354633,
              44.987352
            ],
            [
              -73.343124,
              45.01084
            ],
            [
              -72.845633,
              45.016659
            ],
            [
              -72.310073,
              45.003822
            ],
            [
              -71.464555,
              45.013637
            ],
            [
              -71.480552,
              45.002334
            ],
            [
              -71.508129,
              45.007937
            ],
            [
              -71.536188,
              44.994592
            ],
            [
              -71.54086,
              44.983788
            ],
            [
              -71.514843,
              44.958741
            ],
            [
              -71.516183,
              44.939862
            ],
            [
              -71.523048,
              44.939258
            ],
            [
              -71.49491,
              44.904299
            ],
            [
              -71.549741,
              44.861458
            ],
            [
              -71.551114,
              44.836965
            ],
            [
              -71.576865,
              44.815197
            ],
            [
              -71.568672,
              44.807457
            ],
            [
              -71.571315,
              44.793339
            ],
            [
              -71.631883,
              44.752463
            ],
            [
              -71.626248,
              44.72904
            ],
            [
              -71.594136,
              44.696932
            ],
            [
              -71.596089,
              44.677637
            ],
            [
              -71.581463,
              44.673204
            ],
            [
              -71.587365,
              44.659715
            ],
            [
              -71.562806,
              44.652356
            ],
            [
              -71.563279,
              44.636648
            ],
            [
              -71.547226,
              44.630355
            ],
            [
              -71.55735,
              44.628448
            ],
            [
              -71.545978,
              44.623118
            ],
            [
              -71.55415,
              44.625419
            ],
            [
              -71.55386,
              44.605598
            ],
            [
              -71.5622,
              44.601592
            ],
            [
              -71.535397,
              44.587113
            ],
            [
              -71.554444,
              44.581336
            ],
            [
              -71.547726,
              44.571381
            ],
            [
              -71.559049,
              44.564446
            ],
            [
              -71.596137,
              44.560898
            ],
            [
              -71.572004,
              44.538224
            ],
            [
              -71.594259,
              44.52168
            ],
            [
              -71.576765,
              44.502618
            ],
            [
              -71.587782,
              44.506745
            ],
            [
              -71.599333,
              44.486283
            ],
            [
              -71.617843,
              44.485841
            ],
            [
              -71.626952,
              44.474267
            ],
            [
              -71.632795,
              44.48389
            ],
            [
              -71.647373,
              44.472127
            ],
            [
              -71.638986,
              44.464411
            ],
            [
              -71.652553,
              44.460518
            ],
            [
              -71.659707,
              44.441465
            ],
            [
              -71.702186,
              44.413828
            ],
            [
              -71.793924,
              44.399271
            ],
            [
              -71.800316,
              44.384276
            ],
            [
              -71.814388,
              44.381932
            ],
            [
              -71.814351,
              44.354541
            ],
            [
              -71.872472,
              44.336628
            ],
            [
              -71.909416,
              44.348398
            ],
            [
              -71.935395,
              44.33577
            ],
            [
              -71.98112,
              44.3375
            ],
            [
              -72.032816,
              44.320446
            ],
            [
              -72.032725,
              44.302471
            ],
            [
              -72.068432,
              44.271296
            ],
            [
              -72.058559,
              44.269077
            ],
            [
              -72.047889,
              44.238493
            ],
            [
              -72.066166,
              44.189773
            ],
            [
              -72.038921,
              44.156422
            ],
            [
              -72.041881,
              44.137623
            ],
            [
              -72.033412,
              44.1311
            ],
            [
              -72.055141,
              44.110417
            ],
            [
              -72.048334,
              44.096905
            ],
            [
              -72.030897,
              44.099719
            ],
            [
              -72.045146,
              44.08785
            ],
            [
              -72.031841,
              44.078542
            ],
            [
              -72.052494,
              44.076716
            ],
            [
              -72.048931,
              44.069012
            ],
            [
              -72.07832,
              44.043378
            ],
            [
              -72.082913,
              44.021581
            ],
            [
              -72.095258,
              44.021894
            ],
            [
              -72.090059,
              44.009903
            ],
            [
              -72.102475,
              44.014882
            ],
            [
              -72.116985,
              43.99448
            ],
            [
              -72.114726,
              43.968332
            ],
            [
              -72.091413,
              43.965452
            ],
            [
              -72.11862,
              43.946044
            ],
            [
              -72.120421,
              43.919593
            ],
            [
              -72.172714,
              43.884254
            ],
            [
              -72.167907,
              43.869109
            ],
            [
              -72.187916,
              43.856126
            ],
            [
              -72.183333,
              43.808177
            ],
            [
              -72.205536,
              43.784584
            ],
            [
              -72.205143,
              43.771141
            ],
            [
              -72.234178,
              43.745965
            ],
            [
              -72.271776,
              43.733407
            ],
            [
              -72.299564,
              43.706277
            ],
            [
              -72.314083,
              43.64281
            ],
            [
              -72.329126,
              43.635563
            ],
            [
              -72.334401,
              43.61925
            ],
            [
              -72.328514,
              43.600805
            ],
            [
              -72.380146,
              43.573624
            ],
            [
              -72.380383,
              43.54088
            ],
            [
              -72.398563,
              43.513435
            ],
            [
              -72.380894,
              43.493394
            ],
            [
              -72.381723,
              43.480091
            ],
            [
              -72.3925,
              43.467364
            ],
            [
              -72.403811,
              43.391935
            ],
            [
              -72.415978,
              43.376531
            ],
            [
              -72.413377,
              43.362741
            ],
            [
              -72.390103,
              43.356926
            ],
            [
              -72.410353,
              43.331675
            ],
            [
              -72.395462,
              43.312994
            ],
            [
              -72.41545,
              43.271374
            ],
            [
              -72.438693,
              43.252905
            ],
            [
              -72.437719,
              43.20275
            ],
            [
              -72.45028,
              43.192485
            ],
            [
              -72.443405,
              43.179729
            ],
            [
              -72.45714,
              43.148493
            ],
            [
              -72.432972,
              43.119655
            ],
            [
              -72.443051,
              43.100841
            ],
            [
              -72.43619,
              43.08173
            ],
            [
              -72.467363,
              43.052648
            ],
            [
              -72.462397,
              43.02556
            ],
            [
              -72.443762,
              43.006245
            ],
            [
              -72.46294,
              42.996943
            ],
            [
              -72.461627,
              42.982906
            ],
            [
              -72.473827,
              42.972045
            ],
            [
              -72.532186,
              42.954945
            ],
            [
              -72.52443,
              42.915575
            ],
            [
              -72.532777,
              42.896076
            ],
            [
              -72.552834,
              42.884968
            ],
            [
              -72.556214,
              42.86695
            ],
            [
              -72.5396,
              42.804832
            ],
            [
              -72.508858,
              42.779919
            ],
            [
              -72.516082,
              42.765949
            ],
            [
              -72.491122,
              42.772465
            ],
            [
              -72.458519,
              42.726853
            ],
            [
              -73.276421,
              42.746019
            ],
            [
              -73.290944,
              42.80192
            ],
            [
              -73.285388,
              42.834093
            ],
            [
              -73.278673,
              42.83341
            ],
            [
              -73.241589,
              43.534973
            ],
            [
              -73.258631,
              43.564949
            ],
            [
              -73.294621,
              43.57897
            ],
            [
              -73.292232,
              43.60255
            ],
            [
              -73.306234,
              43.628018
            ],
            [
              -73.371889,
              43.624489
            ],
            [
              -73.372469,
              43.604848
            ],
            [
              -73.387039,
              43.589463
            ],
            [
              -73.383369,
              43.57677
            ],
            [
              -73.395767,
              43.568087
            ],
            [
              -73.430947,
              43.587036
            ],
            [
              -73.417668,
              43.621687
            ],
            [
              -73.426463,
              43.642598
            ],
            [
              -73.404739,
              43.690213
            ],
            [
              -73.370612,
              43.725329
            ],
            [
              -73.369725,
              43.744274
            ],
            [
              -73.350593,
              43.771939
            ],
            [
              -73.392492,
              43.820779
            ],
            [
              -73.372247,
              43.845337
            ],
            [
              -73.382046,
              43.855008
            ],
            [
              -73.374051,
              43.875563
            ],
            [
              -73.408589,
              43.932933
            ],
            [
              -73.407739,
              44.021312
            ],
            [
              -73.43688,
              44.042578
            ],
            [
              -73.43774,
              44.045006
            ]
          ]
        ]
      }
    }
  ]
}
