{
  "type": "FeatureCollection",
  "features": [
    {
      "type": "Feature",
      "id": "us-cd:118:34:01",
      "properties": {
        "boundary_id": "us-cd:118:34:01",
        "boundary_type": "congressional_district",
        "name": "Congressional District 1",
        "stateFips": "34",
        "congress": 118,
        "district": "01",
        "bbox": [
          -75.267107,
          39.578462,
          -74.736216,
          40.0160524556592
        ]
      },
      "geometry": {
        "type": "Polygon",
        "coordinates": [
          [
            [
              -75.260178,
              39.812587
            ],
            [
              -75.236179,
              39.819572
            ],
            [
              -75.256122,
              39.826206
            ],
            [
              -75.245378,
              39.838738
            ],
            [
              -75.2567815956954,
              39.8520361595091
            ],
            [
              -75.189323,
              39.880713
            ],
            [
              -75.143746,
              39.884998
            ],
            [
              -75.12792,
              39.911813
            ],
            [
              -75.13612,
              39.933912
            ],
            [
              -75.13012,
              39.958712
            ],
            [
              -75.075605,
              39.978041
            ],
            [
              -75.04709,
              40.009941
            ],
            [
              -75.0304409666116,
              40.0160524556592
            ],
            [
              -75.010441,
              40.003249
            ],
            [
              -75.030782,
              39.993234
            ],
            [
              -75.010354,
              39.979996
            ],
            [
              -75.019253,
              39.967434
            ],
            [
              -75.005403,
              39.97303
            ],
            [
              -74.975137,
              39.952991
            ],
            [
              -74.966816,
              39.938018
            ],
            [
              -74.983901,
              39.926826
            ],
            [
              -74.962971,
              39.92028
            ],
            [
              -74.930745,
              39.885908
            ],
            [
              -74.902963,
              39.791108
            ],
            [
              -74.889755,
              39.781973
            ],
            [
              -74.843208,
              39.789919
            ],
            [
              -74.81043,
              39.784822
            ],
            [
              -74.736216,
              39.729775
            ],
            [
              -74.911882,
              39.578462
            ],
            [
              -75.053492,
              39.677529
            ],
            [
              -75.107573,
              39.679937
            ],
            [
              -75.113576,
              39.694641
            ],
            [
              -75.167545,
              39.685468
            ],
            [
              -75.139513,
              39.715024
            ],
            [
              -75.209218,
              39.756375
            ],
            [
              -75.229017,
              39.758058
            ],
            [
              -75.193835,
              39.792767
            ],
            [
              -75.199404,
              39.798021
            ],
            [
              -75.225563,
              39.783273
            ],
            [
              -75.235964,
              39.797935
            ],
            [
              -75.23033,
              39.807767
            ],
            [
              -75.245442,
              39.794928
            ],
            [
              -75.267107,
              39.807929
            ],
            [
              -75.260178,
              39.812587
            ]
          ]
        ]
      }
    },
    {
      "type": "Feature",
      "id": "us-cd:118:34:02",
      "properties": {
        "boundary_id": "us-cd:118:34:02",
        "boundary_type": "congressional_district",
        "name": "Congressional District 2",
        "stateFips": "34",
        "congress": 118,
        "district": "02",
        "bbox": [
          -75.559537,
          38.929136,
          -74.0768040230615,
          39.941474
        ]
      },
      "geometry": {
        "type": "Polygon",
        "coordinates": [
          [
            [
              -75.558895,
              39.628767
            ],
            [
              -75.514643,
              39.668613
            ],
            [
              -75.507162,
              39.696961
            ],
            [
              -75.47764,
              39.715013
            ],
            [
              -75.463921,
              39.760763
            ],
            [
              -75.4383,
              39.784402
            ],
            [
              -75.405414,
              39.796396
            ],
            [
              -75.415062,
              39.801919
            ],
            [
              -75.341765,
              39.846082
            ],
            [
              -75.2567815956954,
              39.8520361595091
            ],
            [
              -75.245378,
              39.838738
            ],
            [
              -75.256122,
              39.826206
            ],
            [
              -75.236179,
              39.819572
            ],
            [
              -75.267107,
              39.807929
            ],
            [
              -75.245442,
              39.794928
            ],
            [
              -75.23033,
              39.807767
            ],
            [
              -75.235964,
              39.797935
            ],
            [
              -75.225563,
              39.783273
            ],
            [
              -75.199404,
              39.798021
            ],
            [
              -75.193835,
              39.792767
            ],
            [
              -75.229017,
              39.758058
            ],
            [
              -75.209218,
              39.756375
            ],
            [
              -75.139513,
              39.715024
            ],
            [
              -75.167545,
              39.685468
            ],
            [
              -75.113576,
              39.694641
            ],
            [
              -75.107573,
              39.679937
            ],
            [
              -75.053492,
              39.677529
            ],
            [
              -74.911882,
              39.578462
            ],
            [
              -74.736216,
              39.729775
            ],
            [
              -74.667967,
              39.683699
            ],
            [
              -74.655021,
              39.627119
            ],
            [
              -74.63481,
              39.627973
            ],
            [
              -74.630161,
              39.620241
            ],
            [
              -74.620577,
              39.626435
            ],
            [
              -74.575749,
              39.598395
            ],
            [
              -74.554295,
              39.598484
            ],
            [
              -74.540563,
              39.575607
            ],
            [
              -74.515301,
              39.574172
            ],
            [
              -74.493369,
              39.555744
            ],
            [
              -74.462164,
              39.556094
            ],
            [
              -74.457308,
              39.547317
            ],
            [
              -74.445565,
              39.558571
            ],
            [
              -74.4375,
              39.541198
            ],
            [
              -74.438368,
              39.553519
            ],
            [
              -74.417393,
              39.557255
            ],
            [
              -74.418833,
              39.568583
            ],
            [
              -74.400819,
              39.572242
            ],
            [
              -74.390396,
              39.596201
            ],
            [
              -74.389708,
              39.773283
            ],
            [
              -74.416891,
              39.822682
            ],
            [
              -74.331407,
              39.828943
            ],
            [
              -74.250321,
              39.798196
            ],
            [
              -74.231732,
              39.804007
            ],
            [
              -74.225283,
              39.830668
            ],
            [
              -74.211257,
              39.829653
            ],
            [
              -74.213871,
              39.838229
            ],
            [
              -74.204941,
              39.841236
            ],
            [
              -74.194497,
              39.835521
            ],
            [
              -74.19963,
              39.811104
            ],
            [
              -74.102864,
              39.796372
            ],
            [
              -74.087462,
              39.87518
            ],
            [
              -74.168762,
              39.867801
            ],
            [
              -74.174786,
              39.90447
            ],
            [
              -74.156856,
              39.910627
            ],
            [
              -74.170967,
              39.914685
            ],
            [
              -74.124076,
              39.923017
            ],
            [
              -74.124112,
              39.935362
            ],
            [
              -74.096947,
              39.941474
            ],
            [
              -74.098855,
              39.91544
            ],
            [
              -74.0768040230615,
              39.9127225381974
            ],
            [
              -74.0991,
              39.756825
            ],
            [
              -74.240647,
              39.555753
            ],
            [
              -74.289496,
              39.509315
            ],
            [
              -74.326382,
              39.506332
            ],
            [
              -74.311918,
              39.479895
            ],
            [
              -74.33417,
              39.450955
            ],
            [
              -74.333966,
              39.435112
            ],
            [
              -74.412692,
              39.360816
            ],
            [
              -74.552597,
              39.300143
            ],
            [
              -74.554023,
              39.285876
            ],
            [
              -74.619305,
              39.24038
            ],
            [
              -74.67143,
              39.179802
            ],
            [
              -74.714341,
              39.119804
            ],
            [
              -74.705876,
              39.102937
            ],
            [
              -74.771248,
              39.032545
            ],
            [
              -74.798486,
              39.026228
            ],
            [
              -74.786965,
              39.002164
            ],
            [
              -74.79367,
              38.994144
            ],
            [
              -74.864458,
              38.94041
            ],
            [
              -74.920414,
              38.929136
            ],
            [
              -74.963463,
              38.931194
            ],
            [
              -74.971995,
              38.94037
            ],
            [
              -74.94947,
              39.015637
            ],
            [
              -74.892547,
              39.113183
            ],
            [
              -74.887167,
              39.158825
            ],
            [
              -74.899852,
              39.17331
            ],
            [
              -74.96316,
              39.192015
            ],
            [
              -75.028885,
              39.19456
            ],
            [
              -75.021328,
              39.218745
            ],
            [
              -75.029795,
              39.225466
            ],
            [
              -75.048487,
              39.215222
            ],
            [
              -75.107427,
              39.218354
            ],
            [
              -75.136914,
              39.182088
            ],
            [
              -75.151405,
              39.189996
            ],
            [
              -75.167352,
              39.203299
            ],
            [
              -75.171899,
              39.23784
            ],
            [
              -75.205857,
              39.262619
            ],
            [
              -75.241639,
              39.274097
            ],
            [
              -75.237765,
              39.284038
            ],
            [
              -75.251699,
              39.300341
            ],
            [
              -75.283013,
              39.305467
            ],
            [
              -75.288306,
              39.291602
            ],
            [
              -75.315201,
              39.310593
            ],
            [
              -75.333743,
              39.345335
            ],
            [
              -75.350103,
              39.349889
            ],
            [
              -75.364389,
              39.341574
            ],
            [
              -75.390239,
              39.358824
            ],
            [
              -75.398171,
              39.379034
            ],
            [
              -75.427826,
              39.387792
            ],
            [
              -75.465212,
              39.43893
            ],
            [
              -75.483572,
              39.440824
            ],
            [
              -75.508383,
              39.459131
            ],
            [
              -75.536431,
              39.460559
            ],
            [
              -75.544368,
              39.479602
            ],
            [
              -75.542693,
              39.496568
            ],
            [
              -75.527835,
              39.49813
            ],
            [
              -75.534014,
              39.540702
            ],
            [
              -75.511531,
              39.577177
            ],
            [
              -75.553502,
              39.602
            ],
            [
              -75.559537,
              39.624934
            ],
            [
              -75.558895,
              39.628767
            ]
          ]
        ]
      }
    },
    {
      "type": "Feature",
      "id": "us-cd:118:34:03",
      "properties": {
        "boundary_id": "us-cd:118:34:03",
        "boundary_type": "congressional_district",
        "name": "Congressional District 3",
        "stateFips": "34",
        "congress": 118,
        "district": "03",
        "bbox": [
          -75.0308,
          39.541958,
          -74.133157,
          40.426856
        ]
      },
      "geometry": {
        "type": "Polygon",
        "coordinates": [
          [
            [
              -75.030782,
              39.993234
            ],
            [
              -75.010441,
              40.003249
            ],
            [
              -75.0304409666116,
              40.0160524556592
            ],
            [
              -74.93258,
              40.06881
            ],
            [
              -74.862106,
              40.083283
            ],
            [
              -74.835108,
              40.10391
            ],
            [
              -74.822531,
              40.126844
            ],
            [
              -74.782106,
              40.12081
            ],
            [
              -74.724362,
              40.146443
            ],
            [
              -74.722304,
              40.160609
            ],
            [
              -74.7519933317261,
              40.1835197039537
            ],
            [
              -74.752681,
              40.198364
            ],
            [
              -74.732565,
              40.203391
            ],
            [
              -74.737423,
              40.209708
            ],
            [
              -74.728808,
              40.220768
            ],
            [
              -74.739478,
              40.231507
            ],
            [
              -74.731791,
              40.242192
            ],
            [
              -74.748942,
              40.239811
            ],
            [
              -74.75631,
              40.248713
            ],
            [
              -74.749534,
              40.260855
            ],
            [
              -74.762224,
              40.284274
            ],
            [
              -74.743733,
              40.33138
            ],
            [
              -74.713221,
              40.358476
            ],
            [
              -74.649937,
              40.241759
            ],
            [
              -74.607709,
              40.253169
            ],
            [
              -74.599285,
              40.24683
            ],
            [
              -74.567387,
              40.278522
            ],
            [
              -74.572959,
              40.301186
            ],
            [
              -74.488968,
              40.277084
            ],
            [
              -74.48203,
              40.273915
            ],
            [
              -74.484962,
              40.253325
            ],
            [
              -74.460776,
              40.251358
            ],
            [
              -74.393384,
              40.279637
            ],
            [
              -74.377545,
              40.305432
            ],
            [
              -74.262074,
              40.395373
            ],
            [
              -74.208815,
              40.381827
            ],
            [
              -74.209053,
              40.405025
            ],
            [
              -74.133157,
              40.426856
            ],
            [
              -74.150408,
              40.371719
            ],
            [
              -74.149078,
              40.324658
            ],
            [
              -74.170667,
              40.327403
            ],
            [
              -74.195417,
              40.345131
            ],
            [
              -74.225295,
              40.339457
            ],
            [
              -74.223859,
              40.261186
            ],
            [
              -74.268605,
              40.206006
            ],
            [
              -74.308169,
              40.213927
            ],
            [
              -74.328681,
              40.207426
            ],
            [
              -74.329283,
              40.218049
            ],
            [
              -74.341628,
              40.216542
            ],
            [
              -74.553105,
              40.07913
            ],
            [
              -74.389708,
              39.773283
            ],
            [
              -74.390396,
              39.596201
            ],
            [
              -74.400819,
              39.572242
            ],
            [
              -74.418833,
              39.568583
            ],
            [
              -74.417393,
              39.557255
            ],
            [
              -74.438368,
              39.553519
            ],
            [
              -74.434448,
              39.541958
            ],
            [
              -74.445734,
              39.546352
            ],
            [
              -74.445565,
              39.558571
            ],
            [
              -74.457308,
              39.547317
            ],
            [
              -74.462164,
              39.556094
            ],
            [
              -74.493369,
              39.555744
            ],
            [
              -74.515301,
              39.574172
            ],
            [
              -74.528631,
              39.56999
            ],
            [
              -74.554295,
              39.598484
            ],
            [
              -74.575749,
              39.598395
            ],
            [
              -74.611533,
              39.622995
            ],
            [
              -74.655021,
              39.627119
            ],
            [
              -74.667967,
              39.683699
            ],
            [
              -74.77209,
              39.750436
            ],
            [
              -74.806443,
              39.783223
            ],
            [
              -74.843208,
              39.789919
            ],
            [
              -74.894929,
              39.783421
            ],
            [
              -74.930745,
              39.885908
            ],
            [
              -74.962971,
              39.92028
            ],
            [
              -74.983901,
              39.926826
            ],
            [
              -74.966816,
              39.938018
            ],
            [
              -74.968735,
              39.94556
            ],
            [
              -75.005403,
              39.97303
            ],
            [
              -75.019253,
              39.967434
            ],
            [
              -75.010354,
              39.979996
            ],
            [
              -75.0308,
              39.991768
            ],
            [
              -75.030782,
              39.993234
            ]
          ]
        ]
      }
    },
    {
      "type": "Feature",
      "id": "us-cd:118:34:04",
      "properties": {
        "boundary_id": "us-cd:118:34:04",
        "boundary_type": "congressional_district",
        "name": "Congressional District 4",
        "stateFips": "34",
        "congress": 118,
        "district": "04",
        "bbox": [
          -74.553105,
          39.796372,
          -73.999732,
          40.438807
        ]
      },
      "geometry": {
        "type": "Polygon",
        "coordinates": [
          [
            [
              -74.553105,
              40.07913
            ],
            [
              -74.341628,
              40.216542
            ],
            [
              -74.329283,
              40.218049
            ],
            [
              -74.328681,
              40.207426
            ],
            [
              -74.308169,
              40.213927
            ],
            [
              -74.268605,
              40.206006
            ],
            [
              -74.223859,
              40.261186
            ],
            [
              -74.225295,
              40.339457
            ],
            [
              -74.195417,
              40.345131
            ],
            [
              -74.170667,
              40.327403
            ],
            [
              -74.149078,
              40.324658
            ],
            [
              -74.150408,
              40.371719
            ],
            [
              -74.130602,
              40.436427
            ],
            [
              -74.116722,
              40.438807
            ],
            [
              -74.089876,
              40.41981
            ],
            [
              -74.043146,
              40.411642
            ],
            [
              -74.0151,
              40.389046
            ],
            [
              -74.011744,
              40.382333
            ],
            [
              -74.079124,
              40.360094
            ],
            [
              -74.081555,
              40.340915
            ],
            [
              -74.09023,
              40.339687
            ],
            [
              -74.047092,
              40.329805
            ],
            [
              -74.040913,
              40.320413
            ],
            [
              -74.051124,
              40.31502
            ],
            [
              -74.032552,
              40.298755
            ],
            [
              -74.038538,
              40.291496
            ],
            [
              -74.027625,
              40.272741
            ],
            [
              -74.002889,
              40.276407
            ],
            [
              -73.999732,
              40.262132
            ],
            [
              -74.008684,
              40.235364
            ],
            [
              -74.022762,
              40.240874
            ],
            [
              -74.014881,
              40.229652
            ],
            [
              -74.030499,
              40.224564
            ],
            [
              -74.077409,
              40.234395
            ],
            [
              -74.091682,
              40.225584
            ],
            [
              -74.094585,
              40.206321
            ],
            [
              -74.04168,
              40.181531
            ],
            [
              -74.025648,
              40.185312
            ],
            [
              -74.021261,
              40.197489
            ],
            [
              -74.0080230094669,
              40.1955891445671
            ],
            [
              -74.0768040230615,
              39.9127225381974
            ],
            [
              -74.098855,
              39.91544
            ],
            [
              -74.096947,
              39.941474
            ],
            [
              -74.124112,
              39.935362
            ],
            [
              -74.124076,
              39.923017
            ],
            [
              -74.170967,
              39.914685
            ],
            [
              -74.156856,
              39.910627
            ],
            [
              -74.174786,
              39.90447
            ],
            [
              -74.168762,
              39.867801
            ],
            [
              -74.087462,
              39.87518
            ],
            [
              -74.102864,
              39.796372
            ],
            [
              -74.19963,
              39.811104
            ],
            [
              -74.194497,
              39.835521
            ],
            [
              -74.204941,
              39.841236
            ],
            [
              -74.213871,
              39.838229
            ],
            [
              -74.211257,
              39.829653
            ],
            [
              -74.225283,
              39.830668
            ],
            [
              -74.231732,
              39.804007
            ],
            [
              -74.250321,
              39.798196
            ],
            [
              -74.331407,
              39.828943
            ],
            [
              -74.416891,
              39.822682
            ],
            [
              -74.540432,
              40.057763
            ],
            [
              -74.553105,
              40.07913
            ]
          ]
        ]
      }
    },
    {
      "type": "Feature",
      "id": "us-cd:118:34:05",
      "properties": {
        "boundary_id": "us-cd:118:34:05",
        "boundary_type": "congressional_district",
        "name": "Congressional District 5",
        "stateFips": "34",
        "congress": 118,
        "district": "05",
        "bbox": [
          -74.8722010050155,
          40.827833,
          -73.893628,
          41.357423
        ]
      },
      "geometry": {
        "type": "Polygon",
        "coordinates": [
          [
            [
              -74.867287,
              41.208754
            ],
            [
              -74.857151,
              41.248975
            ],
            [
              -74.830057,
              41.2872
            ],
            [
              -74.792558,
              41.310628
            ],
            [
              -74.79504,
              41.320407
            ],
            [
              -74.771588,
              41.325079
            ],
            [
              -74.753239,
              41.346122
            ],
            [
              -74.694914,
              41.357423
            ],
            [
              -74.301994,
              41.172594
            ],
            [
              -73.893628,
              40.997165
            ],
            [
              -73.896144,
              40.981873
            ],
            [
              -73.929821,
              40.888682
            ],
            [
              -73.976825,
              40.827833
            ],
            [
              -74.010941,
              40.846832
            ],
            [
              -74.021618,
              40.839862
            ],
            [
              -74.0486,
              40.873157
            ],
            [
              -74.068305,
              40.876049
            ],
            [
              -74.054421,
              40.906332
            ],
            [
              -74.089507,
              40.919844
            ],
            [
              -74.140253,
              40.924036
            ],
            [
              -74.148158,
              40.942339
            ],
            [
              -74.141048,
              40.966348
            ],
            [
              -74.170275,
              40.983904
            ],
            [
              -74.171141,
              40.977066
            ],
            [
              -74.191798,
              40.978564
            ],
            [
              -74.187318,
              41.017299
            ],
            [
              -74.16758,
              41.023781
            ],
            [
              -74.170986,
              41.029258
            ],
            [
              -74.248954,
              41.063615
            ],
            [
              -74.270658,
              41.021033
            ],
            [
              -74.302355,
              41.013082
            ],
            [
              -74.301434,
              40.999245
            ],
            [
              -74.350189,
              41.003975
            ],
            [
              -74.355401,
              41.013897
            ],
            [
              -74.389132,
              41.012195
            ],
            [
              -74.419064,
              41.028738
            ],
            [
              -74.43504,
              41.020021
            ],
            [
              -74.426823,
              41.035437
            ],
            [
              -74.447017,
              41.054429
            ],
            [
              -74.497358,
              41.034112
            ],
            [
              -74.501692,
              41.042098
            ],
            [
              -74.486936,
              41.076748
            ],
            [
              -74.500768,
              41.086114
            ],
            [
              -74.535862,
              41.058513
            ],
            [
              -74.638545,
              41.118668
            ],
            [
              -74.667752,
              41.094129
            ],
            [
              -74.685427,
              41.052031
            ],
            [
              -74.688517,
              41.009289
            ],
            [
              -74.740069,
              40.96974
            ],
            [
              -74.732451,
              40.995655
            ],
            [
              -74.748638,
              40.999683
            ],
            [
              -74.751626,
              40.977378
            ],
            [
              -74.787643,
              41.005786
            ],
            [
              -74.772952,
              41.021498
            ],
            [
              -74.765899,
              41.04486
            ],
            [
              -74.77586,
              41.055328
            ],
            [
              -74.762973,
              41.068637
            ],
            [
              -74.81082,
              41.059929
            ],
            [
              -74.8722010050155,
              41.2013170791146
            ],
            [
              -74.867287,
              41.208754
            ]
          ]
        ]
      }
    },
    {
      "type": "Feature",
      "id": "us-cd:118:34:06",
      "properties": {
        "boundary_id": "us-cd:118:34:06",
        "boundary_type": "congressional_district",
        "name": "Congressional District 6",
        "stateFips": "34",
        "congress": 118,
        "district": "06",
        "bbox": [
          -74.519843,
          40.181531,
          -73.971817,
          40.608683
        ]
      },
      "geometry": {
        "type": "Polygon",
        "coordinates": [
          [
            [
              -74.518633,
              40.556237
            ],
            [
              -74.46967,
              40.585567
            ],
            [
              -74.459736,
              40.581553
            ],
            [
              -74.455132,
              40.595954
            ],
            [
              -74.302921,
              40.608683
            ],
            [
              -74.305326,
              40.600586
            ],
            [
              -74.290849,
              40.59195
            ],
            [
              -74.214049,
              40.604058
            ],
            [
              -74.2051531367397,
              40.5938778981664
            ],
            [
              -74.214469,
              40.565019
            ],
            [
              -74.254637,
              40.548586
            ],
            [
              -74.249171,
              40.523297
            ],
            [
              -74.27269,
              40.488405
            ],
            [
              -74.261889,
              40.464706
            ],
            [
              -74.205915,
              40.439285
            ],
            [
              -74.181025,
              40.457476
            ],
            [
              -74.158204,
              40.446616
            ],
            [
              -74.13532,
              40.455446
            ],
            [
              -74.058984,
              40.422708
            ],
            [
              -74.006383,
              40.411108
            ],
            [
              -73.995486,
              40.419472
            ],
            [
              -73.991682,
              40.442908
            ],
            [
              -74.019451,
              40.474682
            ],
            [
              -74.002506,
              40.476314
            ],
            [
              -73.986059,
              40.454427
            ],
            [
              -73.971817,
              40.35427
            ],
            [
              -73.981681,
              40.279411
            ],
            [
              -74.0080230094669,
              40.1955891445671
            ],
            [
              -74.021261,
              40.197489
            ],
            [
              -74.025648,
              40.185312
            ],
            [
              -74.04168,
              40.181531
            ],
            [
              -74.094585,
              40.206321
            ],
            [
              -74.091682,
              40.225584
            ],
            [
              -74.077409,
              40.234395
            ],
            [
              -74.027287,
              40.224872
            ],
            [
              -74.01384,
              40.230234
            ],
            [
              -74.022762,
              40.240874
            ],
            [
              -74.008684,
              40.235364
            ],
            [
              -74.000215,
              40.256312
            ],
            [
              -74.002889,
              40.276407
            ],
            [
              -74.025941,
              40.272198
            ],
            [
              -74.035718,
              40.284798
            ],
            [
              -74.032552,
              40.298755
            ],
            [
              -74.051124,
              40.31502
            ],
            [
              -74.040913,
              40.320413
            ],
            [
              -74.047092,
              40.329805
            ],
            [
              -74.09023,
              40.339687
            ],
            [
              -74.065195,
              40.368839
            ],
            [
              -74.011744,
              40.382333
            ],
            [
              -74.023624,
              40.400328
            ],
            [
              -74.096869,
              40.42244
            ],
            [
              -74.122316,
              40.438956
            ],
            [
              -74.133157,
              40.426856
            ],
            [
              -74.209053,
              40.405025
            ],
            [
              -74.208815,
              40.381827
            ],
            [
              -74.262074,
              40.395373
            ],
            [
              -74.261407,
              40.412716
            ],
            [
              -74.274406,
              40.425285
            ],
            [
              -74.304893,
              40.41549
            ],
            [
              -74.301564,
              40.435406
            ],
            [
              -74.313629,
              40.450617
            ],
            [
              -74.36154,
              40.416595
            ],
            [
              -74.353648,
              40.431785
            ],
            [
              -74.371556,
              40.456204
            ],
            [
              -74.378376,
              40.452483
            ],
            [
              -74.375652,
              40.461097
            ],
            [
              -74.386089,
              40.459521
            ],
            [
              -74.375637,
              40.475093
            ],
            [
              -74.385078,
              40.487212
            ],
            [
              -74.460379,
              40.477626
            ],
            [
              -74.477344,
              40.467244
            ],
            [
              -74.489491,
              40.474452
            ],
            [
              -74.459179,
              40.496619
            ],
            [
              -74.519843,
              40.555584
            ],
            [
              -74.518633,
              40.556237
            ]
          ]
        ]
      }
    },
    {
      "type": "Feature",
      "id": "us-cd:118:34:07",
      "properties": {
        "boundary_id": "us-cd:118:34:07",
        "boundary_type": "congressional_district",
        "name": "Congressional District 7",
        "stateFips": "34",
        "congress": 118,
        "district": "07",
        "bbox": [
          -75.20392,
          40.339427,
          -74.200922,
          41.2013170791146
        ]
      },
      "geometry": {
        "type": "Polygon",
        "coordinates": [
          [
            [
              -75.20392,
              40.691498
            ],
            [
              -75.182084,
              40.731522
            ],
            [
              -75.196533,
              40.751631
            ],
            [
              -75.171587,
              40.777745
            ],
            [
              -75.1344,
              40.773765
            ],
            [
              -75.108505,
              40.791094
            ],
            [
              -75.083929,
              40.824471
            ],
            [
              -75.095784,
              40.847082
            ],
            [
              -75.066014,
              40.847591
            ],
            [
              -75.051029,
              40.865662
            ],
            [
              -75.07534,
              40.894162
            ],
            [
              -75.079279,
              40.91389
            ],
            [
              -75.117764,
              40.953023
            ],
            [
              -75.120232,
              40.968702
            ],
            [
              -75.13378,
              40.970973
            ],
            [
              -75.130575,
              40.991093
            ],
            [
              -75.027102,
              41.039529
            ],
            [
              -75.013099,
              41.066487
            ],
            [
              -74.968389,
              41.087797
            ],
            [
              -74.969434,
              41.096074
            ],
            [
              -74.991815,
              41.089132
            ],
            [
              -74.982212,
              41.108245
            ],
            [
              -74.923169,
              41.138146
            ],
            [
              -74.8722010050155,
              41.2013170791146
            ],
            [
              -74.81082,
              41.059929
            ],
            [
              -74.762973,
              41.068637
            ],
            [
              -74.77586,
              41.055328
            ],
            [
              -74.765899,
              41.04486
            ],
            [
              -74.772952,
              41.021498
            ],
            [
              -74.787643,
              41.005786
            ],
            [
              -74.751626,
              40.977378
            ],
            [
              -74.748638,
              40.999683
            ],
            [
              -74.732451,
              40.995655
            ],
            [
              -74.740069,
              40.96974
            ],
            [
              -74.688517,
              41.009289
            ],
            [
              -74.685427,
              41.052031
            ],
            [
              -74.667752,
              41.094129
            ],
            [
              -74.638545,
              41.118668
            ],
            [
              -74.535862,
              41.058513
            ],
            [
              -74.641619,
              40.961376
            ],
            [
              -74.63644,
              40.942638
            ],
            [
              -74.624227,
              40.942681
            ],
            [
              -74.594861,
              40.90241
            ],
            [
              -74.581035,
              40.915229
            ],
            [
              -74.566104,
              40.908116
            ],
            [
              -74.584259,
              40.871979
            ],
            [
              -74.602316,
              40.862585
            ],
            [
              -74.623642,
              40.866831
            ],
            [
              -74.645946,
              40.837212
            ],
            [
              -74.628039,
              40.830333
            ],
            [
              -74.630647,
              40.80471
            ],
            [
              -74.571585,
              40.81562
            ],
            [
              -74.56638,
              40.805706
            ],
            [
              -74.57736,
              40.804873
            ],
            [
              -74.568284,
              40.794402
            ],
            [
              -74.54981,
              40.797248
            ],
            [
              -74.542589,
              40.801749
            ],
            [
              -74.548154,
              40.809128
            ],
            [
              -74.538175,
              40.81111
            ],
            [
              -74.548837,
              40.733717
            ],
            [
              -74.530893,
              40.729854
            ],
            [
              -74.513717,
              40.69775
            ],
            [
              -74.449449,
              40.717392
            ],
            [
              -74.443762,
              40.688038
            ],
            [
              -74.369273,
              40.739394
            ],
            [
              -74.296029,
              40.712392
            ],
            [
              -74.311065,
              40.701174
            ],
            [
              -74.306798,
              40.680606
            ],
            [
              -74.322478,
              40.676849
            ],
            [
              -74.333611,
              40.649514
            ],
            [
              -74.304867,
              40.63349
            ],
            [
              -74.287743,
              40.639719
            ],
            [
              -74.274813,
              40.625479
            ],
            [
              -74.255932,
              40.638294
            ],
            [
              -74.216199,
              40.643709
            ],
            [
              -74.2015145172709,
              40.6340071247021
            ],
            [
              -74.200922,
              40.601843
            ],
            [
              -74.2051531367397,
              40.5938778981664
            ],
            [
              -74.214049,
              40.604058
            ],
            [
              -74.290849,
              40.59195
            ],
            [
              -74.305326,
              40.600586
            ],
            [
              -74.302921,
              40.608683
            ],
            [
              -74.39472,
              40.600989
            ],
            [
              -74.382725,
              40.629467
            ],
            [
              -74.40853,
              40.644346
            ],
            [
              -74.464951,
              40.611271
            ],
            [
              -74.459878,
              40.600033
            ],
            [
              -74.509721,
              40.584218
            ],
            [
              -74.523917,
              40.56967
            ],
            [
              -74.524703,
              40.581839
            ],
            [
              -74.539402,
              40.571423
            ],
            [
              -74.586259,
              40.570531
            ],
            [
              -74.589571,
              40.561183
            ],
            [
              -74.615796,
              40.556103
            ],
            [
              -74.637123,
              40.564762
            ],
            [
              -74.674074,
              40.547868
            ],
            [
              -74.687409,
              40.555354
            ],
            [
              -74.709316,
              40.537403
            ],
            [
              -74.706982,
              40.527125
            ],
            [
              -74.684572,
              40.517186
            ],
            [
              -74.69096,
              40.514297
            ],
            [
              -74.682804,
              40.487104
            ],
            [
              -74.65534,
              40.478039
            ],
            [
              -74.701823,
              40.468242
            ],
            [
              -74.715334,
              40.442061
            ],
            [
              -74.740213,
              40.439446
            ],
            [
              -74.752013,
              40.431361
            ],
            [
              -74.748147,
              40.424156
            ],
            [
              -74.80847,
              40.416664
            ],
            [
              -74.802016,
              40.384972
            ],
            [
              -74.869678,
              40.377774
            ],
            [
              -74.856262,
              40.346696
            ],
            [
              -74.932277,
              40.339427
            ],
            [
              -74.943776,
              40.342564
            ],
            [
              -74.96813,
              40.399129
            ],
            [
              -74.996378,
              40.410528
            ],
            [
              -75.028315,
              40.403883
            ],
            [
              -75.058848,
              40.418065
            ],
            [
              -75.070568,
              40.455165
            ],
            [
              -75.062625,
              40.48955
            ],
            [
              -75.068615,
              40.542223
            ],
            [
              -75.117292,
              40.573211
            ],
            [
              -75.141906,
              40.575273
            ],
            [
              -75.168609,
              40.564111
            ],
            [
              -75.194046,
              40.576256
            ],
            [
              -75.192291,
              40.602676
            ],
            [
              -75.201812,
              40.617188
            ],
            [
              -75.188579,
              40.624628
            ],
            [
              -75.200452,
              40.649219
            ],
            [
              -75.176803,
              40.675715
            ],
            [
              -75.2039076,
              40.6914732
            ],
            [
              -75.20392,
              40.691498
            ]
          ]
        ]
      }
    },
    {
      "type": "Feature",
      "id": "us-cd:118:34:08",
      "properties": {
        "boundary_id": "us-cd:118:34:08",
        "boundary_type": "congressional_district",
        "name": "Congressional District 8",
        "stateFips": "34",
        "congress": 118,
        "district": "08",
        "bbox": [
          -74.254223,
          40.6340071247021,
          -73.9848017882995,
          40.823576
        ]
      },
      "geometry": {
        "type": "MultiPolygon",
        "coordinates": [
          [
            [
              [
                -74.042196,
                40.699966
              ],
              [
                -74.038997,
                40.697619
              ],
              [
                -74.041658,
                40.696435
              ],
              [
                -74.044064,
                40.698278
              ],
              [
                -74.042196,
                40.699966
              ]
            ]
          ],
          [
            [
              [
                -74.191528,
                40.757893
              ],
              [
                -74.171549,
                40.788249
              ],
              [
                -74.148342,
                40.779885
              ],
              [
                -74.162597,
                40.75354
              ],
              [
                -74.145549,
                40.751885
              ],
              [
                -74.130359,
                40.777564
              ],
              [
                -74.12719,
                40.771342
              ],
              [
                -74.10923,
                40.777825
              ],
              [
                -74.090787,
                40.761984
              ],
              [
                -74.093619,
                40.750906
              ],
              [
                -74.078686,
                40.750601
              ],
              [
                -74.033649,
                40.792387
              ],
              [
                -74.041243,
                40.795634
              ],
              [
                -74.033678,
                40.803264
              ],
              [
                -74.044923,
                40.807555
              ],
              [
                -74.016841,
                40.823576
              ],
              [
                -73.9848017882995,
                40.7976903485926
              ],
              [
                -74.014029,
                40.757551
              ],
              [
                -74.023193,
                40.719891
              ],
              [
                -74.055335,
                40.690824
              ],
              [
                -74.064978,
                40.69595
              ],
              [
                -74.077813,
                40.674646
              ],
              [
                -74.064225,
                40.668865
              ],
              [
                -74.070198,
                40.660827
              ],
              [
                -74.08694,
                40.66675
              ],
              [
                -74.095047,
                40.649182
              ],
              [
                -74.14626,
                40.646568
              ],
              [
                -74.1062628174538,
                40.6970786735292
              ],
              [
                -74.09449,
                40.686725
              ],
              [
                -74.055889,
                40.716256
              ],
              [
                -74.061702,
                40.722978
              ],
              [
                -74.054865,
                40.7316
              ],
              [
                -74.089286,
                40.738401
              ],
              [
                -74.108154,
                40.715963
              ],
              [
                -74.138671,
                40.727148
              ],
              [
                -74.161636,
                40.717016
              ],
              [
                -74.176761,
                40.727569
              ],
              [
                -74.161958,
                40.736007
              ],
              [
                -74.165465,
                40.750996
              ],
              [
                -74.19252,
                40.755575
              ],
              [
                -74.191528,
                40.757893
              ]
            ]
          ],
          [
            [
              [
                -74.254223,
                40.670165
              ],
              [
                -74.222172,
                40.674994
              ],
              [
                -74.212347,
                40.690665
              ],
              [
                -74.16505,
                40.690161
              ],
              [
                -74.138816,
                40.673903
              ],
              [
                -74.149263,
                40.659983
              ],
              [
                -74.2015145172709,
                40.6340071247021
              ],
              [
                -74.252974,
                40.669518
              ],
              [
                -74.254223,
                40.670165
              ]
            ]
          ]
        ]
      }
    },
    {
      "type": "Feature",
      "id": "us-cd:118:34:09",
      "properties": {
        "boundary_id": "us-cd:118:34:09",
        "boundary_type": "congressional_district",
        "name": "Congressional District 9",
        "stateFips": "34",
        "congress": 118,
        "district": "09",
        "bbox": [
          -74.303083,
          40.750601,
          -73.9541620159804,
          41.063615
        ]
      },
      "geometry": {
        "type": "Polygon",
        "coordinates": [
          [
            [
              -74.302355,
              41.013082
            ],
            [
              -74.270658,
              41.021033
            ],
            [
              -74.248954,
              41.063615
            ],
            [
              -74.180884,
              41.034876
            ],
            [
              -74.16758,
              41.023781
            ],
            [
              -74.187318,
              41.017299
            ],
            [
              -74.191798,
              40.978564
            ],
            [
              -74.171141,
              40.977066
            ],
            [
              -74.170275,
              40.983904
            ],
            [
              -74.141048,
              40.966348
            ],
            [
              -74.148158,
              40.942339
            ],
            [
              -74.140253,
              40.924036
            ],
            [
              -74.055689,
              40.907077
            ],
            [
              -74.068305,
              40.876049
            ],
            [
              -74.0486,
              40.873157
            ],
            [
              -74.021618,
              40.839862
            ],
            [
              -74.010941,
              40.846832
            ],
            [
              -73.976825,
              40.827833
            ],
            [
              -73.968111,
              40.847417
            ],
            [
              -73.9541620159804,
              40.8479893203109
            ],
            [
              -73.963182,
              40.8269
            ],
            [
              -73.9848017882995,
              40.7976903485926
            ],
            [
              -74.016841,
              40.823576
            ],
            [
              -74.044923,
              40.807555
            ],
            [
              -74.033678,
              40.803264
            ],
            [
              -74.041243,
              40.795634
            ],
            [
              -74.033649,
              40.792387
            ],
            [
              -74.078686,
              40.750601
            ],
            [
              -74.093619,
              40.750906
            ],
            [
              -74.090787,
              40.761984
            ],
            [
              -74.10923,
              40.777825
            ],
            [
              -74.12719,
              40.771342
            ],
            [
              -74.130359,
              40.777564
            ],
            [
              -74.145549,
              40.751885
            ],
            [
              -74.164799,
              40.754718
            ],
            [
              -74.130016,
              40.819938
            ],
            [
              -74.197986,
              40.857233
            ],
            [
              -74.174164,
              40.901224
            ],
            [
              -74.206136,
              40.916953
            ],
            [
              -74.196883,
              40.955162
            ],
            [
              -74.208992,
              40.950233
            ],
            [
              -74.253554,
              40.962995
            ],
            [
              -74.270005,
              40.976297
            ],
            [
              -74.282033,
              40.969171
            ],
            [
              -74.281688,
              40.979961
            ],
            [
              -74.297417,
              40.979623
            ],
            [
              -74.303083,
              41.012051
            ],
            [
              -74.302355,
              41.013082
            ]
          ]
        ]
      }
    },
    {
      "type": "Feature",
      "id": "us-cd:118:34:10",
      "properties": {
        "boundary_id": "us-cd:118:34:10",
        "boundary_type": "congressional_district",
        "name": "Congressional District 10",
        "stateFips": "34",
        "congress": 118,
        "district": "10",
        "bbox": [
          -74.333611,
          40.625479,
          -74.054865,
          40.849623
        ]
      },
      "geometry": {
        "type": "MultiPolygon",
        "coordinates": [
          [
            [
              [
                -74.108154,
                40.715963
              ],
              [
                -74.089286,
                40.738401
              ],
              [
                -74.054865,
                40.7316
              ],
              [
                -74.061702,
                40.722978
              ],
              [
                -74.055889,
                40.716256
              ],
              [
                -74.09449,
                40.686725
              ],
              [
                -74.106598,
                40.709391
              ],
              [
                -74.108154,
                40.715963
              ]
            ]
          ],
          [
            [
              [
                -74.332433,
                40.650817
              ],
              [
                -74.322478,
                40.676849
              ],
              [
                -74.306798,
                40.680606
              ],
              [
                -74.311065,
                40.701174
              ],
              [
                -74.293732,
                40.719961
              ],
              [
                -74.255668,
                40.713462
              ],
              [
                -74.243448,
                40.730748
              ],
              [
                -74.251361,
                40.737534
              ],
              [
                -74.234671,
                40.750556
              ],
              [
                -74.267829,
                40.762303
              ],
              [
                -74.304721,
                40.757876
              ],
              [
                -74.276426,
                40.814568
              ],
              [
                -74.300225,
                40.832486
              ],
              [
                -74.287858,
                40.834413
              ],
              [
                -74.285213,
                40.847027
              ],
              [
                -74.259805,
                40.834876
              ],
              [
                -74.251602,
                40.849623
              ],
              [
                -74.220433,
                40.834183
              ],
              [
                -74.23729,
                40.803153
              ],
              [
                -74.228173,
                40.795724
              ],
              [
                -74.207811,
                40.825478
              ],
              [
                -74.205674,
                40.80992
              ],
              [
                -74.218528,
                40.788213
              ],
              [
                -74.189759,
                40.768634
              ],
              [
                -74.19252,
                40.755575
              ],
              [
                -74.165465,
                40.750996
              ],
              [
                -74.161958,
                40.736007
              ],
              [
                -74.176761,
                40.727569
              ],
              [
                -74.167124,
                40.719742
              ],
              [
                -74.120987,
                40.722901
              ],
              [
                -74.120663,
                40.704481
              ],
              [
                -74.143723916511,
                40.6795008647149
              ],
              [
                -74.16505,
                40.690161
              ],
              [
                -74.212347,
                40.690665
              ],
              [
                -74.222172,
                40.674994
              ],
              [
                -74.254223,
                40.670165
              ],
              [
                -74.216199,
                40.643709
              ],
              [
                -74.255932,
                40.638294
              ],
              [
                -74.274813,
                40.625479
              ],
              [
                -74.287743,
                40.639719
              ],
              [
                -74.304867,
                40.63349
              ],
              [
                -74.333611,
                40.649514
              ],
              [
                -74.332433,
                40.650817
              ]
            ]
          ]
        ]
      }
    },
    {
      "type": "Feature",
      "id": "us-cd:118:34:11",
      "properties": {
        "boundary_id": "us-cd:118:34:11",
        "boundary_type": "congressional_district",
        "name": "Congressional District 11",
        "stateFips": "34",
        "congress": 118,
        "district": "11",
        "bbox": [
          -74.645946,
          40.688038,
          -74.130016,
          41.086114
        ]
      },
      "geometry": {
        "type": "Polygon",
        "coordinates": [
          [
            [
              -74.64485,
              40.839763
            ],
            [
              -74.623642,
              40.866831
            ],
            [
              -74.602316,
              40.862585
            ],
            [
              -74.584259,
              40.871979
            ],
            [
              -74.566104,
              40.908116
            ],
            [
              -74.581035,
              40.915229
            ],
            [
              -74.59798,
              40.904663
            ],
            [
              -74.624227,
              40.942681
            ],
            [
              -74.63644,
              40.942638
            ],
            [
              -74.639519,
              40.964986
            ],
            [
              -74.500768,
              41.086114
            ],
            [
              -74.486936,
              41.076748
            ],
            [
              -74.501692,
              41.042098
            ],
            [
              -74.497358,
              41.034112
            ],
            [
              -74.447017,
              41.054429
            ],
            [
              -74.426823,
              41.035437
            ],
            [
              -74.43504,
              41.020021
            ],
            [
              -74.419064,
              41.028738
            ],
            [
              -74.389132,
              41.012195
            ],
            [
              -74.300029,
              41.003115
            ],
            [
              -74.297417,
              40.979623
            ],
            [
              -74.281688,
              40.979961
            ],
            [
              -74.282033,
              40.969171
            ],
            [
              -74.270005,
              40.976297
            ],
            [
              -74.208992,
              40.950233
            ],
            [
              -74.198028,
              40.956488
            ],
            [
              -74.195802,
              40.935509
            ],
            [
              -74.206136,
              40.916953
            ],
            [
              -74.174164,
              40.901224
            ],
            [
              -74.197986,
              40.857233
            ],
            [
              -74.130016,
              40.819938
            ],
            [
              -74.148342,
              40.779885
            ],
            [
              -74.171549,
              40.788249
            ],
            [
              -74.189759,
              40.768634
            ],
            [
              -74.218528,
              40.788213
            ],
            [
              -74.205674,
              40.80992
            ],
            [
              -74.207811,
              40.825478
            ],
            [
              -74.228173,
              40.795724
            ],
            [
              -74.23729,
              40.803153
            ],
            [
              -74.220433,
              40.834183
            ],
            [
              -74.251602,
              40.849623
            ],
            [
              -74.259805,
              40.834876
            ],
            [
              -74.285213,
              40.847027
            ],
            [
              -74.287858,
              40.834413
            ],
            [
              -74.300225,
              40.832486
            ],
            [
              -74.276426,
              40.814568
            ],
            [
              -74.304721,
              40.757876
            ],
            [
              -74.267829,
              40.762303
            ],
            [
              -74.234671,
              40.750556
            ],
            [
              -74.251361,
              40.737534
            ],
            [
              -74.243448,
              40.730748
            ],
            [
              -74.252815,
              40.715259
            ],
            [
              -74.285187,
              40.722152
            ],
            [
              -74.30403,
              40.713283
            ],
            [
              -74.325596,
              40.717075
            ],
            [
              -74.371738,
              40.73964
            ],
            [
              -74.390747,
              40.718446
            ],
            [
              -74.443762,
              40.688038
            ],
            [
              -74.449449,
              40.717392
            ],
            [
              -74.513717,
              40.69775
            ],
            [
              -74.530893,
              40.729854
            ],
            [
              -74.548837,
              40.733717
            ],
            [
              -74.538175,
              40.81111
            ],
            [
              -74.548154,
              40.809128
            ],
            [
              -74.542589,
              40.801749
            ],
            [
              -74.54981,
              40.797248
            ],
            [
              -74.568284,
              40.794402
            ],
            [
              -74.57736,
              40.804873
            ],
            [
              -74.56638,
              40.805706
            ],
            [
              -74.571585,
              40.81562
            ],
            [
              -74.630647,
              40.80471
            ],
            [
              -74.628039,
              40.830333
            ],
            [
              -74.645946,
              40.837212
            ],
            [
              -74.64485,
              40.839763
            ]
          ]
        ]
      }
    },
    {
      "type": "Feature",
      "id": "us-cd:118:34:12",
      "properties": {
        "boundary_id": "us-cd:118:34:12",
        "boundary_type": "congressional_district",
        "name": "Congressional District 12",
        "stateFips": "34",
        "congress": 118,
        "district": "12",
        "bbox": [
          -74.9429542775691,
          40.1835197039537,
          -74.260402,
          40.644346
        ]
      },
      "geometry": {
        "type": "Polygon",
        "coordinates": [
          [
            [
              -74.9429542775691,
              40.3416426197195
            ],
            [
              -74.856262,
              40.346696
            ],
            [
              -74.869678,
              40.377774
            ],
            [
              -74.802016,
              40.384972
            ],
            [
              -74.80847,
              40.416664
            ],
            [
              -74.748147,
              40.424156
            ],
            [
              -74.752013,
              40.431361
            ],
            [
              -74.740213,
              40.439446
            ],
            [
              -74.715334,
              40.442061
            ],
            [
              -74.701823,
              40.468242
            ],
            [
              -74.65534,
              40.478039
            ],
            [
              -74.682804,
              40.487104
            ],
            [
              -74.69096,
              40.514297
            ],
            [
              -74.684572,
              40.517186
            ],
            [
              -74.706982,
              40.527125
            ],
            [
              -74.709316,
              40.537403
            ],
            [
              -74.687409,
              40.555354
            ],
            [
              -74.674074,
              40.547868
            ],
            [
              -74.637123,
              40.564762
            ],
            [
              -74.615796,
              40.556103
            ],
            [
              -74.589571,
              40.561183
            ],
            [
              -74.586259,
              40.570531
            ],
            [
              -74.539402,
              40.571423
            ],
            [
              -74.524703,
              40.581839
            ],
            [
              -74.523917,
              40.56967
            ],
            [
              -74.509721,
              40.584218
            ],
            [
              -74.459878,
              40.600033
            ],
            [
              -74.464951,
              40.611271
            ],
            [
              -74.40853,
              40.644346
            ],
            [
              -74.382725,
              40.629467
            ],
            [
              -74.39472,
              40.600989
            ],
            [
              -74.455132,
              40.595954
            ],
            [
              -74.459736,
              40.581553
            ],
            [
              -74.46967,
              40.585567
            ],
            [
              -74.519843,
              40.555584
            ],
            [
              -74.459179,
              40.496619
            ],
            [
              -74.489491,
              40.474452
            ],
            [
              -74.477344,
              40.467244
            ],
            [
              -74.460379,
              40.477626
            ],
            [
              -74.385078,
              40.487212
            ],
            [
              -74.375637,
              40.475093
            ],
            [
              -74.386089,
              40.459521
            ],
            [
              -74.375652,
              40.461097
            ],
            [
              -74.378376,
              40.452483
            ],
            [
              -74.371556,
              40.456204
            ],
            [
              -74.353648,
              40.431785
            ],
            [
              -74.36154,
              40.416595
            ],
            [
              -74.313629,
              40.450617
            ],
            [
              -74.301564,
              40.435406
            ],
            [
              -74.304893,
              40.41549
            ],
            [
              -74.274406,
              40.425285
            ],
            [
              -74.261407,
              40.412716
            ],
            [
              -74.260402,
              40.396666
            ],
            [
              -74.377545,
              40.305432
            ],
            [
              -74.393384,
              40.279637
            ],
            [
              -74.460776,
              40.251358
            ],
            [
              -74.484962,
              40.253325
            ],
            [
              -74.48203,
              40.273915
            ],
            [
              -74.488968,
              40.277084
            ],
            [
              -74.572959,
              40.301186
            ],
            [
              -74.567387,
              40.278522
            ],
            [
              -74.599285,
              40.24683
            ],
            [
              -74.607709,
              40.253169
            ],
            [
              -74.649937,
              40.241759
            ],
            [
              -74.713221,
              40.358476
            ],
            [
              -74.743733,
              40.33138
            ],
            [
              -74.762224,
              40.284274
            ],
            [
              -74.749534,
              40.260855
            ],
            [
              -74.75631,
              40.248713
            ],
            [
              -74.748942,
              40.239811
            ],
            [
              -74.731791,
              40.242192
            ],
            [
              -74.739478,
              40.231507
            ],
            [
              -74.728808,
              40.220768
            ],
            [
              -74.734979,
              40.200663
            ],
            [
              -74.752681,
              40.198364
            ],
            [
              -74.7519933317261,
              40.1835197039537
            ],
            [
              -74.771719,
              40.215287
            ],
            [
              -74.842308,
              40.250508
            ],
            [
              -74.880609,
              40.305607
            ],
            [
              -74.939711,
              40.338006
            ],
            [
              -74.9429542775691,
              40.3416426197195
            ]
          ]
        ]
      }
    }
  ]
}
