{
  "type": "FeatureCollection",
  "features": [
    {
      "type": "Feature",
      "id": "us-cd:119:29:01",
      "properties": {
        "boundary_id": "us-cd:119:29:01",
        "boundary_type": "congressional_district",
        "name": "1",
        "stateFips": "29",
        "congress": 119,
        "district": "01",
        "bbox": [
          -90.4894240003896,
          38.532011999831624,
          -90.11770700002312,
          38.89028300012069
        ]
      },
      "geometry": {
        "type": "Polygon",
        "coordinates": [
          [
            [
              -90.4894240003896,
              38.684977999665776
            ],
            [
              -90.44328299971312,
              38.67061899978269
            ],
            [
              -90.42194700021227,
              38.67337699979181
            ],
            [
              -90.42467999959837,
              38.64709100005606
            ],
            [
              -90.4103549996488,
              38.643901999785314
            ],
            [
              -90.41543200005522,
              38.635649999900416
            ],
            [
              -90.40568499984647,
              38.63560199989487
            ],
            [
              -90.40531800032367,
              38.65504099996373
            ],
            [
              -90.39521600028769,
              38.66106699984638
            ],
            [
              -90.35871100039016,
              38.65338500027945
            ],
            [
              -90.36227200032985,
              38.63054400013517
            ],
            [
              -90.34843199990384,
              38.6240659996497
            ],
            [
              -90.37890100021845,
              38.61409300026886
            ],
            [
              -90.37719399995598,
              38.57595099968503
            ],
            [
              -90.33232500024708,
              38.59380800013491
            ],
            [
              -90.33495200022628,
              38.629825000138844
            ],
            [
              -90.3064329998484,
              38.63358999993292
            ],
            [
              -90.32051500012372,
              38.594151999957916
            ],
            [
              -90.31358200039026,
              38.57876800003738
            ],
            [
              -90.25778200026686,
              38.532011999831624
            ],
            [
              -90.2242039999242,
              38.57507999985804
            ],
            [
              -90.19180300011459,
              38.598980000254635
            ],
            [
              -90.17881100033365,
              38.6291570001461
            ],
            [
              -90.18260200042711,
              38.66537899992272
            ],
            [
              -90.20920199993213,
              38.70277900027336
            ],
            [
              -90.20990999993678,
              38.726049999684776
            ],
            [
              -90.16636400035075,
              38.77267500014474
            ],
            [
              -90.11770700002312,
              38.80574800004803
            ],
            [
              -90.1402540003922,
              38.82908099980346
            ],
            [
              -90.19628600031918,
              38.82087900033062
            ],
            [
              -90.26286999964562,
              38.85497799972948
            ],
            [
              -90.29115499967179,
              38.885446000311276
            ],
            [
              -90.32710899992347,
              38.89028300012069
            ],
            [
              -90.36537799998486,
              38.825576999748336
            ],
            [
              -90.43800700001337,
              38.827952999709126
            ],
            [
              -90.46801799967025,
              38.7975499999434
            ],
            [
              -90.48245499977281,
              38.76401299998371
            ],
            [
              -90.45853699960028,
              38.7556719998295
            ],
            [
              -90.46885000042178,
              38.74071299988186
            ],
            [
              -90.46384099978742,
              38.72679099992369
            ],
            [
              -90.44685700007157,
              38.72535600024243
            ],
            [
              -90.45761299968557,
              38.70324499970324
            ],
            [
              -90.4503009998354,
              38.6929110000783
            ],
            [
              -90.47206999987961,
              38.69988499999537
            ],
            [
              -90.47189199960437,
              38.69019700020009
            ],
            [
              -90.48938900022952,
              38.685166999889574
            ],
            [
              -90.4894240003896,
              38.684977999665776
            ]
          ]
        ]
      }
    },
    {
      "type": "Feature",
      "id": "us-cd:119:29:02",
      "properties": {
        "boundary_id": "us-cd:119:29:02",
        "boundary_type": "congressional_district",
        "name": "2",
        "stateFips": "29",
        "congress": 119,
        "district": "02",
        "bbox": [
          -91.41863599967996,
          38.204013000191814,
          -90.25741300019591,
          38.84636999989213
        ]
      },
      "geometry": {
        "type": "Polygon",
        "coordinates": [
          [
            [
              -91.41863599967996,
              38.70986799979737
            ],
            [
              -91.36919199970495,
              38.69932400003013
            ],
            [
              -91.36763000010575,
              38.204013000191814
            ],
            [
              -90.78018499982777,
              38.20411200024072
            ],
            [
              -90.73199200000565,
              38.482477000327684
            ],
            [
              -90.71741900035896,
              38.478490999997085
            ],
            [
              -90.71796599980682,
              38.46906500003205
            ],
            [
              -90.69623299974762,
              38.47152299975086
            ],
            [
              -90.67982099959401,
              38.44566599971726
            ],
            [
              -90.6546019999382,
              38.4562249997799
            ],
            [
              -90.65556100001302,
              38.48673699983474
            ],
            [
              -90.63386200028901,
              38.48593600034215
            ],
            [
              -90.61414399956553,
              38.47115100017384
            ],
            [
              -90.59072500005858,
              38.50175299986032
            ],
            [
              -90.40496900034421,
              38.50059799992683
            ],
            [
              -90.40955799995568,
              38.48189800011194
            ],
            [
              -90.4228290002942,
              38.482488999729135
            ],
            [
              -90.41116399993581,
              38.453399999883885
            ],
            [
              -90.33613499970878,
              38.45349100033627
            ],
            [
              -90.34858800043777,
              38.430079000197935
            ],
            [
              -90.34213400038011,
              38.38728500024129
            ],
            [
              -90.29108400042499,
              38.43088999980279
            ],
            [
              -90.25741300019591,
              38.53185200028352
            ],
            [
              -90.31358200039026,
              38.57876800003738
            ],
            [
              -90.32051500012372,
              38.594151999957916
            ],
            [
              -90.3064329998484,
              38.63358999993292
            ],
            [
              -90.33495200022628,
              38.629825000138844
            ],
            [
              -90.33232500024708,
              38.59380800013491
            ],
            [
              -90.37719399995598,
              38.57595099968503
            ],
            [
              -90.37890100021845,
              38.61409300026886
            ],
            [
              -90.34843199990384,
              38.6240659996497
            ],
            [
              -90.36227200032985,
              38.63054400013517
            ],
            [
              -90.35871100039016,
              38.65338500027945
            ],
            [
              -90.39521600028769,
              38.66106699984638
            ],
            [
              -90.40531800032367,
              38.65504099996373
            ],
            [
              -90.40568499984647,
              38.63560199989487
            ],
            [
              -90.41543200005522,
              38.635649999900416
            ],
            [
              -90.4103549996488,
              38.643901999785314
            ],
            [
              -90.42467999959837,
              38.64709100005606
            ],
            [
              -90.42194700021227,
              38.67337699979181
            ],
            [
              -90.48853800010971,
              38.68317299997536
            ],
            [
              -90.47189199960437,
              38.69019700020009
            ],
            [
              -90.47206999987961,
              38.69988499999537
            ],
            [
              -90.4503009998354,
              38.6929110000783
            ],
            [
              -90.45761299968557,
              38.70324499970324
            ],
            [
              -90.44685700007157,
              38.72535600024243
            ],
            [
              -90.46384099978742,
              38.72679099992369
            ],
            [
              -90.46885000042178,
              38.74071299988186
            ],
            [
              -90.45853699960028,
              38.7556719998295
            ],
            [
              -90.48245499977281,
              38.76401299998371
            ],
            [
              -90.53019800023147,
              38.73170000011116
            ],
            [
              -90.53279500007345,
              38.69575100020737
            ],
            [
              -90.55067900031288,
              38.68235399969251
            ],
            [
              -90.66261299957219,
              38.68707399979112
            ],
            [
              -90.67725999973703,
              38.70874000024027
            ],
            [
              -90.69034000027982,
              38.71182000013456
            ],
            [
              -90.65879600043777,
              38.72581900017551
            ],
            [
              -90.67491999981299,
              38.719950000165866
            ],
            [
              -90.7001600002835,
              38.75000999973115
            ],
            [
              -90.67371300004105,
              38.76618999975997
            ],
            [
              -90.67676599999261,
              38.77247799993046
            ],
            [
              -90.71035100000798,
              38.77305500022976
            ],
            [
              -90.69983999971805,
              38.78020999978531
            ],
            [
              -90.70010000000906,
              38.80232000010917
            ],
            [
              -90.73315000027209,
              38.80297000016449
            ],
            [
              -90.74671699998831,
              38.79380799980534
            ],
            [
              -90.75534399956544,
              38.79403499993546
            ],
            [
              -90.75217400033632,
              38.803453999703834
            ],
            [
              -90.7722510001867,
              38.80396000000283
            ],
            [
              -90.75692000030664,
              38.789010000314335
            ],
            [
              -90.77130999965522,
              38.7853300002457
            ],
            [
              -90.77017900005126,
              38.77125700023933
            ],
            [
              -90.7769400002556,
              38.770448999974924
            ],
            [
              -90.83584000018621,
              38.806420000120184
            ],
            [
              -90.9032999997468,
              38.80392999995524
            ],
            [
              -91.01559100027981,
              38.830071999952104
            ],
            [
              -91.16962999989977,
              38.819480999940076
            ],
            [
              -91.20829399997136,
              38.8273450000324
            ],
            [
              -91.23932499980242,
              38.84636999989213
            ],
            [
              -91.41583200014873,
              38.84530000020944
            ],
            [
              -91.41863400003012,
              38.70995899971911
            ],
            [
              -91.41863599967996,
              38.70986799979737
            ]
          ]
        ]
      }
    },
    {
      "type": "Feature",
      "id": "us-cd:119:29:03",
      "properties": {
        "boundary_id": "us-cd:119:29:03",
        "boundary_type": "congressional_district",
        "name": "3",
        "stateFips": "29",
        "congress": 119,
        "district": "03",
        "bbox": [
          -93.05997399986275,
          37.69719799973022,
          -90.10940699978583,
          39.14785299992686
        ]
      },
      "geometry": {
        "type": "Polygon",
        "coordinates": [
          [
            [
              -93.05997399986275,
              38.69319800008152
            ],
            [
              -92.83983700026484,
              38.683974000139536
            ],
            [
              -92.84187099986711,
              38.596791999849145
            ],
            [
              -92.62518899990367,
              38.430777999772985
            ],
            [
              -92.63375600010465,
              38.34808199991526
            ],
            [
              -92.68983400006239,
              38.34847200032794
            ],
            [
              -92.6959969998669,
              38.22205300025287
            ],
            [
              -92.75019299966002,
              38.21702499980386
            ],
            [
              -92.78275699967625,
              38.17480400017678
            ],
            [
              -92.77206800000944,
              38.152069999743524
            ],
            [
              -92.77585099970696,
              38.134658000117206
            ],
            [
              -92.737357000413,
              38.141758999702795
            ],
            [
              -92.70456200041808,
              38.108823000140944
            ],
            [
              -92.71039799998447,
              38.098002000264444
            ],
            [
              -92.6892519995561,
              38.090663999865534
            ],
            [
              -92.68946400016652,
              38.11077499999142
            ],
            [
              -92.6749740003605,
              38.123809000227176
            ],
            [
              -92.62447000002835,
              38.141444000126654
            ],
            [
              -92.60496700028834,
              38.157688000160704
            ],
            [
              -92.59707700012986,
              38.11076000003614
            ],
            [
              -92.58797500017657,
              38.11058099976626
            ],
            [
              -92.58805200016948,
              38.096076000228095
            ],
            [
              -92.56968199968324,
              38.09593399995242
            ],
            [
              -92.57001800014223,
              38.066630000010576
            ],
            [
              -92.55208100019934,
              38.06633500034984
            ],
            [
              -92.55237599975213,
              38.05237700009379
            ],
            [
              -92.53344899977229,
              38.05180499999943
            ],
            [
              -92.53370599969023,
              38.03726599974678
            ],
            [
              -92.51557999960146,
              38.03693600001895
            ],
            [
              -92.51622400003204,
              38.0225109997093
            ],
            [
              -91.96633300013805,
              38.00968299973632
            ],
            [
              -91.95370399968196,
              38.04015500015275
            ],
            [
              -91.94185199972583,
              38.04159199971225
            ],
            [
              -91.93524700005541,
              38.03087000034649
            ],
            [
              -91.89534699989957,
              38.0511989998092
            ],
            [
              -91.63243100027151,
              38.05095099990257
            ],
            [
              -91.63055400012975,
              38.15351899969257
            ],
            [
              -91.525024999626,
              38.15243299980956
            ],
            [
              -91.52879700035119,
              37.7889889997513
            ],
            [
              -91.30831099987549,
              37.7871860003423
            ],
            [
              -91.3106549999975,
              37.70004799998762
            ],
            [
              -91.14697200010093,
              37.69719799973022
            ],
            [
              -91.14652100001422,
              37.74081099972935
            ],
            [
              -90.64513500011192,
              37.73481299990737
            ],
            [
              -90.63997999988771,
              38.07654799987352
            ],
            [
              -90.61806500025362,
              38.07332200014632
            ],
            [
              -90.61753999964877,
              38.089872000308524
            ],
            [
              -90.58459200039128,
              38.08248699972305
            ],
            [
              -90.57701799970198,
              38.09939999980407
            ],
            [
              -90.56130000020764,
              38.10207999987261
            ],
            [
              -90.5604380002172,
              38.11424199989615
            ],
            [
              -90.53779999961154,
              38.10751999970163
            ],
            [
              -90.54469999973306,
              38.12943000018361
            ],
            [
              -90.5274199997412,
              38.1309360003434
            ],
            [
              -90.53265899963101,
              38.14489900025881
            ],
            [
              -90.49189999985778,
              38.138620000127894
            ],
            [
              -90.51865099987384,
              38.155677000005156
            ],
            [
              -90.50967000029438,
              38.15446999975431
            ],
            [
              -90.50947799977546,
              38.17557599967484
            ],
            [
              -90.51923300038011,
              38.18377200034978
            ],
            [
              -90.51252300022941,
              38.50134399981492
            ],
            [
              -90.59112300044185,
              38.50165200019913
            ],
            [
              -90.61414399956553,
              38.47115100017384
            ],
            [
              -90.63386200028901,
              38.48593600034215
            ],
            [
              -90.65404299989645,
              38.48754099990832
            ],
            [
              -90.66070299981845,
              38.47919499972984
            ],
            [
              -90.6546019999382,
              38.4562249997799
            ],
            [
              -90.67982099959401,
              38.44566599971726
            ],
            [
              -90.69623299974762,
              38.47152299975086
            ],
            [
              -90.71796599980682,
              38.46906500003205
            ],
            [
              -90.71741900035896,
              38.478490999997085
            ],
            [
              -90.73207200037159,
              38.48239999990157
            ],
            [
              -90.78018499982777,
              38.20411200024072
            ],
            [
              -91.36763000010575,
              38.204013000191814
            ],
            [
              -91.36919199970495,
              38.69932400003013
            ],
            [
              -91.41863700040317,
              38.7097780000535
            ],
            [
              -91.41583200014873,
              38.84530000020944
            ],
            [
              -91.23932499980242,
              38.84636999989213
            ],
            [
              -91.20829399997136,
              38.8273450000324
            ],
            [
              -91.16962999989977,
              38.819480999940076
            ],
            [
              -91.01559100027981,
              38.830071999952104
            ],
            [
              -90.9032999997468,
              38.80392999995524
            ],
            [
              -90.83584000018621,
              38.806420000120184
            ],
            [
              -90.7769400002556,
              38.770448999974924
            ],
            [
              -90.77017900005126,
              38.77125700023933
            ],
            [
              -90.77130999965522,
              38.7853300002457
            ],
            [
              -90.75692000030664,
              38.789010000314335
            ],
            [
              -90.7722510001867,
              38.80396000000283
            ],
            [
              -90.75217400033632,
              38.803453999703834
            ],
            [
              -90.75534399956544,
              38.79403499993546
            ],
            [
              -90.74671699998831,
              38.79380799980534
            ],
            [
              -90.73315000027209,
              38.80297000016449
            ],
            [
              -90.70010000000906,
              38.80232000010917
            ],
            [
              -90.69983999971805,
              38.78020999978531
            ],
            [
              -90.71023200018226,
              38.772799000100086
            ],
            [
              -90.67805700032845,
              38.7739519998471
            ],
            [
              -90.67371300004105,
              38.76618999975997
            ],
            [
              -90.7002099996139,
              38.756929999808875
            ],
            [
              -90.6986399996188,
              38.74578000028465
            ],
            [
              -90.67491999981299,
              38.719950000165866
            ],
            [
              -90.65879600043777,
              38.72581900017551
            ],
            [
              -90.69034000027982,
              38.71182000013456
            ],
            [
              -90.67725999973703,
              38.70874000024027
            ],
            [
              -90.66261299957219,
              38.68707399979112
            ],
            [
              -90.62575500039556,
              38.69052800011932
            ],
            [
              -90.59479300016146,
              38.679856999680325
            ],
            [
              -90.53799100030555,
              38.68904199993223
            ],
            [
              -90.533503999903,
              38.72855599998431
            ],
            [
              -90.4879730002202,
              38.756253000120864
            ],
            [
              -90.44955600002082,
              38.81989200020126
            ],
            [
              -90.4340519998884,
              38.82873599979584
            ],
            [
              -90.36537799998486,
              38.825576999748336
            ],
            [
              -90.32710899992347,
              38.89028300012069
            ],
            [
              -90.29115499967179,
              38.885446000311276
            ],
            [
              -90.26076700044636,
              38.85355200016646
            ],
            [
              -90.18787800012684,
              38.81819900017325
            ],
            [
              -90.1402540003922,
              38.82908099980346
            ],
            [
              -90.11770700002312,
              38.80574800004803
            ],
            [
              -90.10940699978583,
              38.843548000116634
            ],
            [
              -90.25024799976053,
              38.91934400021936
            ],
            [
              -90.3094540000129,
              38.924120000049435
            ],
            [
              -90.3958160003373,
              38.96003699965134
            ],
            [
              -90.45081300002148,
              38.96776900015594
            ],
            [
              -90.47212199975814,
              38.958837999663494
            ],
            [
              -90.50745099984586,
              38.902766999964946
            ],
            [
              -90.56102099965007,
              38.869475999876215
            ],
            [
              -90.58338800009406,
              38.869029999893336
            ],
            [
              -90.62335600002199,
              38.88714900007878
            ],
            [
              -90.66318099983475,
              38.934223999739125
            ],
            [
              -90.69658199972707,
              38.932783999820956
            ],
            [
              -90.68377300024424,
              38.91598600022842
            ],
            [
              -90.71430899960767,
              38.91816400007387
            ],
            [
              -90.69943399983718,
              38.90841100034251
            ],
            [
              -90.70755699962416,
              38.90265199973608
            ],
            [
              -90.73561099967164,
              38.915832000342434
            ],
            [
              -90.72376399973838,
              38.92517500033654
            ],
            [
              -90.7288410001448,
              38.931141000009305
            ],
            [
              -90.79267799984143,
              38.91740799966136
            ],
            [
              -90.80441799964458,
              38.91113900023027
            ],
            [
              -90.7975409999876,
              38.904429000291266
            ],
            [
              -90.8082410004234,
              38.89997800000014
            ],
            [
              -90.80634500001506,
              38.8787099997593
            ],
            [
              -90.8187250000508,
              38.87581800032399
            ],
            [
              -90.87078799960909,
              38.88870699990733
            ],
            [
              -90.93345500024203,
              38.88504900015468
            ],
            [
              -90.95031199973626,
              38.895082999843154
            ],
            [
              -90.95755499998944,
              38.89328499993069
            ],
            [
              -90.95853599980558,
              38.87086499968406
            ],
            [
              -91.11125100037606,
              38.872708999936776
            ],
            [
              -91.11018699982093,
              38.93190100003789
            ],
            [
              -91.18934799972494,
              38.932150999968314
            ],
            [
              -91.18839000037335,
              38.992141000174186
            ],
            [
              -91.26428700043859,
              38.992761999941294
            ],
            [
              -91.26023199985619,
              39.139844999672356
            ],
            [
              -91.62959800042798,
              39.14785299992686
            ],
            [
              -91.63399799989355,
              39.05905700001107
            ],
            [
              -92.13151200040987,
              39.06448400003472
            ],
            [
              -92.12857499991095,
              39.04783199986928
            ],
            [
              -92.14078699971719,
              39.02994599980905
            ],
            [
              -92.13030300008978,
              39.022962000203925
            ],
            [
              -92.14978999993629,
              38.95430099993589
            ],
            [
              -92.27900400008573,
              38.96131900004368
            ],
            [
              -92.27948299976154,
              38.94986200026061
            ],
            [
              -92.29142799960411,
              38.94629800016826
            ],
            [
              -92.3961000001403,
              38.955639999710705
            ],
            [
              -92.41030700008908,
              38.97101900020736
            ],
            [
              -92.46478999993735,
              38.98823000019176
            ],
            [
              -92.54587999986165,
              38.98456999990784
            ],
            [
              -92.56448100032657,
              38.99278300020243
            ],
            [
              -92.55638299975563,
              38.985643999804076
            ],
            [
              -92.57014500036384,
              38.9792059997664
            ],
            [
              -92.55808599982012,
              38.97069199995831
            ],
            [
              -92.60040700009085,
              38.96785700004943
            ],
            [
              -92.71875599994809,
              38.984305000119626
            ],
            [
              -92.79180900029914,
              38.97204400005349
            ],
            [
              -92.85262800020432,
              38.98218299969652
            ],
            [
              -92.90965400036622,
              39.01564799974066
            ],
            [
              -92.9345690002484,
              39.06454699967791
            ],
            [
              -93.04847099988606,
              38.97241800019354
            ],
            [
              -93.05990500026579,
              38.69409499974557
            ],
            [
              -93.05997399986275,
              38.69319800008152
            ]
          ]
        ]
      }
    },
    {
      "type": "Feature",
      "id": "us-cd:119:29:04",
      "properties": {
        "boundary_id": "us-cd:119:29:04",
        "boundary_type": "congressional_district",
        "name": "4",
        "stateFips": "29",
        "congress": 119,
        "district": "04",
        "bbox": [
          -94.6179659998628,
          37.23350599987798,
          -92.02116499996579,
          39.41180499997774
        ]
      },
      "geometry": {
        "type": "Polygon",
        "coordinates": [
          [
            [
              -94.6179659998628,
              37.68221700029964
            ],
            [
              -94.6175700000277,
              37.36416999990575
            ],
            [
              -94.08219999990189,
              37.3493019998899
            ],
            [
              -94.08383299964618,
              37.29085099994457
            ],
            [
              -93.62636899997185,
              37.28196899974903
            ],
            [
              -93.62115299964825,
              37.42742300031979
            ],
            [
              -93.07337999992046,
              37.414989000197686
            ],
            [
              -93.0767750001788,
              37.27059899973107
            ],
            [
              -93.03732699993458,
              37.27839199993949
            ],
            [
              -93.04624700031299,
              37.270817999805935
            ],
            [
              -93.01237199986942,
              37.25596000003261
            ],
            [
              -92.99203599955295,
              37.27034399972249
            ],
            [
              -92.97113000022242,
              37.268233999678465
            ],
            [
              -92.97155299982172,
              37.248017999756186
            ],
            [
              -92.98094600002814,
              37.243899999972164
            ],
            [
              -92.9718609997933,
              37.23350599987798
            ],
            [
              -92.94405000031837,
              37.233866000053105
            ],
            [
              -92.93485100028072,
              37.24710200013693
            ],
            [
              -92.67965900023145,
              37.242362999806645
            ],
            [
              -92.67896999959505,
              37.26314899988393
            ],
            [
              -92.69230299985784,
              37.26351400025987
            ],
            [
              -92.68667099960764,
              37.48154499968813
            ],
            [
              -92.25226099956728,
              37.472943999711696
            ],
            [
              -92.24946299988383,
              37.60454299978619
            ],
            [
              -92.02925799961552,
              37.602542000135834
            ],
            [
              -92.02116499996579,
              38.01063900006232
            ],
            [
              -92.51622400003204,
              38.0225109997093
            ],
            [
              -92.51557999960146,
              38.03693600001895
            ],
            [
              -92.53370599969023,
              38.03726599974678
            ],
            [
              -92.53344899977229,
              38.05180499999943
            ],
            [
              -92.55237599975213,
              38.05237700009379
            ],
            [
              -92.55208100019934,
              38.06633500034984
            ],
            [
              -92.57001800014223,
              38.066630000010576
            ],
            [
              -92.56968199968324,
              38.09593399995242
            ],
            [
              -92.58805200016948,
              38.096076000228095
            ],
            [
              -92.58797500017657,
              38.11058099976626
            ],
            [
              -92.59707700012986,
              38.11076000003614
            ],
            [
              -92.60496700028834,
              38.157688000160704
            ],
            [
              -92.62447000002835,
              38.141444000126654
            ],
            [
              -92.67457599997725,
              38.12412400030807
            ],
            [
              -92.68946400016652,
              38.11077499999142
            ],
            [
              -92.69123800037613,
              38.09016300021636
            ],
            [
              -92.71039799998447,
              38.098002000264444
            ],
            [
              -92.70456200041808,
              38.108823000140944
            ],
            [
              -92.737357000413,
              38.141758999702795
            ],
            [
              -92.77585099970696,
              38.134658000117206
            ],
            [
              -92.77206800000944,
              38.152069999743524
            ],
            [
              -92.78275699967625,
              38.17480400017678
            ],
            [
              -92.77537700005404,
              38.18992499981596
            ],
            [
              -92.7645390004243,
              38.189619000005656
            ],
            [
              -92.75598800011683,
              38.212465000271564
            ],
            [
              -92.6959969998669,
              38.22205300025287
            ],
            [
              -92.68983400006239,
              38.34847200032794
            ],
            [
              -92.63375600010465,
              38.34808199991526
            ],
            [
              -92.62518899990367,
              38.430777999772985
            ],
            [
              -92.84187099986711,
              38.596791999849145
            ],
            [
              -92.83983700026484,
              38.683974000139536
            ],
            [
              -93.05997399986275,
              38.69307700017416
            ],
            [
              -93.04847099988606,
              38.97241800019354
            ],
            [
              -92.9345690002484,
              39.06454699967791
            ],
            [
              -92.90965400036622,
              39.01564799974066
            ],
            [
              -92.85262800020432,
              38.98218299969652
            ],
            [
              -92.79180900029914,
              38.97204400005349
            ],
            [
              -92.71875599994809,
              38.984305000119626
            ],
            [
              -92.60040700009085,
              38.96785700004943
            ],
            [
              -92.55808599982012,
              38.97069199995831
            ],
            [
              -92.57014500036384,
              38.9792059997664
            ],
            [
              -92.55638299975563,
              38.985643999804076
            ],
            [
              -92.56448100032657,
              38.99278300020243
            ],
            [
              -92.54587999986165,
              38.98456999990784
            ],
            [
              -92.46478999993735,
              38.98823000019176
            ],
            [
              -92.41030700008908,
              38.97101900020736
            ],
            [
              -92.3961000001403,
              38.955639999710705
            ],
            [
              -92.29142799960411,
              38.94629800016826
            ],
            [
              -92.27948299976154,
              38.94986200026061
            ],
            [
              -92.27900400008573,
              38.96131900004368
            ],
            [
              -92.14978999993629,
              38.95430099993589
            ],
            [
              -92.13030300008978,
              39.022962000203925
            ],
            [
              -92.14078699971719,
              39.02994599980905
            ],
            [
              -92.12857499991095,
              39.04783199986928
            ],
            [
              -92.13151200040987,
              39.06448400003472
            ],
            [
              -92.11038699989788,
              39.06420400024297
            ],
            [
              -92.10437399988119,
              39.239809000277866
            ],
            [
              -92.43029100005302,
              39.248797000155385
            ],
            [
              -92.79036900000038,
              39.343586000073195
            ],
            [
              -92.84922399972515,
              39.2262179998659
            ],
            [
              -92.86285099971582,
              39.23643699969056
            ],
            [
              -92.90614199993202,
              39.22233899989151
            ],
            [
              -92.91957200027919,
              39.23161500026038
            ],
            [
              -92.91674899958308,
              39.25793999971337
            ],
            [
              -92.95776599999749,
              39.27933600030196
            ],
            [
              -92.95980100032301,
              39.31252599982707
            ],
            [
              -93.0520429996964,
              39.32072499989649
            ],
            [
              -93.0744379997295,
              39.33796499972175
            ],
            [
              -93.07708300015037,
              39.36550000006332
            ],
            [
              -93.08775900029673,
              39.37891200026802
            ],
            [
              -93.13963100005932,
              39.378643000122956
            ],
            [
              -93.18064599992559,
              39.41180499997774
            ],
            [
              -93.20070799970735,
              39.40178700021172
            ],
            [
              -93.18956899977873,
              39.370382999867296
            ],
            [
              -93.22120399985738,
              39.331656000188026
            ],
            [
              -93.25256500029964,
              39.3388740003277
            ],
            [
              -93.2777250004042,
              39.31154899967692
            ],
            [
              -93.33685600031349,
              39.30703200001572
            ],
            [
              -93.34443000010448,
              39.28936400021391
            ],
            [
              -93.32912099996572,
              39.25508099996127
            ],
            [
              -93.37522800030703,
              39.23072700005496
            ],
            [
              -93.40951999960382,
              39.22988700006895
            ],
            [
              -93.41588199959997,
              39.237824000015095
            ],
            [
              -93.40477500035674,
              39.263273999819596
            ],
            [
              -93.44423100009855,
              39.268524999983704
            ],
            [
              -93.45990799958503,
              39.289374999891365
            ],
            [
              -93.47825399978181,
              39.292665999937384
            ],
            [
              -93.49593700017978,
              39.272913000209876
            ],
            [
              -93.4878849996396,
              39.22887499982404
            ],
            [
              -93.5050690002703,
              39.216819000213036
            ],
            [
              -93.55689699965195,
              39.2181489997685
            ],
            [
              -93.58582899958341,
              39.240759999664824
            ],
            [
              -93.65281600021432,
              39.24825200006824
            ],
            [
              -93.71120999980663,
              39.20626199980795
            ],
            [
              -93.74599999994408,
              39.20948700022458
            ],
            [
              -93.7843910002042,
              39.20020900024578
            ],
            [
              -93.82417199963604,
              39.21489699993708
            ],
            [
              -93.85543400034409,
              39.212874000311224
            ],
            [
              -93.89941699977312,
              39.184538999758196
            ],
            [
              -93.9400430003753,
              39.17969000012421
            ],
            [
              -93.94241099988841,
              39.15808300007737
            ],
            [
              -93.96911099985086,
              39.14227500009084
            ],
            [
              -93.98889200032353,
              39.15278600012954
            ],
            [
              -93.96147900033357,
              39.187524999798406
            ],
            [
              -93.98008800029608,
              39.205874000305826
            ],
            [
              -94.03449400015147,
              39.18794499998257
            ],
            [
              -94.02420600034264,
              39.15453699993454
            ],
            [
              -94.04809400037794,
              39.13956000030804
            ],
            [
              -94.07860700017515,
              39.13424699993101
            ],
            [
              -94.10482300043894,
              39.14350700012425
            ],
            [
              -94.10676400015478,
              39.09170300020308
            ],
            [
              -94.19982200038619,
              39.09458500027149
            ],
            [
              -94.20044500000205,
              39.07629899966254
            ],
            [
              -94.19096800013004,
              39.07875100006136
            ],
            [
              -94.19108100010794,
              39.07186300008953
            ],
            [
              -94.20115700020465,
              39.064994999703785
            ],
            [
              -94.26954700042607,
              39.067303999935234
            ],
            [
              -94.27342499965985,
              39.08222300013082
            ],
            [
              -94.31020200044223,
              39.091661999684575
            ],
            [
              -94.33635199968545,
              39.061951000092186
            ],
            [
              -94.29329300017116,
              39.06260200031221
            ],
            [
              -94.31530499988962,
              39.054104000021496
            ],
            [
              -94.3044470001684,
              39.02633399998096
            ],
            [
              -94.27217799970494,
              39.02139899994514
            ],
            [
              -94.27703199963025,
              38.93372199973999
            ],
            [
              -94.26309599984315,
              38.91563799971088
            ],
            [
              -94.26671399968421,
              38.85681200021742
            ],
            [
              -94.27708900042998,
              38.85563100008913
            ],
            [
              -94.27816700033051,
              38.83505599978621
            ],
            [
              -94.60803299988122,
              38.84720700031204
            ],
            [
              -94.61792099965696,
              37.682893999923856
            ],
            [
              -94.6179659998628,
              37.68221700029964
            ]
          ]
        ]
      }
    },
    {
      "type": "Feature",
      "id": "us-cd:119:29:05",
      "properties": {
        "boundary_id": "us-cd:119:29:05",
        "boundary_type": "congressional_district",
        "name": "5",
        "stateFips": "29",
        "congress": 119,
        "district": "05",
        "bbox": [
          -94.60851900012804,
          38.83505599978621,
          -94.26309599984315,
          39.33314900007689
        ]
      },
      "geometry": {
        "type": "Polygon",
        "coordinates": [
          [
            [
              -94.60851900012804,
              39.11624399980174
            ],
            [
              -94.60803299988122,
              38.84720700031204
            ],
            [
              -94.27816700033051,
              38.83505599978621
            ],
            [
              -94.27708900042998,
              38.85563100008913
            ],
            [
              -94.26671399968421,
              38.85681200021742
            ],
            [
              -94.26309599984315,
              38.91563799971088
            ],
            [
              -94.27703199963025,
              38.93372199973999
            ],
            [
              -94.27217799970494,
              39.02139899994514
            ],
            [
              -94.3044470001684,
              39.02633399998096
            ],
            [
              -94.31530499988962,
              39.054104000021496
            ],
            [
              -94.29329300017116,
              39.06260200031221
            ],
            [
              -94.33635199968545,
              39.061951000092186
            ],
            [
              -94.28152700042874,
              39.10976100006899
            ],
            [
              -94.30440000031271,
              39.11893399998705
            ],
            [
              -94.31373099969656,
              39.136653000257354
            ],
            [
              -94.3852910000454,
              39.12950000013475
            ],
            [
              -94.39079199987603,
              39.14509000028707
            ],
            [
              -94.4073909996274,
              39.13042099977161
            ],
            [
              -94.41947500028544,
              39.14931799991775
            ],
            [
              -94.45542899963883,
              39.12310400024364
            ],
            [
              -94.46789599971322,
              39.124954000306694
            ],
            [
              -94.48411200004824,
              39.145008999777744
            ],
            [
              -94.47518199962408,
              39.15736599970279
            ],
            [
              -94.47518800037021,
              39.194837000147515
            ],
            [
              -94.49258800001263,
              39.19855500001803
            ],
            [
              -94.47441000004534,
              39.21841499971839
            ],
            [
              -94.49298399984777,
              39.22068099998683
            ],
            [
              -94.49197700009235,
              39.31794000003289
            ],
            [
              -94.5558630001928,
              39.318626000241764
            ],
            [
              -94.5605799998508,
              39.33314099988227
            ],
            [
              -94.60076500041201,
              39.33314900007689
            ],
            [
              -94.60173299980933,
              39.15960300012846
            ],
            [
              -94.58838700002607,
              39.14886799971779
            ],
            [
              -94.60828999979918,
              39.11794399990243
            ],
            [
              -94.60851900012804,
              39.11624399980174
            ]
          ]
        ]
      }
    },
    {
      "type": "Feature",
      "id": "us-cd:119:29:06",
      "properties": {
        "boundary_id": "us-cd:119:29:06",
        "boundary_type": "congressional_district",
        "name": "6",
        "stateFips": "29",
        "congress": 119,
        "district": "06",
        "bbox": [
          -95.77470400039076,
          38.87086499968406,
          -90.66318099983475,
          40.61363999995376
        ]
      },
      "geometry": {
        "type": "Polygon",
        "coordinates": [
          [
            [
              -95.77470400039076,
              40.573574000170495
            ],
            [
              -95.76383300025074,
              40.55387300015211
            ],
            [
              -95.76869300002386,
              40.53410600008002
            ],
            [
              -95.75274299982762,
              40.52489299981811
            ],
            [
              -95.70859100034419,
              40.521551000024616
            ],
            [
              -95.69549499990785,
              40.53202099975563
            ],
            [
              -95.69414699967061,
              40.55694200025518
            ],
            [
              -95.67871500040653,
              40.5625609999768
            ],
            [
              -95.65584800037031,
              40.546608999840025
            ],
            [
              -95.66168099956366,
              40.517311999757126
            ],
            [
              -95.69996899989161,
              40.50527499999936
            ],
            [
              -95.69465100035907,
              40.47145199981882
            ],
            [
              -95.65657499974324,
              40.438701000296014
            ],
            [
              -95.66060199983822,
              40.412408999822034
            ],
            [
              -95.62268400030446,
              40.34232300026568
            ],
            [
              -95.65372900037922,
              40.322582000255075
            ],
            [
              -95.65732799995374,
              40.31085600004829
            ],
            [
              -95.61043899998792,
              40.31397000007456
            ],
            [
              -95.56215699957902,
              40.29735899986191
            ],
            [
              -95.55162000024816,
              40.28866599972103
            ],
            [
              -95.55247300001777,
              40.26190399986298
            ],
            [
              -95.47624100021677,
              40.24125700033731
            ],
            [
              -95.46990000013702,
              40.22270000028959
            ],
            [
              -95.4823189996325,
              40.20066700007847
            ],
            [
              -95.479192999886,
              40.1856520000733
            ],
            [
              -95.43634799973363,
              40.15871999979878
            ],
            [
              -95.42740899998697,
              40.134607999960615
            ],
            [
              -95.39334699994565,
              40.119211999883326
            ],
            [
              -95.42133999989376,
              40.0607459997853
            ],
            [
              -95.41054800029477,
              40.035628000153686
            ],
            [
              -95.3894360002016,
              40.026858000031886
            ],
            [
              -95.35372200014942,
              40.030788999928184
            ],
            [
              -95.31527099961484,
              40.01207000026049
            ],
            [
              -95.30580299996366,
              39.98789899966052
            ],
            [
              -95.25025399991044,
              39.948643999942334
            ],
            [
              -95.20526600037586,
              39.9397499997955
            ],
            [
              -95.20274499980353,
              39.90507600007466
            ],
            [
              -95.14965700004817,
              39.90594799987068
            ],
            [
              -95.1286090004274,
              39.87433500032669
            ],
            [
              -95.08500299966862,
              39.861882999689264
            ],
            [
              -95.03940300038883,
              39.8648319996734
            ],
            [
              -95.02674700016854,
              39.87227300032567
            ],
            [
              -95.01513500041192,
              39.89964299974308
            ],
            [
              -94.95415499994995,
              39.90113799978056
            ],
            [
              -94.92789699985337,
              39.88611200024985
            ],
            [
              -94.93985400028981,
              39.85204399974368
            ],
            [
              -94.87829300004482,
              39.82602600021162
            ],
            [
              -94.88228900017766,
              39.795803999881876
            ],
            [
              -94.92755799991967,
              39.789209999817906
            ],
            [
              -94.93529999994013,
              39.775613999820834
            ],
            [
              -94.91094900012256,
              39.75917800011644
            ],
            [
              -94.86714300024553,
              39.771693999777376
            ],
            [
              -94.85903499962888,
              39.75411599975481
            ],
            [
              -94.86504799964557,
              39.73859099988081
            ],
            [
              -94.90104399973005,
              39.724057999790624
            ],
            [
              -94.94754100005872,
              39.74533699975466
            ],
            [
              -94.96266199987649,
              39.74133700029203
            ],
            [
              -94.97120599961293,
              39.72930499978462
            ],
            [
              -94.97131699994102,
              39.68641000007702
            ],
            [
              -95.01831800005982,
              39.67286900019035
            ],
            [
              -95.04951799994528,
              39.63787600020625
            ],
            [
              -95.05058999999802,
              39.58756299978985
            ],
            [
              -95.06709500003805,
              39.57650199986571
            ],
            [
              -95.10322800038989,
              39.57778300021926
            ],
            [
              -95.1135570002066,
              39.55394099971957
            ],
            [
              -95.10130199984432,
              39.53166800016045
            ],
            [
              -95.05217699971155,
              39.49999599972772
            ],
            [
              -95.04078000004009,
              39.466386999778265
            ],
            [
              -94.98478800029606,
              39.442702999674225
            ],
            [
              -94.97295200023343,
              39.42170499984926
            ],
            [
              -94.9478640000989,
              39.4086040002224
            ],
            [
              -94.94203900040316,
              39.38949899988115
            ],
            [
              -94.88502599976174,
              39.38980100010491
            ],
            [
              -94.88136000024008,
              39.370382999867296
            ],
            [
              -94.91032099958552,
              39.35129500034288
            ],
            [
              -94.90067800003217,
              39.30187399988041
            ],
            [
              -94.83144900028483,
              39.256291000226575
            ],
            [
              -94.8316790004386,
              39.215938000255626
            ],
            [
              -94.78224799998408,
              39.206793999666864
            ],
            [
              -94.75164700032332,
              39.17300399968605
            ],
            [
              -94.71413700032024,
              39.170403000032586
            ],
            [
              -94.67823999996995,
              39.184169000133295
            ],
            [
              -94.66157699974616,
              39.177358999982296
            ],
            [
              -94.65578700021054,
              39.15568000026305
            ],
            [
              -94.60173299980933,
              39.15960300012846
            ],
            [
              -94.60076500041201,
              39.33314900007689
            ],
            [
              -94.5605799998508,
              39.33314099988227
            ],
            [
              -94.5558630001928,
              39.318626000241764
            ],
            [
              -94.49197700009235,
              39.31794000003289
            ],
            [
              -94.49298399984777,
              39.22068099998683
            ],
            [
              -94.47441000004534,
              39.21841499971839
            ],
            [
              -94.49258800001263,
              39.19855500001803
            ],
            [
              -94.47518800037021,
              39.194837000147515
            ],
            [
              -94.47518199962408,
              39.15736599970279
            ],
            [
              -94.48411200004824,
              39.145008999777744
            ],
            [
              -94.46723000043967,
              39.12430399985034
            ],
            [
              -94.4406419997319,
              39.130779999782234
            ],
            [
              -94.41947500028544,
              39.14931799991775
            ],
            [
              -94.4073909996274,
              39.13042099977161
            ],
            [
              -94.39079199987603,
              39.14509000028707
            ],
            [
              -94.3852910000454,
              39.12950000013475
            ],
            [
              -94.31373099969656,
              39.136653000257354
            ],
            [
              -94.30440000031271,
              39.11893399998705
            ],
            [
              -94.28152700042874,
              39.10976100006899
            ],
            [
              -94.30776500043382,
              39.090136000129554
            ],
            [
              -94.27342499965985,
              39.08222300013082
            ],
            [
              -94.26954700042607,
              39.067303999935234
            ],
            [
              -94.20115700020465,
              39.064994999703785
            ],
            [
              -94.19108100010794,
              39.07186300008953
            ],
            [
              -94.19096800013004,
              39.07875100006136
            ],
            [
              -94.20044500000205,
              39.07629899966254
            ],
            [
              -94.19982200038619,
              39.09458500027149
            ],
            [
              -94.10676400015478,
              39.09170300020308
            ],
            [
              -94.10482300043894,
              39.14350700012425
            ],
            [
              -94.07860700017515,
              39.13424699993101
            ],
            [
              -94.04809400037794,
              39.13956000030804
            ],
            [
              -94.02420600034264,
              39.15453699993454
            ],
            [
              -94.03449400015147,
              39.18794499998257
            ],
            [
              -93.98008800029608,
              39.205874000305826
            ],
            [
              -93.96147900033357,
              39.187524999798406
            ],
            [
              -93.98889200032353,
              39.15278600012954
            ],
            [
              -93.96911099985086,
              39.14227500009084
            ],
            [
              -93.94241099988841,
              39.15808300007737
            ],
            [
              -93.9400430003753,
              39.17969000012421
            ],
            [
              -93.89941699977312,
              39.184538999758196
            ],
            [
              -93.85543400034409,
              39.212874000311224
            ],
            [
              -93.82417199963604,
              39.21489699993708
            ],
            [
              -93.7843910002042,
              39.20020900024578
            ],
            [
              -93.74599999994408,
              39.20948700022458
            ],
            [
              -93.71120999980663,
              39.20626199980795
            ],
            [
              -93.65281600021432,
              39.24825200006824
            ],
            [
              -93.58582899958341,
              39.240759999664824
            ],
            [
              -93.55689699965195,
              39.2181489997685
            ],
            [
              -93.5050690002703,
              39.216819000213036
            ],
            [
              -93.4865730002857,
              39.23386099991516
            ],
            [
              -93.49434000042052,
              39.27835900000269
            ],
            [
              -93.47327199980995,
              39.293295999852944
            ],
            [
              -93.44423100009855,
              39.268524999983704
            ],
            [
              -93.40477500035674,
              39.263273999819596
            ],
            [
              -93.41141400036233,
              39.23105799987487
            ],
            [
              -93.37313699990503,
              39.23133099970551
            ],
            [
              -93.32912099996572,
              39.25508099996127
            ],
            [
              -93.34443000010448,
              39.28936400021391
            ],
            [
              -93.33685600031349,
              39.30703200001572
            ],
            [
              -93.2777250004042,
              39.31154899967692
            ],
            [
              -93.25256500029964,
              39.3388740003277
            ],
            [
              -93.22522099990663,
              39.32886299989995
            ],
            [
              -93.18956899977873,
              39.370382999867296
            ],
            [
              -93.19928199965227,
              39.40431199990228
            ],
            [
              -93.1774509996838,
              39.41171400005363
            ],
            [
              -93.13963100005932,
              39.378643000122956
            ],
            [
              -93.08775900029673,
              39.37891200026802
            ],
            [
              -93.07708300015037,
              39.36550000006332
            ],
            [
              -93.0744379997295,
              39.33796499972175
            ],
            [
              -93.0520429996964,
              39.32072499989649
            ],
            [
              -92.95980100032301,
              39.31252599982707
            ],
            [
              -92.95776599999749,
              39.27933600030196
            ],
            [
              -92.91674899958308,
              39.25793999971337
            ],
            [
              -92.91957200027919,
              39.23161500026038
            ],
            [
              -92.90614199993202,
              39.22233899989151
            ],
            [
              -92.86285099971582,
              39.23643699969056
            ],
            [
              -92.84922399972515,
              39.2262179998659
            ],
            [
              -92.79036900000038,
              39.343586000073195
            ],
            [
              -92.43029100005302,
              39.248797000155385
            ],
            [
              -92.10437399988119,
              39.239809000277866
            ],
            [
              -92.11038699989788,
              39.06420400024297
            ],
            [
              -91.63399799989355,
              39.05905700001107
            ],
            [
              -91.62959800042798,
              39.14785299992686
            ],
            [
              -91.26023199985619,
              39.139844999672356
            ],
            [
              -91.26428700043859,
              38.992761999941294
            ],
            [
              -91.18839000037335,
              38.992141000174186
            ],
            [
              -91.18934799972494,
              38.932150999968314
            ],
            [
              -91.11018699982093,
              38.93190100003789
            ],
            [
              -91.11125100037606,
              38.872708999936776
            ],
            [
              -90.95853599980558,
              38.87086499968406
            ],
            [
              -90.95755499998944,
              38.89328499993069
            ],
            [
              -90.95031199973626,
              38.895082999843154
            ],
            [
              -90.93345500024203,
              38.88504900015468
            ],
            [
              -90.87078799960909,
              38.88870699990733
            ],
            [
              -90.8187250000508,
              38.87581800032399
            ],
            [
              -90.80634500001506,
              38.8787099997593
            ],
            [
              -90.8082410004234,
              38.89997800000014
            ],
            [
              -90.7975409999876,
              38.904429000291266
            ],
            [
              -90.80441799964458,
              38.91113900023027
            ],
            [
              -90.79267799984143,
              38.91740799966136
            ],
            [
              -90.7288410001448,
              38.931141000009305
            ],
            [
              -90.72376399973838,
              38.92517500033654
            ],
            [
              -90.73561099967164,
              38.915832000342434
            ],
            [
              -90.70755699962416,
              38.90265199973608
            ],
            [
              -90.69943399983718,
              38.90841100034251
            ],
            [
              -90.71430899960767,
              38.91816400007387
            ],
            [
              -90.68377300024424,
              38.91598600022842
            ],
            [
              -90.69658199972707,
              38.932783999820956
            ],
            [
              -90.66318099983475,
              38.934223999739125
            ],
            [
              -90.67902700027395,
              38.99386699983414
            ],
            [
              -90.71362900009042,
              39.05397699983576
            ],
            [
              -90.68108599999057,
              39.10059000033339
            ],
            [
              -90.70790200030397,
              39.150860000143794
            ],
            [
              -90.72996000005318,
              39.25589400015616
            ],
            [
              -90.75159900040106,
              39.26543200021695
            ],
            [
              -90.79346100018915,
              39.309497999991265
            ],
            [
              -90.92874500025674,
              39.38754399976157
            ],
            [
              -90.94076600026727,
              39.40398399972629
            ],
            [
              -91.03826999999501,
              39.44843500021758
            ],
            [
              -91.1003070004411,
              39.53869500023708
            ],
            [
              -91.15362799982498,
              39.548248000208176
            ],
            [
              -91.18193600031567,
              39.60267699988896
            ],
            [
              -91.22931700037607,
              39.6208530001609
            ],
            [
              -91.27614000021964,
              39.6657590000874
            ],
            [
              -91.36939500009453,
              39.73116299999
            ],
            [
              -91.36238799984291,
              39.79048200009414
            ],
            [
              -91.37648799966158,
              39.81003300008811
            ],
            [
              -91.43652900014021,
              39.847078000022115
            ],
            [
              -91.44692200042934,
              39.88303399986567
            ],
            [
              -91.41935999957815,
              39.927716999863385
            ],
            [
              -91.494878000425,
              40.03645300024424
            ],
            [
              -91.48960600002492,
              40.05743499970961
            ],
            [
              -91.5108389995936,
              40.1261369996846
            ],
            [
              -91.50650100005228,
              40.2363039998996
            ],
            [
              -91.49052400009185,
              40.2594979999636
            ],
            [
              -91.4909709999806,
              40.28336399981506
            ],
            [
              -91.4621400003315,
              40.342413999931836
            ],
            [
              -91.41942200040073,
              40.37826400032657
            ],
            [
              -91.44124300032348,
              40.386255000044116
            ],
            [
              -91.4638950002745,
              40.375658999712776
            ],
            [
              -91.46355399979267,
              40.38554699968635
            ],
            [
              -91.48525500006481,
              40.38465700019551
            ],
            [
              -91.48848100026873,
              40.40431699967791
            ],
            [
              -91.52461200007244,
              40.41076499974858
            ],
            [
              -91.51913399980802,
              40.432821999668235
            ],
            [
              -91.53362299978912,
              40.43832000015318
            ],
            [
              -91.52508999992332,
              40.45784500034093
            ],
            [
              -91.57473399991488,
              40.465655000138995
            ],
            [
              -91.59081700018052,
              40.49229200020862
            ],
            [
              -91.62135300044226,
              40.51007200019013
            ],
            [
              -91.62007100032726,
              40.54081699976456
            ],
            [
              -91.68870000002495,
              40.557389999944945
            ],
            [
              -91.68635699972786,
              40.58087500004417
            ],
            [
              -91.7291149998416,
              40.61363999995376
            ],
            [
              -92.68669300024727,
              40.58980900009771
            ],
            [
              -94.07213999969869,
              40.57302600001593
            ],
            [
              -95.76385499999205,
              40.585207000015494
            ],
            [
              -95.77354899959904,
              40.578205000247465
            ],
            [
              -95.77470400039076,
              40.573574000170495
            ]
          ]
        ]
      }
    },
    {
      "type": "Feature",
      "id": "us-cd:119:29:07",
      "properties": {
        "boundary_id": "us-cd:119:29:07",
        "boundary_type": "congressional_district",
        "name": "7",
        "stateFips": "29",
        "congress": 119,
        "district": "07",
        "bbox": [
          -94.61857599995818,
          36.49783899998856,
          -92.67965900023145,
          37.42742300031979
        ]
      },
      "geometry": {
        "type": "Polygon",
        "coordinates": [
          [
            [
              -94.61857599995818,
              36.88335099989324
            ],
            [
              -94.61785899973269,
              36.49943099975799
            ],
            [
              -92.77233900017109,
              36.49783899998856
            ],
            [
              -92.76486900013718,
              36.806097000224696
            ],
            [
              -92.9093360003489,
              36.80917800002837
            ],
            [
              -92.90327300010348,
              37.070651000172745
            ],
            [
              -92.68586700024184,
              37.067050999721694
            ],
            [
              -92.67965900023145,
              37.242362999806645
            ],
            [
              -92.93485100028072,
              37.24710200013693
            ],
            [
              -92.94405000031837,
              37.233866000053105
            ],
            [
              -92.9718609997933,
              37.23350599987798
            ],
            [
              -92.98094600002814,
              37.243899999972164
            ],
            [
              -92.97155299982172,
              37.248017999756186
            ],
            [
              -92.97113000022242,
              37.268233999678465
            ],
            [
              -92.99203599955295,
              37.27034399972249
            ],
            [
              -93.01237199986942,
              37.25596000003261
            ],
            [
              -93.04624700031299,
              37.270817999805935
            ],
            [
              -93.03732699993458,
              37.27839199993949
            ],
            [
              -93.0767750001788,
              37.27059899973107
            ],
            [
              -93.07337999992046,
              37.414989000197686
            ],
            [
              -93.62115299964825,
              37.42742300031979
            ],
            [
              -93.62636899997185,
              37.28196899974903
            ],
            [
              -94.08383299964618,
              37.29085099994457
            ],
            [
              -94.08219999990189,
              37.3493019998899
            ],
            [
              -94.6175700000277,
              37.36416999990575
            ],
            [
              -94.61857500013328,
              36.883449000262274
            ],
            [
              -94.61857599995818,
              36.88335099989324
            ]
          ]
        ]
      }
    },
    {
      "type": "Feature",
      "id": "us-cd:119:29:08",
      "properties": {
        "boundary_id": "us-cd:119:29:08",
        "boundary_type": "congressional_district",
        "name": "8",
        "stateFips": "29",
        "congress": 119,
        "district": "08",
        "bbox": [
          -92.90934700021955,
          35.995744999999246,
          -89.09898300037246,
          38.50134399981492
        ]
      },
      "geometry": {
        "type": "Polygon",
        "coordinates": [
          [
            [
              -92.90934700021955,
              36.80947699987364
            ],
            [
              -92.76486900013718,
              36.806097000224696
            ],
            [
              -92.77233900017109,
              36.49783899998856
            ],
            [
              -90.1523070001898,
              36.4979820003251
            ],
            [
              -90.15954399969688,
              36.48024399967595
            ],
            [
              -90.14239199975155,
              36.47139900023911
            ],
            [
              -90.15540699999703,
              36.46379500013937
            ],
            [
              -90.1430069998698,
              36.46795999974526
            ],
            [
              -90.13395299959708,
              36.45378099965882
            ],
            [
              -90.14431199955102,
              36.4260180002303
            ],
            [
              -90.13440299985888,
              36.42287700018475
            ],
            [
              -90.13850299974881,
              36.41372599975548
            ],
            [
              -90.08152000014293,
              36.40109600008557
            ],
            [
              -90.06350399965902,
              36.384080999787734
            ],
            [
              -90.08238200013338,
              36.321996999818076
            ],
            [
              -90.06419300029542,
              36.30250200030505
            ],
            [
              -90.08352899963086,
              36.272122000269064
            ],
            [
              -90.11706799961544,
              36.2634870001383
            ],
            [
              -90.13088299992707,
              36.24137199981035
            ],
            [
              -90.12625699960736,
              36.2292139996634
            ],
            [
              -90.2203459998836,
              36.18453999970467
            ],
            [
              -90.2353470000508,
              36.15954000019728
            ],
            [
              -90.23544499996008,
              36.13939500027025
            ],
            [
              -90.29306000030095,
              36.11443000005642
            ],
            [
              -90.30018499965504,
              36.09771899974968
            ],
            [
              -90.31961200012539,
              36.089569999825954
            ],
            [
              -90.32062100042893,
              36.07131999973771
            ],
            [
              -90.33334500042128,
              36.067475999959974
            ],
            [
              -90.33687399967557,
              36.04723799973037
            ],
            [
              -90.37790000031082,
              35.995744999999246
            ],
            [
              -89.70693200029808,
              36.00098100021074
            ],
            [
              -89.68857699988045,
              36.02923799996376
            ],
            [
              -89.67882100034919,
              36.084636000359716
            ],
            [
              -89.60193599989681,
              36.11946999967452
            ],
            [
              -89.59163200019445,
              36.1421350003317
            ],
            [
              -89.6070040000824,
              36.171178999976085
            ],
            [
              -89.69262999991471,
              36.22495900017676
            ],
            [
              -89.70525000014999,
              36.236568000094174
            ],
            [
              -89.70182099955647,
              36.24600400016937
            ],
            [
              -89.69523500015264,
              36.2527659998872
            ],
            [
              -89.65140699963598,
              36.2506829997701
            ],
            [
              -89.60237399956473,
              36.238106000244684
            ],
            [
              -89.53467600035275,
              36.25277099980538
            ],
            [
              -89.53948699972207,
              36.27736800035405
            ],
            [
              -89.5784920002755,
              36.28831699972798
            ],
            [
              -89.62025500032942,
              36.32300600008558
            ],
            [
              -89.60566800043902,
              36.342234000268625
            ],
            [
              -89.5318219996945,
              36.33924600016343
            ],
            [
              -89.5097220001125,
              36.373626000133406
            ],
            [
              -89.54525500041471,
              36.42707900028296
            ],
            [
              -89.52342699992097,
              36.456572000215786
            ],
            [
              -89.51992200005778,
              36.47705299982505
            ],
            [
              -89.56041200021751,
              36.524406000151174
            ],
            [
              -89.57102499971634,
              36.550201000334546
            ],
            [
              -89.56700400036745,
              36.5650479996628
            ],
            [
              -89.5306380003871,
              36.58170999997734
            ],
            [
              -89.47992999984042,
              36.56908699973943
            ],
            [
              -89.46591299986243,
              36.5300150002719
            ],
            [
              -89.49394699981842,
              36.47355900024554
            ],
            [
              -89.48619300010239,
              36.46211400028987
            ],
            [
              -89.46443300027903,
              36.45774700018441
            ],
            [
              -89.41727499980136,
              36.49901100006517
            ],
            [
              -89.36579700022409,
              36.6251259997737
            ],
            [
              -89.32463699969455,
              36.63102299974609
            ],
            [
              -89.2634899997263,
              36.566269000331815
            ],
            [
              -89.21903500029417,
              36.575057000203124
            ],
            [
              -89.19775300032168,
              36.62897099995553
            ],
            [
              -89.1591179996641,
              36.66635399980873
            ],
            [
              -89.17188400038755,
              36.67259800018542
            ],
            [
              -89.17046199963212,
              36.69004800004582
            ],
            [
              -89.19931099972291,
              36.715624000351355
            ],
            [
              -89.19785600025385,
              36.73977200021172
            ],
            [
              -89.16978499958962,
              36.75964099990963
            ],
            [
              -89.12596700001703,
              36.75180900030502
            ],
            [
              -89.11707599995094,
              36.765768999976544
            ],
            [
              -89.12438000030349,
              36.785825999726235
            ],
            [
              -89.17056299991447,
              36.797537999702605
            ],
            [
              -89.17920100026058,
              36.82989599967288
            ],
            [
              -89.17044300026387,
              36.84183999971942
            ],
            [
              -89.1381090004014,
              36.847322999829345
            ],
            [
              -89.117115000309,
              36.88868499997976
            ],
            [
              -89.09898300037246,
              36.95822200017865
            ],
            [
              -89.12344200014508,
              36.98319299968702
            ],
            [
              -89.18549100028672,
              36.973517999998464
            ],
            [
              -89.20079299985446,
              37.01616399965249
            ],
            [
              -89.23405300017978,
              37.03727699998387
            ],
            [
              -89.25493000009632,
              37.0720140003566
            ],
            [
              -89.25993499963441,
              37.06406999982971
            ],
            [
              -89.30828999983825,
              37.06837099970559
            ],
            [
              -89.30475200036311,
              37.04756499972909
            ],
            [
              -89.26000300030479,
              37.023287999841
            ],
            [
              -89.26352700043454,
              37.00004999994209
            ],
            [
              -89.27862800016084,
              36.9886699999575
            ],
            [
              -89.38393699965823,
              37.04644100022322
            ],
            [
              -89.37711299970469,
              37.090764999723646
            ],
            [
              -89.42558000006154,
              37.13823500027053
            ],
            [
              -89.45610499955431,
              37.188119999920914
            ],
            [
              -89.46763099999552,
              37.21820000009143
            ],
            [
              -89.4588269999681,
              37.248661000141134
            ],
            [
              -89.48991499970055,
              37.25131500007723
            ],
            [
              -89.5183400003671,
              37.28549699964708
            ],
            [
              -89.51075999983004,
              37.31274399971753
            ],
            [
              -89.48900500002954,
              37.33336799968264
            ],
            [
              -89.43283599983519,
              37.34705600025408
            ],
            [
              -89.42054200001319,
              37.388006999928656
            ],
            [
              -89.43976899956867,
              37.437199999787794
            ],
            [
              -89.47552500035196,
              37.471387999994434
            ],
            [
              -89.5170509996811,
              37.53727799983065
            ],
            [
              -89.51980800025497,
              37.58274699990158
            ],
            [
              -89.48606199968283,
              37.58085300001158
            ],
            [
              -89.47593200005775,
              37.59299800008204
            ],
            [
              -89.51771799967787,
              37.64121700021081
            ],
            [
              -89.51646900007314,
              37.69253899975015
            ],
            [
              -89.58331600006363,
              37.71326100009821
            ],
            [
              -89.61727799964751,
              37.74971999985789
            ],
            [
              -89.66335200037686,
              37.75005199988221
            ],
            [
              -89.66037999971783,
              37.78629600007876
            ],
            [
              -89.66964400005283,
              37.7999219998894
            ],
            [
              -89.739875000431,
              37.84692100014757
            ],
            [
              -89.7863259998306,
              37.851688999662386
            ],
            [
              -89.7975419997521,
              37.86212799972085
            ],
            [
              -89.79932900038048,
              37.88151599994908
            ],
            [
              -89.84263800014006,
              37.90519699980449
            ],
            [
              -89.8987529999077,
              37.870780000095124
            ],
            [
              -89.9386079998577,
              37.874303999992186
            ],
            [
              -89.95300800015035,
              37.884036999684625
            ],
            [
              -89.97479899993586,
              37.92652500024702
            ],
            [
              -89.92459699972747,
              37.9598489996542
            ],
            [
              -89.93588499961902,
              37.95958099990406
            ],
            [
              -89.94068699966581,
              37.970874000096764
            ],
            [
              -90.00010999965318,
              37.964563000162215
            ],
            [
              -90.05726899988446,
              38.014361999967015
            ],
            [
              -90.08826000043086,
              38.015772000324496
            ],
            [
              -90.11423999979478,
              38.02906099983131
            ],
            [
              -90.13078800039084,
              38.06234099988757
            ],
            [
              -90.15827300035085,
              38.0749500000018
            ],
            [
              -90.17604000041439,
              38.070659999714216
            ],
            [
              -90.24071300016223,
              38.11037500012902
            ],
            [
              -90.27484299997558,
              38.15755900012971
            ],
            [
              -90.33417200025161,
              38.18985699989073
            ],
            [
              -90.36392599999053,
              38.236354999660996
            ],
            [
              -90.37147600039037,
              38.33089700002475
            ],
            [
              -90.34213400038011,
              38.38728500024129
            ],
            [
              -90.34858800043777,
              38.430079000197935
            ],
            [
              -90.33644299968034,
              38.45397799997913
            ],
            [
              -90.41116399993581,
              38.453399999883885
            ],
            [
              -90.4228290002942,
              38.482488999729135
            ],
            [
              -90.40955799995568,
              38.48189800011194
            ],
            [
              -90.40496900034421,
              38.50059799992683
            ],
            [
              -90.51252300022941,
              38.50134399981492
            ],
            [
              -90.51923300038011,
              38.18377200034978
            ],
            [
              -90.50947799977546,
              38.17557599967484
            ],
            [
              -90.50967000029438,
              38.15446999975431
            ],
            [
              -90.51865099987384,
              38.155677000005156
            ],
            [
              -90.49189999985778,
              38.138620000127894
            ],
            [
              -90.53265899963101,
              38.14489900025881
            ],
            [
              -90.5274199997412,
              38.1309360003434
            ],
            [
              -90.54469999973306,
              38.12943000018361
            ],
            [
              -90.53779999961154,
              38.10751999970163
            ],
            [
              -90.5604380002172,
              38.11424199989615
            ],
            [
              -90.56130000020764,
              38.10207999987261
            ],
            [
              -90.57701799970198,
              38.09939999980407
            ],
            [
              -90.58459200039128,
              38.08248699972305
            ],
            [
              -90.61753999964877,
              38.089872000308524
            ],
            [
              -90.61806500025362,
              38.07332200014632
            ],
            [
              -90.63997999988771,
              38.07654799987352
            ],
            [
              -90.64513500011192,
              37.73481299990737
            ],
            [
              -91.14652100001422,
              37.74081099972935
            ],
            [
              -91.14697200010093,
              37.69719799973022
            ],
            [
              -91.3106549999975,
              37.70004799998762
            ],
            [
              -91.30831099987549,
              37.7871860003423
            ],
            [
              -91.52879700035119,
              37.7889889997513
            ],
            [
              -91.525024999626,
              38.15243299980956
            ],
            [
              -91.63055400012975,
              38.15351899969257
            ],
            [
              -91.63243100027151,
              38.05095099990257
            ],
            [
              -91.89534699989957,
              38.0511989998092
            ],
            [
              -91.93524700005541,
              38.03087000034649
            ],
            [
              -91.9519110001041,
              38.04109000029077
            ],
            [
              -91.96633300013805,
              38.00968299973632
            ],
            [
              -92.02116499996579,
              38.01063900006232
            ],
            [
              -92.02925799961552,
              37.602542000135834
            ],
            [
              -92.24946299988383,
              37.60454299978619
            ],
            [
              -92.25226099956728,
              37.472943999711696
            ],
            [
              -92.68667099960764,
              37.48154499968813
            ],
            [
              -92.69230299985784,
              37.26351400025987
            ],
            [
              -92.67896999959505,
              37.26314899988393
            ],
            [
              -92.68586700024184,
              37.067050999721694
            ],
            [
              -92.90327300010348,
              37.070651000172745
            ],
            [
              -92.90933799999873,
              36.80970800011152
            ],
            [
              -92.90934700021955,
              36.80947699987364
            ]
          ]
        ]
      }
    }
  ]
}
