{
  "type": "FeatureCollection",
  "features": [
    {
      "type": "Feature",
      "id": "us-cd:118:33:01",
      "properties": {
        "boundary_id": "us-cd:118:33:01",
        "boundary_type": "congressional_district",
        "name": "Congressional District 1",
        "stateFips": "33",
        "congress": 118,
        "district": "01",
        "bbox": [
          -71.706346,
          42.792332,
          -70.610621,
          44.284888321572
        ]
      },
      "geometry": {
        "type": "MultiPolygon",
        "coordinates": [
          [
            [
              [
                -70.617025,
                42.977182
              ],
              [
                -70.615289,
                42.978353
              ],
              [
                -70.614566,
                42.978599
              ],
              [
                -70.613471,
                42.978016
              ],
              [
                -70.612059,
                42.978056
              ],
              [
                -70.610621,
                42.976407
              ],
              [
                -70.61208,
                42.974594
              ],
              [
                -70.613409,
                42.973408
              ],
              [
                -70.613986,
                42.973349
              ],
              [
                -70.614355,
                42.973921
              ],
              [
                -70.614122,
                42.975454
              ],
              [
                -70.614855,
                42.976447
              ],
              [
                -70.615425,
                42.977202
              ],
              [
                -70.616462,
                42.977
              ],
              [
                -70.617025,
                42.977182
              ]
            ]
          ],
          [
            [
              [
                -70.626782,
                42.969493
              ],
              [
                -70.626364,
                42.969516
              ],
              [
                -70.625713,
                42.969477
              ],
              [
                -70.624952,
                42.969039
              ],
              [
                -70.624607,
                42.968931
              ],
              [
                -70.62248,
                42.968207
              ],
              [
                -70.622316,
                42.968122
              ],
              [
                -70.622428,
                42.967629
              ],
              [
                -70.622459,
                42.967479
              ],
              [
                -70.622681,
                42.9672
              ],
              [
                -70.623549,
                42.966883
              ],
              [
                -70.624179,
                42.967092
              ],
              [
                -70.624454,
                42.96722
              ],
              [
                -70.626131,
                42.967704
              ],
              [
                -70.626666,
                42.969067
              ],
              [
                -70.626957,
                42.969377
              ],
              [
                -70.626782,
                42.969493
              ]
            ]
          ],
          [
            [
              [
                -70.62787,
                42.976294
              ],
              [
                -70.627584,
                42.977095
              ],
              [
                -70.62734,
                42.977718
              ],
              [
                -70.626852,
                42.978155
              ],
              [
                -70.625658,
                42.978056
              ],
              [
                -70.625495,
                42.977559
              ],
              [
                -70.624278,
                42.976661
              ],
              [
                -70.624464,
                42.976324
              ],
              [
                -70.624487,
                42.976124
              ],
              [
                -70.624918,
                42.975877
              ],
              [
                -70.625549,
                42.975712
              ],
              [
                -70.626048,
                42.975715
              ],
              [
                -70.626758,
                42.975732
              ],
              [
                -70.627247,
                42.975638
              ],
              [
                -70.627759,
                42.975383
              ],
              [
                -70.627963,
                42.975779
              ],
              [
                -70.62787,
                42.976294
              ]
            ]
          ],
          [
            [
              [
                -71.706346,
                43.537623
              ],
              [
                -71.478998,
                43.698632
              ],
              [
                -71.460947,
                43.686563
              ],
              [
                -71.43989,
                43.695558
              ],
              [
                -71.532332,
                43.764818
              ],
              [
                -71.328833,
                43.78273
              ],
              [
                -71.360088,
                43.908369
              ],
              [
                -71.32546,
                43.911597
              ],
              [
                -71.327093,
                43.921172
              ],
              [
                -71.313345,
                43.922393
              ],
              [
                -71.311758,
                43.912871
              ],
              [
                -71.211912,
                43.922314
              ],
              [
                -71.168824,
                43.962134
              ],
              [
                -71.140061,
                43.96285
              ],
              [
                -71.155519,
                44.024641
              ],
              [
                -71.383613,
                44.022611
              ],
              [
                -71.346656,
                44.068822
              ],
              [
                -71.366355,
                44.068524
              ],
              [
                -71.38163,
                44.097874
              ],
              [
                -71.376518,
                44.11887
              ],
              [
                -71.387138,
                44.155201
              ],
              [
                -71.413171,
                44.167462
              ],
              [
                -71.426507,
                44.210903
              ],
              [
                -71.394874,
                44.214679
              ],
              [
                -71.384239,
                44.178844
              ],
              [
                -71.356482,
                44.165836
              ],
              [
                -71.335882,
                44.085752
              ],
              [
                -71.311758,
                44.091756
              ],
              [
                -71.30245,
                44.137402
              ],
              [
                -71.236367,
                44.13977
              ],
              [
                -71.211398,
                44.130299
              ],
              [
                -71.206775,
                44.139622
              ],
              [
                -71.09767,
                44.124142
              ],
              [
                -71.098434,
                44.235454
              ],
              [
                -71.04228,
                44.237514
              ],
              [
                -71.044385,
                44.283778
              ],
              [
                -71.0102711678684,
                44.284888321572
              ],
              [
                -70.972716,
                43.570255
              ],
              [
                -70.950838,
                43.551026
              ],
              [
                -70.963531,
                43.536756
              ],
              [
                -70.954755,
                43.509802
              ],
              [
                -70.974245,
                43.47742
              ],
              [
                -70.961428,
                43.469696
              ],
              [
                -70.96115,
                43.438321
              ],
              [
                -70.986812,
                43.414264
              ],
              [
                -70.985965,
                43.380023
              ],
              [
                -70.967229,
                43.343777
              ],
              [
                -70.953034,
                43.333257
              ],
              [
                -70.932735,
                43.33676
              ],
              [
                -70.90231,
                43.304872
              ],
              [
                -70.906005,
                43.291682
              ],
              [
                -70.80964,
                43.225407
              ],
              [
                -70.828301,
                43.186685
              ],
              [
                -70.823501,
                43.174585
              ],
              [
                -70.8338,
                43.146886
              ],
              [
                -70.8268,
                43.127086
              ],
              [
                -70.756397,
                43.079988
              ],
              [
                -70.706503,
                43.075329
              ],
              [
                -70.703799,
                43.059574
              ],
              [
                -70.793996,
                42.93989
              ],
              [
                -70.794748,
                42.918125
              ],
              [
                -70.808712,
                42.912787
              ],
              [
                -70.817296,
                42.87229
              ],
              [
                -70.848625,
                42.860939
              ],
              [
                -70.886136,
                42.88261
              ],
              [
                -70.930799,
                42.884589
              ],
              [
                -70.9665,
                42.868989
              ],
              [
                -71.031201,
                42.859089
              ],
              [
                -71.064201,
                42.806289
              ],
              [
                -71.1157535303384,
                42.8176860778032
              ],
              [
                -71.116226,
                42.836902
              ],
              [
                -71.13646,
                42.860515
              ],
              [
                -71.143754,
                42.853465
              ],
              [
                -71.190402,
                42.855266
              ],
              [
                -71.197756,
                42.866717
              ],
              [
                -71.206912,
                42.852222
              ],
              [
                -71.349524,
                42.839183
              ],
              [
                -71.344627,
                42.817211
              ],
              [
                -71.360679,
                42.798962
              ],
              [
                -71.3872,
                42.823559
              ],
              [
                -71.427067,
                42.82484
              ],
              [
                -71.442301,
                42.890399
              ],
              [
                -71.453409,
                42.904582
              ],
              [
                -71.48585,
                42.864261
              ],
              [
                -71.469569,
                42.793934
              ],
              [
                -71.493236,
                42.794544
              ],
              [
                -71.495326,
                42.805271
              ],
              [
                -71.543423,
                42.805805
              ],
              [
                -71.55621,
                42.792332
              ],
              [
                -71.582013,
                42.943269
              ],
              [
                -71.610351,
                42.939721
              ],
              [
                -71.631772,
                43.022937
              ],
              [
                -71.641097,
                43.025666
              ],
              [
                -71.634902,
                43.03357
              ],
              [
                -71.641291,
                43.054168
              ],
              [
                -71.51115,
                43.069657
              ],
              [
                -71.466349,
                43.122261
              ],
              [
                -71.212954,
                43.076981
              ],
              [
                -71.189684,
                43.109657
              ],
              [
                -71.206409,
                43.112305
              ],
              [
                -71.188555,
                43.131759
              ],
              [
                -71.172869,
                43.121574
              ],
              [
                -71.159532,
                43.135559
              ],
              [
                -71.177202,
                43.143974
              ],
              [
                -71.127948,
                43.200072
              ],
              [
                -71.247336,
                43.275232
              ],
              [
                -71.236011,
                43.284994
              ],
              [
                -71.549423,
                43.452389
              ],
              [
                -71.611891,
                43.437824
              ],
              [
                -71.638046,
                43.491756
              ],
              [
                -71.653473,
                43.487621
              ],
              [
                -71.677293,
                43.500491
              ],
              [
                -71.691453,
                43.516139
              ],
              [
                -71.687623,
                43.52814
              ],
              [
                -71.702195,
                43.536303
              ],
              [
                -71.706346,
                43.537623
              ]
            ]
          ]
        ]
      }
    },
    {
      "type": "Feature",
      "id": "us-cd:118:33:02",
      "properties": {
        "boundary_id": "us-cd:118:33:02",
        "boundary_type": "congressional_district",
        "name": "Congressional District 2",
        "stateFips": "33",
        "congress": 118,
        "district": "02",
        "bbox": [
          -72.557247,
          42.69699,
          -71.0102711678684,
          45.305451
        ]
      },
      "geometry": {
        "type": "Polygon",
        "coordinates": [
          [
            [
              -72.557247,
              42.853019
            ],
            [
              -72.552834,
              42.884968
            ],
            [
              -72.532777,
              42.896076
            ],
            [
              -72.52443,
              42.915575
            ],
            [
              -72.532186,
              42.954945
            ],
            [
              -72.473827,
              42.972045
            ],
            [
              -72.461627,
              42.982906
            ],
            [
              -72.46294,
              42.996943
            ],
            [
              -72.443762,
              43.006245
            ],
            [
              -72.462397,
              43.02556
            ],
            [
              -72.467363,
              43.052648
            ],
            [
              -72.43619,
              43.08173
            ],
            [
              -72.443051,
              43.100841
            ],
            [
              -72.432972,
              43.119655
            ],
            [
              -72.45714,
              43.148493
            ],
            [
              -72.443405,
              43.179729
            ],
            [
              -72.45028,
              43.192485
            ],
            [
              -72.437719,
              43.20275
            ],
            [
              -72.438693,
              43.252905
            ],
            [
              -72.41545,
              43.271374
            ],
            [
              -72.395462,
              43.312994
            ],
            [
              -72.410353,
              43.331675
            ],
            [
              -72.390103,
              43.356926
            ],
            [
              -72.413377,
              43.362741
            ],
            [
              -72.415978,
              43.376531
            ],
            [
              -72.403811,
              43.391935
            ],
            [
              -72.3925,
              43.467364
            ],
            [
              -72.381723,
              43.480091
            ],
            [
              -72.380894,
              43.493394
            ],
            [
              -72.398563,
              43.513435
            ],
            [
              -72.380383,
              43.54088
            ],
            [
              -72.380146,
              43.573624
            ],
            [
              -72.328514,
              43.600805
            ],
            [
              -72.334401,
              43.61925
            ],
            [
              -72.329126,
              43.635563
            ],
            [
              -72.314083,
              43.64281
            ],
            [
              -72.299564,
              43.706277
            ],
            [
              -72.271776,
              43.733407
            ],
            [
              -72.234178,
              43.745965
            ],
            [
              -72.205143,
              43.771141
            ],
            [
              -72.205536,
              43.784584
            ],
            [
              -72.183333,
              43.808177
            ],
            [
              -72.187916,
              43.856126
            ],
            [
              -72.167907,
              43.869109
            ],
            [
              -72.172714,
              43.884254
            ],
            [
              -72.120421,
              43.919593
            ],
            [
              -72.11862,
              43.946044
            ],
            [
              -72.091413,
              43.965452
            ],
            [
              -72.114726,
              43.968332
            ],
            [
              -72.116985,
              43.99448
            ],
            [
              -72.102475,
              44.014882
            ],
            [
              -72.090059,
              44.009903
            ],
            [
              -72.095258,
              44.021894
            ],
            [
              -72.082913,
              44.021581
            ],
            [
              -72.07832,
              44.043378
            ],
            [
              -72.048931,
              44.069012
            ],
            [
              -72.052494,
              44.076716
            ],
            [
              -72.031841,
              44.078542
            ],
            [
              -72.045146,
              44.08785
            ],
            [
              -72.030897,
              44.099719
            ],
            [
              -72.048334,
              44.096905
            ],
            [
              -72.055141,
              44.110417
            ],
            [
              -72.033412,
              44.1311
            ],
            [
              -72.041881,
              44.137623
            ],
            [
              -72.038921,
              44.156422
            ],
            [
              -72.066166,
              44.189773
            ],
            [
              -72.047889,
              44.238493
            ],
            [
              -72.065434,
              44.277235
            ],
            [
              -72.032725,
              44.302471
            ],
            [
              -72.032816,
              44.320446
            ],
            [
              -71.98112,
              44.3375
            ],
            [
              -71.935395,
              44.33577
            ],
            [
              -71.909416,
              44.348398
            ],
            [
              -71.872472,
              44.336628
            ],
            [
              -71.814351,
              44.354541
            ],
            [
              -71.814388,
              44.381932
            ],
            [
              -71.800316,
              44.384276
            ],
            [
              -71.793924,
              44.399271
            ],
            [
              -71.702186,
              44.413828
            ],
            [
              -71.659707,
              44.441465
            ],
            [
              -71.652553,
              44.460518
            ],
            [
              -71.638986,
              44.464411
            ],
            [
              -71.647373,
              44.472127
            ],
            [
              -71.632795,
              44.48389
            ],
            [
              -71.626952,
              44.474267
            ],
            [
              -71.617843,
              44.485841
            ],
            [
              -71.599333,
              44.486283
            ],
            [
              -71.587782,
              44.506745
            ],
            [
              -71.576765,
              44.502618
            ],
            [
              -71.594259,
              44.52168
            ],
            [
              -71.572004,
              44.538224
            ],
            [
              -71.596137,
              44.560898
            ],
            [
              -71.559049,
              44.564446
            ],
            [
              -71.547726,
              44.571381
            ],
            [
              -71.554444,
              44.581336
            ],
            [
              -71.535397,
              44.587113
            ],
            [
              -71.5622,
              44.601592
            ],
            [
              -71.55386,
              44.605598
            ],
            [
              -71.55415,
              44.625419
            ],
            [
              -71.545978,
              44.623118
            ],
            [
              -71.55735,
              44.628448
            ],
            [
              -71.547226,
              44.630355
            ],
            [
              -71.563279,
              44.636648
            ],
            [
              -71.562806,
              44.652356
            ],
            [
              -71.587365,
              44.659715
            ],
            [
              -71.581463,
              44.673204
            ],
            [
              -71.596089,
              44.677637
            ],
            [
              -71.594136,
              44.696932
            ],
            [
              -71.626248,
              44.72904
            ],
            [
              -71.631883,
              44.752463
            ],
            [
              -71.571315,
              44.793339
            ],
            [
              -71.568672,
              44.807457
            ],
            [
              -71.576865,
              44.815197
            ],
            [
              -71.551114,
              44.836965
            ],
            [
              -71.549741,
              44.861458
            ],
            [
              -71.49491,
              44.904299
            ],
            [
              -71.523048,
              44.939258
            ],
            [
              -71.514933,
              44.944159
            ],
            [
              -71.516246,
              44.964089
            ],
            [
              -71.541324,
              44.985071
            ],
            [
              -71.524794,
              45.001921
            ],
            [
              -71.504251,
              45.008223
            ],
            [
              -71.480552,
              45.002334
            ],
            [
              -71.464555,
              45.013637
            ],
            [
              -71.501088,
              45.013349
            ],
            [
              -71.491085,
              45.043671
            ],
            [
              -71.505091,
              45.051465
            ],
            [
              -71.497917,
              45.070589
            ],
            [
              -71.468299,
              45.084092
            ],
            [
              -71.428828,
              45.123881
            ],
            [
              -71.437216,
              45.142333
            ],
            [
              -71.39781,
              45.203553
            ],
            [
              -71.403267,
              45.215348
            ],
            [
              -71.443365,
              45.237724
            ],
            [
              -71.420335,
              45.232719
            ],
            [
              -71.402638,
              45.242589
            ],
            [
              -71.384917,
              45.233351
            ],
            [
              -71.357253,
              45.253336
            ],
            [
              -71.360664,
              45.269835
            ],
            [
              -71.336392,
              45.273066
            ],
            [
              -71.284396,
              45.302434
            ],
            [
              -71.264939,
              45.293446
            ],
            [
              -71.259485,
              45.27244
            ],
            [
              -71.244499,
              45.268139
            ],
            [
              -71.231122,
              45.249712
            ],
            [
              -71.198276,
              45.254257
            ],
            [
              -71.180905,
              45.239858
            ],
            [
              -71.162845,
              45.250332
            ],
            [
              -71.147906,
              45.23928
            ],
            [
              -71.131953,
              45.245423
            ],
            [
              -71.105151,
              45.294635
            ],
            [
              -71.083924,
              45.305451
            ],
            [
              -71.037518,
              44.755607
            ],
            [
              -71.0102711678684,
              44.284888321572
            ],
            [
              -71.044385,
              44.283778
            ],
            [
              -71.04228,
              44.237514
            ],
            [
              -71.098434,
              44.235454
            ],
            [
              -71.09767,
              44.124142
            ],
            [
              -71.206775,
              44.139622
            ],
            [
              -71.211398,
              44.130299
            ],
            [
              -71.236367,
              44.13977
            ],
            [
              -71.30245,
              44.137402
            ],
            [
              -71.311758,
              44.091756
            ],
            [
              -71.335882,
              44.085752
            ],
            [
              -71.356482,
              44.165836
            ],
            [
              -71.384239,
              44.178844
            ],
            [
              -71.394874,
              44.214679
            ],
            [
              -71.426507,
              44.210903
            ],
            [
              -71.413171,
              44.167462
            ],
            [
              -71.387138,
              44.155201
            ],
            [
              -71.376518,
              44.11887
            ],
            [
              -71.38163,
              44.097874
            ],
            [
              -71.366355,
              44.068524
            ],
            [
              -71.346656,
              44.068822
            ],
            [
              -71.383613,
              44.022611
            ],
            [
              -71.155519,
              44.024641
            ],
            [
              -71.140061,
              43.96285
            ],
            [
              -71.168824,
              43.962134
            ],
            [
              -71.211912,
              43.922314
            ],
            [
              -71.311758,
              43.912871
            ],
            [
              -71.313345,
              43.922393
            ],
            [
              -71.327093,
              43.921172
            ],
            [
              -71.32546,
              43.911597
            ],
            [
              -71.360088,
              43.908369
            ],
            [
              -71.328833,
              43.78273
            ],
            [
              -71.532332,
              43.764818
            ],
            [
              -71.43989,
              43.695558
            ],
            [
              -71.460947,
              43.686563
            ],
            [
              -71.478998,
              43.698632
            ],
            [
              -71.706346,
              43.537623
            ],
            [
              -71.687623,
              43.52814
            ],
            [
              -71.691453,
              43.516139
            ],
            [
              -71.677293,
              43.500491
            ],
            [
              -71.653473,
              43.487621
            ],
            [
              -71.638046,
              43.491756
            ],
            [
              -71.611891,
              43.437824
            ],
            [
              -71.549423,
              43.452389
            ],
            [
              -71.236011,
              43.284994
            ],
            [
              -71.247336,
              43.275232
            ],
            [
              -71.127948,
              43.200072
            ],
            [
              -71.177202,
              43.143974
            ],
            [
              -71.159532,
              43.135559
            ],
            [
              -71.172869,
              43.121574
            ],
            [
              -71.188555,
              43.131759
            ],
            [
              -71.206409,
              43.112305
            ],
            [
              -71.189684,
              43.109657
            ],
            [
              -71.212954,
              43.076981
            ],
            [
              -71.466349,
              43.122261
            ],
            [
              -71.51115,
              43.069657
            ],
            [
              -71.641291,
              43.054168
            ],
            [
              -71.634902,
              43.03357
            ],
            [
              -71.641097,
              43.025666
            ],
            [
              -71.631772,
              43.022937
            ],
            [
              -71.610351,
              42.939721
            ],
            [
              -71.582013,
              42.943269
            ],
            [
              -71.55621,
              42.792332
            ],
            [
              -71.543423,
              42.805805
            ],
            [
              -71.495326,
              42.805271
            ],
            [
              -71.493236,
              42.794544
            ],
            [
              -71.469569,
              42.793934
            ],
            [
              -71.48585,
              42.864261
            ],
            [
              -71.453409,
              42.904582
            ],
            [
              -71.442301,
              42.890399
            ],
            [
              -71.427067,
              42.82484
            ],
            [
              -71.3872,
              42.823559
            ],
            [
              -71.360679,
              42.798962
            ],
            [
              -71.344627,
              42.817211
            ],
            [
              -71.349524,
              42.839183
            ],
            [
              -71.206912,
              42.852222
            ],
            [
              -71.197756,
              42.866717
            ],
            [
              -71.190402,
              42.855266
            ],
            [
              -71.143754,
              42.853465
            ],
            [
              -71.13646,
              42.860515
            ],
            [
              -71.112183,
              42.823322
            ],
            [
              -71.165603,
              42.808689
            ],
            [
              -71.186104,
              42.790689
            ],
            [
              -71.181803,
              42.73759
            ],
            [
              -71.245504,
              42.742589
            ],
            [
              -71.294205,
              42.69699
            ],
            [
              -71.330206,
              42.69719
            ],
            [
              -72.458519,
              42.726853
            ],
            [
              -72.491122,
              42.772465
            ],
            [
              -72.516082,
              42.765949
            ],
            [
              -72.508858,
              42.779919
            ],
            [
              -72.5396,
              42.804832
            ],
            [
              -72.5565766302034,
              42.8519119512127
            ],
            [
              -72.557247,
              42.853019
            ]
          ]
        ]
      }
    }
  ]
}
