{
  "type": "FeatureCollection",
  "features": [
    {
      "type": "Feature",
      "id": "us-county:56:001",
      "properties": {
        "boundary_id": "us-county:56:001",
        "boundary_type": "county",
        "name": "Albany County",
        "stateFips": "56",
        "countyFips": "001",
        "bbox": [
          -106.32288500025346,
          40.99817199997494,
          -105.27174599965116,
          42.43323599983279
        ]
      },
      "geometry": {
        "type": "Polygon",
        "coordinates": [
          [
            [
              -105.27887500010151,
              41.11639700000951
            ],
            [
              -105.27174599965116,
              41.986094999953934
            ],
            [
              -105.27375000001453,
              42.088824000157274
            ],
            [
              -105.28113899985756,
              42.08888800011214
            ],
            [
              -105.28390999977682,
              42.431402000046184
            ],
            [
              -105.33263800024957,
              42.43110599991565
            ],
            [
              -105.34205999986999,
              42.404928999668684
            ],
            [
              -105.35196400043758,
              42.40489200002477
            ],
            [
              -105.35222899985314,
              42.37639299999766
            ],
            [
              -105.36173699968727,
              42.37631900021886
            ],
            [
              -105.35859199967422,
              42.31926499990154
            ],
            [
              -105.37868199994337,
              42.319017999767844
            ],
            [
              -105.37554100012827,
              42.290139000151065
            ],
            [
              -105.52639899975013,
              42.288858999836904
            ],
            [
              -105.52670000004903,
              42.296137000306594
            ],
            [
              -105.61386499991431,
              42.30445500002438
            ],
            [
              -105.61465599975965,
              42.377436000051254
            ],
            [
              -105.57564199988371,
              42.37731400027919
            ],
            [
              -105.57554599962423,
              42.40622799968823
            ],
            [
              -105.55618400034953,
              42.406253000118696
            ],
            [
              -105.5560420000593,
              42.43058300030002
            ],
            [
              -106.07340300027222,
              42.43323599983279
            ],
            [
              -106.06840600023173,
              41.3950279999333
            ],
            [
              -106.32288500025346,
              41.39514100003489
            ],
            [
              -106.32116499957222,
              40.99912299994369
            ],
            [
              -105.27685999986748,
              40.99817199997494
            ],
            [
              -105.2788740002766,
              41.11599299978808
            ],
            [
              -105.27887500010151,
              41.11639700000951
            ]
          ]
        ]
      }
    },
    {
      "type": "Feature",
      "id": "us-county:56:003",
      "properties": {
        "boundary_id": "us-county:56:003",
        "boundary_type": "county",
        "name": "Big Horn County",
        "stateFips": "56",
        "countyFips": "003",
        "bbox": [
          -108.62214699989124,
          44.16566600011897,
          -107.1450010003163,
          45.00067799969885
        ]
      },
      "geometry": {
        "type": "Polygon",
        "coordinates": [
          [
            [
              -108.62214699989124,
              44.98311799978012
            ],
            [
              -108.6204620002684,
              44.87148099982467
            ],
            [
              -108.59229600006792,
              44.871444000264084
            ],
            [
              -108.59249400043464,
              44.520930000278774
            ],
            [
              -108.57342000014171,
              44.52081100026479
            ],
            [
              -108.57379699971025,
              44.16846799987032
            ],
            [
              -107.14680800013788,
              44.16566600011897
            ],
            [
              -107.1450010003163,
              44.32400400032041
            ],
            [
              -107.15546999987512,
              44.322328000094046
            ],
            [
              -107.15664400003509,
              44.33214600029607
            ],
            [
              -107.18905099969248,
              44.347495000105646
            ],
            [
              -107.18489100042642,
              44.35880000030188
            ],
            [
              -107.16140400024909,
              44.36863500015393
            ],
            [
              -107.1765049999754,
              44.37664500002881
            ],
            [
              -107.16921200039182,
              44.393506999808636
            ],
            [
              -107.1778289999232,
              44.40242499974562
            ],
            [
              -107.19969199967875,
              44.39960700009482
            ],
            [
              -107.20203800034888,
              44.446304999807566
            ],
            [
              -107.21858199984865,
              44.44956299990844
            ],
            [
              -107.24250699969389,
              44.43835899992624
            ],
            [
              -107.27872899973417,
              44.450819000149274
            ],
            [
              -107.27862499997711,
              44.459195999890866
            ],
            [
              -107.30036499970902,
              44.45892899986206
            ],
            [
              -107.30523200005314,
              44.483346000118
            ],
            [
              -107.29415900024676,
              44.50070700005019
            ],
            [
              -107.3270539998008,
              44.522119000070056
            ],
            [
              -107.33028400020268,
              44.543806000217394
            ],
            [
              -107.3537780000527,
              44.54219200025154
            ],
            [
              -107.37144700020696,
              44.55694399994013
            ],
            [
              -107.38347200041545,
              44.59535400024036
            ],
            [
              -107.418831999567,
              44.600753999734756
            ],
            [
              -107.42434499999152,
              44.61138099973897
            ],
            [
              -107.44312700020642,
              44.605583000275885
            ],
            [
              -107.46964100039601,
              44.612286000201955
            ],
            [
              -107.49486199970164,
              44.64202899985609
            ],
            [
              -107.52720300013512,
              44.6342919997702
            ],
            [
              -107.53505999978333,
              44.648467999952615
            ],
            [
              -107.51926899959571,
              44.66065399995643
            ],
            [
              -107.54891899957757,
              44.66701499968515
            ],
            [
              -107.54917200019588,
              44.67879300031852
            ],
            [
              -107.61589100013985,
              44.701297000235726
            ],
            [
              -107.66970799981625,
              44.67957799976738
            ],
            [
              -107.68418400027689,
              44.69267599973756
            ],
            [
              -107.68283000019186,
              44.706112000032185
            ],
            [
              -107.74346699962383,
              44.71542300002876
            ],
            [
              -107.7512799997894,
              44.723456999968676
            ],
            [
              -107.74355399966247,
              44.74147599982203
            ],
            [
              -107.75438799999257,
              44.770591000208846
            ],
            [
              -107.83231899966009,
              44.79016100001806
            ],
            [
              -107.81646499972331,
              44.81849499978251
            ],
            [
              -107.83272500043928,
              44.82511200016083
            ],
            [
              -107.83177999970982,
              44.844995000051014
            ],
            [
              -107.86501800029386,
              44.8736389998388
            ],
            [
              -107.8495180003594,
              44.90567200005927
            ],
            [
              -107.88186300009252,
              44.93342500024123
            ],
            [
              -107.87654999968456,
              44.96329999985097
            ],
            [
              -107.89000299959793,
              44.991656000007225
            ],
            [
              -107.9115230001201,
              45.00067799969885
            ],
            [
              -108.62131500003801,
              45.00036099979199
            ],
            [
              -108.62193299963099,
              44.98772199975936
            ],
            [
              -108.62214699989124,
              44.98311799978012
            ]
          ]
        ]
      }
    },
    {
      "type": "Feature",
      "id": "us-county:56:005",
      "properties": {
        "boundary_id": "us-county:56:005",
        "boundary_type": "county",
        "name": "Campbell County",
        "stateFips": "56",
        "countyFips": "005",
        "bbox": [
          -106.02523999968899,
          43.49496900017816,
          -105.0766009999283,
          45.000238000007016
        ]
      },
      "geometry": {
        "type": "Polygon",
        "coordinates": [
          [
            [
              -106.02523999968899,
              44.97957500000428
            ],
            [
              -106.02310300015456,
              44.868819999880216
            ],
            [
              -106.01427499983765,
              44.857783999939706
            ],
            [
              -106.0084769999061,
              44.52108099968295
            ],
            [
              -106.01663200037845,
              44.374981000117984
            ],
            [
              -106.00920099980428,
              43.82157900016435
            ],
            [
              -106.01759800012596,
              43.821489000205496
            ],
            [
              -106.01736600032237,
              43.49496900017816
            ],
            [
              -105.079796999995,
              43.49844499997458
            ],
            [
              -105.08615099959525,
              44.52770799981325
            ],
            [
              -105.0766009999283,
              44.99992599991044
            ],
            [
              -105.91314900007087,
              45.000238000007016
            ],
            [
              -106.02481500043989,
              44.99349499998162
            ],
            [
              -106.0250709996346,
              44.979759999789145
            ],
            [
              -106.02523999968899,
              44.97957500000428
            ]
          ]
        ]
      }
    },
    {
      "type": "Feature",
      "id": "us-county:56:007",
      "properties": {
        "boundary_id": "us-county:56:007",
        "boundary_type": "county",
        "name": "Carbon County",
        "stateFips": "56",
        "countyFips": "007",
        "bbox": [
          -107.92988000018755,
          40.99912299994369,
          -106.06840600023173,
          42.43435599987955
        ]
      },
      "geometry": {
        "type": "Polygon",
        "coordinates": [
          [
            [
              -106.32274200013835,
              41.382647000334664
            ],
            [
              -106.32288500025346,
              41.39514100003489
            ],
            [
              -106.06840600023173,
              41.3950279999333
            ],
            [
              -106.07340300027222,
              42.43323599983279
            ],
            [
              -107.52292300032013,
              42.43435599987955
            ],
            [
              -107.52232099972235,
              42.08795700016666
            ],
            [
              -107.5038210004381,
              42.08795700016666
            ],
            [
              -107.5097199997537,
              41.657451999802475
            ],
            [
              -107.9297360002475,
              41.65959599974024
            ],
            [
              -107.92988000018755,
              41.398530000014475
            ],
            [
              -107.9171040003167,
              41.39849900014364
            ],
            [
              -107.91842099969348,
              41.00203599985648
            ],
            [
              -106.32116499957222,
              40.99912299994369
            ],
            [
              -106.32273899976526,
              41.382449999949586
            ],
            [
              -106.32274200013835,
              41.382647000334664
            ]
          ]
        ]
      }
    },
    {
      "type": "Feature",
      "id": "us-county:56:009",
      "properties": {
        "boundary_id": "us-county:56:009",
        "boundary_type": "county",
        "name": "Converse County",
        "stateFips": "56",
        "countyFips": "009",
        "bbox": [
          -106.07823799993099,
          42.288858999836904,
          -104.89243699995033,
          43.49963999982252
        ]
      },
      "geometry": {
        "type": "Polygon",
        "coordinates": [
          [
            [
              -106.07823799993099,
              43.47968099974054
            ],
            [
              -106.0758519999762,
              42.43321800031979
            ],
            [
              -105.5560420000593,
              42.43058300030002
            ],
            [
              -105.55618400034953,
              42.406253000118696
            ],
            [
              -105.57554599962423,
              42.40622799968823
            ],
            [
              -105.57564199988371,
              42.37731400027919
            ],
            [
              -105.61465599975965,
              42.377436000051254
            ],
            [
              -105.61386499991431,
              42.30445500002438
            ],
            [
              -105.52670000004903,
              42.296137000306594
            ],
            [
              -105.52639899975013,
              42.288858999836904
            ],
            [
              -105.37554100012827,
              42.290139000151065
            ],
            [
              -105.37868199994337,
              42.319017999767844
            ],
            [
              -105.35859199967422,
              42.31926499990154
            ],
            [
              -105.36173699968727,
              42.37631900021886
            ],
            [
              -105.35222899985314,
              42.37639299999766
            ],
            [
              -105.35196400043758,
              42.40489200002477
            ],
            [
              -105.34205999986999,
              42.404928999668684
            ],
            [
              -105.33263800024957,
              42.43110599991565
            ],
            [
              -105.28225799976596,
              42.43132800014463
            ],
            [
              -105.28651099981677,
              42.605825999875755
            ],
            [
              -104.89243699995033,
              42.60893899997639
            ],
            [
              -104.89994100031944,
              43.49963999982252
            ],
            [
              -106.07806800005167,
              43.494470999707076
            ],
            [
              -106.0781960000982,
              43.48092200031498
            ],
            [
              -106.07823799993099,
              43.47968099974054
            ]
          ]
        ]
      }
    },
    {
      "type": "Feature",
      "id": "us-county:56:011",
      "properties": {
        "boundary_id": "us-county:56:011",
        "boundary_type": "county",
        "name": "Crook County",
        "stateFips": "56",
        "countyFips": "011",
        "bbox": [
          -105.08559999994942,
          44.17617499985872,
          -104.05448700004219,
          44.99992599991044
        ]
      },
      "geometry": {
        "type": "Polygon",
        "coordinates": [
          [
            [
              -104.46113199974008,
              44.180747000212904
            ],
            [
              -104.05448700004219,
              44.180380999714814
            ],
            [
              -104.05769599962935,
              44.99736300022397
            ],
            [
              -105.0766009999283,
              44.99992599991044
            ],
            [
              -105.07686100021931,
              44.78619299995711
            ],
            [
              -105.08545099998653,
              44.786801000165575
            ],
            [
              -105.08559999994942,
              44.76912799975163
            ],
            [
              -105.08218100029998,
              44.17617499985872
            ],
            [
              -104.46120200006027,
              44.180747000212904
            ],
            [
              -104.46113199974008,
              44.180747000212904
            ]
          ]
        ]
      }
    },
    {
      "type": "Feature",
      "id": "us-county:56:013",
      "properties": {
        "boundary_id": "us-county:56:013",
        "boundary_type": "county",
        "name": "Fremont County",
        "stateFips": "56",
        "countyFips": "013",
        "bbox": [
          -110.05317900035044,
          42.261755999726915,
          -107.50142500043756,
          44.00802199978182
        ]
      },
      "geometry": {
        "type": "Polygon",
        "coordinates": [
          [
            [
              -109.32577299963154,
              42.86877999967198
            ],
            [
              -109.31536000014925,
              42.856131000010095
            ],
            [
              -109.27889299988658,
              42.84600899994621
            ],
            [
              -109.24797000001053,
              42.80615600025281
            ],
            [
              -109.21414399997077,
              42.7998329997293
            ],
            [
              -109.2103439996565,
              42.793142999867456
            ],
            [
              -109.22594599969818,
              42.79093800020096
            ],
            [
              -109.23609600031308,
              42.76845799986315
            ],
            [
              -109.21744899981742,
              42.76004800013243
            ],
            [
              -109.20979700020864,
              42.770424000202425
            ],
            [
              -109.19525700017391,
              42.76853700008256
            ],
            [
              -109.17946699981123,
              42.75104499975188
            ],
            [
              -109.13231500007966,
              42.73748500001532
            ],
            [
              -109.14790799990055,
              42.727561999865166
            ],
            [
              -109.12841199983323,
              42.708387000326255
            ],
            [
              -109.13770100028258,
              42.705117000121554
            ],
            [
              -109.13446599985782,
              42.69428899979662
            ],
            [
              -109.07285100008443,
              42.69351399984049
            ],
            [
              -109.06947699974253,
              42.43347699973923
            ],
            [
              -109.04380100015221,
              42.43364400022571
            ],
            [
              -109.0438639999014,
              42.26368400022697
            ],
            [
              -107.52272199958036,
              42.261755999726915
            ],
            [
              -107.52292300032013,
              42.43435599987955
            ],
            [
              -107.54202500020214,
              42.43435599987955
            ],
            [
              -107.54352599970197,
              42.78155800016787
            ],
            [
              -107.50142500043756,
              42.78145800013271
            ],
            [
              -107.50232699971268,
              43.128060000176255
            ],
            [
              -107.51672799983024,
              43.12795999975536
            ],
            [
              -107.51703099977892,
              43.472658999902116
            ],
            [
              -107.53503200019425,
              43.47275900018812
            ],
            [
              -107.5348969995767,
              43.50136199971671
            ],
            [
              -107.5951049995616,
              43.50139699975893
            ],
            [
              -107.59513700024696,
              43.47227899978345
            ],
            [
              -108.15628500007033,
              43.47062799985235
            ],
            [
              -108.15630500016181,
              43.4596109999782
            ],
            [
              -108.33786100042713,
              43.45976499979264
            ],
            [
              -108.33777000019055,
              43.4740609999441
            ],
            [
              -108.4569729996423,
              43.47427899967815
            ],
            [
              -108.45696199977164,
              43.50315599974133
            ],
            [
              -108.57616699977153,
              43.503255999722064
            ],
            [
              -108.57616699977153,
              43.53255599994604
            ],
            [
              -108.69507200019576,
              43.532255000220566
            ],
            [
              -108.69467200016268,
              43.57575500010404
            ],
            [
              -108.81427600037075,
              43.57555500017299
            ],
            [
              -108.81427600037075,
              43.60525499998834
            ],
            [
              -108.933831000175,
              43.6047189999653
            ],
            [
              -108.9341409997964,
              43.61916300030329
            ],
            [
              -109.17163799975211,
              43.619763999986205
            ],
            [
              -109.17144799978132,
              43.69919799970513
            ],
            [
              -109.19652800041827,
              43.71166800005755
            ],
            [
              -109.22987200040917,
              43.7585689998571
            ],
            [
              -109.26213500012653,
              43.774146000213165
            ],
            [
              -109.27459700017805,
              43.796872999705975
            ],
            [
              -109.30950299976816,
              43.80545399990506
            ],
            [
              -109.3224250001272,
              43.83536999978999
            ],
            [
              -109.3667580002589,
              43.84300900000202
            ],
            [
              -109.37402099970527,
              43.877446999715254
            ],
            [
              -109.39846399958435,
              43.88434099986086
            ],
            [
              -109.40495199997721,
              43.901981999979704
            ],
            [
              -109.43389999980218,
              43.91404000022844
            ],
            [
              -109.44236099969797,
              43.93043400004938
            ],
            [
              -109.47239300016955,
              43.93217699992237
            ],
            [
              -109.47604699999565,
              43.948835000286024
            ],
            [
              -109.51055900029876,
              43.93864800016743
            ],
            [
              -109.54233199957135,
              43.96135200028679
            ],
            [
              -109.56694299967994,
              43.95481999978828
            ],
            [
              -109.58431200025856,
              43.93788299970328
            ],
            [
              -109.60546600018452,
              43.94796199976863
            ],
            [
              -109.61371299982005,
              43.92747900004397
            ],
            [
              -109.64180799987543,
              43.92278499979638
            ],
            [
              -109.6543650003615,
              43.9071159999213
            ],
            [
              -109.65301700012424,
              43.88676599988685
            ],
            [
              -109.67248200022941,
              43.86809599969702
            ],
            [
              -109.66547900017574,
              43.84593400003299
            ],
            [
              -109.71981100041128,
              43.837580000012075
            ],
            [
              -109.78736899988118,
              43.80115599970065
            ],
            [
              -109.82590900010419,
              43.81617300006033
            ],
            [
              -109.82754900041951,
              43.82437999990991
            ],
            [
              -109.84174700014745,
              43.81932400013441
            ],
            [
              -109.85648100035094,
              43.8283690001353
            ],
            [
              -109.84978500044393,
              43.8370869999776
            ],
            [
              -109.85516599972566,
              43.848255000085814
            ],
            [
              -109.81378500016149,
              43.861761000279735
            ],
            [
              -109.8319079998772,
              43.87178600002128
            ],
            [
              -109.81758399975254,
              43.88327700028591
            ],
            [
              -109.85927499983643,
              43.900759000299665
            ],
            [
              -109.84788099963968,
              43.90812299986322
            ],
            [
              -109.85186300042714,
              43.92659399993536
            ],
            [
              -109.8736130002048,
              43.93017899983675
            ],
            [
              -109.858448999831,
              43.94204599988273
            ],
            [
              -109.85875400032782,
              43.957987999985164
            ],
            [
              -109.92205799992199,
              43.946085000224684
            ],
            [
              -109.95885800027062,
              43.96457099972842
            ],
            [
              -109.99387099999082,
              43.94955700018185
            ],
            [
              -110.00173699985984,
              43.96684899980071
            ],
            [
              -110.01863799973502,
              43.96824900027471
            ],
            [
              -110.03158400038352,
              44.00097200004211
            ],
            [
              -110.05317900035044,
              44.00802199978182
            ],
            [
              -110.05156999999728,
              43.46478300008309
            ],
            [
              -109.75471700000138,
              43.46319999978774
            ],
            [
              -109.75446199973325,
              43.36590499994502
            ],
            [
              -109.71075700013857,
              43.37440199998988
            ],
            [
              -109.69412499987693,
              43.365355999702025
            ],
            [
              -109.70043300034474,
              43.334989999908416
            ],
            [
              -109.67210399993763,
              43.30873899981193
            ],
            [
              -109.68566499980606,
              43.28573499978471
            ],
            [
              -109.67869600008758,
              43.27315199985147
            ],
            [
              -109.69271600043862,
              43.26503000006058
            ],
            [
              -109.67381299984991,
              43.247970999758074
            ],
            [
              -109.6761000000705,
              43.21526000024267
            ],
            [
              -109.65859499994778,
              43.20150299988247
            ],
            [
              -109.65145100032709,
              43.167035999731894
            ],
            [
              -109.630078000118,
              43.16334800008008
            ],
            [
              -109.62155600012287,
              43.126524000227825
            ],
            [
              -109.57037200027344,
              43.09965199972701
            ],
            [
              -109.55300299969483,
              43.07230199990411
            ],
            [
              -109.55315000000792,
              43.05858399996039
            ],
            [
              -109.57075200021505,
              43.04933600020998
            ],
            [
              -109.54870600016139,
              43.03671199970105
            ],
            [
              -109.55257900027061,
              43.01253800032524
            ],
            [
              -109.50240700019947,
              43.010511000034924
            ],
            [
              -109.49240999974546,
              42.995579000173606
            ],
            [
              -109.46665799998718,
              42.99195099994456
            ],
            [
              -109.45410300004924,
              42.969990000037406
            ],
            [
              -109.43236400014229,
              42.96815099975313
            ],
            [
              -109.39775700030292,
              42.93919799974747
            ],
            [
              -109.37034099993988,
              42.94557400018769
            ],
            [
              -109.34535800028564,
              42.918895999956305
            ],
            [
              -109.32583799992888,
              42.86893499971665
            ],
            [
              -109.32577299963154,
              42.86877999967198
            ]
          ]
        ]
      }
    },
    {
      "type": "Feature",
      "id": "us-county:56:015",
      "properties": {
        "boundary_id": "us-county:56:015",
        "boundary_type": "county",
        "name": "Goshen County",
        "stateFips": "56",
        "countyFips": "015",
        "bbox": [
          -104.65563899977845,
          41.56427399990018,
          -104.05253999958022,
          42.61176699992343
        ]
      },
      "geometry": {
        "type": "Polygon",
        "coordinates": [
          [
            [
              -104.65563899977845,
              42.60946800030373
            ],
            [
              -104.65299199970777,
              41.5650140002698
            ],
            [
              -104.05253999958022,
              41.56427399990018
            ],
            [
              -104.05283800040436,
              42.61176699992343
            ],
            [
              -104.65074300002031,
              42.60942800024978
            ],
            [
              -104.65563899977845,
              42.60946800030373
            ]
          ]
        ]
      }
    },
    {
      "type": "Feature",
      "id": "us-county:56:017",
      "properties": {
        "boundary_id": "us-county:56:017",
        "boundary_type": "county",
        "name": "Hot Springs County",
        "stateFips": "56",
        "countyFips": "017",
        "bbox": [
          -109.31302799972282,
          43.45953500017078,
          -107.59513700024696,
          44.079760000029445
        ]
      },
      "geometry": {
        "type": "Polygon",
        "coordinates": [
          [
            [
              -109.31302799972282,
              43.812599999844515
            ],
            [
              -109.27459700017805,
              43.796872999705975
            ],
            [
              -109.26213500012653,
              43.774146000213165
            ],
            [
              -109.22987200040917,
              43.7585689998571
            ],
            [
              -109.19652800041827,
              43.71166800005755
            ],
            [
              -109.17144799978132,
              43.69919799970513
            ],
            [
              -109.17163799975211,
              43.619763999986205
            ],
            [
              -108.9341409997964,
              43.61916300030329
            ],
            [
              -108.933831000175,
              43.6047189999653
            ],
            [
              -108.81427600037075,
              43.60525499998834
            ],
            [
              -108.81427600037075,
              43.57555500017299
            ],
            [
              -108.69467200016268,
              43.57575500010404
            ],
            [
              -108.69507200019576,
              43.532255000220566
            ],
            [
              -108.57616699977153,
              43.53255599994604
            ],
            [
              -108.57616699977153,
              43.503255999722064
            ],
            [
              -108.45696199977164,
              43.50315599974133
            ],
            [
              -108.4569729996423,
              43.47427899967815
            ],
            [
              -108.33777000019055,
              43.4740609999441
            ],
            [
              -108.33786100042713,
              43.45976499979264
            ],
            [
              -108.25065399983073,
              43.45953500017078
            ],
            [
              -108.15630500016181,
              43.4596109999782
            ],
            [
              -108.15628500007033,
              43.47062799985235
            ],
            [
              -107.59513700024696,
              43.47227899978345
            ],
            [
              -107.59515700033845,
              43.64642700028621
            ],
            [
              -107.71621799966539,
              43.64576600009391
            ],
            [
              -107.71587600025693,
              43.73334300019196
            ],
            [
              -107.95657699977696,
              43.733445999835034
            ],
            [
              -107.95644799990552,
              43.8186660002517
            ],
            [
              -108.17493800041377,
              43.81896799995747
            ],
            [
              -108.2016519997216,
              43.82582400008215
            ],
            [
              -108.1852549996366,
              43.848255000085814
            ],
            [
              -108.30969400040175,
              43.846619000256965
            ],
            [
              -108.3093599995926,
              43.903255000254354
            ],
            [
              -108.42956300002537,
              43.90335499978374
            ],
            [
              -108.42706400009267,
              43.9920540003053
            ],
            [
              -108.48943100025163,
              43.99186600024941
            ],
            [
              -108.49025399988402,
              44.079760000029445
            ],
            [
              -108.79227700017277,
              44.07961600018123
            ],
            [
              -108.79177900023039,
              43.99105299970725
            ],
            [
              -108.9159849995704,
              43.990853999796904
            ],
            [
              -108.91278299965592,
              43.90475400018204
            ],
            [
              -109.0928779997061,
              43.90447399988958
            ],
            [
              -109.09360300032752,
              43.817619000023235
            ],
            [
              -109.31293700038455,
              43.813059999996455
            ],
            [
              -109.31302799972282,
              43.812599999844515
            ]
          ]
        ]
      }
    },
    {
      "type": "Feature",
      "id": "us-county:56:019",
      "properties": {
        "boundary_id": "us-county:56:019",
        "boundary_type": "county",
        "name": "Johnson County",
        "stateFips": "56",
        "countyFips": "019",
        "bbox": [
          -107.37128999984813,
          43.4923620000098,
          -106.00967600018042,
          44.56398099979543
        ]
      },
      "geometry": {
        "type": "Polygon",
        "coordinates": [
          [
            [
              -107.37128999984813,
              44.55722100027678
            ],
            [
              -107.3537780000527,
              44.54219200025154
            ],
            [
              -107.33028400020268,
              44.543806000217394
            ],
            [
              -107.3270539998008,
              44.522119000070056
            ],
            [
              -107.29415900024676,
              44.50070700005019
            ],
            [
              -107.30523200005314,
              44.483346000118
            ],
            [
              -107.30036499970902,
              44.45892899986206
            ],
            [
              -107.27862499997711,
              44.459195999890866
            ],
            [
              -107.27872899973417,
              44.450819000149274
            ],
            [
              -107.24250699969389,
              44.43835899992624
            ],
            [
              -107.21858199984865,
              44.44956299990844
            ],
            [
              -107.20203800034888,
              44.446304999807566
            ],
            [
              -107.19969199967875,
              44.39960700009482
            ],
            [
              -107.1778289999232,
              44.40242499974562
            ],
            [
              -107.16921200039182,
              44.393506999808636
            ],
            [
              -107.1765049999754,
              44.37664500002881
            ],
            [
              -107.16140400024909,
              44.36863500015393
            ],
            [
              -107.18489100042642,
              44.35880000030188
            ],
            [
              -107.18905099969248,
              44.347495000105646
            ],
            [
              -107.15664400003509,
              44.33214600029607
            ],
            [
              -107.15546999987512,
              44.322328000094046
            ],
            [
              -107.1450010003163,
              44.32400400032041
            ],
            [
              -107.14680800013788,
              44.16566600011897
            ],
            [
              -107.12858400013981,
              44.16569199983709
            ],
            [
              -107.12762199969195,
              43.81596099983097
            ],
            [
              -107.11365499994268,
              43.81609199989951
            ],
            [
              -107.11092000000842,
              43.4923620000098
            ],
            [
              -106.01736600032237,
              43.49496900017816
            ],
            [
              -106.00967600018042,
              44.56398099979543
            ],
            [
              -107.3709640003332,
              44.55777699983116
            ],
            [
              -107.37128999984813,
              44.55722100027678
            ]
          ]
        ]
      }
    },
    {
      "type": "Feature",
      "id": "us-county:56:021",
      "properties": {
        "boundary_id": "us-county:56:021",
        "boundary_type": "county",
        "name": "Laramie County",
        "stateFips": "56",
        "countyFips": "021",
        "bbox": [
          -105.27823599969385,
          40.99817199997494,
          -104.05253999958022,
          41.65665500033557
        ]
      },
      "geometry": {
        "type": "Polygon",
        "coordinates": [
          [
            [
              -104.37125799987979,
              41.001495999930555
            ],
            [
              -104.0532490003081,
              41.001405999738765
            ],
            [
              -104.05253999958022,
              41.56427399990018
            ],
            [
              -104.65299199970777,
              41.5650140002698
            ],
            [
              -104.65333800021249,
              41.65300700023002
            ],
            [
              -105.27823599969385,
              41.65665500033557
            ],
            [
              -105.27685999986748,
              40.99817199997494
            ],
            [
              -104.37210800017468,
              41.001495999930555
            ],
            [
              -104.37125799987979,
              41.001495999930555
            ]
          ]
        ]
      }
    },
    {
      "type": "Feature",
      "id": "us-county:56:023",
      "properties": {
        "boundary_id": "us-county:56:023",
        "boundary_type": "county",
        "name": "Lincoln County",
        "stateFips": "56",
        "countyFips": "023",
        "bbox": [
          -111.04723400016621,
          41.578015000131174,
          -110.04799999983678,
          43.315719000042286
        ]
      },
      "geometry": {
        "type": "Polygon",
        "coordinates": [
          [
            [
              -111.04723400016621,
              42.469096000041795
            ],
            [
              -111.04583700042349,
              41.57984499978432
            ],
            [
              -110.04799999983678,
              41.578015000131174
            ],
            [
              -110.05370800025497,
              42.27074400003876
            ],
            [
              -110.54163399967288,
              42.27749100015939
            ],
            [
              -110.54332900023975,
              42.44853599975584
            ],
            [
              -110.59013100016692,
              42.448435000198316
            ],
            [
              -110.59007400026552,
              42.71008699973112
            ],
            [
              -110.62347699980766,
              42.710181000012504
            ],
            [
              -110.62343400014997,
              42.77920500015073
            ],
            [
              -110.58766200037147,
              42.77918800032768
            ],
            [
              -110.58799299990925,
              43.126146999682646
            ],
            [
              -110.57858399980931,
              43.126307000168296
            ],
            [
              -110.57865599977933,
              43.235224000022995
            ],
            [
              -110.81399299973606,
              43.235178000244424
            ],
            [
              -110.8139960001091,
              43.3139400000051
            ],
            [
              -111.04489300041729,
              43.315719000042286
            ],
            [
              -111.04713500043204,
              42.47377899990635
            ],
            [
              -111.04723400016621,
              42.469096000041795
            ]
          ]
        ]
      }
    },
    {
      "type": "Feature",
      "id": "us-county:56:025",
      "properties": {
        "boundary_id": "us-county:56:025",
        "boundary_type": "county",
        "name": "Natrona County",
        "stateFips": "56",
        "countyFips": "025",
        "bbox": [
          -107.54352599970197,
          42.43321800031979,
          -106.0729029997817,
          43.50136199971671
        ]
      },
      "geometry": {
        "type": "Polygon",
        "coordinates": [
          [
            [
              -106.07290399960661,
              42.86974700018234
            ],
            [
              -106.07806800005167,
              43.494470999707076
            ],
            [
              -107.11092000000842,
              43.4923620000098
            ],
            [
              -107.11073400023558,
              43.50028600013714
            ],
            [
              -107.5348969995767,
              43.50136199971671
            ],
            [
              -107.53503200019425,
              43.47275900018812
            ],
            [
              -107.51703099977892,
              43.472658999902116
            ],
            [
              -107.51672799983024,
              43.12795999975536
            ],
            [
              -107.50232699971268,
              43.128060000176255
            ],
            [
              -107.50142500043756,
              42.78145800013271
            ],
            [
              -107.54352599970197,
              42.78155800016787
            ],
            [
              -107.54202500020214,
              42.43435599987955
            ],
            [
              -106.0758519999762,
              42.43321800031979
            ],
            [
              -106.0729029997817,
              42.86967999972447
            ],
            [
              -106.07290399960661,
              42.86974700018234
            ]
          ]
        ]
      }
    },
    {
      "type": "Feature",
      "id": "us-county:56:027",
      "properties": {
        "boundary_id": "us-county:56:027",
        "boundary_type": "county",
        "name": "Niobrara County",
        "stateFips": "56",
        "countyFips": "027",
        "bbox": [
          -104.89994100031944,
          42.60893899997639,
          -104.05283800040436,
          43.503327999892306
        ]
      },
      "geometry": {
        "type": "Polygon",
        "coordinates": [
          [
            [
              -104.4306559997528,
              42.61000800017086
            ],
            [
              -104.05283800040436,
              42.61176699992343
            ],
            [
              -104.05478599979291,
              43.503327999892306
            ],
            [
              -104.89994100031944,
              43.49963999982252
            ],
            [
              -104.89243699995033,
              42.60893899997639
            ],
            [
              -104.43068099986715,
              42.6100060002192
            ],
            [
              -104.4306559997528,
              42.61000800017086
            ]
          ]
        ]
      }
    },
    {
      "type": "Feature",
      "id": "us-county:56:029",
      "properties": {
        "boundary_id": "us-county:56:029",
        "boundary_type": "county",
        "name": "Park County",
        "stateFips": "56",
        "countyFips": "029",
        "bbox": [
          -111.05455600006214,
          43.80115599970065,
          -108.55056200032635,
          45.00353300010318
        ]
      },
      "geometry": {
        "type": "Polygon",
        "coordinates": [
          [
            [
              -111.05455600006214,
              44.999735000240534
            ],
            [
              -111.05344700019947,
              44.66626800013854
            ],
            [
              -110.66786699984077,
              44.66629100031526
            ],
            [
              -110.66789899962785,
              44.58279199996728
            ],
            [
              -110.37533399984284,
              44.58301600008785
            ],
            [
              -110.37271899955918,
              44.57086800005827
            ],
            [
              -110.3845039995682,
              44.563844999807664
            ],
            [
              -110.3392990002986,
              44.54841700004154
            ],
            [
              -110.3153479996158,
              44.55610999979917
            ],
            [
              -110.29484999981594,
              44.54692299993062
            ],
            [
              -110.28922799961147,
              44.53970000014056
            ],
            [
              -110.29846900038025,
              44.530091999930015
            ],
            [
              -110.27648299970275,
              44.5157970002456
            ],
            [
              -110.29629599996248,
              44.4304190000557
            ],
            [
              -110.26004299996005,
              44.4094490000229
            ],
            [
              -110.25385300039133,
              44.389782999714996
            ],
            [
              -110.22878399962502,
              44.374721999802404
            ],
            [
              -110.22533400001342,
              44.338798999816966
            ],
            [
              -110.20251300000798,
              44.32776299990739
            ],
            [
              -110.2031830003778,
              44.31329099989524
            ],
            [
              -110.20980300011684,
              44.314381000240076
            ],
            [
              -110.20384199997868,
              44.305609999841394
            ],
            [
              -110.18926699978384,
              44.30037400016475
            ],
            [
              -110.18211499976725,
              44.30942499972093
            ],
            [
              -110.1834360002403,
              44.30190600027244
            ],
            [
              -110.16221000034433,
              44.29904300021609
            ],
            [
              -110.14479300008513,
              44.28318700007717
            ],
            [
              -110.14116299965018,
              44.274033999994046
            ],
            [
              -110.15053199956714,
              44.27050900009877
            ],
            [
              -110.13174500022771,
              44.24995200029725
            ],
            [
              -110.13295700002251,
              44.22556299983827
            ],
            [
              -110.12366699974824,
              44.21148700013534
            ],
            [
              -110.10974500020482,
              44.21011399986578
            ],
            [
              -110.12351899961024,
              44.20376800016164
            ],
            [
              -110.10885100042734,
              44.19333999995445
            ],
            [
              -110.12377399987838,
              44.192474000016304
            ],
            [
              -110.11446900043381,
              44.189489999865216
            ],
            [
              -110.11761000024892,
              44.18120099986325
            ],
            [
              -110.1053950000696,
              44.18459999993284
            ],
            [
              -110.12283400007011,
              44.1750119998996
            ],
            [
              -110.1161080000259,
              44.168170999829876
            ],
            [
              -110.1278229997147,
              44.15915800010994
            ],
            [
              -110.11959600017063,
              44.13257800024217
            ],
            [
              -110.05335699972737,
              44.13262799980454
            ],
            [
              -110.05317900035044,
              44.00802199978182
            ],
            [
              -110.03158400038352,
              44.00097200004211
            ],
            [
              -110.01863799973502,
              43.96824900027471
            ],
            [
              -110.00173699985984,
              43.96684899980071
            ],
            [
              -109.99387099999082,
              43.94955700018185
            ],
            [
              -109.95885800027062,
              43.96457099972842
            ],
            [
              -109.92205799992199,
              43.946085000224684
            ],
            [
              -109.85875400032782,
              43.957987999985164
            ],
            [
              -109.858448999831,
              43.94204599988273
            ],
            [
              -109.8736130002048,
              43.93017899983675
            ],
            [
              -109.85186300042714,
              43.92659399993536
            ],
            [
              -109.84788099963968,
              43.90812299986322
            ],
            [
              -109.85927499983643,
              43.900759000299665
            ],
            [
              -109.81758399975254,
              43.88327700028591
            ],
            [
              -109.8319079998772,
              43.87178600002128
            ],
            [
              -109.81378500016149,
              43.861761000279735
            ],
            [
              -109.85516599972566,
              43.848255000085814
            ],
            [
              -109.84978500044393,
              43.8370869999776
            ],
            [
              -109.85648100035094,
              43.8283690001353
            ],
            [
              -109.84259400006928,
              43.819501999750926
            ],
            [
              -109.82754900041951,
              43.82437999990991
            ],
            [
              -109.82590900010419,
              43.81617300006033
            ],
            [
              -109.78736899988118,
              43.80115599970065
            ],
            [
              -109.71981100041128,
              43.837580000012075
            ],
            [
              -109.66589299955422,
              43.84572599984945
            ],
            [
              -109.67248200022941,
              43.86809599969702
            ],
            [
              -109.65391099990174,
              43.8850629999643
            ],
            [
              -109.6543650003615,
              43.9071159999213
            ],
            [
              -109.64446400016696,
              43.92075299976085
            ],
            [
              -109.61371299982005,
              43.92747900004397
            ],
            [
              -109.60546600018452,
              43.94796199976863
            ],
            [
              -109.58431200025856,
              43.93788299970328
            ],
            [
              -109.56694299967994,
              43.95481999978828
            ],
            [
              -109.54233199957135,
              43.96135200028679
            ],
            [
              -109.51210500000441,
              43.93901800006522
            ],
            [
              -109.47604699999565,
              43.948835000286024
            ],
            [
              -109.47239300016955,
              43.93217699992237
            ],
            [
              -109.44236099969797,
              43.93043400004938
            ],
            [
              -109.43389999980218,
              43.91404000022844
            ],
            [
              -109.40495199997721,
              43.901981999979704
            ],
            [
              -109.39846399958435,
              43.88434099986086
            ],
            [
              -109.37402099970527,
              43.877446999715254
            ],
            [
              -109.3672799995924,
              43.84347799968203
            ],
            [
              -109.32580199994386,
              43.83775099972844
            ],
            [
              -109.31294900008011,
              43.813293000020835
            ],
            [
              -109.09360300032752,
              43.817619000023235
            ],
            [
              -109.0928779997061,
              43.90447399988958
            ],
            [
              -108.91278299965592,
              43.90475400018204
            ],
            [
              -108.9159849995704,
              43.990853999796904
            ],
            [
              -108.79177900023039,
              43.99105299970725
            ],
            [
              -108.79227700017277,
              44.07961600018123
            ],
            [
              -108.55075800014491,
              44.079403000206845
            ],
            [
              -108.55056200032635,
              44.168454999980135
            ],
            [
              -108.57379699971025,
              44.16846799987032
            ],
            [
              -108.57342000014171,
              44.52081100026479
            ],
            [
              -108.59249400043464,
              44.520930000278774
            ],
            [
              -108.59229600006792,
              44.871444000264084
            ],
            [
              -108.6204620002684,
              44.87148099982467
            ],
            [
              -108.62131500003801,
              45.00036099979199
            ],
            [
              -110.10577599983614,
              45.00353300010318
            ],
            [
              -110.70447600039368,
              44.99217400004813
            ],
            [
              -110.79011899994444,
              45.00088299973675
            ],
            [
              -111.05455600006214,
              45.000954999684424
            ],
            [
              -111.05455600006214,
              44.999735000240534
            ]
          ]
        ]
      }
    },
    {
      "type": "Feature",
      "id": "us-county:56:031",
      "properties": {
        "boundary_id": "us-county:56:031",
        "boundary_type": "county",
        "name": "Platte County",
        "stateFips": "56",
        "countyFips": "031",
        "bbox": [
          -105.28651099981677,
          41.65300700023002,
          -104.65333800021249,
          42.60946800030373
        ]
      },
      "geometry": {
        "type": "Polygon",
        "coordinates": [
          [
            [
              -105.07903100026402,
              42.60823599994442
            ],
            [
              -105.28651099981677,
              42.605825999875755
            ],
            [
              -105.28113899985756,
              42.08888800011214
            ],
            [
              -105.27375000001453,
              42.088824000157274
            ],
            [
              -105.27174599965116,
              41.986094999953934
            ],
            [
              -105.27823599969385,
              41.65665500033557
            ],
            [
              -104.65333800021249,
              41.65300700023002
            ],
            [
              -104.65563899977845,
              42.60946800030373
            ],
            [
              -105.07894699970014,
              42.60823399993581
            ],
            [
              -105.07903100026402,
              42.60823599994442
            ]
          ]
        ]
      }
    },
    {
      "type": "Feature",
      "id": "us-county:56:033",
      "properties": {
        "boundary_id": "us-county:56:033",
        "boundary_type": "county",
        "name": "Sheridan County",
        "stateFips": "56",
        "countyFips": "033",
        "bbox": [
          -107.9115230001201,
          44.55910100020764,
          -106.00967600018042,
          45.00067799969885
        ]
      },
      "geometry": {
        "type": "Polygon",
        "coordinates": [
          [
            [
              -107.2964370002465,
              44.55910100020764
            ],
            [
              -106.00967600018042,
              44.56398099979543
            ],
            [
              -106.02481500043989,
              44.99349499998162
            ],
            [
              -107.9115230001201,
              45.00067799969885
            ],
            [
              -107.88188999985671,
              44.985894000080556
            ],
            [
              -107.88186300009252,
              44.93342500024123
            ],
            [
              -107.8525319999529,
              44.91563400003762
            ],
            [
              -107.84853499999512,
              44.89846900023534
            ],
            [
              -107.86099700004664,
              44.894281000107476
            ],
            [
              -107.86501800029386,
              44.8736389998388
            ],
            [
              -107.83177999970982,
              44.844995000051014
            ],
            [
              -107.83272500043928,
              44.82511200016083
            ],
            [
              -107.81627800012555,
              44.81752199975318
            ],
            [
              -107.83231899966009,
              44.79016100001806
            ],
            [
              -107.75438799999257,
              44.770591000208846
            ],
            [
              -107.74355399966247,
              44.74147599982203
            ],
            [
              -107.7512799997894,
              44.723456999968676
            ],
            [
              -107.74346699962383,
              44.71542300002876
            ],
            [
              -107.68283000019186,
              44.706112000032185
            ],
            [
              -107.68418400027689,
              44.69267599973756
            ],
            [
              -107.66970799981625,
              44.67957799976738
            ],
            [
              -107.61589100013985,
              44.701297000235726
            ],
            [
              -107.54917200019588,
              44.67879300031852
            ],
            [
              -107.54891899957757,
              44.66701499968515
            ],
            [
              -107.51926899959571,
              44.66065399995643
            ],
            [
              -107.53505999978333,
              44.648467999952615
            ],
            [
              -107.52720300013512,
              44.6342919997702
            ],
            [
              -107.49486199970164,
              44.64202899985609
            ],
            [
              -107.46964100039601,
              44.612286000201955
            ],
            [
              -107.44312700020642,
              44.605583000275885
            ],
            [
              -107.42434499999152,
              44.61138099973897
            ],
            [
              -107.418831999567,
              44.600753999734756
            ],
            [
              -107.38347200041545,
              44.59535400024036
            ],
            [
              -107.36962100011881,
              44.55983699996139
            ],
            [
              -107.30623200013585,
              44.55922600011772
            ],
            [
              -107.2964370002465,
              44.55910100020764
            ]
          ]
        ]
      }
    },
    {
      "type": "Feature",
      "id": "us-county:56:035",
      "properties": {
        "boundary_id": "us-county:56:035",
        "boundary_type": "county",
        "name": "Sublette County",
        "stateFips": "56",
        "countyFips": "035",
        "bbox": [
          -110.62347699980766,
          42.26368400022697,
          -109.04380100015221,
          43.46475600031887
        ]
      },
      "geometry": {
        "type": "Polygon",
        "coordinates": [
          [
            [
              -110.58900600041075,
              43.040186999989274
            ],
            [
              -110.58766200037147,
              42.77918800032768
            ],
            [
              -110.62343400014997,
              42.77920500015073
            ],
            [
              -110.62347699980766,
              42.710181000012504
            ],
            [
              -110.59007400026552,
              42.71008699973112
            ],
            [
              -110.59013100016692,
              42.448435000198316
            ],
            [
              -110.54332900023975,
              42.44853599975584
            ],
            [
              -110.54163399967288,
              42.27749100015939
            ],
            [
              -109.0438639999014,
              42.26368400022697
            ],
            [
              -109.04380100015221,
              42.43364400022571
            ],
            [
              -109.06947699974253,
              42.43347699973923
            ],
            [
              -109.07285100008443,
              42.69351399984049
            ],
            [
              -109.13446599985782,
              42.69428899979662
            ],
            [
              -109.13770100028258,
              42.705117000121554
            ],
            [
              -109.12841199983323,
              42.708387000326255
            ],
            [
              -109.14790799990055,
              42.727561999865166
            ],
            [
              -109.13231500007966,
              42.73748500001532
            ],
            [
              -109.17946699981123,
              42.75104499975188
            ],
            [
              -109.19525700017391,
              42.76853700008256
            ],
            [
              -109.20979700020864,
              42.770424000202425
            ],
            [
              -109.21744899981742,
              42.76004800013243
            ],
            [
              -109.2365549998974,
              42.76882199974461
            ],
            [
              -109.22594599969818,
              42.79093800020096
            ],
            [
              -109.2103439996565,
              42.793142999867456
            ],
            [
              -109.21363000013486,
              42.79917799983879
            ],
            [
              -109.24797000001053,
              42.80615600025281
            ],
            [
              -109.27889299988658,
              42.84600899994621
            ],
            [
              -109.31942700042721,
              42.85919299967555
            ],
            [
              -109.34535800028564,
              42.918895999956305
            ],
            [
              -109.37034099993988,
              42.94557400018769
            ],
            [
              -109.39775700030292,
              42.93919799974747
            ],
            [
              -109.43236400014229,
              42.96815099975313
            ],
            [
              -109.45410300004924,
              42.969990000037406
            ],
            [
              -109.46665799998718,
              42.99195099994456
            ],
            [
              -109.49240999974546,
              42.995579000173606
            ],
            [
              -109.50240700019947,
              43.010511000034924
            ],
            [
              -109.55257900027061,
              43.01253800032524
            ],
            [
              -109.54870600016139,
              43.03671199970105
            ],
            [
              -109.57075200021505,
              43.04933600020998
            ],
            [
              -109.55315000000792,
              43.05858399996039
            ],
            [
              -109.55300299969483,
              43.07230199990411
            ],
            [
              -109.57037200027344,
              43.09965199972701
            ],
            [
              -109.62155600012287,
              43.126524000227825
            ],
            [
              -109.630078000118,
              43.16334800008008
            ],
            [
              -109.65145100032709,
              43.167035999731894
            ],
            [
              -109.65859499994778,
              43.20150299988247
            ],
            [
              -109.6761000000705,
              43.21526000024267
            ],
            [
              -109.67381299984991,
              43.247970999758074
            ],
            [
              -109.69271600043862,
              43.26503000006058
            ],
            [
              -109.67869600008758,
              43.27315199985147
            ],
            [
              -109.68566499980606,
              43.28573499978471
            ],
            [
              -109.67210399993763,
              43.30873899981193
            ],
            [
              -109.70043300034474,
              43.334989999908416
            ],
            [
              -109.69412499987693,
              43.365355999702025
            ],
            [
              -109.71075700013857,
              43.37440199998988
            ],
            [
              -109.75446199973325,
              43.36590499994502
            ],
            [
              -109.75471700000138,
              43.46319999978774
            ],
            [
              -110.05750600002109,
              43.46475600031887
            ],
            [
              -110.05731000020252,
              43.3777680000265
            ],
            [
              -110.34421799962296,
              43.37791800000092
            ],
            [
              -110.3439590000552,
              43.29116500000028
            ],
            [
              -110.57837999959482,
              43.29163999988831
            ],
            [
              -110.57858399980931,
              43.126307000168296
            ],
            [
              -110.58799299990925,
              43.126146999682646
            ],
            [
              -110.58808499997075,
              43.040286000069834
            ],
            [
              -110.58900600041075,
              43.040186999989274
            ]
          ]
        ]
      }
    },
    {
      "type": "Feature",
      "id": "us-county:56:037",
      "properties": {
        "boundary_id": "us-county:56:037",
        "boundary_type": "county",
        "name": "Sweetwater County",
        "stateFips": "56",
        "countyFips": "037",
        "bbox": [
          -110.05440899968862,
          40.99729500032627,
          -107.5038210004381,
          42.27074400003876
        ]
      },
      "geometry": {
        "type": "Polygon",
        "coordinates": [
          [
            [
              -109.56509400002557,
              40.998389999895956
            ],
            [
              -107.91842099969348,
              41.00203599985648
            ],
            [
              -107.9171040003167,
              41.39849900014364
            ],
            [
              -107.92988000018755,
              41.398530000014475
            ],
            [
              -107.9297360002475,
              41.65959599974024
            ],
            [
              -107.5097199997537,
              41.657451999802475
            ],
            [
              -107.5038210004381,
              42.08795700016666
            ],
            [
              -107.52232099972235,
              42.08795700016666
            ],
            [
              -107.52272199958036,
              42.261755999726915
            ],
            [
              -110.05370800025497,
              42.27074400003876
            ],
            [
              -110.05440899968862,
              42.0070479997114
            ],
            [
              -110.04640700027545,
              42.00672600010948
            ],
            [
              -110.04848299971053,
              40.99729500032627
            ],
            [
              -109.56522100024716,
              40.998389999895956
            ],
            [
              -109.56509400002557,
              40.998389999895956
            ]
          ]
        ]
      }
    },
    {
      "type": "Feature",
      "id": "us-county:56:039",
      "properties": {
        "boundary_id": "us-county:56:039",
        "boundary_type": "county",
        "name": "Teton County",
        "stateFips": "56",
        "countyFips": "039",
        "bbox": [
          -111.05344700019947,
          43.235178000244424,
          -110.05335699972737,
          44.66634100011237
        ]
      },
      "geometry": {
        "type": "Polygon",
        "coordinates": [
          [
            [
              -111.05344700019947,
              44.66626800013854
            ],
            [
              -111.04489300041729,
              43.315719000042286
            ],
            [
              -110.8139960001091,
              43.3139400000051
            ],
            [
              -110.81399299973606,
              43.235178000244424
            ],
            [
              -110.57865599977933,
              43.235224000022995
            ],
            [
              -110.57837999959482,
              43.29163999988831
            ],
            [
              -110.3439590000552,
              43.29116500000028
            ],
            [
              -110.34421799962296,
              43.37791800000092
            ],
            [
              -110.05731000020252,
              43.3777680000265
            ],
            [
              -110.05335699972737,
              44.13262799980454
            ],
            [
              -110.11959600017063,
              44.13257800024217
            ],
            [
              -110.1278229997147,
              44.15915800010994
            ],
            [
              -110.1161080000259,
              44.168170999829876
            ],
            [
              -110.12283400007011,
              44.1750119998996
            ],
            [
              -110.1053950000696,
              44.18459999993284
            ],
            [
              -110.11761000024892,
              44.18120099986325
            ],
            [
              -110.11446900043381,
              44.189489999865216
            ],
            [
              -110.12377399987838,
              44.192474000016304
            ],
            [
              -110.10885100042734,
              44.19333999995445
            ],
            [
              -110.12351899961024,
              44.20376800016164
            ],
            [
              -110.10974500020482,
              44.21011399986578
            ],
            [
              -110.12366699974824,
              44.21148700013534
            ],
            [
              -110.13295700002251,
              44.22556299983827
            ],
            [
              -110.13174500022771,
              44.24995200029725
            ],
            [
              -110.15053199956714,
              44.27050900009877
            ],
            [
              -110.14116299965018,
              44.274033999994046
            ],
            [
              -110.14479300008513,
              44.28318700007717
            ],
            [
              -110.16221000034433,
              44.29904300021609
            ],
            [
              -110.1834360002403,
              44.30190600027244
            ],
            [
              -110.18211499976725,
              44.30942499972093
            ],
            [
              -110.18926699978384,
              44.30037400016475
            ],
            [
              -110.20384199997868,
              44.305609999841394
            ],
            [
              -110.20980300011684,
              44.314381000240076
            ],
            [
              -110.2031830003778,
              44.31329099989524
            ],
            [
              -110.20251300000798,
              44.32776299990739
            ],
            [
              -110.22533400001342,
              44.338798999816966
            ],
            [
              -110.22878399962502,
              44.374721999802404
            ],
            [
              -110.25385300039133,
              44.389782999714996
            ],
            [
              -110.26004299996005,
              44.4094490000229
            ],
            [
              -110.29629599996248,
              44.4304190000557
            ],
            [
              -110.27648299970275,
              44.5157970002456
            ],
            [
              -110.29846900038025,
              44.530091999930015
            ],
            [
              -110.29014800022657,
              44.5427350002603
            ],
            [
              -110.31321399955607,
              44.55578099994263
            ],
            [
              -110.33350100036705,
              44.54771200026408
            ],
            [
              -110.3845039995682,
              44.563844999807664
            ],
            [
              -110.37271899955918,
              44.57086800005827
            ],
            [
              -110.37533399984284,
              44.58301600008785
            ],
            [
              -110.66789899962785,
              44.58279199996728
            ],
            [
              -110.66786699984077,
              44.66629100031526
            ],
            [
              -111.02661300034272,
              44.66634100011237
            ],
            [
              -111.05344700019947,
              44.66626800013854
            ]
          ]
        ]
      }
    },
    {
      "type": "Feature",
      "id": "us-county:56:041",
      "properties": {
        "boundary_id": "us-county:56:041",
        "boundary_type": "county",
        "name": "Uinta County",
        "stateFips": "56",
        "countyFips": "041",
        "bbox": [
          -111.04681800023963,
          40.99729500032627,
          -110.04799999983678,
          41.57984499978432
        ]
      },
      "geometry": {
        "type": "Polygon",
        "coordinates": [
          [
            [
              -111.04681800023963,
              41.15601900030346
            ],
            [
              -111.04681499986657,
              40.99787500010102
            ],
            [
              -110.04848299971053,
              40.99729500032627
            ],
            [
              -110.04799999983678,
              41.578015000131174
            ],
            [
              -111.04583700042349,
              41.57984499978432
            ],
            [
              -111.04681800023963,
              41.15604199991505
            ],
            [
              -111.04681800023963,
              41.15601900030346
            ]
          ]
        ]
      }
    },
    {
      "type": "Feature",
      "id": "us-county:56:043",
      "properties": {
        "boundary_id": "us-county:56:043",
        "boundary_type": "county",
        "name": "Washakie County",
        "stateFips": "56",
        "countyFips": "043",
        "bbox": [
          -108.55078800028214,
          43.50028600013714,
          -107.11073400023558,
          44.168454999980135
        ]
      },
      "geometry": {
        "type": "Polygon",
        "coordinates": [
          [
            [
              -108.55078800028214,
              44.12770099970218
            ],
            [
              -108.55075800014491,
              44.079403000206845
            ],
            [
              -108.49025399988402,
              44.079760000029445
            ],
            [
              -108.48943100025163,
              43.99186600024941
            ],
            [
              -108.42706400009267,
              43.9920540003053
            ],
            [
              -108.42956300002537,
              43.90335499978374
            ],
            [
              -108.3093599995926,
              43.903255000254354
            ],
            [
              -108.30969400040175,
              43.846619000256965
            ],
            [
              -108.1852549996366,
              43.848255000085814
            ],
            [
              -108.2016519997216,
              43.82582400008215
            ],
            [
              -108.17493800041377,
              43.81896799995747
            ],
            [
              -107.95644799990552,
              43.8186660002517
            ],
            [
              -107.95657699977696,
              43.733445999835034
            ],
            [
              -107.71587600025693,
              43.73334300019196
            ],
            [
              -107.71621799966539,
              43.64576600009391
            ],
            [
              -107.59515700033845,
              43.64642700028621
            ],
            [
              -107.5951049995616,
              43.50139699975893
            ],
            [
              -107.11073400023558,
              43.50028600013714
            ],
            [
              -107.11365499994268,
              43.81609199989951
            ],
            [
              -107.12762199969195,
              43.81596099983097
            ],
            [
              -107.12858400013981,
              44.16569199983709
            ],
            [
              -108.55056200032635,
              44.168454999980135
            ],
            [
              -108.55072999965752,
              44.13387299969318
            ],
            [
              -108.55078800028214,
              44.12770099970218
            ]
          ]
        ]
      }
    },
    {
      "type": "Feature",
      "id": "us-county:56:045",
      "properties": {
        "boundary_id": "us-county:56:045",
        "boundary_type": "county",
        "name": "Weston County",
        "stateFips": "56",
        "countyFips": "045",
        "bbox": [
          -105.08140700017307,
          43.49844499997458,
          -104.05448700004219,
          44.180380999714814
        ]
      },
      "geometry": {
        "type": "Polygon",
        "coordinates": [
          [
            [
              -105.08140700017307,
              43.82696299988397
            ],
            [
              -105.079796999995,
              43.49844499997458
            ],
            [
              -104.05478599979291,
              43.503327999892306
            ],
            [
              -104.05448700004219,
              44.180380999714814
            ],
            [
              -105.07928099961097,
              44.17618199987488
            ],
            [
              -105.08139200010447,
              43.82964599968435
            ],
            [
              -105.08140700017307,
              43.82696299988397
            ]
          ]
        ]
      }
    },
    {
      "type": "Feature",
      "id": "us-state:56",
      "properties": {
        "boundary_id": "us-state:56",
        "boundary_type": "state",
        "name": "Wyoming",
        "stateFips": "56",
        "bbox": [
          -111.05455600006214,
          40.99787500010102,
          -104.0532490003081,
          45.005815000063905
        ]
      },
      "geometry": {
        "type": "Polygon",
        "coordinates": [
          [
            [
              -106.32116499957222,
              40.99912299994369
            ],
            [
              -104.0532490003081,
              41.001405999738765
            ],
            [
              -104.05787899992745,
              44.99760499975218
            ],
            [
              -105.85698400007449,
              45.000366000092654
            ],
            [
              -106.12620700034545,
              44.99326799983399
            ],
            [
              -109.08070000023503,
              44.999440000101245
            ],
            [
              -109.10322800033752,
              45.005815000063905
            ],
            [
              -110.10577599983614,
              45.00353300010318
            ],
            [
              -110.70447600039368,
              44.99217400004813
            ],
            [
              -110.79011899994444,
              45.00088299973675
            ],
            [
              -111.05455600006214,
              45.000954999684424
            ],
            [
              -111.04392500012163,
              43.21291900018491
            ],
            [
              -111.04681499986657,
              40.99787500010102
            ],
            [
              -106.32621299966632,
              40.99926799990399
            ],
            [
              -106.32116499957222,
              40.99912299994369
            ]
          ]
        ]
      }
    }
  ]
}
