{
  "type": "FeatureCollection",
  "features": [
    {
      "type": "Feature",
      "id": "us-cd:119:20:01",
      "properties": {
        "boundary_id": "us-cd:119:20:01",
        "boundary_type": "congressional_district",
        "name": "1",
        "stateFips": "20",
        "congress": 119,
        "district": "01",
        "bbox": [
          -102.05176899970552,
          36.993015999850805,
          -95.17675399967064,
          40.000880999668794
        ]
      },
      "geometry": {
        "type": "Polygon",
        "coordinates": [
          [
            [
              -102.05176899970552,
              39.99998999978988
            ],
            [
              -102.04208900034224,
              36.993015999850805
            ],
            [
              -99.54111599987264,
              36.99960999986015
            ],
            [
              -99.543188999833,
              37.381123999677044
            ],
            [
              -99.55577399990815,
              37.38111199974041
            ],
            [
              -99.56027200018134,
              37.825587000090835
            ],
            [
              -99.5705759998837,
              37.82563400006851
            ],
            [
              -99.56992700032859,
              38.17490199971554
            ],
            [
              -99.13174100026339,
              38.17433699990149
            ],
            [
              -99.13182099973102,
              38.181624999860645
            ],
            [
              -99.08363499958156,
              38.188857000179965
            ],
            [
              -99.02236100029005,
              38.238086000243634
            ],
            [
              -99.02247199971981,
              38.26120799987852
            ],
            [
              -98.4724369998858,
              38.26074100011594
            ],
            [
              -98.47231999970995,
              37.82464300007418
            ],
            [
              -98.46489900007984,
              37.8245120002956
            ],
            [
              -98.46480399964528,
              37.732675000196394
            ],
            [
              -97.69869199992031,
              37.73505600000171
            ],
            [
              -97.70184100013135,
              38.17381399985313
            ],
            [
              -97.37174999955141,
              38.17367300031582
            ],
            [
              -97.37191100010823,
              38.609353000124514
            ],
            [
              -96.93028600030206,
              38.6093619999568
            ],
            [
              -96.92723400017542,
              38.8121600002321
            ],
            [
              -96.89006499975585,
              38.81225500033148
            ],
            [
              -96.8902449996809,
              38.87006700009669
            ],
            [
              -96.92671000029377,
              38.87035000009557
            ],
            [
              -96.92620899997834,
              38.97894100015196
            ],
            [
              -96.94734100016302,
              38.97056999999132
            ],
            [
              -96.95060699965158,
              38.976750999737526
            ],
            [
              -96.96346999956111,
              38.96490100007692
            ],
            [
              -96.96169299987677,
              39.22007599977508
            ],
            [
              -96.84987900026806,
              39.21901200031126
            ],
            [
              -96.84967000003068,
              39.139280000334686
            ],
            [
              -96.83096700035685,
              39.13549200028488
            ],
            [
              -96.85140900008021,
              39.08817599971248
            ],
            [
              -96.74343900026838,
              39.08765899996042
            ],
            [
              -96.73605999957277,
              39.07995700019386
            ],
            [
              -96.70626200035123,
              39.09157100028507
            ],
            [
              -96.70612199971082,
              39.073076999971036
            ],
            [
              -96.50096199999062,
              39.0726810002171
            ],
            [
              -96.50116600020515,
              39.04366600016559
            ],
            [
              -96.4049029996862,
              39.043246999866945
            ],
            [
              -96.39079600019484,
              39.04325699993136
            ],
            [
              -96.38904600027467,
              39.17287799985501
            ],
            [
              -96.37778699979714,
              39.164137000023025
            ],
            [
              -96.35762499955796,
              39.17302199984249
            ],
            [
              -96.35912900032913,
              39.15770700034716
            ],
            [
              -96.34594900022722,
              39.15410200023583
            ],
            [
              -96.32902700043567,
              39.15989999985514
            ],
            [
              -96.324729000179,
              39.18605100013327
            ],
            [
              -96.30819200035192,
              39.19677499967171
            ],
            [
              -96.27062299989929,
              39.17888700032451
            ],
            [
              -96.23541600001032,
              39.21211800009773
            ],
            [
              -96.2166539998869,
              39.20031499968177
            ],
            [
              -96.18156699964854,
              39.206333000179164
            ],
            [
              -96.1767410002106,
              39.18861600024427
            ],
            [
              -96.1227570001296,
              39.18712399976386
            ],
            [
              -96.10696799959182,
              39.2010320000402
            ],
            [
              -96.0835569995825,
              39.19350399981751
            ],
            [
              -96.0568669996658,
              39.16148699991238
            ],
            [
              -96.08386700010222,
              39.16326300027805
            ],
            [
              -96.09058499975053,
              39.15395099968606
            ],
            [
              -96.04259100012001,
              39.140830000166595
            ],
            [
              -96.03906000031758,
              39.126527000074816
            ],
            [
              -96.03557299999774,
              39.216519999864616
            ],
            [
              -95.58947199965971,
              39.21608100028376
            ],
            [
              -95.59834799965718,
              39.07351400022524
            ],
            [
              -95.58933699994049,
              39.058432999773785
            ],
            [
              -95.57696000027778,
              39.05438400010759
            ],
            [
              -95.54284700018283,
              39.06910299967486
            ],
            [
              -95.5121900004456,
              39.06663900033524
            ],
            [
              -95.49382099978428,
              39.053954000315954
            ],
            [
              -95.45665899993574,
              39.0682589997601
            ],
            [
              -95.41943900036087,
              39.067204999953276
            ],
            [
              -95.33558000016713,
              39.0295909999086
            ],
            [
              -95.33526799999758,
              39.00055799994796
            ],
            [
              -95.34382599997774,
              38.9967100002409
            ],
            [
              -95.31648300030798,
              38.99802700000414
            ],
            [
              -95.3438290003508,
              38.996546000054884
            ],
            [
              -95.33386100020911,
              38.97873500023301
            ],
            [
              -95.34450700021823,
              38.971354999986275
            ],
            [
              -95.33205500021245,
              38.971473000241325
            ],
            [
              -95.33623700011816,
              38.95687599999227
            ],
            [
              -95.32552300033697,
              38.95695800032789
            ],
            [
              -95.33528200024129,
              38.94252599969235
            ],
            [
              -95.29878900003933,
              38.93017900025413
            ],
            [
              -95.29319799979702,
              38.935357999683546
            ],
            [
              -95.25782699987651,
              38.91515399986561
            ],
            [
              -95.24522799955766,
              38.92825600006261
            ],
            [
              -95.21209799982697,
              38.926160000025675
            ],
            [
              -95.17675399967064,
              38.94182299996005
            ],
            [
              -95.17683599968642,
              38.94997700013313
            ],
            [
              -95.21185900035069,
              38.962828999944236
            ],
            [
              -95.18618899970986,
              38.96454199974217
            ],
            [
              -95.18089100026882,
              39.41921800010424
            ],
            [
              -95.57035100040942,
              39.41905000018494
            ],
            [
              -95.57013100030139,
              39.52552799973647
            ],
            [
              -95.71860999964117,
              39.56593900002255
            ],
            [
              -96.23896899955406,
              39.5662200003052
            ],
            [
              -96.23920000043107,
              40.000880999668794
            ],
            [
              -102.05176000038301,
              40.00019200028111
            ],
            [
              -102.05176899970552,
              39.99998999978988
            ]
          ]
        ]
      }
    },
    {
      "type": "Feature",
      "id": "us-cd:119:20:02",
      "properties": {
        "boundary_id": "us-cd:119:20:02",
        "boundary_type": "congressional_district",
        "name": "2",
        "stateFips": "20",
        "congress": 119,
        "district": "02",
        "bbox": [
          -97.37207799961448,
          36.998905000209035,
          -94.58939999962925,
          40.000880999668794
        ]
      },
      "geometry": {
        "type": "Polygon",
        "coordinates": [
          [
            [
              -97.37207799961448,
              38.384997999816946
            ],
            [
              -97.37174999955141,
              38.17367300031582
            ],
            [
              -97.15309300043523,
              38.17463399991487
            ],
            [
              -97.15291299961184,
              38.087703999648355
            ],
            [
              -96.3580990001092,
              38.08581700009054
            ],
            [
              -96.35727700030174,
              38.17266000024759
            ],
            [
              -95.95886199962263,
              38.1709389999734
            ],
            [
              -95.96426999956684,
              36.999103999703166
            ],
            [
              -94.617964000213,
              36.998905000209035
            ],
            [
              -94.61323199958807,
              38.38871799982165
            ],
            [
              -95.06583100036471,
              38.38994499971984
            ],
            [
              -95.07787599976639,
              38.03770600013672
            ],
            [
              -95.5189700000182,
              38.038230000233334
            ],
            [
              -95.51675700031576,
              38.25929600006709
            ],
            [
              -95.50747399971421,
              38.25924800019462
            ],
            [
              -95.50850200028432,
              38.68157800000672
            ],
            [
              -95.50073799962422,
              38.7388080000743
            ],
            [
              -95.05641200021901,
              38.73858700008324
            ],
            [
              -95.05625800023323,
              38.98211999993398
            ],
            [
              -95.03327499984607,
              38.975504999928006
            ],
            [
              -95.01405699961309,
              39.000858000255825
            ],
            [
              -94.95654500010271,
              38.98197200030447
            ],
            [
              -94.92334900024979,
              39.00263300030771
            ],
            [
              -94.91624300026395,
              38.99689999995558
            ],
            [
              -94.92101599999845,
              38.98449999996801
            ],
            [
              -94.91230800023045,
              38.987732000283366
            ],
            [
              -94.90846500025847,
              39.1160010001997
            ],
            [
              -94.85371999957106,
              39.11580499979253
            ],
            [
              -94.80038999996636,
              39.10046599988408
            ],
            [
              -94.73935799962587,
              39.10632300021928
            ],
            [
              -94.7100380002552,
              39.09329799990151
            ],
            [
              -94.68893399965964,
              39.10270399970434
            ],
            [
              -94.63231099990388,
              39.07371800016585
            ],
            [
              -94.6072229997693,
              39.08970900009243
            ],
            [
              -94.60825499963909,
              39.11830599977122
            ],
            [
              -94.58939999962925,
              39.14054199977911
            ],
            [
              -94.59066099982786,
              39.154766999825355
            ],
            [
              -94.60645500038854,
              39.160827000161824
            ],
            [
              -94.65578700021054,
              39.15568000026305
            ],
            [
              -94.65916200037738,
              39.17412600016363
            ],
            [
              -94.67390300025355,
              39.18355399974102
            ],
            [
              -94.72363699975847,
              39.16900300012619
            ],
            [
              -94.75164700032332,
              39.17300399968605
            ],
            [
              -94.78224799998408,
              39.206793999666864
            ],
            [
              -94.8316790004386,
              39.215938000255626
            ],
            [
              -94.8305529999592,
              39.25513499993542
            ],
            [
              -94.88409299962618,
              39.28451199993101
            ],
            [
              -94.90612600015935,
              39.314721000304736
            ],
            [
              -94.9100169998119,
              39.352542999778
            ],
            [
              -94.88136000024008,
              39.370382999867296
            ],
            [
              -94.88502599976174,
              39.38980100010491
            ],
            [
              -94.94203900040316,
              39.38949899988115
            ],
            [
              -94.9478640000989,
              39.4086040002224
            ],
            [
              -94.97295200023343,
              39.42170499984926
            ],
            [
              -94.9821439997001,
              39.44055200012718
            ],
            [
              -95.03750000030779,
              39.4636889997473
            ],
            [
              -95.05445899990927,
              39.502652999761175
            ],
            [
              -95.1103679998126,
              39.54456199983623
            ],
            [
              -95.10494800017283,
              39.57660399979813
            ],
            [
              -95.06709500003805,
              39.57650199986571
            ],
            [
              -95.05058999999802,
              39.58756299978985
            ],
            [
              -95.05426700028865,
              39.62774500024111
            ],
            [
              -95.0276440003191,
              39.66545400024156
            ],
            [
              -94.97067699970842,
              39.6872390000346
            ],
            [
              -94.96395800023521,
              39.74036099997269
            ],
            [
              -94.94754100005872,
              39.74533699975466
            ],
            [
              -94.89931599955122,
              39.72404200009922
            ],
            [
              -94.86273500038402,
              39.74219500010418
            ],
            [
              -94.86063899995915,
              39.762982999754065
            ],
            [
              -94.86965499969871,
              39.77289899980144
            ],
            [
              -94.91094900012256,
              39.75917800011644
            ],
            [
              -94.93457299966889,
              39.77296099994316
            ],
            [
              -94.9282299999393,
              39.788938000118755
            ],
            [
              -94.88465199966792,
              39.79399699999843
            ],
            [
              -94.87594399989993,
              39.81329399992992
            ],
            [
              -94.8848259997452,
              39.83241799967163
            ],
            [
              -94.91676600032068,
              39.835806999996294
            ],
            [
              -94.93985400028981,
              39.85204399974368
            ],
            [
              -94.94237800033687,
              39.86225399982894
            ],
            [
              -94.92720700029038,
              39.881974000098786
            ],
            [
              -94.93996399989467,
              39.896452999946185
            ],
            [
              -95.01312500020077,
              39.90019200013615
            ],
            [
              -95.03524599969917,
              39.86592099995029
            ],
            [
              -95.09015799989284,
              39.86313999983266
            ],
            [
              -95.13709200006448,
              39.87835099981908
            ],
            [
              -95.14965700004817,
              39.90594799987068
            ],
            [
              -95.20174999974368,
              39.90437699996464
            ],
            [
              -95.20526600037586,
              39.9397499997955
            ],
            [
              -95.25025399991044,
              39.948643999942334
            ],
            [
              -95.30233999993328,
              39.98455500023386
            ],
            [
              -95.3082900002008,
              39.999998000215854
            ],
            [
              -96.23920000043107,
              40.000880999668794
            ],
            [
              -96.23896899955406,
              39.5662200003052
            ],
            [
              -95.71860999964117,
              39.56593900002255
            ],
            [
              -95.57013100030139,
              39.52552799973647
            ],
            [
              -95.57035100040942,
              39.41905000018494
            ],
            [
              -95.18089100026882,
              39.41921800010424
            ],
            [
              -95.18618899970986,
              38.96454199974217
            ],
            [
              -95.21185900035069,
              38.962828999944236
            ],
            [
              -95.17683599968642,
              38.94997700013313
            ],
            [
              -95.17675399967064,
              38.94182299996005
            ],
            [
              -95.21209799982697,
              38.926160000025675
            ],
            [
              -95.24522799955766,
              38.92825600006261
            ],
            [
              -95.25782699987651,
              38.91515399986561
            ],
            [
              -95.29319799979702,
              38.935357999683546
            ],
            [
              -95.29878900003933,
              38.93017900025413
            ],
            [
              -95.33528200024129,
              38.94252599969235
            ],
            [
              -95.32552300033697,
              38.95695800032789
            ],
            [
              -95.33623700011816,
              38.95687599999227
            ],
            [
              -95.33205500021245,
              38.971473000241325
            ],
            [
              -95.34450700021823,
              38.971354999986275
            ],
            [
              -95.33386100020911,
              38.97873500023301
            ],
            [
              -95.3438290003508,
              38.996546000054884
            ],
            [
              -95.31648300030798,
              38.99802700000414
            ],
            [
              -95.34382599997774,
              38.9967100002409
            ],
            [
              -95.33526799999758,
              39.00055799994796
            ],
            [
              -95.33558000016713,
              39.0295909999086
            ],
            [
              -95.41943900036087,
              39.067204999953276
            ],
            [
              -95.45665899993574,
              39.0682589997601
            ],
            [
              -95.49382099978428,
              39.053954000315954
            ],
            [
              -95.5121900004456,
              39.06663900033524
            ],
            [
              -95.54284700018283,
              39.06910299967486
            ],
            [
              -95.57696000027778,
              39.05438400010759
            ],
            [
              -95.58933699994049,
              39.058432999773785
            ],
            [
              -95.59834799965718,
              39.07351400022524
            ],
            [
              -95.58947199965971,
              39.21608100028376
            ],
            [
              -96.03557299999774,
              39.216519999864616
            ],
            [
              -96.03906000031758,
              39.126527000074816
            ],
            [
              -96.04259100012001,
              39.140830000166595
            ],
            [
              -96.09058499975053,
              39.15395099968606
            ],
            [
              -96.08386700010222,
              39.16326300027805
            ],
            [
              -96.0568669996658,
              39.16148699991238
            ],
            [
              -96.0835569995825,
              39.19350399981751
            ],
            [
              -96.10696799959182,
              39.2010320000402
            ],
            [
              -96.1227570001296,
              39.18712399976386
            ],
            [
              -96.1767410002106,
              39.18861600024427
            ],
            [
              -96.18156699964854,
              39.206333000179164
            ],
            [
              -96.2166539998869,
              39.20031499968177
            ],
            [
              -96.23541600001032,
              39.21211800009773
            ],
            [
              -96.27062299989929,
              39.17888700032451
            ],
            [
              -96.30819200035192,
              39.19677499967171
            ],
            [
              -96.324729000179,
              39.18605100013327
            ],
            [
              -96.32902700043567,
              39.15989999985514
            ],
            [
              -96.34594900022722,
              39.15410200023583
            ],
            [
              -96.35912900032913,
              39.15770700034716
            ],
            [
              -96.35762499955796,
              39.17302199984249
            ],
            [
              -96.37778699979714,
              39.164137000023025
            ],
            [
              -96.38904600027467,
              39.17287799985501
            ],
            [
              -96.39079600019484,
              39.04325699993136
            ],
            [
              -96.4049029996862,
              39.043246999866945
            ],
            [
              -96.50116600020515,
              39.04366600016559
            ],
            [
              -96.50096199999062,
              39.0726810002171
            ],
            [
              -96.70612199971082,
              39.073076999971036
            ],
            [
              -96.70626200035123,
              39.09157100028507
            ],
            [
              -96.73605999957277,
              39.07995700019386
            ],
            [
              -96.74343900026838,
              39.08765899996042
            ],
            [
              -96.85140900008021,
              39.08817599971248
            ],
            [
              -96.83096700035685,
              39.13549200028488
            ],
            [
              -96.84967000003068,
              39.139280000334686
            ],
            [
              -96.84987900026806,
              39.21901200031126
            ],
            [
              -96.96169299987677,
              39.22007599977508
            ],
            [
              -96.96346999956111,
              38.96490100007692
            ],
            [
              -96.95060699965158,
              38.976750999737526
            ],
            [
              -96.94734100016302,
              38.97056999999132
            ],
            [
              -96.92620899997834,
              38.97894100015196
            ],
            [
              -96.92671000029377,
              38.87035000009557
            ],
            [
              -96.8902449996809,
              38.87006700009669
            ],
            [
              -96.89006499975585,
              38.81225500033148
            ],
            [
              -96.92723400017542,
              38.8121600002321
            ],
            [
              -96.93028600030206,
              38.6093619999568
            ],
            [
              -97.37191100010823,
              38.609353000124514
            ],
            [
              -97.37203599978169,
              38.38515000026838
            ],
            [
              -97.37207799961448,
              38.384997999816946
            ]
          ]
        ]
      }
    },
    {
      "type": "Feature",
      "id": "us-cd:119:20:03",
      "properties": {
        "boundary_id": "us-cd:119:20:03",
        "boundary_type": "congressional_district",
        "name": "3",
        "stateFips": "20",
        "congress": 119,
        "district": "03",
        "bbox": [
          -95.51894499990384,
          38.03770600013672,
          -94.6072229997693,
          39.1160010001997
        ]
      },
      "geometry": {
        "type": "Polygon",
        "coordinates": [
          [
            [
              -95.51894499990384,
              38.03895200017082
            ],
            [
              -95.07787599976639,
              38.03770600013672
            ],
            [
              -95.06583100036471,
              38.38994499971984
            ],
            [
              -94.61323199958807,
              38.38871799982165
            ],
            [
              -94.6072229997693,
              39.08970900009243
            ],
            [
              -94.6206470002687,
              39.076897999826976
            ],
            [
              -94.64262999967484,
              39.073720999658
            ],
            [
              -94.68893399965964,
              39.10270399970434
            ],
            [
              -94.7100380002552,
              39.09329799990151
            ],
            [
              -94.73935799962587,
              39.10632300021928
            ],
            [
              -94.80038999996636,
              39.10046599988408
            ],
            [
              -94.85371999957106,
              39.11580499979253
            ],
            [
              -94.90846500025847,
              39.1160010001997
            ],
            [
              -94.91230800023045,
              38.987732000283366
            ],
            [
              -94.92101599999845,
              38.98449999996801
            ],
            [
              -94.91624300026395,
              38.99689999995558
            ],
            [
              -94.92334900024979,
              39.00263300030771
            ],
            [
              -94.95654500010271,
              38.98197200030447
            ],
            [
              -95.01405699961309,
              39.000858000255825
            ],
            [
              -95.03327499984607,
              38.975504999928006
            ],
            [
              -95.05625800023323,
              38.98211999993398
            ],
            [
              -95.05641200021901,
              38.73858700008324
            ],
            [
              -95.50073799962422,
              38.7388080000743
            ],
            [
              -95.50850200028432,
              38.68157800000672
            ],
            [
              -95.50747399971421,
              38.25924800019462
            ],
            [
              -95.51675700031576,
              38.25929600006709
            ],
            [
              -95.5189420004291,
              38.039053000112936
            ],
            [
              -95.51894499990384,
              38.03895200017082
            ]
          ]
        ]
      }
    },
    {
      "type": "Feature",
      "id": "us-cd:119:20:04",
      "properties": {
        "boundary_id": "us-cd:119:20:04",
        "boundary_type": "congressional_district",
        "name": "4",
        "stateFips": "20",
        "congress": 119,
        "district": "04",
        "bbox": [
          -99.5705540001424,
          36.999103999703166,
          -95.95886199962263,
          38.26120799987852
        ]
      },
      "geometry": {
        "type": "Polygon",
        "coordinates": [
          [
            [
              -99.5705540001424,
              37.826301999926784
            ],
            [
              -99.56027200018134,
              37.825587000090835
            ],
            [
              -99.55577399990815,
              37.38111199974041
            ],
            [
              -99.543188999833,
              37.381123999677044
            ],
            [
              -99.54111599987264,
              36.99960999986015
            ],
            [
              -95.96426999956684,
              36.999103999703166
            ],
            [
              -95.95886199962263,
              38.1709389999734
            ],
            [
              -96.35727700030174,
              38.17266000024759
            ],
            [
              -96.3580990001092,
              38.08581700009054
            ],
            [
              -96.8749959998166,
              38.08565700019733
            ],
            [
              -97.15291299961184,
              38.087703999648355
            ],
            [
              -97.15309300043523,
              38.17463399991487
            ],
            [
              -97.70184100013135,
              38.17381399985313
            ],
            [
              -97.69869199992031,
              37.73505600000171
            ],
            [
              -98.46480399964528,
              37.732675000196394
            ],
            [
              -98.46489900007984,
              37.8245120002956
            ],
            [
              -98.47231999970995,
              37.82464300007418
            ],
            [
              -98.4724369998858,
              38.26074100011594
            ],
            [
              -99.02247199971981,
              38.26120799987852
            ],
            [
              -99.02236100029005,
              38.238086000243634
            ],
            [
              -99.08363499958156,
              38.188857000179965
            ],
            [
              -99.13182099973102,
              38.181624999860645
            ],
            [
              -99.13174100026339,
              38.17433699990149
            ],
            [
              -99.56992700032859,
              38.17490199971554
            ],
            [
              -99.5705409997236,
              37.82928800024129
            ],
            [
              -99.5705540001424,
              37.826301999926784
            ]
          ]
        ]
      }
    }
  ]
}
