{
  "type": "FeatureCollection",
  "features": [
    {
      "type": "Feature",
      "id": "us-county:44:001",
      "properties": {
        "boundary_id": "us-county:44:001",
        "boundary_type": "county",
        "name": "Bristol County",
        "stateFips": "44",
        "countyFips": "001",
        "bbox": [
          -71.36520700003086,
          41.63813700010303,
          -71.21042900044411,
          41.77619900011074
        ]
      },
      "geometry": {
        "type": "Polygon",
        "coordinates": [
          [
            [
              -71.21042900044411,
              41.68800900031385
            ],
            [
              -71.26106699977227,
              41.75208200018372
            ],
            [
              -71.31787299982614,
              41.77619900011074
            ],
            [
              -71.36520700003086,
              41.735649000310154
            ],
            [
              -71.33131499986887,
              41.70290200030677
            ],
            [
              -71.32182499957807,
              41.65714799981352
            ],
            [
              -71.30705500028789,
              41.64254499972769
            ],
            [
              -71.27772499997317,
              41.65085399993129
            ],
            [
              -71.25672800040606,
              41.63813700010303
            ],
            [
              -71.2108579998912,
              41.687492999677566
            ],
            [
              -71.21042900044411,
              41.68800900031385
            ]
          ]
        ]
      }
    },
    {
      "type": "Feature",
      "id": "us-county:44:003",
      "properties": {
        "boundary_id": "us-county:44:003",
        "boundary_type": "county",
        "name": "Kent County",
        "stateFips": "44",
        "countyFips": "003",
        "bbox": [
          -71.78970400018115,
          41.59684700004744,
          -71.32566699972514,
          41.7683209999084
        ]
      },
      "geometry": {
        "type": "Polygon",
        "coordinates": [
          [
            [
              -71.54480699961341,
              41.601993000204644
            ],
            [
              -71.48442700009937,
              41.602590999836806
            ],
            [
              -71.4880390000927,
              41.61633399980624
            ],
            [
              -71.46966600013172,
              41.63453600001898
            ],
            [
              -71.45919400019987,
              41.637966999778996
            ],
            [
              -71.45136599996569,
              41.6294549998444
            ],
            [
              -71.44250800040987,
              41.64581800009298
            ],
            [
              -71.42147999998227,
              41.65439399975232
            ],
            [
              -71.38054200010889,
              41.650325999772875
            ],
            [
              -71.37478299963709,
              41.662764999906166
            ],
            [
              -71.32566699972514,
              41.69321300004786
            ],
            [
              -71.37827300032998,
              41.755297000274375
            ],
            [
              -71.39957700004378,
              41.7683209999084
            ],
            [
              -71.44039799974128,
              41.758053000115964
            ],
            [
              -71.45534200000706,
              41.732365000312946
            ],
            [
              -71.78970400018115,
              41.72519800020392
            ],
            [
              -71.78924700024665,
              41.59684700004744
            ],
            [
              -71.54501300037604,
              41.60191600020872
            ],
            [
              -71.54480699961341,
              41.601993000204644
            ]
          ]
        ]
      }
    },
    {
      "type": "Feature",
      "id": "us-county:44:005",
      "properties": {
        "boundary_id": "us-county:44:005",
        "boundary_type": "county",
        "name": "Newport County",
        "stateFips": "44",
        "countyFips": "005",
        "bbox": [
          -71.509442000439,
          41.30773199975954,
          -71.08857099962744,
          41.69059800009637
        ]
      },
      "geometry": {
        "type": "Polygon",
        "coordinates": [
          [
            [
              -71.11640399974198,
              41.48456800020767
            ],
            [
              -71.13161999999431,
              41.59371599989452
            ],
            [
              -71.14195800003183,
              41.612532999683964
            ],
            [
              -71.13255700032782,
              41.66036300023152
            ],
            [
              -71.19547900033056,
              41.67509000022768
            ],
            [
              -71.20837099965406,
              41.69059800009637
            ],
            [
              -71.23014700026928,
              41.66066599983077
            ],
            [
              -71.26538099992244,
              41.63836599970035
            ],
            [
              -71.27572700035591,
              41.650678000135585
            ],
            [
              -71.31146499979923,
              41.644048000319
            ],
            [
              -71.33097000008738,
              41.686962000010276
            ],
            [
              -71.35406899992718,
              41.678165000119094
            ],
            [
              -71.3789720001138,
              41.65797699987947
            ],
            [
              -71.3863579995838,
              41.63390099996016
            ],
            [
              -71.40109500016032,
              41.51774000003291
            ],
            [
              -71.4130269995841,
              41.49868999996585
            ],
            [
              -71.40909900012161,
              41.46820199975699
            ],
            [
              -71.45999900028892,
              41.37510200019537
            ],
            [
              -71.509442000439,
              41.30773199975954
            ],
            [
              -71.11932199997432,
              41.41332100003987
            ],
            [
              -71.08857099962744,
              41.431314999762186
            ],
            [
              -71.11543100032176,
              41.48270599978164
            ],
            [
              -71.11640399974198,
              41.48456800020767
            ]
          ]
        ]
      }
    },
    {
      "type": "Feature",
      "id": "us-county:44:007",
      "properties": {
        "boundary_id": "us-county:44:007",
        "boundary_type": "county",
        "name": "Providence County",
        "stateFips": "44",
        "countyFips": "007",
        "bbox": [
          -71.79918799972585,
          41.72519800020392,
          -71.31787299982614,
          42.0187979997801
        ]
      },
      "geometry": {
        "type": "Polygon",
        "coordinates": [
          [
            [
              -71.54735300030008,
              41.73120300006877
            ],
            [
              -71.45490699981387,
              41.73244300018226
            ],
            [
              -71.44039799974128,
              41.758053000115964
            ],
            [
              -71.3998049996494,
              41.76833299966883
            ],
            [
              -71.36520700003086,
              41.735649000310154
            ],
            [
              -71.31787299982614,
              41.77619900011074
            ],
            [
              -71.34048100029456,
              41.79703300001129
            ],
            [
              -71.34754500044761,
              41.82324600013131
            ],
            [
              -71.33541700030695,
              41.83564500019505
            ],
            [
              -71.34255000005695,
              41.84465599971396
            ],
            [
              -71.33403999975737,
              41.86260399999971
            ],
            [
              -71.33878699955261,
              41.89859300001877
            ],
            [
              -71.38146299965057,
              41.89354600001753
            ],
            [
              -71.3814009997263,
              42.0187979997801
            ],
            [
              -71.79918799972585,
              42.008052999761894
            ],
            [
              -71.78970400018115,
              41.72519800020392
            ],
            [
              -71.54742500027011,
              41.73124200005038
            ],
            [
              -71.54735300030008,
              41.73120300006877
            ]
          ]
        ]
      }
    },
    {
      "type": "Feature",
      "id": "us-county:44:009",
      "properties": {
        "boundary_id": "us-county:44:009",
        "boundary_type": "county",
        "name": "Washington County",
        "stateFips": "44",
        "countyFips": "009",
        "bbox": [
          -71.9072579999951,
          41.09583399969442,
          -71.38054200010889,
          41.651322999903094
        ]
      },
      "geometry": {
        "type": "MultiPolygon",
        "coordinates": [
          [
            [
              [
                -71.57519899993511,
                41.32094099972222
              ],
              [
                -71.509442000439,
                41.30773199975954
              ],
              [
                -71.45999900028892,
                41.37510200019537
              ],
              [
                -71.40904499969494,
                41.4683409999938
              ],
              [
                -71.4130269995841,
                41.49868999996585
              ],
              [
                -71.40109500016032,
                41.51774000003291
              ],
              [
                -71.38054200010889,
                41.650325999772875
              ],
              [
                -71.43279600036124,
                41.651322999903094
              ],
              [
                -71.45153900021803,
                41.62942599983653
              ],
              [
                -71.46235400028156,
                41.638380000218085
              ],
              [
                -71.48611099989729,
                41.61977400009706
              ],
              [
                -71.48442700009937,
                41.602590999836806
              ],
              [
                -71.78924700024665,
                41.59684700004744
              ],
              [
                -71.79774499995236,
                41.416726999672186
              ],
              [
                -71.81808799994151,
                41.41985200030671
              ],
              [
                -71.84242600023862,
                41.410260000130656
              ],
              [
                -71.82936499996238,
                41.342432000211026
              ],
              [
                -71.85745800036793,
                41.32078899970279
              ],
              [
                -71.89206699985712,
                41.330075000201894
              ],
              [
                -71.9072579999951,
                41.30448300028953
              ],
              [
                -71.79097200005245,
                41.18410100019588
              ],
              [
                -71.79148000004056,
                41.272164999947044
              ],
              [
                -71.69504300034266,
                41.282646999748664
              ],
              [
                -71.57525300036178,
                41.32095500016777
              ],
              [
                -71.57519899993511,
                41.32094099972222
              ]
            ]
          ],
          [
            [
              [
                -71.67880699991616,
                41.15891199997699
              ],
              [
                -71.67264400011162,
                41.134291999751014
              ],
              [
                -71.65763299989871,
                41.11987499978115
              ],
              [
                -71.62450099961988,
                41.10097899988983
              ],
              [
                -71.59351300034484,
                41.09583399969442
              ],
              [
                -71.50809300037685,
                41.11161499966445
              ],
              [
                -71.47702400001263,
                41.15565700003088
              ],
              [
                -71.49219599988402,
                41.24087599966914
              ],
              [
                -71.51635000005813,
                41.27154899995491
              ],
              [
                -71.5575690001389,
                41.29401800018583
              ],
              [
                -71.59159099999724,
                41.289317000207895
              ],
              [
                -71.63496800042718,
                41.26368199983054
              ],
              [
                -71.67626399960254,
                41.16886399976657
              ],
              [
                -71.67880699991616,
                41.15891199997699
              ]
            ]
          ]
        ]
      }
    },
    {
      "type": "Feature",
      "id": "us-state:44",
      "properties": {
        "boundary_id": "us-state:44",
        "boundary_type": "state",
        "name": "Rhode Island",
        "stateFips": "44",
        "bbox": [
          -71.9072579999951,
          41.09583399969442,
          -71.08857099962744,
          42.0187979997801
        ]
      },
      "geometry": {
        "type": "MultiPolygon",
        "coordinates": [
          [
            [
              [
                -71.20837099965406,
                41.69059800009637
              ],
              [
                -71.26106699977227,
                41.75208200018372
              ],
              [
                -71.3284719999796,
                41.7806940001221
              ],
              [
                -71.34048100029456,
                41.79703300001129
              ],
              [
                -71.34754500044761,
                41.82324600013131
              ],
              [
                -71.33541700030695,
                41.83564500019505
              ],
              [
                -71.34255000005695,
                41.84465599971396
              ],
              [
                -71.33403999975737,
                41.86260399999971
              ],
              [
                -71.33878699955261,
                41.89859300001877
              ],
              [
                -71.38146299965057,
                41.89354600001753
              ],
              [
                -71.3814009997263,
                42.0187979997801
              ],
              [
                -71.79918799972585,
                42.008052999761894
              ],
              [
                -71.78723899968534,
                41.65611099995739
              ],
              [
                -71.79774499995236,
                41.416726999672186
              ],
              [
                -71.81808799994151,
                41.41985200030671
              ],
              [
                -71.84242600023862,
                41.410260000130656
              ],
              [
                -71.82936499996238,
                41.342432000211026
              ],
              [
                -71.85745800036793,
                41.32078899970279
              ],
              [
                -71.89206699985712,
                41.330075000201894
              ],
              [
                -71.9072579999951,
                41.30448300028953
              ],
              [
                -71.79097200005245,
                41.18410100019588
              ],
              [
                -71.79148000004056,
                41.272164999947044
              ],
              [
                -71.69504300034266,
                41.282646999748664
              ],
              [
                -71.57525300036178,
                41.32095500016777
              ],
              [
                -71.4948050003199,
                41.3073549997809
              ],
              [
                -71.11932199997432,
                41.41332100003987
              ],
              [
                -71.08857099962744,
                41.431314999762186
              ],
              [
                -71.1211160002754,
                41.49278700008756
              ],
              [
                -71.13161999999431,
                41.59371599989452
              ],
              [
                -71.14195800003183,
                41.612532999683964
              ],
              [
                -71.13255700032782,
                41.66036300023152
              ],
              [
                -71.19547900033056,
                41.67509000022768
              ],
              [
                -71.20829200001135,
                41.69050299994142
              ],
              [
                -71.20837099965406,
                41.69059800009637
              ]
            ]
          ],
          [
            [
              [
                -71.67880699991616,
                41.15891199997699
              ],
              [
                -71.67264400011162,
                41.134291999751014
              ],
              [
                -71.65763299989871,
                41.11987499978115
              ],
              [
                -71.62450099961988,
                41.10097899988983
              ],
              [
                -71.59351300034484,
                41.09583399969442
              ],
              [
                -71.50809300037685,
                41.11161499966445
              ],
              [
                -71.47702400001263,
                41.15565700003088
              ],
              [
                -71.49219599988402,
                41.24087599966914
              ],
              [
                -71.51635000005813,
                41.27154899995491
              ],
              [
                -71.5575690001389,
                41.29401800018583
              ],
              [
                -71.59159099999724,
                41.289317000207895
              ],
              [
                -71.63496800042718,
                41.26368199983054
              ],
              [
                -71.67626399960254,
                41.16886399976657
              ],
              [
                -71.67880699991616,
                41.15891199997699
              ]
            ]
          ]
        ]
      }
    }
  ]
}
