{
  "type": "FeatureCollection",
  "crs": {
    "type": "name",
    "properties": {
      "name": "EPSG:4326"
    }
  },
  "features": [
    {
      "type": "Feature",
      "id": 1510,
      "geometry": {
        "type": "Point",
        "coordinates": [
          -77.9165910000487,
          39.0704289997115
        ]
      },
      "properties": {
        "OBJECTID": 1510,
        "Reg_Acro": "1",
        "Acronym": "18",
        "Name": "Morgans Mill Stream",
        "Status": "Primary View",
        "In_FMSS": "2",
        "FMSS_Name": "PATC Morgans Mill Stream",
        "FMSS_LocID": "TBD",
        "GIS_ID": null,
        "Type": "Improved",
        "Location": "Bridge",
        "Ctrl_Beari": null,
        "Left_Beari": 276,
        "Right_Bear": 329,
        "Scope": null,
        "Maintained": 20,
        "Constructe": null,
        "Open_to_Pu": null,
        "Improved_S": null,
        "Railings": 2,
        "Railing_Le": 25,
        "Railing_He": 4,
        "Railing_Ma": "4",
        "Retaining": null,
        "Retaining_": null,
        "Retaining2": null,
        "Bulletins": null,
        "Direction": null,
        "Ed_Interp": null,
        "Id_Entran": null,
        "Reg_Safet": null,
        "Bollards": null,
        "Boulders": null,
        "Cattle_Gu": null,
        "Gates": null,
        "Stiles": null,
        "Fences": null,
        "Fence_Leng": null,
        "Fence_Mate": null,
        "Photos_Tak": null,
        "Year_Built": null,
        "Comments": null,
        "FMSS_QTY": null,
        "Descriptio": null,
        "FBMS_ID": null,
        "OB": null,
        "API": null,
        "Hist_Stat": null,
        "State": "9",
        "County": "CLARKE",
        "Region": "1",
        "District": "Congressional District 6",
        "Trail_Club": "18",
        "From_": null,
        "To_": null,
        "Maintainer": null,
        "Wilderness": "N",
        "Ownership": "FEDERAL LAND FEE NATIONAL PARK SERVICE APPALACHAIN NATIONAL SCENIC TRAIL",
        "Latitude": "39.070429",
        "Longitude": "-77.916591",
        "Max_PDOP": null,
        "Max_HDOP": null,
        "Corr_Type": null,
        "Rcvr_Type": null,
        "GPS_Date": 1717459200000,
        "GPS_Time": null,
        "Update_Sta": null,
        "Feat_Name": null,
        "Datafile": null,
        "Unfilt_Pos": null,
        "Filt_Pos": null,
        "Data_Dicti": null,
        "GPS_Week": null,
        "GNSS_Heigh": null,
        "Vert_Prec": null,
        "Horz_Prec": null,
        "Std_Dev": null,
        "POINT_X": null,
        "POINT_Y": null,
        "GFID": "{f984ea4e-93f6-412b-8616-02a75cdf4849}",
        "Source": null,
        "Version": null,
        "Publish": null,
        "Creator": null,
        "Create_Date": null,
        "Editor": null,
        "Edit_Date": null,
        "Photo1": "https://drive.google.com/file/d/10c86gTCHuyLMFajJjsb9p-5EXitFw84C/view?usp=drivesdk",
        "Photo2": null,
        "Photo3": null,
        "Photo4": null,
        "Photo5": null,
        "Photo6": null,
        "Photo7": null,
        "Photo8": null,
        "Photo9": null,
        "Photo10": null,
        "GlobalID": "f5e61f35-49e0-4072-8b17-82feff7082ff"
      }
    }
  ]
}