{
  "type": "FeatureCollection",
  "features": [
    {
      "type": "Feature",
      "id": "us-cd:119:18:01",
      "properties": {
        "boundary_id": "us-cd:119:18:01",
        "boundary_type": "congressional_district",
        "name": "1",
        "stateFips": "18",
        "congress": 119,
        "district": "01",
        "bbox": [
          -87.5267569997611,
          41.1628300003356,
          -86.6990260000648,
          41.75990699999969
        ]
      },
      "geometry": {
        "type": "Polygon",
        "coordinates": [
          [
            [
              -87.5267569997611,
              41.308325000256744
            ],
            [
              -87.52658699988179,
              41.166090000007614
            ],
            [
              -87.44679199959297,
              41.174353000005325
            ],
            [
              -87.39365699998196,
              41.1628300003356
            ],
            [
              -87.33096400030807,
              41.18314299999811
            ],
            [
              -87.28561100000216,
              41.21526400012517
            ],
            [
              -87.22632399955894,
              41.23551299993933
            ],
            [
              -87.19252099998371,
              41.2652130001015
            ],
            [
              -87.13124500014405,
              41.28626100032032
            ],
            [
              -87.05972400015327,
              41.2695200002876
            ],
            [
              -86.9770170003782,
              41.22154899998729
            ],
            [
              -86.93769100033272,
              41.23020900028222
            ],
            [
              -86.92956000014982,
              41.249079000234545
            ],
            [
              -86.92977400041006,
              41.519018999984375
            ],
            [
              -86.72625599975667,
              41.51747299995836
            ],
            [
              -86.72551299959193,
              41.546930000286345
            ],
            [
              -86.70081799981776,
              41.5468570000886
            ],
            [
              -86.69947100030373,
              41.60091600019597
            ],
            [
              -86.71441899986914,
              41.605495999798954
            ],
            [
              -86.71478600029026,
              41.614557000104675
            ],
            [
              -86.6990260000648,
              41.621158000042726
            ],
            [
              -86.69968100036601,
              41.759790999719286
            ],
            [
              -87.52366100015183,
              41.75990699999969
            ],
            [
              -87.5267359998447,
              41.31100199978212
            ],
            [
              -87.5267569997611,
              41.308325000256744
            ]
          ]
        ]
      }
    },
    {
      "type": "Feature",
      "id": "us-cd:119:18:02",
      "properties": {
        "boundary_id": "us-cd:119:18:02",
        "boundary_type": "congressional_district",
        "name": "2",
        "stateFips": "18",
        "congress": 119,
        "district": "02",
        "bbox": [
          -86.93100499957313,
          40.56133099966442,
          -85.6385870000408,
          41.759790999719286
        ]
      },
      "geometry": {
        "type": "Polygon",
        "coordinates": [
          [
            [
              -86.93100499957313,
              40.95793900016428
            ],
            [
              -86.93075900042415,
              40.91241800018653
            ],
            [
              -86.46823300041203,
              40.90988400025606
            ],
            [
              -86.46798800018964,
              40.82260099993336
            ],
            [
              -86.36457500020227,
              40.82287199983833
            ],
            [
              -86.35457199990047,
              40.81550799975249
            ],
            [
              -86.35414900030118,
              40.7610920002758
            ],
            [
              -86.30943700005278,
              40.769587000231155
            ],
            [
              -86.29993400024149,
              40.76449099995514
            ],
            [
              -86.29996000018076,
              40.74912500017083
            ],
            [
              -86.2788699998289,
              40.75476999985818
            ],
            [
              -86.27854900033685,
              40.66389800008376
            ],
            [
              -86.33543999988122,
              40.649094000295
            ],
            [
              -86.33583700043957,
              40.633982999976766
            ],
            [
              -86.35015099962015,
              40.63377399985815
            ],
            [
              -86.35032899989541,
              40.626527999791584
            ],
            [
              -86.3360299998851,
              40.626733000016436
            ],
            [
              -86.33681300023284,
              40.58316699999933
            ],
            [
              -86.34636999957245,
              40.58311099993744
            ],
            [
              -86.34673199997071,
              40.56133099966442
            ],
            [
              -85.86364100021157,
              40.56552499970763
            ],
            [
              -85.8647910000821,
              40.651693000064
            ],
            [
              -85.6385870000408,
              40.65312900007763
            ],
            [
              -85.64384099999924,
              41.00230500022756
            ],
            [
              -85.68319800000685,
              41.00190900007093
            ],
            [
              -85.6865739999986,
              41.17837600030722
            ],
            [
              -85.76519699977729,
              41.177455999878916
            ],
            [
              -85.77252200004621,
              41.19199399979455
            ],
            [
              -85.76534599974019,
              41.20713299983901
            ],
            [
              -85.76870800038655,
              41.43574500015562
            ],
            [
              -85.65350700001713,
              41.436855999928824
            ],
            [
              -85.6597500001876,
              41.759067999998166
            ],
            [
              -86.69968100036601,
              41.759790999719286
            ],
            [
              -86.6990260000648,
              41.621158000042726
            ],
            [
              -86.71478600029026,
              41.614557000104675
            ],
            [
              -86.71441899986914,
              41.605495999798954
            ],
            [
              -86.69947100030373,
              41.60091600019597
            ],
            [
              -86.70081799981776,
              41.5468570000886
            ],
            [
              -86.72551299959193,
              41.546930000286345
            ],
            [
              -86.72625599975667,
              41.51747299995836
            ],
            [
              -86.92977400041006,
              41.519018999984375
            ],
            [
              -86.93100100027348,
              40.95839499981201
            ],
            [
              -86.93100499957313,
              40.95793900016428
            ]
          ]
        ]
      }
    },
    {
      "type": "Feature",
      "id": "us-cd:119:18:03",
      "properties": {
        "boundary_id": "us-cd:119:18:03",
        "boundary_type": "congressional_district",
        "name": "3",
        "stateFips": "18",
        "congress": 119,
        "district": "03",
        "bbox": [
          -85.77253700011484,
          40.15006899985355,
          -84.80588500024328,
          41.760171000018
        ]
      },
      "geometry": {
        "type": "Polygon",
        "coordinates": [
          [
            [
              -85.77253700011484,
              41.194354000030664
            ],
            [
              -85.76519699977729,
              41.177455999878916
            ],
            [
              -85.6865739999986,
              41.17837600030722
            ],
            [
              -85.68319800000685,
              41.00190900007093
            ],
            [
              -85.64384099999924,
              41.00230500022756
            ],
            [
              -85.6385870000408,
              40.65312900007763
            ],
            [
              -85.44882500014782,
              40.65360699994477
            ],
            [
              -85.44432299967666,
              40.378745999662755
            ],
            [
              -85.22002699973926,
              40.379182000152376
            ],
            [
              -85.21639100035483,
              40.178550000185254
            ],
            [
              -85.111018000385,
              40.1785909997775
            ],
            [
              -85.10615299969069,
              40.17124100013898
            ],
            [
              -85.00662100020845,
              40.177564999772336
            ],
            [
              -84.98763499977908,
              40.16445099983459
            ],
            [
              -84.99126500021403,
              40.15007900000029
            ],
            [
              -84.9846399995538,
              40.15006899985355
            ],
            [
              -84.95299500032775,
              40.15025500000739
            ],
            [
              -84.96207899983936,
              40.16831100000168
            ],
            [
              -84.95240799979861,
              40.17209400004418
            ],
            [
              -84.80650000036152,
              40.18016699994261
            ],
            [
              -84.80588500024328,
              41.760171000018
            ],
            [
              -85.6597500001876,
              41.759067999998166
            ],
            [
              -85.65350700001713,
              41.436855999928824
            ],
            [
              -85.76870800038655,
              41.43574500015562
            ],
            [
              -85.77050299961424,
              41.19556500017606
            ],
            [
              -85.77253700011484,
              41.194354000030664
            ]
          ]
        ]
      }
    },
    {
      "type": "Feature",
      "id": "us-cd:119:18:04",
      "properties": {
        "boundary_id": "us-cd:119:18:04",
        "boundary_type": "congressional_district",
        "name": "4",
        "stateFips": "18",
        "congress": 119,
        "district": "04",
        "bbox": [
          -87.53144900020307,
          39.340754999862604,
          -86.23647999996119,
          41.28626100032032
        ]
      },
      "geometry": {
        "type": "Polygon",
        "coordinates": [
          [
            [
              -87.53144900020307,
              40.148140000042524
            ],
            [
              -87.49045500025319,
              40.14842200008923
            ],
            [
              -87.49041000004733,
              40.12740599983681
            ],
            [
              -87.40666700020455,
              40.12750799971192
            ],
            [
              -87.40444699993112,
              40.13935499986269
            ],
            [
              -87.42398200035649,
              40.16378799968137
            ],
            [
              -87.40884899994485,
              40.16398799969
            ],
            [
              -87.38613699971934,
              40.18581100015596
            ],
            [
              -87.33899300038371,
              40.193670000317944
            ],
            [
              -87.33889100027646,
              40.18641500024974
            ],
            [
              -87.31010599975978,
              40.186076999819186
            ],
            [
              -87.31005200023144,
              40.178804000139756
            ],
            [
              -87.30053000015359,
              40.18605599993791
            ],
            [
              -87.20509199981518,
              40.18571799977735
            ],
            [
              -87.20480599958492,
              40.12245200008786
            ],
            [
              -87.22390400016728,
              40.11209399991108
            ],
            [
              -87.22400600027454,
              40.09226299990774
            ],
            [
              -87.21099400040211,
              40.08979899995243
            ],
            [
              -87.20544099979463,
              40.05379399997373
            ],
            [
              -87.15809800026737,
              40.0539620000329
            ],
            [
              -87.15815299962064,
              40.03945099980076
            ],
            [
              -87.09148800010335,
              40.039011000301855
            ],
            [
              -87.0915419996317,
              39.867264999890814
            ],
            [
              -87.00947699973906,
              39.8667049997253
            ],
            [
              -87.01453300022908,
              39.473572000310966
            ],
            [
              -86.63220599983849,
              39.47021400004588
            ],
            [
              -86.63084400025583,
              39.340754999862604
            ],
            [
              -86.25168399961964,
              39.34167200022934
            ],
            [
              -86.24988500019401,
              39.63364500003729
            ],
            [
              -86.32634100030099,
              39.63217699992727
            ],
            [
              -86.32812100035835,
              39.86612500027559
            ],
            [
              -86.32628900042245,
              39.92404200026834
            ],
            [
              -86.24073600038504,
              39.92606200024516
            ],
            [
              -86.24281199982013,
              40.40291399995575
            ],
            [
              -86.23647999996119,
              40.416999999963146
            ],
            [
              -86.27136299998507,
              40.41657200010989
            ],
            [
              -86.27130899955839,
              40.43182200019148
            ],
            [
              -86.37576199981146,
              40.43185099989545
            ],
            [
              -86.37441699994726,
              40.56136099989099
            ],
            [
              -86.34673199997071,
              40.56133099966442
            ],
            [
              -86.34636999957245,
              40.58311099993744
            ],
            [
              -86.33681300023284,
              40.58316699999933
            ],
            [
              -86.3360299998851,
              40.626733000016436
            ],
            [
              -86.35032899989541,
              40.626527999791584
            ],
            [
              -86.35015099962015,
              40.63377399985815
            ],
            [
              -86.33583700043957,
              40.633982999976766
            ],
            [
              -86.33543999988122,
              40.649094000295
            ],
            [
              -86.27854900033685,
              40.66389800008376
            ],
            [
              -86.2788699998289,
              40.75476999985818
            ],
            [
              -86.29996000018076,
              40.74912500017083
            ],
            [
              -86.29993400024149,
              40.76449099995514
            ],
            [
              -86.30943700005278,
              40.769587000231155
            ],
            [
              -86.35414900030118,
              40.7610920002758
            ],
            [
              -86.35457199990047,
              40.81550799975249
            ],
            [
              -86.36457500020227,
              40.82287199983833
            ],
            [
              -86.46798800018964,
              40.82260099993336
            ],
            [
              -86.46823300041203,
              40.90988400025606
            ],
            [
              -86.93075900042415,
              40.91241800018653
            ],
            [
              -86.93007900000859,
              41.23679800016219
            ],
            [
              -86.9770170003782,
              41.22154899998729
            ],
            [
              -87.05972400015327,
              41.2695200002876
            ],
            [
              -87.13124500014405,
              41.28626100032032
            ],
            [
              -87.19252099998371,
              41.2652130001015
            ],
            [
              -87.22632399955894,
              41.23551299993933
            ],
            [
              -87.28561100000216,
              41.21526400012517
            ],
            [
              -87.33096400030807,
              41.18314299999811
            ],
            [
              -87.39365699998196,
              41.1628300003356
            ],
            [
              -87.44679199959297,
              41.174353000005325
            ],
            [
              -87.52658699988179,
              41.166090000007614
            ],
            [
              -87.53144400018019,
              40.14832999973518
            ],
            [
              -87.53144900020307,
              40.148140000042524
            ]
          ]
        ]
      }
    },
    {
      "type": "Feature",
      "id": "us-cd:119:18:05",
      "properties": {
        "boundary_id": "us-cd:119:18:05",
        "boundary_type": "congressional_district",
        "name": "5",
        "stateFips": "18",
        "congress": 119,
        "district": "05",
        "bbox": [
          -86.37576199981146,
          39.92606200024516,
          -85.21438600016656,
          40.65360699994477
        ]
      },
      "geometry": {
        "type": "Polygon",
        "coordinates": [
          [
            [
              -86.37564899983354,
              40.43913400011789
            ],
            [
              -86.37576199981146,
              40.43185099989545
            ],
            [
              -86.27130899955839,
              40.43182200019148
            ],
            [
              -86.27136299998507,
              40.41657200010989
            ],
            [
              -86.23649400020489,
              40.41709399974521
            ],
            [
              -86.24281199982013,
              40.40291399995575
            ],
            [
              -86.24073600038504,
              39.92606200024516
            ],
            [
              -85.86239500008158,
              39.92894299975016
            ],
            [
              -85.8624889997929,
              39.94361799997578
            ],
            [
              -85.57619200029275,
              39.94575599994151
            ],
            [
              -85.57619700031562,
              40.07714299976461
            ],
            [
              -85.21438600016656,
              40.07688899976305
            ],
            [
              -85.21990100024088,
              40.379034000195794
            ],
            [
              -85.44432299967666,
              40.378745999662755
            ],
            [
              -85.44882500014782,
              40.65360699994477
            ],
            [
              -85.8647910000821,
              40.651693000064
            ],
            [
              -85.86364100021157,
              40.56552499970763
            ],
            [
              -86.37441699994726,
              40.56136099989099
            ],
            [
              -86.37564999965845,
              40.43918400003295
            ],
            [
              -86.37564899983354,
              40.43913400011789
            ]
          ]
        ]
      }
    },
    {
      "type": "Feature",
      "id": "us-cd:119:18:06",
      "properties": {
        "boundary_id": "us-cd:119:18:06",
        "boundary_type": "congressional_district",
        "name": "6",
        "stateFips": "18",
        "congress": 119,
        "district": "06",
        "bbox": [
          -86.32660800026468,
          39.12745300025247,
          -84.80650000036152,
          40.18016699994261
        ]
      },
      "geometry": {
        "type": "Polygon",
        "coordinates": [
          [
            [
              -86.32660800026468,
              39.68562599981719
            ],
            [
              -86.32634100030099,
              39.63217699992727
            ],
            [
              -86.24988500019401,
              39.63364500003729
            ],
            [
              -86.25168399961964,
              39.34167200022934
            ],
            [
              -86.0856010004229,
              39.34418900006542
            ],
            [
              -86.08029399986272,
              39.152542999814465
            ],
            [
              -85.88307000033176,
              39.157544999718034
            ],
            [
              -85.88341299956511,
              39.14299600006315
            ],
            [
              -85.83136699972523,
              39.14381099996464
            ],
            [
              -85.83180500029148,
              39.13281400014145
            ],
            [
              -85.79971199955511,
              39.12745300025247
            ],
            [
              -85.68678300023599,
              39.130859000039734
            ],
            [
              -85.68451500028198,
              39.35004900006397
            ],
            [
              -85.63062999993518,
              39.350204999999896
            ],
            [
              -85.62932699990378,
              39.45275000022885
            ],
            [
              -85.29757499999046,
              39.45327500015239
            ],
            [
              -85.29860900040835,
              39.52547300018166
            ],
            [
              -84.81535299989447,
              39.52194999998961
            ],
            [
              -84.80650000036152,
              40.18016699994261
            ],
            [
              -84.95240799979861,
              40.17209400004418
            ],
            [
              -84.96207899983936,
              40.16831100000168
            ],
            [
              -84.95299500032775,
              40.15025500000739
            ],
            [
              -84.9846399995538,
              40.15006899985355
            ],
            [
              -84.99126500021403,
              40.15007900000029
            ],
            [
              -84.98763499977908,
              40.16445099983459
            ],
            [
              -85.00662100020845,
              40.177564999772336
            ],
            [
              -85.10615299969069,
              40.17124100013898
            ],
            [
              -85.111018000385,
              40.1785909997775
            ],
            [
              -85.21639100035483,
              40.178550000185254
            ],
            [
              -85.2143979998621,
              40.0768839998049
            ],
            [
              -85.57619700031562,
              40.07714299976461
            ],
            [
              -85.57619200029275,
              39.94575599994151
            ],
            [
              -85.8624889997929,
              39.94361799997578
            ],
            [
              -85.86239500008158,
              39.92894299975016
            ],
            [
              -85.9381289999402,
              39.92697600010868
            ],
            [
              -85.93806700001593,
              39.86981200019515
            ],
            [
              -85.95401300001421,
              39.86964600016451
            ],
            [
              -85.95169900002945,
              39.72641900005001
            ],
            [
              -86.08980000004705,
              39.723538999746715
            ],
            [
              -86.10042500013977,
              39.71583800018805
            ],
            [
              -86.11120400021827,
              39.71594699988006
            ],
            [
              -86.11126500031763,
              39.723280999996625
            ],
            [
              -86.32658800017319,
              39.71983800005432
            ],
            [
              -86.32660499989163,
              39.685893000159325
            ],
            [
              -86.32660800026468,
              39.68562599981719
            ]
          ]
        ]
      }
    },
    {
      "type": "Feature",
      "id": "us-cd:119:18:07",
      "properties": {
        "boundary_id": "us-cd:119:18:07",
        "boundary_type": "congressional_district",
        "name": "7",
        "stateFips": "18",
        "congress": 119,
        "district": "07",
        "bbox": [
          -86.32812100035835,
          39.71583800018805,
          -85.9375869996169,
          39.927136999876545
        ]
      },
      "geometry": {
        "type": "Polygon",
        "coordinates": [
          [
            [
              -86.32812100035835,
              39.86612500027559
            ],
            [
              -86.32658800017319,
              39.71983800005432
            ],
            [
              -86.11126500031763,
              39.723280999996625
            ],
            [
              -86.11120400021827,
              39.71594699988006
            ],
            [
              -86.10042500013977,
              39.71583800018805
            ],
            [
              -86.08980000004705,
              39.723538999746715
            ],
            [
              -85.95169900002945,
              39.72641900005001
            ],
            [
              -85.95401300001421,
              39.86964600016451
            ],
            [
              -85.93806700001593,
              39.86981200019515
            ],
            [
              -85.9375869996169,
              39.927136999876545
            ],
            [
              -86.32628900042245,
              39.92404200026834
            ],
            [
              -86.32692499955876,
              39.86614100004562
            ],
            [
              -86.32812100035835,
              39.86612500027559
            ]
          ]
        ]
      }
    },
    {
      "type": "Feature",
      "id": "us-cd:119:18:08",
      "properties": {
        "boundary_id": "us-cd:119:18:08",
        "boundary_type": "congressional_district",
        "name": "8",
        "stateFips": "18",
        "congress": 119,
        "district": "08",
        "bbox": [
          -88.09775999974823,
          37.77177699992384,
          -86.24552800038612,
          40.193670000317944
        ]
      },
      "geometry": {
        "type": "Polygon",
        "coordinates": [
          [
            [
              -88.09775999974823,
              37.904026000271976
            ],
            [
              -88.06503599989843,
              37.8531720001088
            ],
            [
              -88.02605299998463,
              37.83368800013356
            ],
            [
              -88.04383099991884,
              37.82152499990767
            ],
            [
              -88.08572700004216,
              37.82938800016961
            ],
            [
              -88.09123500044377,
              37.81915100008068
            ],
            [
              -88.0770290003199,
              37.80499299995246
            ],
            [
              -88.03545600023679,
              37.80952000010449
            ],
            [
              -88.02801999963975,
              37.79919700018252
            ],
            [
              -88.00133999976879,
              37.79890700001089
            ],
            [
              -87.95092900022138,
              37.77177699992384
            ],
            [
              -87.93412899973023,
              37.79641399969101
            ],
            [
              -87.90441000015142,
              37.81250999999923
            ],
            [
              -87.90996700005853,
              37.84302799970372
            ],
            [
              -87.936879999558,
              37.86871599992794
            ],
            [
              -87.94074199979657,
              37.884500000049144
            ],
            [
              -87.89689200043694,
              37.92785900022893
            ],
            [
              -87.87502499958512,
              37.92286399978903
            ],
            [
              -87.82977299956156,
              37.87642499990733
            ],
            [
              -87.79142900005542,
              37.87566099996858
            ],
            [
              -87.75923900013301,
              37.89166199993493
            ],
            [
              -87.67501099986832,
              37.901642999724324
            ],
            [
              -87.66403299959818,
              37.88747700013396
            ],
            [
              -87.6816840002091,
              37.85627300008691
            ],
            [
              -87.6737630000885,
              37.82962299971603
            ],
            [
              -87.6138789999687,
              37.832674000079315
            ],
            [
              -87.58373699989225,
              37.87808000020267
            ],
            [
              -87.62036599963834,
              37.90736499977721
            ],
            [
              -87.62711799962185,
              37.92570600011652
            ],
            [
              -87.60581300008313,
              37.949610999963504
            ],
            [
              -87.60139099997792,
              37.971306000304295
            ],
            [
              -87.58740800033512,
              37.975276000078395
            ],
            [
              -87.56089599979533,
              37.93211300029041
            ],
            [
              -87.51056700026366,
              37.90608100020116
            ],
            [
              -87.44913099969212,
              37.94185400030471
            ],
            [
              -87.38617899955213,
              37.93780399989231
            ],
            [
              -87.22026000038693,
              37.84897099976983
            ],
            [
              -87.1617040004129,
              37.8397639998726
            ],
            [
              -87.13006799961103,
              37.78677899978493
            ],
            [
              -87.11072999972745,
              37.782418000213276
            ],
            [
              -87.06541400012979,
              37.80761399972546
            ],
            [
              -87.04324000002963,
              37.86836799986866
            ],
            [
              -87.0458779998795,
              37.8926459997719
            ],
            [
              -87.03416599966543,
              37.90626499984644
            ],
            [
              -86.97617999960381,
              37.93111200017789
            ],
            [
              -86.9189219996383,
              37.93683699984885
            ],
            [
              -86.86091399983535,
              37.98436799972383
            ],
            [
              -86.8196889999068,
              37.999422000162
            ],
            [
              -86.79496499982032,
              37.98921299998626
            ],
            [
              -86.77783899981426,
              37.951687999727156
            ],
            [
              -86.73254499995791,
              37.894767999855034
            ],
            [
              -86.71743599983569,
              37.8935039999922
            ],
            [
              -86.68078799982305,
              37.91503500016901
            ],
            [
              -86.64785300008604,
              37.909387000347394
            ],
            [
              -86.64425699998627,
              37.89651700015946
            ],
            [
              -86.66224099978481,
              37.852849999818126
            ],
            [
              -86.65523299970826,
              37.8424809997792
            ],
            [
              -86.63827900012966,
              37.84269000004641
            ],
            [
              -86.59819400002588,
              37.86716300020434
            ],
            [
              -86.60012600041924,
              37.90517099973628
            ],
            [
              -86.58868700001665,
              37.92108999973255
            ],
            [
              -86.53383599992235,
              37.91715099993982
            ],
            [
              -86.5073409999993,
              37.929504999756155
            ],
            [
              -86.52493700035865,
              37.96649499998569
            ],
            [
              -86.52171199997963,
              38.03961699968066
            ],
            [
              -86.45390300043958,
              38.05008099981033
            ],
            [
              -86.43057500027092,
              38.075282999959974
            ],
            [
              -86.43401099963883,
              38.08641300016426
            ],
            [
              -86.46281600024697,
              38.09943099972186
            ],
            [
              -86.4638599998123,
              38.11825500031426
            ],
            [
              -86.43273799974463,
              38.126428999798385
            ],
            [
              -86.40187900034104,
              38.10432899966988
            ],
            [
              -86.38061300026206,
              38.129078000312376
            ],
            [
              -86.33209900004955,
              38.12992900005728
            ],
            [
              -86.32289199961599,
              38.15118999968415
            ],
            [
              -86.37233099956812,
              38.16460599966276
            ],
            [
              -86.37601299988162,
              38.19066300013297
            ],
            [
              -86.35715000037419,
              38.19872600013217
            ],
            [
              -86.31278600028034,
              38.17812600032356
            ],
            [
              -86.31819599987438,
              38.18810400032964
            ],
            [
              -86.30764100010187,
              38.20163599997508
            ],
            [
              -86.28972099987743,
              38.20202700020659
            ],
            [
              -86.297794000334,
              38.22146799997149
            ],
            [
              -86.27695599987722,
              38.22712599980801
            ],
            [
              -86.28052100001486,
              38.284587000215744
            ],
            [
              -86.26930099989536,
              38.278452999925165
            ],
            [
              -86.25275300019764,
              38.29382800028559
            ],
            [
              -86.26471700030677,
              38.29491100030284
            ],
            [
              -86.26436599977919,
              38.30835100026617
            ],
            [
              -86.2777009996918,
              38.30136299979717
            ],
            [
              -86.2896689999989,
              38.31609099976389
            ],
            [
              -86.28739099999912,
              38.329474000137914
            ],
            [
              -86.27347399958025,
              38.32110499989731
            ],
            [
              -86.27147199976501,
              38.342036000317634
            ],
            [
              -86.28179800010699,
              38.349080999660636
            ],
            [
              -86.27075700008767,
              38.36127699983321
            ],
            [
              -86.24715799975735,
              38.34946000033413
            ],
            [
              -86.26115899984183,
              38.380970000327984
            ],
            [
              -86.25897600027663,
              38.38937499966903
            ],
            [
              -86.24552800038612,
              38.387987000102235
            ],
            [
              -86.26175399986859,
              38.3951759997382
            ],
            [
              -86.25064000005432,
              38.39711799989174
            ],
            [
              -86.26481600004098,
              38.41087000014439
            ],
            [
              -86.2550450004411,
              38.42268499990366
            ],
            [
              -86.30867399979653,
              38.42287499990524
            ],
            [
              -86.3087009995607,
              38.68810099970587
            ],
            [
              -86.68310199980782,
              38.686560999874025
            ],
            [
              -86.68560999996133,
              39.33604300034298
            ],
            [
              -86.65638000010405,
              39.33064599996961
            ],
            [
              -86.65155100029307,
              39.35559299979779
            ],
            [
              -86.63081800031658,
              39.34694800012223
            ],
            [
              -86.63220599983849,
              39.47021400004588
            ],
            [
              -87.01472700039783,
              39.4737799999562
            ],
            [
              -87.00947699973906,
              39.8667049997253
            ],
            [
              -87.0915419996317,
              39.867264999890814
            ],
            [
              -87.09148800010335,
              40.039011000301855
            ],
            [
              -87.15815299962064,
              40.03945099980076
            ],
            [
              -87.15809800026737,
              40.0539620000329
            ],
            [
              -87.20544099979463,
              40.05379399997373
            ],
            [
              -87.21099400040211,
              40.08979899995243
            ],
            [
              -87.22400600027454,
              40.09226299990774
            ],
            [
              -87.22390400016728,
              40.11209399991108
            ],
            [
              -87.20480599958492,
              40.12245200008786
            ],
            [
              -87.20509199981518,
              40.18571799977735
            ],
            [
              -87.30053000015359,
              40.18605599993791
            ],
            [
              -87.31005200023144,
              40.178804000139756
            ],
            [
              -87.31010599975978,
              40.186076999819186
            ],
            [
              -87.33889100027646,
              40.18641500024974
            ],
            [
              -87.33899300038371,
              40.193670000317944
            ],
            [
              -87.38613699971934,
              40.18581100015596
            ],
            [
              -87.40884899994485,
              40.16398799969
            ],
            [
              -87.42398200035649,
              40.16378799968137
            ],
            [
              -87.40444699993112,
              40.13935499986269
            ],
            [
              -87.40666700020455,
              40.12750799971192
            ],
            [
              -87.49041000004733,
              40.12740599983681
            ],
            [
              -87.49045500025319,
              40.14842200008923
            ],
            [
              -87.53144900020307,
              40.14812700030431
            ],
            [
              -87.53164599984655,
              39.34788799987565
            ],
            [
              -87.54401300036183,
              39.35290699975578
            ],
            [
              -87.55439999990486,
              39.3404880002099
            ],
            [
              -87.57833099959788,
              39.340343000124676
            ],
            [
              -87.62058900011942,
              39.307045999674
            ],
            [
              -87.59794600038919,
              39.299479000257115
            ],
            [
              -87.6100500002404,
              39.2822320000375
            ],
            [
              -87.59468400020026,
              39.24874199980897
            ],
            [
              -87.57158600018538,
              39.25228699981886
            ],
            [
              -87.57931899998502,
              39.243551999719315
            ],
            [
              -87.57455799994608,
              39.21840400003871
            ],
            [
              -87.58861400028213,
              39.19782400023929
            ],
            [
              -87.62039999997353,
              39.18519500030872
            ],
            [
              -87.61961800034902,
              39.17097500007333
            ],
            [
              -87.64043400016618,
              39.1667270000757
            ],
            [
              -87.62771299964858,
              39.15490599984317
            ],
            [
              -87.6421749998655,
              39.15709699973404
            ],
            [
              -87.65874500020288,
              39.135996999811226
            ],
            [
              -87.63501899965097,
              39.12212400025677
            ],
            [
              -87.65208299973274,
              39.115542999684074
            ],
            [
              -87.65279599976027,
              39.10683900017025
            ],
            [
              -87.61568400014045,
              39.10331599966987
            ],
            [
              -87.62025799968329,
              39.0865720002938
            ],
            [
              -87.59637300002105,
              39.0796389998218
            ],
            [
              -87.57258799991789,
              39.057286000171565
            ],
            [
              -87.58037299959608,
              39.04070699976897
            ],
            [
              -87.56969599962481,
              39.01941300026767
            ],
            [
              -87.57911700031865,
              39.00160700030981
            ],
            [
              -87.56042700016525,
              38.99242499998493
            ],
            [
              -87.57831899990231,
              38.988786000209565
            ],
            [
              -87.52949599989331,
              38.97192499994399
            ],
            [
              -87.51218699958916,
              38.95441699994642
            ],
            [
              -87.52176499974351,
              38.94111700001496
            ],
            [
              -87.51882599959475,
              38.923204999765865
            ],
            [
              -87.52771500001103,
              38.91923200004383
            ],
            [
              -87.52764499969082,
              38.90768800010328
            ],
            [
              -87.51683100035052,
              38.90369700019966
            ],
            [
              -87.53369500041576,
              38.90095700022903
            ],
            [
              -87.53595499997385,
              38.88699300005314
            ],
            [
              -87.54408899963148,
              38.89509299987245
            ],
            [
              -87.53491899990614,
              38.87887399996166
            ],
            [
              -87.55339399997436,
              38.86240999967548
            ],
            [
              -87.52672900017203,
              38.85036199992974
            ],
            [
              -87.52734199974212,
              38.81812099979532
            ],
            [
              -87.49550900019507,
              38.784625999801925
            ],
            [
              -87.51486100032234,
              38.77050300006303
            ],
            [
              -87.49690599993781,
              38.766817999976354
            ],
            [
              -87.50404600025882,
              38.74850700001072
            ],
            [
              -87.49579899972498,
              38.740698999727684
            ],
            [
              -87.53123099974486,
              38.684036000032265
            ],
            [
              -87.59367800026976,
              38.667402000154084
            ],
            [
              -87.62011999959104,
              38.63948900017422
            ],
            [
              -87.61558500040624,
              38.625047000214806
            ],
            [
              -87.62734799977561,
              38.60543999971078
            ],
            [
              -87.61195999999413,
              38.5892480000152
            ],
            [
              -87.6383929999929,
              38.59220000021367
            ],
            [
              -87.65070400043167,
              38.55623999979017
            ],
            [
              -87.67007099972923,
              38.54523700003278
            ],
            [
              -87.64671900016945,
              38.50776700029584
            ],
            [
              -87.65817799976523,
              38.501668999748304
            ],
            [
              -87.6718979996423,
              38.5076110000819
            ],
            [
              -87.6931880000107,
              38.48803799970124
            ],
            [
              -87.75002800039977,
              38.471426999726155
            ],
            [
              -87.7559309999133,
              38.45587599968452
            ],
            [
              -87.73013399994919,
              38.44651800024578
            ],
            [
              -87.7410400002493,
              38.43557600014604
            ],
            [
              -87.74525399994205,
              38.408996000330085
            ],
            [
              -87.77999600039892,
              38.370842000136776
            ],
            [
              -87.80607500039537,
              38.363143000164996
            ],
            [
              -87.8227210000024,
              38.3469120001666
            ],
            [
              -87.8409840003585,
              38.28010499977197
            ],
            [
              -87.86177400023641,
              38.278637000332274
            ],
            [
              -87.86045299976334,
              38.305372000156225
            ],
            [
              -87.87053700025598,
              38.31221999982447
            ],
            [
              -87.91012000021941,
              38.26810799986917
            ],
            [
              -87.91946999986982,
              38.27454699972042
            ],
            [
              -87.9095360000633,
              38.29606100008213
            ],
            [
              -87.9348440003059,
              38.2951450001888
            ],
            [
              -87.95212500012266,
              38.27376300022571
            ],
            [
              -87.94302999984207,
              38.25778999980438
            ],
            [
              -87.95761000005976,
              38.250046000005725
            ],
            [
              -87.96022500034341,
              38.23711800028617
            ],
            [
              -87.98761800024191,
              38.257380999994645
            ],
            [
              -87.97980799955106,
              38.202654000287254
            ],
            [
              -87.9371619995903,
              38.172189000345995
            ],
            [
              -87.93429899960954,
              38.156459000129004
            ],
            [
              -87.92172000028049,
              38.17380999993012
            ],
            [
              -87.91103400008839,
              38.16219400030104
            ],
            [
              -87.94547199987335,
              38.12661600016865
            ],
            [
              -87.96639300017081,
              38.13250600024418
            ],
            [
              -87.97605800036379,
              38.109562000302375
            ],
            [
              -88.01511400007254,
              38.10141099997066
            ],
            [
              -88.00671699975088,
              38.0839239997012
            ],
            [
              -87.96023000036628,
              38.09989300029012
            ],
            [
              -87.95666400040373,
              38.0862020000116
            ],
            [
              -87.96722599984895,
              38.06710500033299
            ],
            [
              -88.04213200005232,
              38.046344999739674
            ],
            [
              -88.03413200028898,
              38.032044999998064
            ],
            [
              -88.00793100009382,
              38.0308449999835
            ],
            [
              -88.02583100022677,
              38.0072449996756
            ],
            [
              -88.01292899995921,
              37.96654399999248
            ],
            [
              -88.03679299970509,
              37.956792999681376
            ],
            [
              -88.03406500034183,
              37.92615900016623
            ],
            [
              -88.05712700037171,
              37.9341509997822
            ],
            [
              -88.0694680000494,
              37.9257039997425
            ],
            [
              -88.02082400014056,
              37.91375799975739
            ],
            [
              -88.01515500008044,
              37.890792000082655
            ],
            [
              -88.0553730002536,
              37.8912380003541
            ],
            [
              -88.09566199967355,
              37.905808000180144
            ],
            [
              -88.09775999974823,
              37.904026000271976
            ]
          ]
        ]
      }
    },
    {
      "type": "Feature",
      "id": "us-cd:119:18:09",
      "properties": {
        "boundary_id": "us-cd:119:18:09",
        "boundary_type": "congressional_district",
        "name": "9",
        "stateFips": "18",
        "congress": 119,
        "district": "09",
        "bbox": [
          -86.68568799977913,
          37.9587110000743,
          -84.78490200002153,
          39.52547300018166
        ]
      },
      "geometry": {
        "type": "Polygon",
        "coordinates": [
          [
            [
              -86.68565799964193,
              39.32121800024994
            ],
            [
              -86.68310199980782,
              38.686560999874025
            ],
            [
              -86.3087009995607,
              38.68810099970587
            ],
            [
              -86.30867399979653,
              38.42287499990524
            ],
            [
              -86.2550450004411,
              38.42268499990366
            ],
            [
              -86.26481600004098,
              38.41087000014439
            ],
            [
              -86.25171600030501,
              38.40613200001366
            ],
            [
              -86.25141699965594,
              38.39564200030026
            ],
            [
              -86.26126099994909,
              38.394418999664296
            ],
            [
              -86.24552800038612,
              38.387987000102235
            ],
            [
              -86.25897600027663,
              38.38937499966903
            ],
            [
              -86.26115899984183,
              38.380970000327984
            ],
            [
              -86.24703499973371,
              38.34976400017138
            ],
            [
              -86.26555199963471,
              38.36217200021891
            ],
            [
              -86.2817420000305,
              38.34975300022042
            ],
            [
              -86.27147199976501,
              38.342036000317634
            ],
            [
              -86.2733010002262,
              38.32169000014997
            ],
            [
              -86.28531399984082,
              38.331986999883256
            ],
            [
              -86.2896689999989,
              38.31609099976389
            ],
            [
              -86.27580400035686,
              38.300414999759866
            ],
            [
              -86.2593479998223,
              38.3061399999499
            ],
            [
              -86.26487299994238,
              38.29516800017603
            ],
            [
              -86.25313700033719,
              38.29189999997568
            ],
            [
              -86.26930099989536,
              38.278452999925165
            ],
            [
              -86.28052100001486,
              38.284587000215744
            ],
            [
              -86.27695599987722,
              38.22712599980801
            ],
            [
              -86.29811900002402,
              38.220921000035986
            ],
            [
              -86.28972099987743,
              38.20202700020659
            ],
            [
              -86.30764100010187,
              38.20163599997508
            ],
            [
              -86.31819599987438,
              38.18810400032964
            ],
            [
              -86.31278600028034,
              38.17812600032356
            ],
            [
              -86.32960000011687,
              38.18180500017761
            ],
            [
              -86.29140200020062,
              38.16150100018317
            ],
            [
              -86.27180099965298,
              38.138871999900545
            ],
            [
              -86.27855400035972,
              38.08641799969473
            ],
            [
              -86.26780500041845,
              38.057148000352726
            ],
            [
              -86.17817800043036,
              38.01056099990014
            ],
            [
              -86.12532900015131,
              38.01624000004613
            ],
            [
              -86.09460200009384,
              38.008809000142975
            ],
            [
              -86.04610899979775,
              37.9587110000743
            ],
            [
              -86.03505600008286,
              37.96290099981114
            ],
            [
              -86.02795699976971,
              37.993320000136166
            ],
            [
              -85.94650899964513,
              38.00522800029667
            ],
            [
              -85.92565400036823,
              38.021784000066916
            ],
            [
              -85.90505199991297,
              38.08995700027748
            ],
            [
              -85.90618000004221,
              38.16790599998216
            ],
            [
              -85.8826660001007,
              38.20084700018059
            ],
            [
              -85.84359899962298,
              38.232178999998965
            ],
            [
              -85.82906500033437,
              38.276554000335395
            ],
            [
              -85.78118799998141,
              38.28830699993467
            ],
            [
              -85.74347499958873,
              38.2672940002924
            ],
            [
              -85.6799619997572,
              38.29758499994396
            ],
            [
              -85.65226400026016,
              38.328791999955534
            ],
            [
              -85.63183300040747,
              38.39842700014198
            ],
            [
              -85.60695399961197,
              38.438574000324444
            ],
            [
              -85.58275299958223,
              38.451042999855446
            ],
            [
              -85.50570700036968,
              38.46471700027087
            ],
            [
              -85.46968899964557,
              38.508012000107456
            ],
            [
              -85.41953199964304,
              38.53533000009361
            ],
            [
              -85.41565299968605,
              38.56320900019152
            ],
            [
              -85.4380440004195,
              38.60454700002489
            ],
            [
              -85.4386290004005,
              38.65888999988254
            ],
            [
              -85.4567229998039,
              38.6863570003242
            ],
            [
              -85.45178400038806,
              38.71014999970969
            ],
            [
              -85.43594700016969,
              38.72870999968071
            ],
            [
              -85.4141439997903,
              38.73685900016432
            ],
            [
              -85.36361600006701,
              38.73045699991061
            ],
            [
              -85.27765899979856,
              38.74153800006779
            ],
            [
              -85.24727900007075,
              38.732337000171135
            ],
            [
              -85.20984199986259,
              38.69390500015381
            ],
            [
              -85.16411899966084,
              38.68998199983251
            ],
            [
              -84.99192399981487,
              38.77828400004059
            ],
            [
              -84.94111900008215,
              38.775687999651474
            ],
            [
              -84.88742100023143,
              38.79483100000277
            ],
            [
              -84.81467199965398,
              38.78450499994471
            ],
            [
              -84.82985600011928,
              38.83076600003453
            ],
            [
              -84.78490200002153,
              38.873311999651385
            ],
            [
              -84.80188400008755,
              38.8918759996797
            ],
            [
              -84.86416000000992,
              38.89815200028542
            ],
            [
              -84.87724700022541,
              38.90941300002321
            ],
            [
              -84.87691999998727,
              38.921668999730855
            ],
            [
              -84.83425200028522,
              38.958771000313554
            ],
            [
              -84.83004899956481,
              38.97256000034561
            ],
            [
              -84.897318000228,
              39.05508100006445
            ],
            [
              -84.82015499994128,
              39.10541900031541
            ],
            [
              -84.81535299989447,
              39.52194999998961
            ],
            [
              -85.29860900040835,
              39.52547300018166
            ],
            [
              -85.29757499999046,
              39.45327500015239
            ],
            [
              -85.62932699990378,
              39.45275000022885
            ],
            [
              -85.63062999993518,
              39.350204999999896
            ],
            [
              -85.68451500028198,
              39.35004900006397
            ],
            [
              -85.68678300023599,
              39.130859000039734
            ],
            [
              -85.79971199955511,
              39.12745300025247
            ],
            [
              -85.83180500029148,
              39.13281400014145
            ],
            [
              -85.83136699972523,
              39.14381099996464
            ],
            [
              -85.88341299956511,
              39.14299600006315
            ],
            [
              -85.88307000033176,
              39.157544999718034
            ],
            [
              -86.08029399986272,
              39.152542999814465
            ],
            [
              -86.0856010004229,
              39.34418900006542
            ],
            [
              -86.60718499965108,
              39.34013399974575
            ],
            [
              -86.63084400025583,
              39.340754999862604
            ],
            [
              -86.65047900024035,
              39.355701999832554
            ],
            [
              -86.658720999853,
              39.349520000057254
            ],
            [
              -86.65638000010405,
              39.33064599996961
            ],
            [
              -86.68560999996133,
              39.33604300034298
            ],
            [
              -86.68568799977913,
              39.322480000276116
            ],
            [
              -86.68565799964193,
              39.32121800024994
            ]
          ]
        ]
      }
    }
  ]
}
