{
  "type": "FeatureCollection",
  "features": [
    {
      "type": "Feature",
      "id": "us-county:66:010",
      "properties": {
        "boundary_id": "us-county:66:010",
        "boundary_type": "county",
        "name": "Guam",
        "stateFips": "66",
        "countyFips": "010",
        "bbox": [
          144.56342600043942,
          13.182451999953788,
          145.008209999604,
          13.70269399988731
        ]
      },
      "geometry": {
        "type": "Polygon",
        "coordinates": [
          [
            [
              144.56342600043942,
              13.448064999631448
            ],
            [
              144.57221299985014,
              13.413892999828407
            ],
            [
              144.59304000043628,
              13.392423000291702
            ],
            [
              144.57758800018237,
              13.344040000026556
            ],
            [
              144.58093200038704,
              13.319947000295466
            ],
            [
              144.60299400033423,
              13.295148999601315
            ],
            [
              144.60837499961593,
              13.270611999760865
            ],
            [
              144.59086899966832,
              13.239330000113787
            ],
            [
              144.5962139998633,
              13.207697999937952
            ],
            [
              144.63579500017696,
              13.182451999953788
            ],
            [
              144.74055800005138,
              13.195190999884353
            ],
            [
              144.77073699993778,
              13.215725999922165
            ],
            [
              144.81798699957858,
              13.280447999758154
            ],
            [
              144.8265939999626,
              13.381450000024683
            ],
            [
              144.97203799979243,
              13.499999999674731
            ],
            [
              145.008209999604,
              13.586237999787391
            ],
            [
              145.00310799998155,
              13.618142999979533
            ],
            [
              144.9815769995887,
              13.64120899960588
            ],
            [
              144.94051300021695,
              13.650572000090863
            ],
            [
              144.88915299974215,
              13.69822200043639
            ],
            [
              144.8384740004061,
              13.70269399988731
            ],
            [
              144.8119230004066,
              13.68442499957451
            ],
            [
              144.78959799979538,
              13.653311999936218
            ],
            [
              144.77742500034716,
              13.598619999778947
            ],
            [
              144.7499999997633,
              13.551892000202853
            ],
            [
              144.72546800019575,
              13.53173900026086
            ],
            [
              144.61115099955808,
              13.510243000425703
            ],
            [
              144.57668199981103,
              13.481059000340169
            ],
            [
              144.56357399967908,
              13.450987000366055
            ],
            [
              144.56342600043942,
              13.448064999631448
            ]
          ]
        ]
      }
    },
    {
      "type": "Feature",
      "id": "us-state:66",
      "properties": {
        "boundary_id": "us-state:66",
        "boundary_type": "state",
        "name": "Guam",
        "stateFips": "66",
        "bbox": [
          144.56342600043942,
          13.182451999953788,
          145.008209999604,
          13.70269399988731
        ]
      },
      "geometry": {
        "type": "Polygon",
        "coordinates": [
          [
            [
              144.56342600043942,
              13.448064999631448
            ],
            [
              144.57221299985014,
              13.413892999828407
            ],
            [
              144.59304000043628,
              13.392423000291702
            ],
            [
              144.57758800018237,
              13.344040000026556
            ],
            [
              144.58093200038704,
              13.319947000295466
            ],
            [
              144.60299400033423,
              13.295148999601315
            ],
            [
              144.60837499961593,
              13.270611999760865
            ],
            [
              144.59086899966832,
              13.239330000113787
            ],
            [
              144.5962139998633,
              13.207697999937952
            ],
            [
              144.63579500017696,
              13.182451999953788
            ],
            [
              144.74055800005138,
              13.195190999884353
            ],
            [
              144.77073699993778,
              13.215725999922165
            ],
            [
              144.81798699957858,
              13.280447999758154
            ],
            [
              144.8265939999626,
              13.381450000024683
            ],
            [
              144.97203799979243,
              13.499999999674731
            ],
            [
              145.008209999604,
              13.586237999787391
            ],
            [
              145.00310799998155,
              13.618142999979533
            ],
            [
              144.9815769995887,
              13.64120899960588
            ],
            [
              144.94051300021695,
              13.650572000090863
            ],
            [
              144.88915299974215,
              13.69822200043639
            ],
            [
              144.8384740004061,
              13.70269399988731
            ],
            [
              144.8119230004066,
              13.68442499957451
            ],
            [
              144.78959799979538,
              13.653311999936218
            ],
            [
              144.77742500034716,
              13.598619999778947
            ],
            [
              144.7499999997633,
              13.551892000202853
            ],
            [
              144.72546800019575,
              13.53173900026086
            ],
            [
              144.61115099955808,
              13.510243000425703
            ],
            [
              144.57668199981103,
              13.481059000340169
            ],
            [
              144.56357399967908,
              13.450987000366055
            ],
            [
              144.56342600043942,
              13.448064999631448
            ]
          ]
        ]
      }
    }
  ]
}
