{
  "type": "FeatureCollection",
  "features": [
    {
      "type": "Feature",
      "id": "us-cd:118:31:01",
      "properties": {
        "boundary_id": "us-cd:118:31:01",
        "boundary_type": "congressional_district",
        "name": "Congressional District 1",
        "stateFips": "31",
        "congress": 118,
        "district": "01",
        "bbox": [
          -97.834536,
          40.523013,
          -95.809775,
          42.089957
        ]
      },
      "geometry": {
        "type": "Polygon",
        "coordinates": [
          [
            [
              -97.834536,
              42.08975
            ],
            [
              -96.555511,
              42.089957
            ],
            [
              -96.555172,
              41.742018
            ],
            [
              -96.444217,
              41.741775
            ],
            [
              -96.443898,
              41.523933
            ],
            [
              -96.43446,
              41.523931
            ],
            [
              -96.434792,
              41.494928
            ],
            [
              -96.42522,
              41.494865
            ],
            [
              -96.425211,
              41.480342
            ],
            [
              -96.405936,
              41.48046
            ],
            [
              -96.405622,
              41.465821
            ],
            [
              -96.38642,
              41.465749
            ],
            [
              -96.386478,
              41.451253
            ],
            [
              -96.3672,
              41.450953
            ],
            [
              -96.367336,
              41.436698
            ],
            [
              -96.328923,
              41.436621
            ],
            [
              -96.329012,
              41.393136
            ],
            [
              -96.49593,
              41.394031
            ],
            [
              -96.569398,
              41.433304
            ],
            [
              -96.640327,
              41.436183
            ],
            [
              -96.693743,
              41.425738
            ],
            [
              -96.746472,
              41.449576
            ],
            [
              -96.815203,
              41.439585
            ],
            [
              -96.905862,
              41.453389
            ],
            [
              -96.908507,
              41.046091
            ],
            [
              -96.463869,
              41.045083
            ],
            [
              -96.463861,
              41.016069
            ],
            [
              -96.369507,
              41.014991
            ],
            [
              -96.34947,
              41.01532
            ],
            [
              -96.349079,
              41.044525
            ],
            [
              -96.319191,
              41.044998
            ],
            [
              -96.297296,
              41.026804
            ],
            [
              -96.247601,
              41.017776
            ],
            [
              -96.214425,
              40.994473
            ],
            [
              -96.144693,
              41.017598
            ],
            [
              -96.100192,
              41.053248
            ],
            [
              -96.056256,
              41.065356
            ],
            [
              -96.005191,
              41.060624
            ],
            [
              -96.004514,
              41.129042
            ],
            [
              -96.158014,
              41.132502
            ],
            [
              -96.158149,
              41.147049
            ],
            [
              -96.177347,
              41.150147
            ],
            [
              -96.17734,
              41.15793
            ],
            [
              -96.157279,
              41.165628
            ],
            [
              -96.158326,
              41.186508
            ],
            [
              -96.174312,
              41.190645
            ],
            [
              -95.856788,
              41.187098
            ],
            [
              -95.841888,
              41.171098
            ],
            [
              -95.871912,
              41.168122
            ],
            [
              -95.883489,
              41.154898
            ],
            [
              -95.862587,
              41.088399
            ],
            [
              -95.882415,
              41.060411
            ],
            [
              -95.859654,
              41.035695
            ],
            [
              -95.867286,
              41.001599
            ],
            [
              -95.829074,
              40.975688
            ],
            [
              -95.839743,
              40.93278
            ],
            [
              -95.809775,
              40.895447
            ],
            [
              -95.815933,
              40.879846
            ],
            [
              -95.84859,
              40.861061
            ],
            [
              -95.837186,
              40.835347
            ],
            [
              -95.845342,
              40.811324
            ],
            [
              -95.8342151936933,
              40.7837840663969
            ],
            [
              -96.463764,
              40.78396
            ],
            [
              -96.463632,
              40.523013
            ],
            [
              -96.912637,
              40.523625
            ],
            [
              -96.913493,
              40.697948
            ],
            [
              -97.368401,
              40.698625
            ],
            [
              -97.368061,
              41.163014
            ],
            [
              -97.560546,
              41.162867
            ],
            [
              -97.56047,
              41.17743
            ],
            [
              -97.579518,
              41.177408
            ],
            [
              -97.579319,
              41.191883
            ],
            [
              -97.56044,
              41.191899
            ],
            [
              -97.560485,
              41.235407
            ],
            [
              -97.579819,
              41.235401
            ],
            [
              -97.579607,
              41.334061
            ],
            [
              -97.598222,
              41.328037
            ],
            [
              -97.598461,
              41.395068
            ],
            [
              -97.703765,
              41.394876
            ],
            [
              -97.703627,
              41.526796
            ],
            [
              -97.829846,
              41.526174
            ],
            [
              -97.834336,
              42.088987
            ],
            [
              -97.834536,
              42.08975
            ]
          ]
        ]
      }
    },
    {
      "type": "Feature",
      "id": "us-cd:118:31:02",
      "properties": {
        "boundary_id": "us-cd:118:31:02",
        "boundary_type": "congressional_district",
        "name": "Congressional District 2",
        "stateFips": "31",
        "congress": 118,
        "district": "02",
        "bbox": [
          -96.909107,
          40.994308,
          -95.871489,
          41.453389
        ]
      },
      "geometry": {
        "type": "Polygon",
        "coordinates": [
          [
            [
              -96.908993,
              41.267935
            ],
            [
              -96.905862,
              41.453389
            ],
            [
              -96.815203,
              41.439585
            ],
            [
              -96.746472,
              41.449576
            ],
            [
              -96.693743,
              41.425738
            ],
            [
              -96.640327,
              41.436183
            ],
            [
              -96.569398,
              41.433304
            ],
            [
              -96.488157,
              41.393305
            ],
            [
              -95.93749,
              41.393095
            ],
            [
              -95.92879,
              41.370096
            ],
            [
              -95.954891,
              41.351796
            ],
            [
              -95.953091,
              41.339896
            ],
            [
              -95.92569,
              41.322197
            ],
            [
              -95.883089,
              41.316697
            ],
            [
              -95.871489,
              41.295797
            ],
            [
              -95.90249,
              41.273398
            ],
            [
              -95.912491,
              41.279498
            ],
            [
              -95.90429,
              41.299597
            ],
            [
              -95.927491,
              41.298397
            ],
            [
              -95.928691,
              41.281398
            ],
            [
              -95.913991,
              41.271398
            ],
            [
              -95.921891,
              41.264598
            ],
            [
              -95.910891,
              41.233998
            ],
            [
              -95.924891,
              41.211198
            ],
            [
              -95.9233116732375,
              41.1912022372202
            ],
            [
              -96.174312,
              41.190645
            ],
            [
              -96.158326,
              41.186508
            ],
            [
              -96.157279,
              41.165628
            ],
            [
              -96.17734,
              41.15793
            ],
            [
              -96.177347,
              41.150147
            ],
            [
              -96.158149,
              41.147049
            ],
            [
              -96.158014,
              41.132502
            ],
            [
              -96.004514,
              41.129042
            ],
            [
              -96.005191,
              41.060624
            ],
            [
              -96.056256,
              41.065356
            ],
            [
              -96.100192,
              41.053248
            ],
            [
              -96.144693,
              41.017598
            ],
            [
              -96.218939,
              40.994308
            ],
            [
              -96.247601,
              41.017776
            ],
            [
              -96.294932,
              41.025745
            ],
            [
              -96.319191,
              41.044998
            ],
            [
              -96.349079,
              41.044525
            ],
            [
              -96.34947,
              41.01532
            ],
            [
              -96.369507,
              41.014991
            ],
            [
              -96.463861,
              41.016069
            ],
            [
              -96.463869,
              41.045083
            ],
            [
              -96.908507,
              41.046091
            ],
            [
              -96.909107,
              41.263837
            ],
            [
              -96.908993,
              41.267935
            ]
          ]
        ]
      }
    },
    {
      "type": "Feature",
      "id": "us-cd:118:31:03",
      "properties": {
        "boundary_id": "us-cd:118:31:03",
        "boundary_type": "congressional_district",
        "name": "Congressional District 3",
        "stateFips": "31",
        "congress": 118,
        "district": "03",
        "bbox": [
          -104.053514,
          39.999998,
          -95.30829,
          43.000587
        ]
      },
      "geometry": {
        "type": "Polygon",
        "coordinates": [
          [
            [
              -104.053418545071,
              41.1705389679833
            ],
            [
              -104.053028,
              43.000587
            ],
            [
              -98.49855,
              42.99856
            ],
            [
              -98.467356,
              42.947556
            ],
            [
              -98.444145,
              42.929242
            ],
            [
              -98.42074,
              42.931924
            ],
            [
              -98.325864,
              42.8865
            ],
            [
              -98.25181,
              42.872824
            ],
            [
              -98.189765,
              42.841628
            ],
            [
              -98.146933,
              42.839823
            ],
            [
              -98.056625,
              42.770781
            ],
            [
              -98.013046,
              42.762299
            ],
            [
              -97.936716,
              42.775754
            ],
            [
              -97.888562,
              42.817251
            ],
            [
              -97.875345,
              42.858724
            ],
            [
              -97.84527,
              42.867734
            ],
            [
              -97.774456,
              42.849774
            ],
            [
              -97.686506,
              42.842435
            ],
            [
              -97.611811,
              42.858367
            ],
            [
              -97.561928,
              42.847552
            ],
            [
              -97.504847,
              42.858477
            ],
            [
              -97.442279,
              42.846224
            ],
            [
              -97.408315,
              42.868334
            ],
            [
              -97.359569,
              42.854816
            ],
            [
              -97.306677,
              42.867604
            ],
            [
              -97.289859,
              42.855499
            ],
            [
              -97.218825,
              42.845848
            ],
            [
              -97.210126,
              42.809296
            ],
            [
              -97.150763,
              42.795566
            ],
            [
              -97.131331,
              42.771929
            ],
            [
              -96.97912,
              42.76009
            ],
            [
              -96.96123,
              42.740623
            ],
            [
              -96.963531,
              42.720643
            ],
            [
              -96.937589,
              42.719597
            ],
            [
              -96.906797,
              42.7338
            ],
            [
              -96.806223,
              42.704154
            ],
            [
              -96.802178,
              42.672237
            ],
            [
              -96.793238,
              42.666024
            ],
            [
              -96.728024,
              42.666882
            ],
            [
              -96.691269,
              42.6562
            ],
            [
              -96.687788,
              42.645992
            ],
            [
              -96.709485,
              42.621932
            ],
            [
              -96.7093,
              42.603753
            ],
            [
              -96.681369,
              42.574486
            ],
            [
              -96.643589,
              42.557604
            ],
            [
              -96.628179,
              42.516963
            ],
            [
              -96.611489,
              42.506088
            ],
            [
              -96.548791,
              42.520547
            ],
            [
              -96.528753,
              42.513273
            ],
            [
              -96.501321,
              42.482749
            ],
            [
              -96.475565,
              42.480036
            ],
            [
              -96.445508,
              42.49063
            ],
            [
              -96.396107,
              42.484095
            ],
            [
              -96.386007,
              42.474495
            ],
            [
              -96.380707,
              42.446394
            ],
            [
              -96.413609,
              42.407894
            ],
            [
              -96.408436,
              42.376092
            ],
            [
              -96.417786,
              42.351449
            ],
            [
              -96.375307,
              42.318339
            ],
            [
              -96.365792,
              42.285875
            ],
            [
              -96.328905,
              42.254734
            ],
            [
              -96.323723,
              42.229887
            ],
            [
              -96.35987,
              42.210545
            ],
            [
              -96.348066,
              42.194747
            ],
            [
              -96.347752,
              42.166806
            ],
            [
              -96.310085,
              42.132523
            ],
            [
              -96.2689,
              42.11359
            ],
            [
              -96.275548,
              42.051976
            ],
            [
              -96.263886,
              42.039858
            ],
            [
              -96.238392,
              42.041088
            ],
            [
              -96.221901,
              42.029558
            ],
            [
              -96.240713,
              41.999351
            ],
            [
              -96.225463,
              41.994734
            ],
            [
              -96.215225,
              42.006701
            ],
            [
              -96.194556,
              42.008662
            ],
            [
              -96.183568,
              41.999987
            ],
            [
              -96.192141,
              41.984461
            ],
            [
              -96.186265,
              41.977417
            ],
            [
              -96.129505,
              41.971673
            ],
            [
              -96.144583,
              41.941544
            ],
            [
              -96.136743,
              41.920826
            ],
            [
              -96.161756,
              41.90182
            ],
            [
              -96.142045,
              41.868865
            ],
            [
              -96.110246,
              41.84885
            ],
            [
              -96.107592,
              41.820685
            ],
            [
              -96.064879,
              41.79623
            ],
            [
              -96.079915,
              41.757895
            ],
            [
              -96.106425,
              41.73789
            ],
            [
              -96.073063,
              41.705004
            ],
            [
              -96.121401,
              41.688522
            ],
            [
              -96.095415,
              41.652736
            ],
            [
              -96.118105,
              41.613495
            ],
            [
              -96.109387,
              41.596871
            ],
            [
              -96.081843,
              41.580407
            ],
            [
              -96.095851,
              41.55088
            ],
            [
              -96.092008,
              41.53391
            ],
            [
              -96.040701,
              41.507076
            ],
            [
              -96.026657,
              41.540366
            ],
            [
              -96.005112,
              41.54325
            ],
            [
              -95.992599,
              41.514174
            ],
            [
              -96.019224,
              41.489296
            ],
            [
              -96.011757,
              41.476212
            ],
            [
              -95.962329,
              41.46281
            ],
            [
              -95.936801,
              41.46519
            ],
            [
              -95.919865,
              41.447922
            ],
            [
              -95.933169,
              41.42943
            ],
            [
              -95.93749,
              41.393095
            ],
            [
              -96.329012,
              41.393136
            ],
            [
              -96.328923,
              41.436621
            ],
            [
              -96.367336,
              41.436698
            ],
            [
              -96.3672,
              41.450953
            ],
            [
              -96.386478,
              41.451253
            ],
            [
              -96.38642,
              41.465749
            ],
            [
              -96.405622,
              41.465821
            ],
            [
              -96.405936,
              41.48046
            ],
            [
              -96.425211,
              41.480342
            ],
            [
              -96.42522,
              41.494865
            ],
            [
              -96.434792,
              41.494928
            ],
            [
              -96.43446,
              41.523931
            ],
            [
              -96.443898,
              41.523933
            ],
            [
              -96.444217,
              41.741775
            ],
            [
              -96.555172,
              41.742018
            ],
            [
              -96.555511,
              42.089957
            ],
            [
              -97.834536,
              42.08975
            ],
            [
              -97.829846,
              41.526174
            ],
            [
              -97.703627,
              41.526796
            ],
            [
              -97.703765,
              41.394876
            ],
            [
              -97.598461,
              41.395068
            ],
            [
              -97.598222,
              41.328037
            ],
            [
              -97.579607,
              41.334061
            ],
            [
              -97.579819,
              41.235401
            ],
            [
              -97.560485,
              41.235407
            ],
            [
              -97.56044,
              41.191899
            ],
            [
              -97.579319,
              41.191883
            ],
            [
              -97.579518,
              41.177408
            ],
            [
              -97.56047,
              41.17743
            ],
            [
              -97.560546,
              41.162867
            ],
            [
              -97.368061,
              41.163014
            ],
            [
              -97.368401,
              40.698625
            ],
            [
              -96.913493,
              40.697948
            ],
            [
              -96.912637,
              40.523625
            ],
            [
              -96.463632,
              40.523013
            ],
            [
              -96.463764,
              40.78396
            ],
            [
              -95.8342151936933,
              40.7837840663969
            ],
            [
              -95.879027,
              40.753081
            ],
            [
              -95.888907,
              40.731855
            ],
            [
              -95.883178,
              40.717579
            ],
            [
              -95.852615,
              40.702262
            ],
            [
              -95.842801,
              40.677496
            ],
            [
              -95.781909,
              40.653272
            ],
            [
              -95.768926,
              40.621264
            ],
            [
              -95.749685,
              40.606842
            ],
            [
              -95.774704,
              40.573574
            ],
            [
              -95.763833,
              40.553873
            ],
            [
              -95.76692,
              40.531563
            ],
            [
              -95.708591,
              40.521551
            ],
            [
              -95.69505,
              40.533124
            ],
            [
              -95.694147,
              40.556942
            ],
            [
              -95.678718,
              40.56256
            ],
            [
              -95.65341,
              40.541893
            ],
            [
              -95.661687,
              40.517309
            ],
            [
              -95.699969,
              40.505275
            ],
            [
              -95.694651,
              40.471452
            ],
            [
              -95.65819,
              40.44188
            ],
            [
              -95.659134,
              40.40869
            ],
            [
              -95.623728,
              40.346567
            ],
            [
              -95.625204,
              40.334288
            ],
            [
              -95.653729,
              40.322582
            ],
            [
              -95.657328,
              40.310856
            ],
            [
              -95.610439,
              40.31397
            ],
            [
              -95.562157,
              40.297359
            ],
            [
              -95.55162,
              40.288666
            ],
            [
              -95.552473,
              40.261904
            ],
            [
              -95.477501,
              40.24272
            ],
            [
              -95.469718,
              40.227908
            ],
            [
              -95.482319,
              40.200667
            ],
            [
              -95.479193,
              40.185652
            ],
            [
              -95.436348,
              40.15872
            ],
            [
              -95.428749,
              40.135577
            ],
            [
              -95.393347,
              40.119212
            ],
            [
              -95.42164,
              40.058952
            ],
            [
              -95.413588,
              40.038424
            ],
            [
              -95.391527,
              40.027058
            ],
            [
              -95.348777,
              40.029297
            ],
            [
              -95.30829,
              39.999998
            ],
            [
              -102.051744,
              40.003078
            ],
            [
              -102.051614,
              41.002377
            ],
            [
              -104.053249,
              41.001406
            ],
            [
              -104.053514,
              41.157257
            ],
            [
              -104.053418545071,
              41.1705389679833
            ]
          ]
        ]
      }
    }
  ]
}
