{
  "type": "FeatureCollection",
  "features": [
    {
      "type": "Feature",
      "id": "us-cd:119:30:01",
      "properties": {
        "boundary_id": "us-cd:119:30:01",
        "boundary_type": "congressional_district",
        "name": "1",
        "stateFips": "30",
        "congress": 119,
        "district": "01",
        "bbox": [
          -116.04911800028279,
          44.357968999741104,
          -110.78383300011627,
          49.000845999851144
        ]
      },
      "geometry": {
        "type": "Polygon",
        "coordinates": [
          [
            [
              -116.04911599973467,
              48.00082800007414
            ],
            [
              -116.04910800023706,
              47.976842000067556
            ],
            [
              -116.01877100016698,
              47.96289499997328
            ],
            [
              -115.99337500006084,
              47.92597699993057
            ],
            [
              -115.96686900026714,
              47.91259800028128
            ],
            [
              -115.96838900003351,
              47.89924999980392
            ],
            [
              -115.93800900030571,
              47.881093000148745
            ],
            [
              -115.91888499978405,
              47.853620000191306
            ],
            [
              -115.90140099957773,
              47.84309700008491
            ],
            [
              -115.88149600015481,
              47.84961199997192
            ],
            [
              -115.85231200032825,
              47.82785700015045
            ],
            [
              -115.8473529999226,
              47.785093999780564
            ],
            [
              -115.83174500003312,
              47.75577800016462
            ],
            [
              -115.79749800004387,
              47.75733399974378
            ],
            [
              -115.78100200022469,
              47.74318400019379
            ],
            [
              -115.77715099985677,
              47.720375999962684
            ],
            [
              -115.75302599999502,
              47.716950000296414
            ],
            [
              -115.72264799991699,
              47.695118000138976
            ],
            [
              -115.7365080004345,
              47.653810999888364
            ],
            [
              -115.69444400008169,
              47.62376100003449
            ],
            [
              -115.6984429996893,
              47.60657899970287
            ],
            [
              -115.68775800022044,
              47.5952999998225
            ],
            [
              -115.75562000036223,
              47.547932999896446
            ],
            [
              -115.69831399981787,
              47.531375000220784
            ],
            [
              -115.71139799966032,
              47.51677099991423
            ],
            [
              -115.69002600017446,
              47.50076199978147
            ],
            [
              -115.68626400039334,
              47.48493999985435
            ],
            [
              -115.62948799957836,
              47.47960999988296
            ],
            [
              -115.64646100032188,
              47.4568299999324
            ],
            [
              -115.71609400030022,
              47.452879999937565
            ],
            [
              -115.74743899995063,
              47.44204199998678
            ],
            [
              -115.75891400033824,
              47.42340000022041
            ],
            [
              -115.72111200025711,
              47.42569799970703
            ],
            [
              -115.71226100037397,
              47.41544200013539
            ],
            [
              -115.6574909995722,
              47.40045499984206
            ],
            [
              -115.64341099984503,
              47.377340000139384
            ],
            [
              -115.61724700035812,
              47.38251999987351
            ],
            [
              -115.57763900028031,
              47.36740400010802
            ],
            [
              -115.57512699992884,
              47.35590300011085
            ],
            [
              -115.55076299969245,
              47.34968600012644
            ],
            [
              -115.52850900012464,
              47.299243999962925
            ],
            [
              -115.48226399969109,
              47.281444000279244
            ],
            [
              -115.4658180001006,
              47.287476999794464
            ],
            [
              -115.45590799968525,
              47.27761799983318
            ],
            [
              -115.42596700034856,
              47.28027799985446
            ],
            [
              -115.41158499959926,
              47.26436900013302
            ],
            [
              -115.31978599991666,
              47.25668400000908
            ],
            [
              -115.32436899968035,
              47.24472399985836
            ],
            [
              -115.29152900037789,
              47.21085400009209
            ],
            [
              -115.3005769999045,
              47.18833400026231
            ],
            [
              -115.26182199959631,
              47.18143099993609
            ],
            [
              -115.24461899959736,
              47.15131199996578
            ],
            [
              -115.19904000023396,
              47.13988700015288
            ],
            [
              -115.17165200035836,
              47.10678199987104
            ],
            [
              -115.14412999969012,
              47.101910999895864
            ],
            [
              -115.13113399971122,
              47.06895599986578
            ],
            [
              -115.10579100020688,
              47.048412999835215
            ],
            [
              -115.08742599974352,
              47.04571599992198
            ],
            [
              -115.07167899993684,
              47.026360999759184
            ],
            [
              -115.06777499986548,
              46.9952120001215
            ],
            [
              -115.04878900033442,
              46.97003600006328
            ],
            [
              -115.0012740003797,
              46.97190100013062
            ],
            [
              -114.96059699972392,
              46.93000999975727
            ],
            [
              -114.92514299996273,
              46.918681000194496
            ],
            [
              -114.93674100037397,
              46.89727900022701
            ],
            [
              -114.93142100029331,
              46.876998000226514
            ],
            [
              -114.94826100006912,
              46.86000899990927
            ],
            [
              -114.92868299998601,
              46.854767000015265
            ],
            [
              -114.92073099990327,
              46.827082999897556
            ],
            [
              -114.89844800002318,
              46.82235400014132
            ],
            [
              -114.89518900020728,
              46.80163000013071
            ],
            [
              -114.86577900042492,
              46.81452899975286
            ],
            [
              -114.82910399974978,
              46.782625999991545
            ],
            [
              -114.79874800031143,
              46.775832000154
            ],
            [
              -114.78749999970454,
              46.782775999873195
            ],
            [
              -114.78363400016633,
              46.768666000148066
            ],
            [
              -114.76508999960282,
              46.758150000072554
            ],
            [
              -114.76523899956575,
              46.745390999862394
            ],
            [
              -114.78843000036537,
              46.71276999983677
            ],
            [
              -114.76678599999462,
              46.696902000098724
            ],
            [
              -114.71304399976295,
              46.71542599998148
            ],
            [
              -114.69859400013992,
              46.740451000002366
            ],
            [
              -114.6653759996474,
              46.739234000304165
            ],
            [
              -114.62078700032096,
              46.707261999969376
            ],
            [
              -114.62354300017161,
              46.690933000153095
            ],
            [
              -114.64256300003785,
              46.67291200024956
            ],
            [
              -114.63313999969422,
              46.671818000257936
            ],
            [
              -114.6357790002673,
              46.659475999820536
            ],
            [
              -114.61456400024196,
              46.655075000257305
            ],
            [
              -114.61497500014572,
              46.639975000062
            ],
            [
              -114.6057319997271,
              46.63589999973267
            ],
            [
              -114.58286700023903,
              46.63336700020135
            ],
            [
              -114.54182200023553,
              46.64999200024086
            ],
            [
              -114.4668340000164,
              46.63180100020664
            ],
            [
              -114.45347700036248,
              46.64920900011499
            ],
            [
              -114.42459599958634,
              46.66065999979004
            ],
            [
              -114.35822399997201,
              46.671137999737304
            ],
            [
              -114.32162299981502,
              46.64895599978884
            ],
            [
              -114.32253199966112,
              46.610889000284224
            ],
            [
              -114.34419699994827,
              46.5899690001629
            ],
            [
              -114.3296390003702,
              46.576198999876205
            ],
            [
              -114.34788799958429,
              46.55147100013036
            ],
            [
              -114.34264100019688,
              46.518431000045275
            ],
            [
              -114.35834000032295,
              46.505211999880586
            ],
            [
              -114.40318399991752,
              46.49881100023326
            ],
            [
              -114.40067199956601,
              46.47781299981692
            ],
            [
              -114.37943099960142,
              46.460289999775966
            ],
            [
              -114.38440000005282,
              46.447011999877276
            ],
            [
              -114.36841399987152,
              46.43711499988808
            ],
            [
              -114.38296099957896,
              46.432172000281184
            ],
            [
              -114.3848429997436,
              46.41135899986059
            ],
            [
              -114.42244700035633,
              46.38704599995513
            ],
            [
              -114.41024999972036,
              46.36105399971895
            ],
            [
              -114.41402200044557,
              46.335564000040605
            ],
            [
              -114.43343399994899,
              46.30554900007818
            ],
            [
              -114.42544099985834,
              46.28785600002286
            ],
            [
              -114.4707199996461,
              46.26604099976026
            ],
            [
              -114.46826699974416,
              46.24866300018618
            ],
            [
              -114.44798499985437,
              46.23156499991368
            ],
            [
              -114.44409099982876,
              46.16927299989956
            ],
            [
              -114.47595299968812,
              46.16060599995788
            ],
            [
              -114.51485799978414,
              46.16768000028368
            ],
            [
              -114.51436800023768,
              46.153972000133464
            ],
            [
              -114.5273590001937,
              46.145410999711025
            ],
            [
              -114.51769599965053,
              46.13558499992365
            ],
            [
              -114.52099600037262,
              46.12511200004068
            ],
            [
              -114.47445399983815,
              46.11310800015134
            ],
            [
              -114.46047500039327,
              46.09778999969773
            ],
            [
              -114.4620110000532,
              46.07858000026371
            ],
            [
              -114.47235199956549,
              46.07680599997166
            ],
            [
              -114.46828600001075,
              46.06278999988877
            ],
            [
              -114.49334900003093,
              46.052579999746136
            ],
            [
              -114.50750400010118,
              46.03146399974003
            ],
            [
              -114.48034700020423,
              46.03034899987261
            ],
            [
              -114.47306999961587,
              46.01415000001649
            ],
            [
              -114.48778299990296,
              46.00364600022553
            ],
            [
              -114.47999200037701,
              45.9929019998044
            ],
            [
              -114.45782599977446,
              45.997478000006346
            ],
            [
              -114.41175500031646,
              45.97787000016327
            ],
            [
              -114.40252399959344,
              45.957943999949435
            ],
            [
              -114.43139600014874,
              45.93604000000431
            ],
            [
              -114.38786800010607,
              45.88392600012059
            ],
            [
              -114.40591700020195,
              45.870399999961776
            ],
            [
              -114.40965399986871,
              45.85157299978659
            ],
            [
              -114.43771499958888,
              45.86260799984929
            ],
            [
              -114.47489099968114,
              45.846584999715404
            ],
            [
              -114.50964400000868,
              45.84535700012528
            ],
            [
              -114.51737900035644,
              45.834947000075516
            ],
            [
              -114.51148299961729,
              45.829436000236896
            ],
            [
              -114.53101800004266,
              45.818898000307684
            ],
            [
              -114.54409100001448,
              45.79036100010573
            ],
            [
              -114.56646500013116,
              45.77331000009826
            ],
            [
              -114.54451100013902,
              45.75917800018186
            ],
            [
              -114.54785000032086,
              45.743264000221835
            ],
            [
              -114.50418199963778,
              45.7218139997893
            ],
            [
              -114.49514800035487,
              45.703970000147244
            ],
            [
              -114.5150860002881,
              45.684911000124075
            ],
            [
              -114.49902999978661,
              45.67887400008052
            ],
            [
              -114.50764600039142,
              45.657535000072905
            ],
            [
              -114.56398700011486,
              45.637621000304854
            ],
            [
              -114.53794400010345,
              45.606591999920596
            ],
            [
              -114.55849799997979,
              45.58446300004103
            ],
            [
              -114.55295600014128,
              45.576603000284
            ],
            [
              -114.56493600014394,
              45.55770999993375
            ],
            [
              -114.5272599995612,
              45.570855000153045
            ],
            [
              -114.49807999993263,
              45.55546100030212
            ],
            [
              -114.45607699967921,
              45.5622400001432
            ],
            [
              -114.4639119995861,
              45.54502899981226
            ],
            [
              -114.43057400034127,
              45.52951000006324
            ],
            [
              -114.42570699999713,
              45.510718999988974
            ],
            [
              -114.36720100025182,
              45.491854000053834
            ],
            [
              -114.34566200036139,
              45.46065699983465
            ],
            [
              -114.33004699990087,
              45.45972200018597
            ],
            [
              -114.26989199961943,
              45.48455200004524
            ],
            [
              -114.24721000042945,
              45.52471900011208
            ],
            [
              -114.24844999981336,
              45.54581300007922
            ],
            [
              -114.19360799993989,
              45.53637200011297
            ],
            [
              -114.18027300002728,
              45.551238000140785
            ],
            [
              -114.13582100006988,
              45.55709800013053
            ],
            [
              -114.12126199976859,
              45.5845920000071
            ],
            [
              -114.08610199973526,
              45.59146400019747
            ],
            [
              -114.06673799991242,
              45.62816599998416
            ],
            [
              -114.01527000038088,
              45.65276600017458
            ],
            [
              -114.02830999984239,
              45.675237000011165
            ],
            [
              -114.01436599965935,
              45.68376900020912
            ],
            [
              -114.01548200009299,
              45.695901000038766
            ],
            [
              -113.98852600003751,
              45.705976999893316
            ],
            [
              -113.97076700036986,
              45.70292899985819
            ],
            [
              -113.96481600027744,
              45.69001900002355
            ],
            [
              -113.93526000000692,
              45.69434099970771
            ],
            [
              -113.91985600033192,
              45.65811699995162
            ],
            [
              -113.8952779998353,
              45.643847000310004
            ],
            [
              -113.9046910001332,
              45.62200699999975
            ],
            [
              -113.86158900006289,
              45.62382000010576
            ],
            [
              -113.80643099982193,
              45.601629999954284
            ],
            [
              -113.79674600043576,
              45.58157300007441
            ],
            [
              -113.82146899979901,
              45.56594800014727
            ],
            [
              -113.81740800026714,
              45.55703299999832
            ],
            [
              -113.83477799977236,
              45.52065700024487
            ],
            [
              -113.76602199985304,
              45.52062100007193
            ],
            [
              -113.77284300033183,
              45.51330700013062
            ],
            [
              -113.7599140003001,
              45.48040000006631
            ],
            [
              -113.78426400029278,
              45.45488600025418
            ],
            [
              -113.77442699967234,
              45.446509999703416
            ],
            [
              -113.77603400037566,
              45.433745999919985
            ],
            [
              -113.75973299965182,
              45.42711000025105
            ],
            [
              -113.77715999995675,
              45.41656300016765
            ],
            [
              -113.77604299969819,
              45.40847700004996
            ],
            [
              -113.73347499955524,
              45.39081100001666
            ],
            [
              -113.7388790001998,
              45.36812999994984
            ],
            [
              -113.72902999988382,
              45.35608599987874
            ],
            [
              -113.7403420000648,
              45.34543900006711
            ],
            [
              -113.73866099974163,
              45.32940899971406
            ],
            [
              -113.68027899984484,
              45.27888599988621
            ],
            [
              -113.69188700030185,
              45.2625030001296
            ],
            [
              -113.59213300016343,
              45.18477899977145
            ],
            [
              -113.59070700010838,
              45.15588600028112
            ],
            [
              -113.56569400031688,
              45.14960200026949
            ],
            [
              -113.57672500029048,
              45.1312369998618
            ],
            [
              -113.5698839997202,
              45.12385099994714
            ],
            [
              -113.5496629999298,
              45.1128790001355
            ],
            [
              -113.51124900010346,
              45.11612899970894
            ],
            [
              -113.50604899967338,
              45.10778400023414
            ],
            [
              -113.52218700019061,
              45.091388000235476
            ],
            [
              -113.48940600043939,
              45.07652599990133
            ],
            [
              -113.48553099978204,
              45.063623999925944
            ],
            [
              -113.452043999676,
              45.059173999706786
            ],
            [
              -113.4558029999824,
              45.03971199983311
            ],
            [
              -113.43788199993304,
              45.0073429997232
            ],
            [
              -113.44686099986266,
              44.998276000259
            ],
            [
              -113.44393900033069,
              44.95937999980374
            ],
            [
              -113.49881800001408,
              44.94220300008067
            ],
            [
              -113.4907449995575,
              44.92285199983314
            ],
            [
              -113.47178699961553,
              44.909837000102954
            ],
            [
              -113.47850699981198,
              44.89546599980599
            ],
            [
              -113.46120000005595,
              44.88675400008667
            ],
            [
              -113.45465599958659,
              44.86502500020586
            ],
            [
              -113.42907999955541,
              44.854858000044445
            ],
            [
              -113.42195199982827,
              44.837598999858365
            ],
            [
              -113.38372499959968,
              44.83741399995744
            ],
            [
              -113.35606200026278,
              44.81979800014241
            ],
            [
              -113.34609999996887,
              44.80061100021675
            ],
            [
              -113.35408300001377,
              44.79179799995556
            ],
            [
              -113.34127600018074,
              44.784664000242415
            ],
            [
              -113.24689400000155,
              44.822972999981594
            ],
            [
              -113.19311699960979,
              44.80165299987408
            ],
            [
              -113.16368799956089,
              44.778819000302235
            ],
            [
              -113.1314590001787,
              44.77275800024885
            ],
            [
              -113.13482400029982,
              44.75276300017742
            ],
            [
              -113.12026099980055,
              44.74595100016767
            ],
            [
              -113.11683600030331,
              44.73251700012065
            ],
            [
              -113.10161800040115,
              44.729464999859765
            ],
            [
              -113.09783300015549,
              44.69886800012242
            ],
            [
              -113.06776100039924,
              44.678786000192595
            ],
            [
              -113.06558899980638,
              44.64925299984911
            ],
            [
              -113.05072200043182,
              44.634542000131155
            ],
            [
              -113.05365400000954,
              44.62165700016749
            ],
            [
              -113.08829199981105,
              44.59966299975664
            ],
            [
              -113.03728500041197,
              44.564769000224516
            ],
            [
              -113.04535799997024,
              44.54432299989875
            ],
            [
              -113.00678799960997,
              44.526208000221
            ],
            [
              -113.02682400035079,
              44.4955120001883
            ],
            [
              -113.00611700031355,
              44.47097999981911
            ],
            [
              -113.00346900041795,
              44.451297999953255
            ],
            [
              -112.98042900012938,
              44.43375300008944
            ],
            [
              -112.91362399997166,
              44.402281999915225
            ],
            [
              -112.88955699983622,
              44.405937999919495
            ],
            [
              -112.88158100036235,
              44.37925600028098
            ],
            [
              -112.84456500010367,
              44.357968999741104
            ],
            [
              -112.81230200038631,
              44.37702400003433
            ],
            [
              -112.81005600017359,
              44.39875999988768
            ],
            [
              -112.83989000027846,
              44.42471400010008
            ],
            [
              -112.78081000042279,
              44.4846599999338
            ],
            [
              -112.74306199987,
              44.48833799968121
            ],
            [
              -112.71793000025284,
              44.504272999693484
            ],
            [
              -112.66173400029433,
              44.48598999978849
            ],
            [
              -112.54171199961151,
              44.483770999870266
            ],
            [
              -112.50064200039198,
              44.462766000041846
            ],
            [
              -112.47268700007871,
              44.479296999688735
            ],
            [
              -112.44150899993453,
              44.46657499972041
            ],
            [
              -112.4340799999085,
              44.45434800020599
            ],
            [
              -112.40723600000602,
              44.45746500019951
            ],
            [
              -112.38652399994594,
              44.44730799984191
            ],
            [
              -112.35836600014136,
              44.48526100003112
            ],
            [
              -112.35250899976026,
              44.53802099970902
            ],
            [
              -112.31949399965733,
              44.538903999706825
            ],
            [
              -112.31374099993162,
              44.55304100011605
            ],
            [
              -112.28832200025929,
              44.568096999946285
            ],
            [
              -112.25670100042431,
              44.57167799969405
            ],
            [
              -112.22899700018122,
              44.56397599995682
            ],
            [
              -112.22105099994626,
              44.54325999975102
            ],
            [
              -112.1800729998899,
              44.53277700023544
            ],
            [
              -112.1646480002985,
              44.54153300000688
            ],
            [
              -112.13667200006884,
              44.5398600000468
            ],
            [
              -112.10640000029605,
              44.52056900024009
            ],
            [
              -112.06906799966987,
              44.5371510000919
            ],
            [
              -112.03279899977392,
              44.52840299973278
            ],
            [
              -112.03270699971239,
              44.54664199983381
            ],
            [
              -111.97772400027193,
              44.53574400017211
            ],
            [
              -111.94778200021203,
              44.557012999870025
            ],
            [
              -111.86931900026694,
              44.56662099985413
            ],
            [
              -111.82152999977755,
              44.508941000011305
            ],
            [
              -111.80797099955895,
              44.51016100024365
            ],
            [
              -111.80111900001633,
              44.52598500008109
            ],
            [
              -111.76272399955825,
              44.525800000259146
            ],
            [
              -111.74991400025051,
              44.53957999992236
            ],
            [
              -111.71564799999469,
              44.54336899998471
            ],
            [
              -111.70316400020188,
              44.56014800009425
            ],
            [
              -111.61389700006391,
              44.54867999971219
            ],
            [
              -111.58568700038083,
              44.562627999756025
            ],
            [
              -111.54705199972324,
              44.55717599968558
            ],
            [
              -111.51289099994773,
              44.53604100023345
            ],
            [
              -111.46800200014732,
              44.53895099998323
            ],
            [
              -111.46935500040745,
              44.557673999894455
            ],
            [
              -111.50776900023378,
              44.562297999890404
            ],
            [
              -111.50134000029047,
              44.572489999978295
            ],
            [
              -111.52361099957668,
              44.59221500005539
            ],
            [
              -111.52261300004211,
              44.614084000115994
            ],
            [
              -111.50249900038182,
              44.626508000073066
            ],
            [
              -111.51630999959718,
              44.64399700014537
            ],
            [
              -111.5009560001509,
              44.649638999913726
            ],
            [
              -111.49011400032322,
              44.64247099974995
            ],
            [
              -111.47248299980377,
              44.66619000008241
            ],
            [
              -111.47651099972367,
              44.673723999805496
            ],
            [
              -111.46850900031053,
              44.67917800019322
            ],
            [
              -111.48460300044684,
              44.687574000269656
            ],
            [
              -111.4887839996293,
              44.70564300021976
            ],
            [
              -111.43879800022931,
              44.72054499978127
            ],
            [
              -111.41427300033446,
              44.71073900029168
            ],
            [
              -111.39795800026522,
              44.72364399995963
            ],
            [
              -111.39784399956409,
              44.74638299983232
            ],
            [
              -111.38482400019407,
              44.7549540001584
            ],
            [
              -111.3529770004033,
              44.72617799981534
            ],
            [
              -111.3236260001722,
              44.729072000002645
            ],
            [
              -111.32248399979927,
              44.71877600018531
            ],
            [
              -111.26680400022481,
              44.66751200015023
            ],
            [
              -111.2784770000808,
              44.65126499971494
            ],
            [
              -111.25259700027601,
              44.65124999971405
            ],
            [
              -111.21931900040732,
              44.62252099972904
            ],
            [
              -111.24088900025991,
              44.61452499979548
            ],
            [
              -111.22763100034018,
              44.57668700012215
            ],
            [
              -111.18103000025448,
              44.56923100025996
            ],
            [
              -111.17864000010172,
              44.552477000205435
            ],
            [
              -111.13138200006496,
              44.532429000065896
            ],
            [
              -111.13861799974713,
              44.51685400026777
            ],
            [
              -111.12738299955905,
              44.497619999849285
            ],
            [
              -111.05243399969797,
              44.47841100028255
            ],
            [
              -111.05455600006214,
              45.000954999684424
            ],
            [
              -111.04506599977132,
              45.00095000007036
            ],
            [
              -111.03816900002285,
              45.351391000313576
            ],
            [
              -110.91789899964293,
              45.35127300000421
            ],
            [
              -110.91922199976582,
              45.52486100014241
            ],
            [
              -110.85825200024793,
              45.524878999819265
            ],
            [
              -110.85738199986156,
              45.59065000028918
            ],
            [
              -110.79477399967817,
              45.59068199970537
            ],
            [
              -110.79076699967466,
              46.14184599976526
            ],
            [
              -110.78403099958467,
              46.14182600014445
            ],
            [
              -110.78383300011627,
              46.19269899985881
            ],
            [
              -111.34665200021706,
              46.18778500007743
            ],
            [
              -111.3493720000827,
              46.12260699995285
            ],
            [
              -111.3840800002044,
              46.104219000171206
            ],
            [
              -111.394598000167,
              46.109096000232945
            ],
            [
              -111.39190900026348,
              46.090865999891
            ],
            [
              -111.42383100039733,
              46.06195100018677
            ],
            [
              -111.42219799975472,
              46.02900800017992
            ],
            [
              -111.42990600033832,
              46.01967600010628
            ],
            [
              -111.42103199999066,
              46.01477500015516
            ],
            [
              -111.41943299968324,
              45.99651500030957
            ],
            [
              -111.44311099965627,
              45.990702999764736
            ],
            [
              -111.45893600017905,
              45.998279999783165
            ],
            [
              -111.47128500025265,
              45.951475000199956
            ],
            [
              -111.50677800037191,
              45.92590199971695
            ],
            [
              -111.53457899980108,
              45.92442699983566
            ],
            [
              -111.54534600018403,
              45.910589000213896
            ],
            [
              -111.58769599986874,
              45.906681999769695
            ],
            [
              -111.62573599960128,
              45.861771999994986
            ],
            [
              -111.63698199966001,
              45.86139599986828
            ],
            [
              -111.63804200001718,
              45.84791900000494
            ],
            [
              -111.65068499981864,
              45.85078000003377
            ],
            [
              -111.66214199976459,
              45.82715099992832
            ],
            [
              -111.68083399956778,
              45.82158200012977
            ],
            [
              -111.70546700031598,
              45.79573799999849
            ],
            [
              -111.75608100025302,
              45.80423700003508
            ],
            [
              -111.8017430003554,
              45.795360000254135
            ],
            [
              -111.81191300016344,
              45.81348799980426
            ],
            [
              -111.9103269995622,
              45.828562999909806
            ],
            [
              -111.90968899987776,
              45.839283000160634
            ],
            [
              -111.93007000040005,
              45.85761199987069
            ],
            [
              -111.98403900041242,
              45.84649299996192
            ],
            [
              -112.03786100011172,
              45.8583909997399
            ],
            [
              -112.04739599971006,
              45.849374999882
            ],
            [
              -112.08580100021386,
              45.85110099978795
            ],
            [
              -112.09497599996207,
              45.83874999995614
            ],
            [
              -112.11796000017414,
              45.83410999980016
            ],
            [
              -112.11223800041058,
              45.80551799975133
            ],
            [
              -112.13323599980262,
              45.788035999909944
            ],
            [
              -112.13692599961374,
              45.77102300009373
            ],
            [
              -112.18537999955177,
              45.74736799997262
            ],
            [
              -112.21479100005733,
              45.76566599972938
            ],
            [
              -112.2549110003212,
              45.77091599994784
            ],
            [
              -112.27394399970794,
              45.79123199995363
            ],
            [
              -112.41536700018892,
              45.837142000186226
            ],
            [
              -112.4305380002354,
              45.85414599974442
            ],
            [
              -112.40419099955207,
              45.88778400002383
            ],
            [
              -112.42130599968746,
              45.9109980001263
            ],
            [
              -112.41632799991358,
              45.92218900027307
            ],
            [
              -112.43622300018906,
              45.938991999839104
            ],
            [
              -112.43000799960767,
              45.959459999752745
            ],
            [
              -112.44554400042547,
              45.998145000068675
            ],
            [
              -112.43562499978925,
              46.013936999804784
            ],
            [
              -112.44471300039714,
              46.03368599988956
            ],
            [
              -112.47313099959439,
              46.039863999912754
            ],
            [
              -112.47693599993154,
              46.051866000022
            ],
            [
              -112.46173999977069,
              46.07589400009172
            ],
            [
              -112.47079599969321,
              46.08249700003852
            ],
            [
              -112.46632900028048,
              46.09297900017299
            ],
            [
              -112.50233700006054,
              46.11281799995169
            ],
            [
              -112.52011300034494,
              46.1367520000651
            ],
            [
              -112.50505699992617,
              46.18399799998738
            ],
            [
              -112.52579699957536,
              46.185047999723615
            ],
            [
              -112.5402169999595,
              46.17479200010857
            ],
            [
              -112.57657999956679,
              46.17849600007509
            ],
            [
              -112.58211200025788,
              46.19868600028395
            ],
            [
              -112.5737509999212,
              46.21425899993206
            ],
            [
              -112.59809199969305,
              46.23654699990098
            ],
            [
              -112.57965900035593,
              46.241824000074736
            ],
            [
              -112.55926799978789,
              46.26331799974294
            ],
            [
              -112.57033599957138,
              46.304868000150144
            ],
            [
              -112.55629600002716,
              46.30747000017755
            ],
            [
              -112.5329450002923,
              46.335373000185605
            ],
            [
              -112.5039539999113,
              46.33019600010915
            ],
            [
              -112.49228899955291,
              46.342475000095526
            ],
            [
              -112.45408499978888,
              46.328932000101794
            ],
            [
              -112.45081699975215,
              46.35094199971334
            ],
            [
              -112.42600499980212,
              46.357463999759695
            ],
            [
              -112.42609299966566,
              46.36897999997781
            ],
            [
              -112.40341300012552,
              46.3868120000101
            ],
            [
              -112.35056200019662,
              46.38487800010729
            ],
            [
              -112.31252800031189,
              46.41838800013048
            ],
            [
              -112.32336900031468,
              46.4340590002961
            ],
            [
              -112.30453600004618,
              46.45009700007527
            ],
            [
              -112.30613600017848,
              46.511749999774274
            ],
            [
              -112.29334100004105,
              46.517915000147354
            ],
            [
              -112.31675399970021,
              46.57441799997972
            ],
            [
              -112.29321399981944,
              46.60438899991953
            ],
            [
              -112.29833200023376,
              46.62561999980203
            ],
            [
              -112.32087100020688,
              46.655927000022544
            ],
            [
              -112.41063799993704,
              46.656011000253734
            ],
            [
              -112.4108460003495,
              46.69950499981511
            ],
            [
              -112.53559700038586,
              46.699482000059376
            ],
            [
              -112.53574799999862,
              46.834233999891296
            ],
            [
              -112.79564199963724,
              46.83166499983222
            ],
            [
              -112.79580800021691,
              47.17700399996358
            ],
            [
              -113.05905299973294,
              47.1795699997307
            ],
            [
              -113.05919900022113,
              47.48859900015692
            ],
            [
              -113.09144799969478,
              47.48042699990072
            ],
            [
              -113.11848400011621,
              47.49810500019456
            ],
            [
              -113.12591599961695,
              47.541663000107924
            ],
            [
              -113.11774599997432,
              47.570473000001385
            ],
            [
              -113.14735499994829,
              47.60226400020355
            ],
            [
              -113.13575800026027,
              47.6203210002236
            ],
            [
              -113.14469100015916,
              47.63709499986243
            ],
            [
              -113.13028599984364,
              47.64157700018155
            ],
            [
              -113.12846999980124,
              47.661047000146844
            ],
            [
              -113.15781400035966,
              47.69578799988205
            ],
            [
              -113.16555499965688,
              47.72796300013468
            ],
            [
              -113.13826100039091,
              47.7458919997764
            ],
            [
              -113.08099699967933,
              47.749916999838405
            ],
            [
              -113.08278500013263,
              47.773040999772526
            ],
            [
              -113.06645099979683,
              47.77621399999699
            ],
            [
              -113.06141100009864,
              47.78794899976292
            ],
            [
              -113.069334999694,
              47.82924699990294
            ],
            [
              -113.05808000031273,
              47.842696000215746
            ],
            [
              -113.05799699957375,
              47.87065899993934
            ],
            [
              -113.06287599961345,
              47.88556299979545
            ],
            [
              -113.09149899974841,
              47.89428200005411
            ],
            [
              -113.08653900041617,
              47.91826999990304
            ],
            [
              -113.02211500019037,
              47.92709699997567
            ],
            [
              -113.01309199987982,
              47.9419970002916
            ],
            [
              -112.98175800010006,
              47.95528699978999
            ],
            [
              -112.95140699978624,
              47.94459099996945
            ],
            [
              -112.91259100027702,
              47.946406999983424
            ],
            [
              -112.89789700025648,
              47.97245300026925
            ],
            [
              -112.87853300043363,
              47.97578400029783
            ],
            [
              -112.90784899960633,
              48.029872999769225
            ],
            [
              -112.94963400029987,
              48.03269700021639
            ],
            [
              -112.9509249997374,
              48.04960999985068
            ],
            [
              -112.93761800031218,
              48.060786000255646
            ],
            [
              -112.96371099965401,
              48.07491000000115
            ],
            [
              -112.98201699966782,
              48.07395699974969
            ],
            [
              -112.97898700018078,
              48.088847000141385
            ],
            [
              -112.9960880000725,
              48.10609300004544
            ],
            [
              -112.98451499977558,
              48.11992699995791
            ],
            [
              -113.01481099983783,
              48.13102999982981
            ],
            [
              -112.26425199975078,
              48.13134599980416
            ],
            [
              -112.2599879998293,
              48.162862999915696
            ],
            [
              -112.2694000003023,
              48.17464499994613
            ],
            [
              -112.26923100024788,
              48.19944500025557
            ],
            [
              -112.21373599972304,
              48.21297599982894
            ],
            [
              -112.17540499973738,
              48.2362220002541
            ],
            [
              -112.15026200024955,
              48.23558099989175
            ],
            [
              -112.13467799975119,
              48.252899000168526
            ],
            [
              -112.07008500036935,
              48.25019599978552
            ],
            [
              -112.05485700042145,
              48.234025999866425
            ],
            [
              -112.00551100035571,
              48.22107700023902
            ],
            [
              -112.01240499973112,
              48.23524500018366
            ],
            [
              -112.05588199972017,
              48.2498109997711
            ],
            [
              -112.05555100018239,
              48.30314800011764
            ],
            [
              -112.04772299994819,
              48.307736000131754
            ],
            [
              -112.09165799969664,
              48.30788300007592
            ],
            [
              -112.098927999714,
              48.33682300000306
            ],
            [
              -112.14102499967875,
              48.34254399991922
            ],
            [
              -112.14280499973613,
              48.35146400005709
            ],
            [
              -112.34263799970297,
              48.3574509998838
            ],
            [
              -112.33161699977512,
              48.362290999789465
            ],
            [
              -112.33843599970577,
              48.37050199984704
            ],
            [
              -112.32367100043847,
              48.3841039999681
            ],
            [
              -112.32777299997822,
              48.39064899999261
            ],
            [
              -112.3129509999112,
              48.39089699975645
            ],
            [
              -112.31455799971623,
              48.40306399987551
            ],
            [
              -112.2956809999651,
              48.40059399991484
            ],
            [
              -112.25677199967113,
              48.42976399994725
            ],
            [
              -112.26725899967158,
              48.44013299982634
            ],
            [
              -112.23043199955879,
              48.455929999838304
            ],
            [
              -112.22876600020253,
              48.48189900002098
            ],
            [
              -112.18026799988357,
              48.47719000019203
            ],
            [
              -112.1606499996175,
              48.46344199999769
            ],
            [
              -112.15232099996621,
              48.47119999997065
            ],
            [
              -112.13413799997603,
              48.466646000017974
            ],
            [
              -112.07763999989373,
              48.43510999994821
            ],
            [
              -112.06114599972435,
              48.442800000232076
            ],
            [
              -112.0730260001679,
              48.44407100021632
            ],
            [
              -112.07758399981724,
              48.43536900027398
            ],
            [
              -112.13373600029313,
              48.46686099994579
            ],
            [
              -112.15239600030928,
              48.471397000123204
            ],
            [
              -112.16067399990696,
              48.46375699990784
            ],
            [
              -112.1847839997001,
              48.47757799995668
            ],
            [
              -112.19340899962741,
              48.99868199975595
            ],
            [
              -116.04908599959745,
              49.000845999851144
            ],
            [
              -116.04911800028279,
              48.006481000052084
            ],
            [
              -116.04911599973467,
              48.00082800007414
            ]
          ]
        ]
      }
    },
    {
      "type": "Feature",
      "id": "us-cd:119:30:02",
      "properties": {
        "boundary_id": "us-cd:119:30:02",
        "boundary_type": "congressional_district",
        "name": "2",
        "stateFips": "30",
        "congress": 119,
        "district": "02",
        "bbox": [
          -113.16589000029097,
          44.99217400004813,
          -104.03969400028747,
          48.99989899978115
        ]
      },
      "geometry": {
        "type": "Polygon",
        "coordinates": [
          [
            [
              -113.16589000029097,
              47.72125200013347
            ],
            [
              -113.14641199976698,
              47.676472000084814
            ],
            [
              -113.12846999980124,
              47.661047000146844
            ],
            [
              -113.13028599984364,
              47.64157700018155
            ],
            [
              -113.14469100015916,
              47.63709499986243
            ],
            [
              -113.13575800026027,
              47.6203210002236
            ],
            [
              -113.14735499994829,
              47.60226400020355
            ],
            [
              -113.11774599997432,
              47.570473000001385
            ],
            [
              -113.12591599961695,
              47.541663000107924
            ],
            [
              -113.11543100016465,
              47.49144299999747
            ],
            [
              -113.09144799969478,
              47.48042699990072
            ],
            [
              -113.05919900022113,
              47.48859900015692
            ],
            [
              -113.05905299973294,
              47.1795699997307
            ],
            [
              -112.79580800021691,
              47.17700399996358
            ],
            [
              -112.79564199963724,
              46.83166499983222
            ],
            [
              -112.53574799999862,
              46.834233999891296
            ],
            [
              -112.53559700038586,
              46.699482000059376
            ],
            [
              -112.4108460003495,
              46.69950499981511
            ],
            [
              -112.41063799993704,
              46.656011000253734
            ],
            [
              -112.32087100020688,
              46.655927000022544
            ],
            [
              -112.29833200023376,
              46.62561999980203
            ],
            [
              -112.29321399981944,
              46.60438899991953
            ],
            [
              -112.31675399970021,
              46.57441799997972
            ],
            [
              -112.29334100004105,
              46.517915000147354
            ],
            [
              -112.30613600017848,
              46.511749999774274
            ],
            [
              -112.30453600004618,
              46.45009700007527
            ],
            [
              -112.32336900031468,
              46.4340590002961
            ],
            [
              -112.31252800031189,
              46.41838800013048
            ],
            [
              -112.35056200019662,
              46.38487800010729
            ],
            [
              -112.40341300012552,
              46.3868120000101
            ],
            [
              -112.42609299966566,
              46.36897999997781
            ],
            [
              -112.42600499980212,
              46.357463999759695
            ],
            [
              -112.45081699975215,
              46.35094199971334
            ],
            [
              -112.45408499978888,
              46.328932000101794
            ],
            [
              -112.49228899955291,
              46.342475000095526
            ],
            [
              -112.5039539999113,
              46.33019600010915
            ],
            [
              -112.5329450002923,
              46.335373000185605
            ],
            [
              -112.55629600002716,
              46.30747000017755
            ],
            [
              -112.57033599957138,
              46.304868000150144
            ],
            [
              -112.55926799978789,
              46.26331799974294
            ],
            [
              -112.57965900035593,
              46.241824000074736
            ],
            [
              -112.59809199969305,
              46.23654699990098
            ],
            [
              -112.5737509999212,
              46.21425899993206
            ],
            [
              -112.58211200025788,
              46.19868600028395
            ],
            [
              -112.57657999956679,
              46.17849600007509
            ],
            [
              -112.5402169999595,
              46.17479200010857
            ],
            [
              -112.52579699957536,
              46.185047999723615
            ],
            [
              -112.50505699992617,
              46.18399799998738
            ],
            [
              -112.51681000014811,
              46.166814000022455
            ],
            [
              -112.51999699999399,
              46.13639399989746
            ],
            [
              -112.50233700006054,
              46.11281799995169
            ],
            [
              -112.46632900028048,
              46.09297900017299
            ],
            [
              -112.47079599969321,
              46.08249700003852
            ],
            [
              -112.46173999977069,
              46.07589400009172
            ],
            [
              -112.47695199982505,
              46.05171500025212
            ],
            [
              -112.47257499992571,
              46.0391889997753
            ],
            [
              -112.44198799961033,
              46.02947900015804
            ],
            [
              -112.4356139999186,
              46.01372700019883
            ],
            [
              -112.44554400042547,
              45.998145000068675
            ],
            [
              -112.42991800009429,
              45.95867299975388
            ],
            [
              -112.43622300018906,
              45.938991999839104
            ],
            [
              -112.41632799991358,
              45.92218900027307
            ],
            [
              -112.42130599968746,
              45.9109980001263
            ],
            [
              -112.40419099955207,
              45.88778400002383
            ],
            [
              -112.43034499989157,
              45.85457700004686
            ],
            [
              -112.42562900005846,
              45.84309299978719
            ],
            [
              -112.27394399970794,
              45.79123199995363
            ],
            [
              -112.2549110003212,
              45.77091599994784
            ],
            [
              -112.21479100005733,
              45.76566599972938
            ],
            [
              -112.18537999955177,
              45.74736799997262
            ],
            [
              -112.13692599961374,
              45.77102300009373
            ],
            [
              -112.13323599980262,
              45.788035999909944
            ],
            [
              -112.11223800041058,
              45.80551799975133
            ],
            [
              -112.11796000017414,
              45.83410999980016
            ],
            [
              -112.09497599996207,
              45.83874999995614
            ],
            [
              -112.08580100021386,
              45.85110099978795
            ],
            [
              -112.04739599971006,
              45.849374999882
            ],
            [
              -112.03786100011172,
              45.8583909997399
            ],
            [
              -111.98403900041242,
              45.84649299996192
            ],
            [
              -111.93007000040005,
              45.85761199987069
            ],
            [
              -111.90968899987776,
              45.839283000160634
            ],
            [
              -111.9103269995622,
              45.828562999909806
            ],
            [
              -111.81191300016344,
              45.81348799980426
            ],
            [
              -111.8017430003554,
              45.795360000254135
            ],
            [
              -111.75608100025302,
              45.80423700003508
            ],
            [
              -111.70546700031598,
              45.79573799999849
            ],
            [
              -111.68083399956778,
              45.82158200012977
            ],
            [
              -111.66214199976459,
              45.82715099992832
            ],
            [
              -111.65068499981864,
              45.85078000003377
            ],
            [
              -111.63804200001718,
              45.84791900000494
            ],
            [
              -111.63698199966001,
              45.86139599986828
            ],
            [
              -111.62573599960128,
              45.861771999994986
            ],
            [
              -111.58769599986874,
              45.906681999769695
            ],
            [
              -111.54534600018403,
              45.910589000213896
            ],
            [
              -111.53457899980108,
              45.92442699983566
            ],
            [
              -111.50677800037191,
              45.92590199971695
            ],
            [
              -111.47128500025265,
              45.951475000199956
            ],
            [
              -111.45893600017905,
              45.998279999783165
            ],
            [
              -111.44311099965627,
              45.990702999764736
            ],
            [
              -111.41943299968324,
              45.99651500030957
            ],
            [
              -111.42103199999066,
              46.01477500015516
            ],
            [
              -111.42990600033832,
              46.01967600010628
            ],
            [
              -111.42219799975472,
              46.02900800017992
            ],
            [
              -111.42383100039733,
              46.06195100018677
            ],
            [
              -111.39190900026348,
              46.090865999891
            ],
            [
              -111.394598000167,
              46.109096000232945
            ],
            [
              -111.3840800002044,
              46.104219000171206
            ],
            [
              -111.3493720000827,
              46.12260699995285
            ],
            [
              -111.34665200021706,
              46.18778500007743
            ],
            [
              -110.78383300011627,
              46.19269899985881
            ],
            [
              -110.78403099958467,
              46.14182600014445
            ],
            [
              -110.79076699967466,
              46.14184599976526
            ],
            [
              -110.79477399967817,
              45.59068199970537
            ],
            [
              -110.85738199986156,
              45.59065000028918
            ],
            [
              -110.85825200024793,
              45.524878999819265
            ],
            [
              -110.91922199976582,
              45.52486100014241
            ],
            [
              -110.91789899964293,
              45.35127300000421
            ],
            [
              -111.03816900002285,
              45.351391000313576
            ],
            [
              -111.04506599977132,
              45.00095000007036
            ],
            [
              -110.79011899994444,
              45.00088299973675
            ],
            [
              -110.70447600039368,
              44.99217400004813
            ],
            [
              -110.10577599983614,
              45.00353300010318
            ],
            [
              -109.10322800033752,
              45.005815000063905
            ],
            [
              -109.08070000023503,
              44.999440000101245
            ],
            [
              -106.12620700034545,
              44.99326799983399
            ],
            [
              -105.92817399962917,
              44.993486999938526
            ],
            [
              -105.91314900007087,
              45.000238000007016
            ],
            [
              -104.03969400028747,
              44.99806999994052
            ],
            [
              -104.04869199958536,
              48.99989899978115
            ],
            [
              -112.19340899962741,
              48.99868199975595
            ],
            [
              -112.1847839997001,
              48.47757799995668
            ],
            [
              -112.16067399990696,
              48.46375699990784
            ],
            [
              -112.15239600030928,
              48.471397000123204
            ],
            [
              -112.13373600029313,
              48.46686099994579
            ],
            [
              -112.07758399981724,
              48.43536900027398
            ],
            [
              -112.0730260001679,
              48.44407100021632
            ],
            [
              -112.06114599972435,
              48.442800000232076
            ],
            [
              -112.07763999989373,
              48.43510999994821
            ],
            [
              -112.13413799997603,
              48.466646000017974
            ],
            [
              -112.15232099996621,
              48.47119999997065
            ],
            [
              -112.1606499996175,
              48.46344199999769
            ],
            [
              -112.18026799988357,
              48.47719000019203
            ],
            [
              -112.22876600020253,
              48.48189900002098
            ],
            [
              -112.23043199955879,
              48.455929999838304
            ],
            [
              -112.26725899967158,
              48.44013299982634
            ],
            [
              -112.25677199967113,
              48.42976399994725
            ],
            [
              -112.2956809999651,
              48.40059399991484
            ],
            [
              -112.31455799971623,
              48.40306399987551
            ],
            [
              -112.3129509999112,
              48.39089699975645
            ],
            [
              -112.32777299997822,
              48.39064899999261
            ],
            [
              -112.32367100043847,
              48.3841039999681
            ],
            [
              -112.33843599970577,
              48.37050199984704
            ],
            [
              -112.33161699977512,
              48.362290999789465
            ],
            [
              -112.34263799970297,
              48.3574509998838
            ],
            [
              -112.14280499973613,
              48.35146400005709
            ],
            [
              -112.14102499967875,
              48.34254399991922
            ],
            [
              -112.098927999714,
              48.33682300000306
            ],
            [
              -112.09165799969664,
              48.30788300007592
            ],
            [
              -112.04772299994819,
              48.307736000131754
            ],
            [
              -112.05555100018239,
              48.30314800011764
            ],
            [
              -112.05588199972017,
              48.2498109997711
            ],
            [
              -112.01240499973112,
              48.23524500018366
            ],
            [
              -112.00551100035571,
              48.22107700023902
            ],
            [
              -112.05485700042145,
              48.234025999866425
            ],
            [
              -112.07008500036935,
              48.25019599978552
            ],
            [
              -112.13467799975119,
              48.252899000168526
            ],
            [
              -112.15026200024955,
              48.23558099989175
            ],
            [
              -112.17540499973738,
              48.2362220002541
            ],
            [
              -112.21373599972304,
              48.21297599982894
            ],
            [
              -112.26923100024788,
              48.19944500025557
            ],
            [
              -112.2694000003023,
              48.17464499994613
            ],
            [
              -112.2599879998293,
              48.162862999915696
            ],
            [
              -112.26425199975078,
              48.13134599980416
            ],
            [
              -113.01481099983783,
              48.13102999982981
            ],
            [
              -112.98451499977558,
              48.11992699995791
            ],
            [
              -112.9960880000725,
              48.10609300004544
            ],
            [
              -112.97898700018078,
              48.088847000141385
            ],
            [
              -112.98201699966782,
              48.07395699974969
            ],
            [
              -112.96371099965401,
              48.07491000000115
            ],
            [
              -112.93761800031218,
              48.060786000255646
            ],
            [
              -112.9509249997374,
              48.04960999985068
            ],
            [
              -112.94963400029987,
              48.03269700021639
            ],
            [
              -112.90784899960633,
              48.029872999769225
            ],
            [
              -112.87853300043363,
              47.97578400029783
            ],
            [
              -112.89789700025648,
              47.97245300026925
            ],
            [
              -112.91259100027702,
              47.946406999983424
            ],
            [
              -112.95140699978624,
              47.94459099996945
            ],
            [
              -112.98175800010006,
              47.95528699978999
            ],
            [
              -113.01309199987982,
              47.9419970002916
            ],
            [
              -113.02211500019037,
              47.92709699997567
            ],
            [
              -113.08653900041617,
              47.91826999990304
            ],
            [
              -113.09149899974841,
              47.89428200005411
            ],
            [
              -113.06287599961345,
              47.88556299979545
            ],
            [
              -113.05799699957375,
              47.87065899993934
            ],
            [
              -113.05808000031273,
              47.842696000215746
            ],
            [
              -113.069334999694,
              47.82924699990294
            ],
            [
              -113.06141100009864,
              47.78794899976292
            ],
            [
              -113.06645099979683,
              47.77621399999699
            ],
            [
              -113.08278500013263,
              47.773040999772526
            ],
            [
              -113.08099699967933,
              47.749916999838405
            ],
            [
              -113.13826100039091,
              47.7458919997764
            ],
            [
              -113.16565299956619,
              47.721685999798964
            ],
            [
              -113.16589000029097,
              47.72125200013347
            ]
          ]
        ]
      }
    }
  ]
}
