{
  "type": "FeatureCollection",
  "features": [
    {
      "type": "Feature",
      "id": "us-cd:118:05:01",
      "properties": {
        "boundary_id": "us-cd:118:05:01",
        "boundary_type": "congressional_district",
        "name": "Congressional District 1",
        "stateFips": "05",
        "congress": 118,
        "district": "01",
        "bbox": [
          -93.3023,
          33.004291,
          -89.643585,
          36.4983426438173
        ]
      },
      "geometry": {
        "type": "Polygon",
        "coordinates": [
          [
            [
              -93.301155,
              36.483826
            ],
            [
              -93.2931173059246,
              36.4983426438173
            ],
            [
              -90.152481,
              36.497952
            ],
            [
              -90.159376,
              36.480084
            ],
            [
              -90.142269,
              36.472138
            ],
            [
              -90.155804,
              36.463555
            ],
            [
              -90.137323,
              36.455411
            ],
            [
              -90.138512,
              36.413952
            ],
            [
              -90.080426,
              36.400763
            ],
            [
              -90.064514,
              36.382085
            ],
            [
              -90.081961,
              36.322097
            ],
            [
              -90.06398,
              36.303038
            ],
            [
              -90.083731,
              36.272332
            ],
            [
              -90.114922,
              36.265595
            ],
            [
              -90.130565,
              36.242092
            ],
            [
              -90.126366,
              36.229367
            ],
            [
              -90.220425,
              36.184764
            ],
            [
              -90.23537,
              36.159153
            ],
            [
              -90.235585,
              36.139474
            ],
            [
              -90.293109,
              36.114368
            ],
            [
              -90.29991,
              36.098236
            ],
            [
              -90.319168,
              36.089976
            ],
            [
              -90.320746,
              36.071326
            ],
            [
              -90.333261,
              36.067504
            ],
            [
              -90.337146,
              36.047754
            ],
            [
              -90.37789,
              35.995683
            ],
            [
              -89.733056,
              36.000809
            ],
            [
              -89.718497,
              35.963123
            ],
            [
              -89.644307,
              35.920943
            ],
            [
              -89.643585,
              35.889742
            ],
            [
              -89.663284,
              35.874703
            ],
            [
              -89.733329,
              35.911923
            ],
            [
              -89.771674,
              35.883678
            ],
            [
              -89.768521,
              35.860533
            ],
            [
              -89.694709,
              35.834769
            ],
            [
              -89.701319,
              35.816866
            ],
            [
              -89.72817,
              35.802697
            ],
            [
              -89.765391,
              35.811207
            ],
            [
              -89.781662,
              35.805228
            ],
            [
              -89.799565,
              35.788331
            ],
            [
              -89.79895,
              35.759356
            ],
            [
              -89.825451,
              35.745188
            ],
            [
              -89.846753,
              35.744129
            ],
            [
              -89.863064,
              35.757134
            ],
            [
              -89.894107,
              35.750839
            ],
            [
              -89.911984,
              35.758313
            ],
            [
              -89.958336,
              35.72656
            ],
            [
              -89.955665,
              35.690089
            ],
            [
              -89.92735,
              35.659461
            ],
            [
              -89.898916,
              35.650904
            ],
            [
              -89.8622,
              35.670419
            ],
            [
              -89.851176,
              35.657432
            ],
            [
              -89.856619,
              35.634444
            ],
            [
              -89.890259,
              35.616416
            ],
            [
              -89.911275,
              35.617594
            ],
            [
              -89.956592,
              35.590622
            ],
            [
              -89.941995,
              35.556903
            ],
            [
              -89.910681,
              35.547451
            ],
            [
              -89.913176,
              35.536728
            ],
            [
              -89.90231,
              35.530225
            ],
            [
              -89.908934,
              35.51424
            ],
            [
              -89.958749,
              35.523837
            ],
            [
              -89.958498,
              35.541703
            ],
            [
              -89.989363,
              35.560043
            ],
            [
              -90.028287,
              35.555262
            ],
            [
              -90.04909,
              35.522257
            ],
            [
              -90.047678,
              35.50261
            ],
            [
              -90.011917,
              35.462597
            ],
            [
              -90.003322,
              35.429629
            ],
            [
              -90.048086,
              35.411737
            ],
            [
              -90.056782,
              35.403863
            ],
            [
              -90.041563,
              35.39662
            ],
            [
              -90.054322,
              35.389277
            ],
            [
              -90.069528,
              35.408132
            ],
            [
              -90.062018,
              35.41518
            ],
            [
              -90.074082,
              35.433983
            ],
            [
              -90.067798,
              35.466224
            ],
            [
              -90.079007,
              35.476874
            ],
            [
              -90.10052,
              35.478089
            ],
            [
              -90.120024,
              35.4666
            ],
            [
              -90.129435,
              35.442119
            ],
            [
              -90.16888,
              35.421878
            ],
            [
              -90.179265,
              35.385194
            ],
            [
              -90.165282,
              35.373982
            ],
            [
              -90.13551,
              35.376668
            ],
            [
              -90.146191,
              35.399468
            ],
            [
              -90.129342,
              35.41383
            ],
            [
              -90.111624,
              35.409589
            ],
            [
              -90.078613,
              35.380618
            ],
            [
              -90.109966,
              35.304988
            ],
            [
              -90.157325,
              35.301492
            ],
            [
              -90.168794,
              35.279088
            ],
            [
              -90.152094,
              35.255989
            ],
            [
              -90.092603,
              35.246775
            ],
            [
              -90.075466,
              35.214047
            ],
            [
              -90.08856,
              35.212318
            ],
            [
              -90.096466,
              35.194848
            ],
            [
              -90.11606,
              35.19859
            ],
            [
              -90.116743,
              35.186906
            ],
            [
              -90.068673,
              35.155999
            ],
            [
              -90.065182,
              35.139401
            ],
            [
              -90.089667,
              35.118053
            ],
            [
              -90.141805,
              35.133041
            ],
            [
              -90.167358,
              35.123585
            ],
            [
              -90.181374,
              35.094013
            ],
            [
              -90.175,
              35.076064
            ],
            [
              -90.181157,
              35.053943
            ],
            [
              -90.207315,
              35.025773
            ],
            [
              -90.264818,
              35.040448
            ],
            [
              -90.296968,
              35.038175
            ],
            [
              -90.307336,
              34.991927
            ],
            [
              -90.292995,
              34.974303
            ],
            [
              -90.245935,
              34.948721
            ],
            [
              -90.241334,
              34.919033
            ],
            [
              -90.257858,
              34.893385
            ],
            [
              -90.317741,
              34.871058
            ],
            [
              -90.303293,
              34.858565
            ],
            [
              -90.307384,
              34.846195
            ],
            [
              -90.338449,
              34.858517
            ],
            [
              -90.389393,
              34.830665
            ],
            [
              -90.438729,
              34.825248
            ],
            [
              -90.449691,
              34.83992
            ],
            [
              -90.429366,
              34.866609
            ],
            [
              -90.436561,
              34.882731
            ],
            [
              -90.462272,
              34.891738
            ],
            [
              -90.481264,
              34.881066
            ],
            [
              -90.481955,
              34.857805
            ],
            [
              -90.455379,
              34.820785
            ],
            [
              -90.469374,
              34.812604
            ],
            [
              -90.476455,
              34.793587
            ],
            [
              -90.448423,
              34.739117
            ],
            [
              -90.491666,
              34.721388
            ],
            [
              -90.524166,
              34.731388
            ],
            [
              -90.494393,
              34.757431
            ],
            [
              -90.492777,
              34.772499
            ],
            [
              -90.514071,
              34.800054
            ],
            [
              -90.544167,
              34.791667
            ],
            [
              -90.539444,
              34.755277
            ],
            [
              -90.545556,
              34.738889
            ],
            [
              -90.567778,
              34.733333
            ],
            [
              -90.571944,
              34.712777
            ],
            [
              -90.532444,
              34.696237
            ],
            [
              -90.474166,
              34.705277
            ],
            [
              -90.462816,
              34.684074
            ],
            [
              -90.4815,
              34.658017
            ],
            [
              -90.532108,
              34.627327
            ],
            [
              -90.547614,
              34.631656
            ],
            [
              -90.555104,
              34.646236
            ],
            [
              -90.541511,
              34.68309
            ],
            [
              -90.570102,
              34.693432
            ],
            [
              -90.568407,
              34.668878
            ],
            [
              -90.583173,
              34.651963
            ],
            [
              -90.591144,
              34.619204
            ],
            [
              -90.539623,
              34.553925
            ],
            [
              -90.545996,
              34.536181
            ],
            [
              -90.581294,
              34.51561
            ],
            [
              -90.592662,
              34.490579
            ],
            [
              -90.577694,
              34.430975
            ],
            [
              -90.586232,
              34.409172
            ],
            [
              -90.606039,
              34.393257
            ],
            [
              -90.640909,
              34.388863
            ],
            [
              -90.658542,
              34.375705
            ],
            [
              -90.666862,
              34.348569
            ],
            [
              -90.657488,
              34.322231
            ],
            [
              -90.669343,
              34.31302
            ],
            [
              -90.693129,
              34.32257
            ],
            [
              -90.676245,
              34.371111
            ],
            [
              -90.715803,
              34.360335
            ],
            [
              -90.764393,
              34.363675
            ],
            [
              -90.768691,
              34.347782
            ],
            [
              -90.736399,
              34.312067
            ],
            [
              -90.738025,
              34.289279
            ],
            [
              -90.765623,
              34.269513
            ],
            [
              -90.831773,
              34.276936
            ],
            [
              -90.847149,
              34.20613
            ],
            [
              -90.89658,
              34.2258
            ],
            [
              -90.906334,
              34.244382
            ],
            [
              -90.935548,
              34.237847
            ],
            [
              -90.934544,
              34.217854
            ],
            [
              -90.914425,
              34.195726
            ],
            [
              -90.887561,
              34.182414
            ],
            [
              -90.816572,
              34.183023
            ],
            [
              -90.807564,
              34.161821
            ],
            [
              -90.822593,
              34.144054
            ],
            [
              -90.847168,
              34.136884
            ],
            [
              -90.91001,
              34.165508
            ],
            [
              -90.958644,
              34.135484
            ],
            [
              -90.947689,
              34.109574
            ],
            [
              -90.917277,
              34.092635
            ],
            [
              -90.882628,
              34.096615
            ],
            [
              -90.871083,
              34.081177
            ],
            [
              -90.896253,
              34.025218
            ],
            [
              -90.964625,
              34.026798
            ],
            [
              -90.988184,
              34.019211
            ],
            [
              -90.961548,
              33.979945
            ],
            [
              -90.966173,
              33.964663
            ],
            [
              -91.000108,
              33.966428
            ],
            [
              -91.018948,
              34.003225
            ],
            [
              -91.048712,
              33.99268
            ],
            [
              -91.074691,
              34.009018
            ],
            [
              -91.086202,
              34.006418
            ],
            [
              -91.087753,
              33.959313
            ],
            [
              -91.023122,
              33.943216
            ],
            [
              -91.010194,
              33.93159
            ],
            [
              -91.034606,
              33.898264
            ],
            [
              -91.069777,
              33.872721
            ],
            [
              -91.070194,
              33.84534
            ],
            [
              -91.049083,
              33.816026
            ],
            [
              -91.00581,
              33.802046
            ],
            [
              -90.988466,
              33.78453
            ],
            [
              -91.01837,
              33.764131
            ],
            [
              -91.053386,
              33.778283
            ],
            [
              -91.108427,
              33.771712
            ],
            [
              -91.134059,
              33.782893
            ],
            [
              -91.144963,
              33.768075
            ],
            [
              -91.148807,
              33.73136
            ],
            [
              -91.117353,
              33.70526
            ],
            [
              -91.060529,
              33.71513
            ],
            [
              -91.030987,
              33.679412
            ],
            [
              -91.091351,
              33.657764
            ],
            [
              -91.133416,
              33.67679
            ],
            [
              -91.160367,
              33.706602
            ],
            [
              -91.217875,
              33.697997
            ],
            [
              -91.230634,
              33.677147
            ],
            [
              -91.218855,
              33.660122
            ],
            [
              -91.159986,
              33.642897
            ],
            [
              -91.12868,
              33.608475
            ],
            [
              -91.13686,
              33.590193
            ],
            [
              -91.164855,
              33.570175
            ],
            [
              -91.233392,
              33.562747
            ],
            [
              -91.219487,
              33.530191
            ],
            [
              -91.1826,
              33.499185
            ],
            [
              -91.208535,
              33.468606
            ],
            [
              -91.231661,
              33.4571
            ],
            [
              -91.235181,
              33.438972
            ],
            [
              -91.206807,
              33.433846
            ],
            [
              -91.176507,
              33.444627
            ],
            [
              -91.169809,
              33.452011
            ],
            [
              -91.176974,
              33.487254
            ],
            [
              -91.168019,
              33.49833
            ],
            [
              -91.132152,
              33.481558
            ],
            [
              -91.117786,
              33.458081
            ],
            [
              -91.131885,
              33.430063
            ],
            [
              -91.199354,
              33.418321
            ],
            [
              -91.208113,
              33.402007
            ],
            [
              -91.171968,
              33.38103
            ],
            [
              -91.141936,
              33.38006
            ],
            [
              -91.099535,
              33.407209
            ],
            [
              -91.087034,
              33.45129
            ],
            [
              -91.070742,
              33.455851
            ],
            [
              -91.058077,
              33.446537
            ],
            [
              -91.064444,
              33.418462
            ],
            [
              -91.142219,
              33.348989
            ],
            [
              -91.141615,
              33.299539
            ],
            [
              -91.106142,
              33.241799
            ],
            [
              -91.098706,
              33.238508
            ],
            [
              -91.07853,
              33.283306
            ],
            [
              -91.052369,
              33.285415
            ],
            [
              -91.043624,
              33.274636
            ],
            [
              -91.070697,
              33.227302
            ],
            [
              -91.10026,
              33.219428
            ],
            [
              -91.080787,
              33.182213
            ],
            [
              -91.085707,
              33.137189
            ],
            [
              -91.128078,
              33.128914
            ],
            [
              -91.183662,
              33.141691
            ],
            [
              -91.201995,
              33.123125
            ],
            [
              -91.200167,
              33.10693
            ],
            [
              -91.121195,
              33.059166
            ],
            [
              -91.128326,
              33.034282
            ],
            [
              -91.161838,
              33.01985
            ],
            [
              -91.166095,
              33.004291
            ],
            [
              -91.4603776475285,
              33.0059093538278
            ],
            [
              -91.450284,
              33.780543
            ],
            [
              -91.664067,
              33.792245
            ],
            [
              -91.975866,
              33.791726
            ],
            [
              -91.976442,
              33.97727
            ],
            [
              -91.953025,
              33.977188
            ],
            [
              -91.953659,
              34.093435
            ],
            [
              -91.745092,
              34.094019
            ],
            [
              -91.744729,
              34.064979
            ],
            [
              -91.726713,
              34.065113
            ],
            [
              -91.727381,
              34.175276
            ],
            [
              -91.716678,
              34.176189
            ],
            [
              -91.625111,
              34.129242
            ],
            [
              -91.585998,
              34.131245
            ],
            [
              -91.585242,
              34.122596
            ],
            [
              -91.605709,
              34.114397
            ],
            [
              -91.610611,
              34.096478
            ],
            [
              -91.603509,
              34.08719
            ],
            [
              -91.545816,
              34.10462
            ],
            [
              -91.507743,
              34.074384
            ],
            [
              -91.490353,
              34.074497
            ],
            [
              -91.481845,
              34.058596
            ],
            [
              -91.46222,
              34.064965
            ],
            [
              -91.462265,
              34.08547
            ],
            [
              -91.431833,
              34.087401
            ],
            [
              -91.442414,
              34.087832
            ],
            [
              -91.443185,
              34.126304
            ],
            [
              -91.463516,
              34.135689
            ],
            [
              -91.493259,
              34.127324
            ],
            [
              -91.496469,
              34.149993
            ],
            [
              -91.515219,
              34.142905
            ],
            [
              -91.515034,
              34.172485
            ],
            [
              -91.527396,
              34.183323
            ],
            [
              -91.528406,
              34.215365
            ],
            [
              -91.540178,
              34.224599
            ],
            [
              -91.576755,
              34.223139
            ],
            [
              -91.595655,
              34.212433
            ],
            [
              -91.599107,
              34.231477
            ],
            [
              -91.711675,
              34.233864
            ],
            [
              -91.70525,
              34.482731
            ],
            [
              -92.143734,
              34.491557
            ],
            [
              -92.145554,
              34.515255
            ],
            [
              -92.117288,
              34.546395
            ],
            [
              -92.126708,
              34.558608
            ],
            [
              -92.159442,
              34.562317
            ],
            [
              -92.167825,
              34.574601
            ],
            [
              -92.150236,
              34.600218
            ],
            [
              -92.173192,
              34.638429
            ],
            [
              -92.154178,
              34.673452
            ],
            [
              -92.150593,
              34.702748
            ],
            [
              -92.220405,
              34.754441
            ],
            [
              -92.161421,
              34.781417
            ],
            [
              -92.151508,
              34.823982
            ],
            [
              -92.122179,
              34.844322
            ],
            [
              -92.075511,
              34.842799
            ],
            [
              -92.070806,
              35.011561
            ],
            [
              -92.12154,
              35.012204
            ],
            [
              -92.11839,
              35.067277
            ],
            [
              -92.089054,
              35.064782
            ],
            [
              -92.068236,
              35.075179
            ],
            [
              -92.050301,
              35.067087
            ],
            [
              -92.013056,
              35.076317
            ],
            [
              -91.995758,
              35.058974
            ],
            [
              -91.925343,
              35.045919
            ],
            [
              -91.902557,
              35.027687
            ],
            [
              -91.895204,
              35.032917
            ],
            [
              -91.875086,
              35.023593
            ],
            [
              -91.802509,
              35.030698
            ],
            [
              -91.798159,
              35.042462
            ],
            [
              -91.744455,
              35.047091
            ],
            [
              -91.701489,
              35.06303
            ],
            [
              -91.679587,
              35.050498
            ],
            [
              -91.656125,
              35.051583
            ],
            [
              -91.640232,
              35.02705
            ],
            [
              -91.607857,
              35.020811
            ],
            [
              -91.585162,
              35.025332
            ],
            [
              -91.584078,
              35.09155
            ],
            [
              -91.465269,
              35.089457
            ],
            [
              -91.460957,
              35.102508
            ],
            [
              -91.452806,
              35.088296
            ],
            [
              -91.452616,
              35.101607
            ],
            [
              -91.424804,
              35.103639
            ],
            [
              -91.427619,
              35.111352
            ],
            [
              -91.444429,
              35.105385
            ],
            [
              -91.43889,
              35.118439
            ],
            [
              -91.45204,
              35.138014
            ],
            [
              -91.429088,
              35.136514
            ],
            [
              -91.43371,
              35.152228
            ],
            [
              -91.46315,
              35.161111
            ],
            [
              -91.422154,
              35.176992
            ],
            [
              -91.435924,
              35.181868
            ],
            [
              -91.426419,
              35.183851
            ],
            [
              -91.430841,
              35.192922
            ],
            [
              -91.413063,
              35.194276
            ],
            [
              -91.404606,
              35.214556
            ],
            [
              -91.392856,
              35.192433
            ],
            [
              -91.378983,
              35.189378
            ],
            [
              -91.377639,
              35.197075
            ],
            [
              -91.390502,
              35.201765
            ],
            [
              -91.380497,
              35.216368
            ],
            [
              -91.394788,
              35.221238
            ],
            [
              -91.377897,
              35.223096
            ],
            [
              -91.388643,
              35.23712
            ],
            [
              -91.371312,
              35.264077
            ],
            [
              -91.379243,
              35.266512
            ],
            [
              -91.388222,
              35.251259
            ],
            [
              -91.411842,
              35.264835
            ],
            [
              -91.412662,
              35.302823
            ],
            [
              -91.437434,
              35.296118
            ],
            [
              -91.425014,
              35.332859
            ],
            [
              -91.444814,
              35.346282
            ],
            [
              -91.423491,
              35.356043
            ],
            [
              -91.436573,
              35.370773
            ],
            [
              -91.411019,
              35.360911
            ],
            [
              -91.425681,
              35.375083
            ],
            [
              -91.410494,
              35.385226
            ],
            [
              -91.384868,
              35.374739
            ],
            [
              -91.400181,
              35.393746
            ],
            [
              -91.368441,
              35.408302
            ],
            [
              -91.365646,
              35.430527
            ],
            [
              -91.360917,
              35.41134
            ],
            [
              -91.3504,
              35.410434
            ],
            [
              -91.345783,
              35.424679
            ],
            [
              -91.357767,
              35.429063
            ],
            [
              -91.347257,
              35.439106
            ],
            [
              -91.584454,
              35.442309
            ],
            [
              -91.582094,
              35.530332
            ],
            [
              -91.793577,
              35.534078
            ],
            [
              -91.789645,
              35.711784
            ],
            [
              -91.806834,
              35.704558
            ],
            [
              -92.418409,
              35.716028
            ],
            [
              -92.416846,
              35.788632
            ],
            [
              -92.537943,
              35.790014
            ],
            [
              -92.629837,
              35.790823
            ],
            [
              -92.63143,
              35.718381
            ],
            [
              -92.951373,
              35.724635
            ],
            [
              -92.938469,
              36.071665
            ],
            [
              -92.945496,
              36.071674
            ],
            [
              -92.94466,
              36.115547
            ],
            [
              -93.30082,
              36.12155
            ],
            [
              -93.295732,
              36.427857
            ],
            [
              -93.296049,
              36.481635
            ],
            [
              -93.3023,
              36.482633
            ],
            [
              -93.301155,
              36.483826
            ]
          ]
        ]
      }
    },
    {
      "type": "Feature",
      "id": "us-cd:118:05:02",
      "properties": {
        "boundary_id": "us-cd:118:05:02",
        "boundary_type": "congressional_district",
        "name": "Congressional District 2",
        "stateFips": "05",
        "congress": 118,
        "district": "02",
        "bbox": [
          -93.305864,
          34.411103,
          -91.345783,
          35.790823
        ]
      },
      "geometry": {
        "type": "Polygon",
        "coordinates": [
          [
            [
              -93.305682,
              34.875463
            ],
            [
              -93.28835,
              34.875268
            ],
            [
              -93.288184,
              34.888872
            ],
            [
              -93.270667,
              34.889123
            ],
            [
              -93.270374,
              34.90368
            ],
            [
              -93.252575,
              34.903791
            ],
            [
              -93.252301,
              34.918209
            ],
            [
              -93.235018,
              34.918091
            ],
            [
              -93.235063,
              34.932592
            ],
            [
              -93.217452,
              34.932698
            ],
            [
              -93.217338,
              34.947782
            ],
            [
              -93.200492,
              34.947591
            ],
            [
              -93.200017,
              34.962326
            ],
            [
              -93.181733,
              34.961903
            ],
            [
              -93.181354,
              34.976295
            ],
            [
              -93.160177,
              34.97599
            ],
            [
              -93.160162,
              34.990457
            ],
            [
              -93.142165,
              34.990165
            ],
            [
              -93.141769,
              35.004639
            ],
            [
              -93.124065,
              35.0041
            ],
            [
              -93.123736,
              35.018605
            ],
            [
              -93.105949,
              35.018128
            ],
            [
              -93.105564,
              35.034277
            ],
            [
              -93.087263,
              35.033942
            ],
            [
              -93.087201,
              35.048275
            ],
            [
              -93.069425,
              35.048087
            ],
            [
              -93.069223,
              35.062626
            ],
            [
              -93.051491,
              35.062352
            ],
            [
              -93.051254,
              35.076828
            ],
            [
              -93.025681,
              35.089232
            ],
            [
              -93.040124,
              35.109496
            ],
            [
              -93.018236,
              35.118445
            ],
            [
              -92.980718,
              35.117199
            ],
            [
              -92.979101,
              35.131061
            ],
            [
              -92.924951,
              35.167982
            ],
            [
              -92.855096,
              35.173839
            ],
            [
              -92.849277,
              35.549474
            ],
            [
              -92.813462,
              35.548917
            ],
            [
              -92.809745,
              35.722417
            ],
            [
              -92.63143,
              35.718381
            ],
            [
              -92.629837,
              35.790823
            ],
            [
              -92.416846,
              35.788632
            ],
            [
              -92.418409,
              35.716028
            ],
            [
              -91.806834,
              35.704558
            ],
            [
              -91.789645,
              35.711784
            ],
            [
              -91.793577,
              35.534078
            ],
            [
              -91.582094,
              35.530332
            ],
            [
              -91.584454,
              35.442309
            ],
            [
              -91.347257,
              35.439106
            ],
            [
              -91.357767,
              35.429063
            ],
            [
              -91.345783,
              35.424679
            ],
            [
              -91.3504,
              35.410434
            ],
            [
              -91.360917,
              35.41134
            ],
            [
              -91.365646,
              35.430527
            ],
            [
              -91.368441,
              35.408302
            ],
            [
              -91.400181,
              35.393746
            ],
            [
              -91.384868,
              35.374739
            ],
            [
              -91.406405,
              35.386393
            ],
            [
              -91.425681,
              35.375083
            ],
            [
              -91.411019,
              35.360911
            ],
            [
              -91.438448,
              35.368895
            ],
            [
              -91.423036,
              35.358893
            ],
            [
              -91.444814,
              35.346282
            ],
            [
              -91.425014,
              35.332859
            ],
            [
              -91.437434,
              35.296118
            ],
            [
              -91.414004,
              35.304613
            ],
            [
              -91.411842,
              35.264835
            ],
            [
              -91.388222,
              35.251259
            ],
            [
              -91.377592,
              35.267531
            ],
            [
              -91.371022,
              35.260541
            ],
            [
              -91.388643,
              35.23712
            ],
            [
              -91.379034,
              35.221213
            ],
            [
              -91.394788,
              35.221238
            ],
            [
              -91.380497,
              35.216368
            ],
            [
              -91.390502,
              35.201765
            ],
            [
              -91.377639,
              35.197075
            ],
            [
              -91.378983,
              35.189378
            ],
            [
              -91.392856,
              35.192433
            ],
            [
              -91.404606,
              35.214556
            ],
            [
              -91.413063,
              35.194276
            ],
            [
              -91.430841,
              35.192922
            ],
            [
              -91.426419,
              35.183851
            ],
            [
              -91.435924,
              35.181868
            ],
            [
              -91.422154,
              35.176992
            ],
            [
              -91.46315,
              35.161111
            ],
            [
              -91.435494,
              35.154107
            ],
            [
              -91.42804,
              35.137908
            ],
            [
              -91.45204,
              35.138014
            ],
            [
              -91.43889,
              35.118439
            ],
            [
              -91.444429,
              35.105385
            ],
            [
              -91.424299,
              35.10703
            ],
            [
              -91.452616,
              35.101607
            ],
            [
              -91.450005,
              35.088921
            ],
            [
              -91.460957,
              35.102508
            ],
            [
              -91.465269,
              35.089457
            ],
            [
              -91.584078,
              35.09155
            ],
            [
              -91.585162,
              35.025332
            ],
            [
              -91.607857,
              35.020811
            ],
            [
              -91.640232,
              35.02705
            ],
            [
              -91.656125,
              35.051583
            ],
            [
              -91.679587,
              35.050498
            ],
            [
              -91.701489,
              35.06303
            ],
            [
              -91.744455,
              35.047091
            ],
            [
              -91.798159,
              35.042462
            ],
            [
              -91.802509,
              35.030698
            ],
            [
              -91.875086,
              35.023593
            ],
            [
              -91.895204,
              35.032917
            ],
            [
              -91.902557,
              35.027687
            ],
            [
              -91.925343,
              35.045919
            ],
            [
              -91.995758,
              35.058974
            ],
            [
              -92.013056,
              35.076317
            ],
            [
              -92.119748,
              35.06656
            ],
            [
              -92.12154,
              35.012204
            ],
            [
              -92.070806,
              35.011561
            ],
            [
              -92.075511,
              34.842799
            ],
            [
              -92.122179,
              34.844322
            ],
            [
              -92.151508,
              34.823982
            ],
            [
              -92.161421,
              34.781417
            ],
            [
              -92.220405,
              34.754441
            ],
            [
              -92.150593,
              34.702748
            ],
            [
              -92.154178,
              34.673452
            ],
            [
              -92.173192,
              34.638429
            ],
            [
              -92.190408,
              34.63818
            ],
            [
              -92.190243,
              34.663381
            ],
            [
              -92.204321,
              34.663653
            ],
            [
              -92.203863,
              34.678246
            ],
            [
              -92.221424,
              34.678386
            ],
            [
              -92.220944,
              34.693108
            ],
            [
              -92.237755,
              34.693678
            ],
            [
              -92.237151,
              34.716872
            ],
            [
              -92.292195,
              34.704942
            ],
            [
              -92.31499,
              34.68048
            ],
            [
              -92.36153,
              34.677455
            ],
            [
              -92.363171,
              34.655086
            ],
            [
              -92.38095,
              34.651751
            ],
            [
              -92.381943,
              34.626338
            ],
            [
              -92.346461,
              34.625635
            ],
            [
              -92.348692,
              34.582289
            ],
            [
              -92.244212,
              34.58089
            ],
            [
              -92.245841,
              34.493584
            ],
            [
              -92.403372,
              34.495707
            ],
            [
              -92.40467,
              34.451892
            ],
            [
              -92.589469,
              34.455577
            ],
            [
              -92.623377,
              34.425394
            ],
            [
              -92.622086,
              34.411103
            ],
            [
              -92.686189,
              34.414696
            ],
            [
              -92.685066,
              34.473102
            ],
            [
              -92.738821,
              34.473932
            ],
            [
              -92.738264,
              34.503241
            ],
            [
              -92.793189,
              34.503573
            ],
            [
              -92.791498,
              34.561985
            ],
            [
              -92.808952,
              34.562248
            ],
            [
              -92.808028,
              34.590406
            ],
            [
              -92.876916,
              34.59117
            ],
            [
              -92.875394,
              34.635196
            ],
            [
              -92.979978,
              34.637249
            ],
            [
              -92.979054,
              34.684886
            ],
            [
              -92.969754,
              34.684769
            ],
            [
              -92.969317,
              34.772263
            ],
            [
              -93.287785,
              34.773242
            ],
            [
              -93.288283,
              34.86087
            ],
            [
              -93.305864,
              34.861049
            ],
            [
              -93.305682,
              34.875463
            ]
          ]
        ]
      }
    },
    {
      "type": "Feature",
      "id": "us-cd:118:05:03",
      "properties": {
        "boundary_id": "us-cd:118:05:03",
        "boundary_type": "congressional_district",
        "name": "Congressional District 3",
        "stateFips": "05",
        "congress": 118,
        "district": "03",
        "bbox": [
          -94.617919,
          35.128952,
          -93.2931173059246,
          36.499414
        ]
      },
      "geometry": {
        "type": "Polygon",
        "coordinates": [
          [
            [
              -94.617919,
              36.499414
            ],
            [
              -93.2931173059246,
              36.4983426438173
            ],
            [
              -93.3023,
              36.482633
            ],
            [
              -93.296049,
              36.481635
            ],
            [
              -93.295732,
              36.427857
            ],
            [
              -93.30082,
              36.12155
            ],
            [
              -93.479521,
              36.125054
            ],
            [
              -93.480274,
              36.081554
            ],
            [
              -93.44574,
              36.080787
            ],
            [
              -93.450788,
              35.967497
            ],
            [
              -93.468082,
              35.967582
            ],
            [
              -93.468394,
              35.953157
            ],
            [
              -93.486232,
              35.953355
            ],
            [
              -93.48692,
              35.924333
            ],
            [
              -93.504866,
              35.925142
            ],
            [
              -93.506,
              35.881029
            ],
            [
              -93.523646,
              35.881514
            ],
            [
              -93.519185,
              35.763487
            ],
            [
              -93.910585,
              35.774298
            ],
            [
              -93.910836,
              35.759752
            ],
            [
              -93.892252,
              35.75942
            ],
            [
              -93.892862,
              35.745065
            ],
            [
              -93.911188,
              35.745319
            ],
            [
              -93.911668,
              35.730805
            ],
            [
              -93.964235,
              35.732029
            ],
            [
              -93.965035,
              35.703314
            ],
            [
              -93.982845,
              35.704024
            ],
            [
              -93.984235,
              35.660659
            ],
            [
              -94.073958,
              35.662463
            ],
            [
              -94.076064,
              35.575601
            ],
            [
              -94.022878,
              35.574204
            ],
            [
              -94.023406,
              35.556689
            ],
            [
              -94.040665,
              35.542102
            ],
            [
              -94.028955,
              35.507844
            ],
            [
              -94.048784,
              35.493229
            ],
            [
              -94.039227,
              35.483962
            ],
            [
              -94.057614,
              35.473232
            ],
            [
              -94.039523,
              35.46455
            ],
            [
              -94.074437,
              35.444997
            ],
            [
              -94.08222,
              35.214782
            ],
            [
              -94.064314,
              35.214536
            ],
            [
              -94.064779,
              35.199877
            ],
            [
              -94.047022,
              35.199466
            ],
            [
              -94.046565,
              35.214081
            ],
            [
              -94.028872,
              35.214176
            ],
            [
              -94.031236,
              35.140908
            ],
            [
              -94.139339,
              35.143521
            ],
            [
              -94.139676,
              35.128952
            ],
            [
              -94.175848,
              35.129596
            ],
            [
              -94.175509,
              35.144349
            ],
            [
              -94.237987,
              35.14571
            ],
            [
              -94.228112,
              35.149675
            ],
            [
              -94.236629,
              35.161912
            ],
            [
              -94.356683,
              35.162457
            ],
            [
              -94.354874,
              35.224114
            ],
            [
              -94.372647,
              35.237864
            ],
            [
              -94.4370118276822,
              35.2467475055261
            ],
            [
              -94.430662,
              35.392478
            ],
            [
              -94.6177220302144,
              36.4983247752114
            ],
            [
              -94.617919,
              36.499414
            ]
          ]
        ]
      }
    },
    {
      "type": "Feature",
      "id": "us-cd:118:05:04",
      "properties": {
        "boundary_id": "us-cd:118:05:04",
        "boundary_type": "congressional_district",
        "name": "Congressional District 4",
        "stateFips": "05",
        "congress": 118,
        "district": "04",
        "bbox": [
          -94.485875,
          33.0059093538278,
          -91.431833,
          36.125054
        ]
      },
      "geometry": {
        "type": "Polygon",
        "coordinates": [
          [
            [
              -94.485577,
              33.65331
            ],
            [
              -94.4370118276822,
              35.2467475055261
            ],
            [
              -94.372647,
              35.237864
            ],
            [
              -94.354874,
              35.224114
            ],
            [
              -94.356683,
              35.162457
            ],
            [
              -94.236629,
              35.161912
            ],
            [
              -94.228112,
              35.149675
            ],
            [
              -94.237987,
              35.14571
            ],
            [
              -94.175509,
              35.144349
            ],
            [
              -94.175848,
              35.129596
            ],
            [
              -94.139676,
              35.128952
            ],
            [
              -94.139339,
              35.143521
            ],
            [
              -94.031236,
              35.140908
            ],
            [
              -94.028872,
              35.214176
            ],
            [
              -94.046565,
              35.214081
            ],
            [
              -94.047022,
              35.199466
            ],
            [
              -94.064779,
              35.199877
            ],
            [
              -94.064314,
              35.214536
            ],
            [
              -94.08222,
              35.214782
            ],
            [
              -94.074437,
              35.444997
            ],
            [
              -94.039523,
              35.46455
            ],
            [
              -94.057614,
              35.473232
            ],
            [
              -94.039227,
              35.483962
            ],
            [
              -94.048784,
              35.493229
            ],
            [
              -94.028955,
              35.507844
            ],
            [
              -94.040665,
              35.542102
            ],
            [
              -94.023406,
              35.556689
            ],
            [
              -94.022878,
              35.574204
            ],
            [
              -94.076064,
              35.575601
            ],
            [
              -94.073958,
              35.662463
            ],
            [
              -93.984235,
              35.660659
            ],
            [
              -93.982845,
              35.704024
            ],
            [
              -93.965035,
              35.703314
            ],
            [
              -93.964235,
              35.732029
            ],
            [
              -93.911668,
              35.730805
            ],
            [
              -93.911188,
              35.745319
            ],
            [
              -93.892862,
              35.745065
            ],
            [
              -93.892252,
              35.75942
            ],
            [
              -93.910836,
              35.759752
            ],
            [
              -93.910585,
              35.774298
            ],
            [
              -93.519185,
              35.763487
            ],
            [
              -93.523646,
              35.881514
            ],
            [
              -93.506,
              35.881029
            ],
            [
              -93.504866,
              35.925142
            ],
            [
              -93.48692,
              35.924333
            ],
            [
              -93.486232,
              35.953355
            ],
            [
              -93.468394,
              35.953157
            ],
            [
              -93.468082,
              35.967582
            ],
            [
              -93.450788,
              35.967497
            ],
            [
              -93.44574,
              36.080787
            ],
            [
              -93.480274,
              36.081554
            ],
            [
              -93.479521,
              36.125054
            ],
            [
              -92.94466,
              36.115547
            ],
            [
              -92.945496,
              36.071674
            ],
            [
              -92.938469,
              36.071665
            ],
            [
              -92.951373,
              35.724635
            ],
            [
              -92.809745,
              35.722417
            ],
            [
              -92.813462,
              35.548917
            ],
            [
              -92.849277,
              35.549474
            ],
            [
              -92.855096,
              35.173839
            ],
            [
              -92.924951,
              35.167982
            ],
            [
              -92.979101,
              35.131061
            ],
            [
              -92.980718,
              35.117199
            ],
            [
              -93.018236,
              35.118445
            ],
            [
              -93.040124,
              35.109496
            ],
            [
              -93.025681,
              35.089232
            ],
            [
              -93.051254,
              35.076828
            ],
            [
              -93.051491,
              35.062352
            ],
            [
              -93.069223,
              35.062626
            ],
            [
              -93.069425,
              35.048087
            ],
            [
              -93.087201,
              35.048275
            ],
            [
              -93.087263,
              35.033942
            ],
            [
              -93.105564,
              35.034277
            ],
            [
              -93.105949,
              35.018128
            ],
            [
              -93.123736,
              35.018605
            ],
            [
              -93.124065,
              35.0041
            ],
            [
              -93.141769,
              35.004639
            ],
            [
              -93.142165,
              34.990165
            ],
            [
              -93.160162,
              34.990457
            ],
            [
              -93.160177,
              34.97599
            ],
            [
              -93.181354,
              34.976295
            ],
            [
              -93.181733,
              34.961903
            ],
            [
              -93.200017,
              34.962326
            ],
            [
              -93.200492,
              34.947591
            ],
            [
              -93.217338,
              34.947782
            ],
            [
              -93.217452,
              34.932698
            ],
            [
              -93.235063,
              34.932592
            ],
            [
              -93.235018,
              34.918091
            ],
            [
              -93.252301,
              34.918209
            ],
            [
              -93.252575,
              34.903791
            ],
            [
              -93.270374,
              34.90368
            ],
            [
              -93.270667,
              34.889123
            ],
            [
              -93.288184,
              34.888872
            ],
            [
              -93.28835,
              34.875268
            ],
            [
              -93.305682,
              34.875463
            ],
            [
              -93.305864,
              34.861049
            ],
            [
              -93.288283,
              34.86087
            ],
            [
              -93.287785,
              34.773242
            ],
            [
              -92.969317,
              34.772263
            ],
            [
              -92.969754,
              34.684769
            ],
            [
              -92.979054,
              34.684886
            ],
            [
              -92.979978,
              34.637249
            ],
            [
              -92.875394,
              34.635196
            ],
            [
              -92.876916,
              34.59117
            ],
            [
              -92.808028,
              34.590406
            ],
            [
              -92.808952,
              34.562248
            ],
            [
              -92.791498,
              34.561985
            ],
            [
              -92.793189,
              34.503573
            ],
            [
              -92.738264,
              34.503241
            ],
            [
              -92.738821,
              34.473932
            ],
            [
              -92.685066,
              34.473102
            ],
            [
              -92.686189,
              34.414696
            ],
            [
              -92.622086,
              34.411103
            ],
            [
              -92.623377,
              34.425394
            ],
            [
              -92.589469,
              34.455577
            ],
            [
              -92.40467,
              34.451892
            ],
            [
              -92.403372,
              34.495707
            ],
            [
              -92.245841,
              34.493584
            ],
            [
              -92.244212,
              34.58089
            ],
            [
              -92.348692,
              34.582289
            ],
            [
              -92.346461,
              34.625635
            ],
            [
              -92.381943,
              34.626338
            ],
            [
              -92.38095,
              34.651751
            ],
            [
              -92.363171,
              34.655086
            ],
            [
              -92.36153,
              34.677455
            ],
            [
              -92.31499,
              34.68048
            ],
            [
              -92.29539,
              34.703326
            ],
            [
              -92.248709,
              34.716855
            ],
            [
              -92.237151,
              34.716872
            ],
            [
              -92.237755,
              34.693678
            ],
            [
              -92.220944,
              34.693108
            ],
            [
              -92.221424,
              34.678386
            ],
            [
              -92.203863,
              34.678246
            ],
            [
              -92.204321,
              34.663653
            ],
            [
              -92.190243,
              34.663381
            ],
            [
              -92.190408,
              34.63818
            ],
            [
              -92.173192,
              34.638429
            ],
            [
              -92.153832,
              34.609311
            ],
            [
              -92.164298,
              34.56638
            ],
            [
              -92.117476,
              34.550393
            ],
            [
              -92.119382,
              34.536887
            ],
            [
              -92.145554,
              34.515255
            ],
            [
              -92.143734,
              34.491557
            ],
            [
              -91.70525,
              34.482731
            ],
            [
              -91.711675,
              34.233864
            ],
            [
              -91.599107,
              34.231477
            ],
            [
              -91.595655,
              34.212433
            ],
            [
              -91.573993,
              34.223692
            ],
            [
              -91.53646,
              34.223073
            ],
            [
              -91.528406,
              34.215365
            ],
            [
              -91.527396,
              34.183323
            ],
            [
              -91.515034,
              34.172485
            ],
            [
              -91.515219,
              34.142905
            ],
            [
              -91.494809,
              34.14898
            ],
            [
              -91.491329,
              34.127031
            ],
            [
              -91.451931,
              34.133865
            ],
            [
              -91.442853,
              34.125354
            ],
            [
              -91.442414,
              34.087832
            ],
            [
              -91.431833,
              34.087401
            ],
            [
              -91.462265,
              34.08547
            ],
            [
              -91.46222,
              34.064965
            ],
            [
              -91.481845,
              34.058596
            ],
            [
              -91.490353,
              34.074497
            ],
            [
              -91.507743,
              34.074384
            ],
            [
              -91.545816,
              34.10462
            ],
            [
              -91.603509,
              34.08719
            ],
            [
              -91.610611,
              34.096478
            ],
            [
              -91.605709,
              34.114397
            ],
            [
              -91.585242,
              34.122596
            ],
            [
              -91.585998,
              34.131245
            ],
            [
              -91.625111,
              34.129242
            ],
            [
              -91.71226,
              34.176173
            ],
            [
              -91.727381,
              34.175276
            ],
            [
              -91.726713,
              34.065113
            ],
            [
              -91.744729,
              34.064979
            ],
            [
              -91.745092,
              34.094019
            ],
            [
              -91.953659,
              34.093435
            ],
            [
              -91.953025,
              33.977188
            ],
            [
              -91.976442,
              33.97727
            ],
            [
              -91.975866,
              33.791726
            ],
            [
              -91.664067,
              33.792245
            ],
            [
              -91.450284,
              33.780543
            ],
            [
              -91.4603776475285,
              33.0059093538278
            ],
            [
              -94.042964,
              33.019219
            ],
            [
              -94.04345,
              33.552253
            ],
            [
              -94.072156,
              33.553864
            ],
            [
              -94.056096,
              33.567252
            ],
            [
              -94.082641,
              33.575492
            ],
            [
              -94.119902,
              33.566999
            ],
            [
              -94.128658,
              33.550952
            ],
            [
              -94.135142,
              33.571033
            ],
            [
              -94.151456,
              33.568387
            ],
            [
              -94.14216,
              33.58139
            ],
            [
              -94.156782,
              33.575749
            ],
            [
              -94.162266,
              33.588906
            ],
            [
              -94.183913,
              33.594682
            ],
            [
              -94.196536,
              33.581719
            ],
            [
              -94.217198,
              33.580737
            ],
            [
              -94.194399,
              33.573678
            ],
            [
              -94.196395,
              33.555123
            ],
            [
              -94.205634,
              33.567229
            ],
            [
              -94.226392,
              33.552912
            ],
            [
              -94.250197,
              33.556765
            ],
            [
              -94.236836,
              33.580914
            ],
            [
              -94.242777,
              33.589709
            ],
            [
              -94.275601,
              33.557964
            ],
            [
              -94.290901,
              33.558872
            ],
            [
              -94.280605,
              33.574908
            ],
            [
              -94.289129,
              33.582144
            ],
            [
              -94.309582,
              33.551673
            ],
            [
              -94.33059,
              33.552692
            ],
            [
              -94.344023,
              33.567824
            ],
            [
              -94.355945,
              33.54318
            ],
            [
              -94.381667,
              33.544035
            ],
            [
              -94.401616,
              33.559378
            ],
            [
              -94.380091,
              33.568943
            ],
            [
              -94.382887,
              33.583268
            ],
            [
              -94.412175,
              33.568691
            ],
            [
              -94.430039,
              33.591124
            ],
            [
              -94.471974,
              33.602665
            ],
            [
              -94.452961,
              33.616986
            ],
            [
              -94.462736,
              33.63091
            ],
            [
              -94.448451,
              33.634497
            ],
            [
              -94.448637,
              33.642766
            ],
            [
              -94.485875,
              33.637867
            ],
            [
              -94.485577,
              33.65331
            ]
          ]
        ]
      }
    }
  ]
}
