{
  "type": "FeatureCollection",
  "crs": {
    "type": "name",
    "properties": {
      "name": "EPSG:4326"
    }
  },
  "features": [
    {
      "type": "Feature",
      "id": 1987,
      "geometry": {
        "type": "LineString",
        "coordinates": [
          [
            -77.9323130410925,
            39.0573234384859
          ],
          [
            -77.9322682320801,
            39.0573458584922
          ],
          [
            -77.9321963970664,
            39.0574819435221
          ],
          [
            -77.9321017720453,
            39.0576117585517
          ],
          [
            -77.9320202940344,
            39.0578370995998
          ],
          [
            -77.9319457900275,
            39.0580923316537
          ],
          [
            -77.9318536020219,
            39.0584545887297
          ],
          [
            -77.9318119290188,
            39.0586089607622
          ],
          [
            -77.9318037420164,
            39.0586109657629
          ]
        ]
      },
      "properties": {
        "OBJECTID": 1987,
        "Reg_Acro": "MARO",
        "Acronym": "PATC",
        "Name": "Appalachian National Scenic Trail",
        "Alt_Name": "NA",
        "Status": "Official A.T. Route",
        "In_FMSS": "Yes",
        "FMSS_Name": "PATC AT Treadway",
        "FMSS_LocID": "77159",
        "Asset_ID": "1599675",
        "Surface": "Native Soil or Rock",
        "Shared_Use": "Abandoned Road",
        "Length_Ft": 497.84245300633313,
        "Year_Built": 1968,
        "Comments": " ",
        "FMSS_QTY": 4984179.640624,
        "Descriptio": "PATC AT Treadway",
        "FBMS_ID": "IB14001000208620000560",
        "OB": 1,
        "API": 100,
        "Hist_Stat": "3",
        "Region": "Mid-Atlantic",
        "Trail_Club": "Potomac Appalachain Trail Club",
        "Max_PDOP": 8,
        "Max_HDOP": 0,
        "Corr_Type": "Differential",
        "Rcvr_Type": "Pro XRS",
        "GPS_Date": 1025827200000,
        "GPS_Time": " ",
        "Update_Sta": "New",
        "Feat_Name": "AT",
        "Datafile": "E070506A.cor",
        "Unfilt_Pos": 0,
        "Filt_Pos": 0,
        "Data_Dicti": "AT Version 8d5",
        "GPS_Week": 0,
        "GNSS_Lengt": 0,
        "GNSS_3DLen": 0,
        "Avg_Vert_P": 3.1,
        "Avg_Horz_P": 2.4,
        "Worst_Vert": 4,
        "Worst_Horz": 3.3,
        "GFID": "{5073c992-2349-4fd8-8663-aeccdb4c2e84}",
        "Source": "2001-2003 GPS Survey using Trimble GPS Equipment",
        "Version": "June 2023",
        "Publish": "Yes",
        "Creator": "MROBINSON",
        "Create_Date": 1567004791000,
        "Editor": "MROBINSON",
        "Edit_Date": 1567023390000,
        "Shape__Length": 195.97877551351897,
        "GlobalID": "148e7ec4-de9e-4be6-afcd-1fee87f87075"
      }
    },
    {
      "type": "Feature",
      "id": 1792,
      "geometry": {
        "type": "LineString",
        "coordinates": [
          [
            -77.9120038457321,
            39.0721034822232
          ],
          [
            -77.9119649587219,
            39.0721327422306
          ],
          [
            -77.9119420307148,
            39.0721324262314
          ],
          [
            -77.9118732486934,
            39.0721314792339
          ],
          [
            -77.9118196156771,
            39.072136699237
          ],
          [
            -77.9117726796655,
            39.0721837262482
          ],
          [
            -77.9117557736648,
            39.0722550032631
          ],
          [
            -77.911722905661,
            39.0723558572845
          ],
          [
            -77.9117051886623,
            39.0724628793065
          ],
          [
            -77.9116496636507,
            39.0725515033264
          ],
          [
            -77.9115649206262,
            39.0725801313354
          ],
          [
            -77.9114347265865,
            39.0725902553425
          ],
          [
            -77.9113302995468,
            39.0724755893236
          ],
          [
            -77.9112344615071,
            39.072319328296
          ],
          [
            -77.9111144794634,
            39.0722163672801
          ],
          [
            -77.9109719754115,
            39.0720952172614
          ],
          [
            -77.9108401243652,
            39.0720099702495
          ],
          [
            -77.9107879793452,
            39.0719496582394
          ],
          [
            -77.9106895743119,
            39.0719065872346
          ],
          [
            -77.910546260262,
            39.0718211812231
          ],
          [
            -77.91039516921,
            39.071741627213
          ],
          [
            -77.9102727551724,
            39.0717458972186
          ],
          [
            -77.9101885531466,
            39.0717506952228
          ],
          [
            -77.9100752691075,
            39.071689539215
          ],
          [
            -77.9100139940888,
            39.0716946532184
          ],
          [
            -77.9098986810549,
            39.0717228582284
          ],
          [
            -77.9098670290481,
            39.0717700952391
          ],
          [
            -77.9098351060419,
            39.0718292472522
          ],
          [
            -77.9098332120466,
            39.0719126502689
          ],
          [
            -77.9098526220625,
            39.0720678582992
          ],
          [
            -77.9098871820835,
            39.0722292353301
          ],
          [
            -77.9099360801115,
            39.0724325233688
          ],
          [
            -77.9099485241234,
            39.0725578393934
          ],
          [
            -77.9098625621019,
            39.0726400824131
          ],
          [
            -77.9097224260655,
            39.0727513744407
          ],
          [
            -77.9096203660414,
            39.0728691504682
          ],
          [
            -77.909611506042,
            39.0729226614792
          ],
          [
            -77.9096022390437,
            39.0729940444938
          ],
          [
            -77.909584925044,
            39.0730831935124
          ],
          [
            -77.9095383930314,
            39.07311234752
          ],
          [
            -77.9094387680011,
            39.0731228915259
          ],
          [
            -77.9093784389801,
            39.073086303521
          ],
          [
            -77.9093110089554,
            39.0730257805114
          ],
          [
            -77.9092213289218,
            39.0729351534968
          ],
          [
            -77.9091238698861,
            39.0728503784836
          ],
          [
            -77.9090250578539,
            39.0728251774824
          ],
          [
            -77.9088967588095,
            39.0727518954727
          ],
          [
            -77.9087923357697,
            39.0726372284539
          ],
          [
            -77.9086943367355,
            39.0725762824454
          ],
          [
            -77.9086102687093,
            39.0725751214485
          ],
          [
            -77.9084572826621,
            39.0725789684551
          ],
          [
            -77.9083435926241,
            39.0725356834509
          ],
          [
            -77.9082670316006,
            39.0725405854548
          ],
          [
            -77.908213533584,
            39.0725398464567
          ],
          [
            -77.9081073515487,
            39.0725026244534
          ],
          [
            -77.90799393251,
            39.0724474244468
          ],
          [
            -77.9078962044751,
            39.0723745634359
          ],
          [
            -77.9078432494571,
            39.0723499944331
          ],
          [
            -77.9077284764217,
            39.0723543674384
          ],
          [
            -77.9076529993956,
            39.0723116104328
          ],
          [
            -77.9075062743435,
            39.0722082754178
          ],
          [
            -77.9074013113052,
            39.0721174364037
          ],
          [
            -77.9072904682601,
            39.0719490453744
          ],
          [
            -77.9071931492242,
            39.07185831236
          ],
          [
            -77.9071096241967,
            39.0718333203582
          ],
          [
            -77.907048755177,
            39.071820560358
          ],
          [
            -77.906988429156,
            39.071783971353
          ],
          [
            -77.9069133601288,
            39.0717233413438
          ],
          [
            -77.9068681831129,
            39.0716929203395
          ],
          [
            -77.9068146860962,
            39.0716921813414
          ],
          [
            -77.9067535470772,
            39.0716913353436
          ],
          [
            -77.9066851710548,
            39.0716725123425
          ],
          [
            -77.9065265780001,
            39.0715868903315
          ],
          [
            -77.9063296379339,
            39.0715066963231
          ],
          [
            -77.906171587878,
            39.0713972443073
          ],
          [
            -77.9060435658328,
            39.0713120442952
          ],
          [
            -77.9059694478033,
            39.0712097122776
          ],
          [
            -77.9059245427867,
            39.0711673762709
          ],
          [
            -77.9058721307674,
            39.0711189772633
          ],
          [
            -77.9058337837558,
            39.0711244062658
          ],
          [
            -77.9057946217463,
            39.0711655792756
          ],
          [
            -77.905723398731,
            39.0712718602996
          ],
          [
            -77.9056592757193,
            39.0714020763281
          ],
          [
            -77.9056345857166,
            39.0714792043444
          ],
          [
            -77.905588866702,
            39.0714726123449
          ],
          [
            -77.905544097685,
            39.071424319337
          ],
          [
            -77.9054474596474,
            39.0713037973166
          ],
          [
            -77.9054114176301,
            39.0712079502989
          ],
          [
            -77.9054133176254,
            39.0711245472821
          ],
          [
            -77.9053790396038,
            39.0709512552488
          ],
          [
            -77.9052753025624,
            39.070806798224
          ],
          [
            -77.9051930015319,
            39.0707281892114
          ],
          [
            -77.9051399115142,
            39.0707095762098
          ],
          [
            -77.9050723524898,
            39.0706550082014
          ],
          [
            -77.9050129774664,
            39.0705767161881
          ],
          [
            -77.9049452824423,
            39.070528105181
          ],
          [
            -77.9048457974117,
            39.0705326871858
          ],
          [
            -77.9047392113774,
            39.070513334186
          ],
          [
            -77.9046140643359,
            39.0704698871822
          ],
          [
            -77.9045690243196,
            39.0704335081766
          ],
          [
            -77.9045017372945,
            39.0703670241659
          ],
          [
            -77.9044876742867,
            39.0703131971557
          ],
          [
            -77.9044283002633,
            39.0702349041424
          ],
          [
            -77.9043308512277,
            39.0701501261292
          ],
          [
            -77.9042490941958,
            39.0700476861119
          ],
          [
            -77.9041577951663,
            39.0700285441116
          ],
          [
            -77.9040514821313,
            39.0699972761095
          ],
          [
            -77.9039377990933,
            39.0699539861052
          ],
          [
            -77.9037849540457,
            39.0699518691107
          ],
          [
            -77.9036321099982,
            39.0699497521161
          ],
          [
            -77.9035861199842,
            39.069955074119
          ],
          [
            -77.9035174759625,
            39.0699481641203
          ],
          [
            -77.9034417329371,
            39.069917318117
          ],
          [
            -77.9033272349011,
            39.0699097731199
          ],
          [
            -77.9032504048783,
            39.0699265861262
          ],
          [
            -77.9031035718372,
            39.0699960621458
          ],
          [
            -77.902948145796,
            39.070107134174
          ],
          [
            -77.9028851057817,
            39.0701896891929
          ],
          [
            -77.90280786776,
            39.0702243742028
          ],
          [
            -77.9026454777147,
            39.0703055532253
          ],
          [
            -77.9024763956647,
            39.0703449242397
          ],
          [
            -77.9023601306331,
            39.0704148232582
          ],
          [
            -77.9022594216056,
            39.0704730192737
          ],
          [
            -77.9021823185835,
            39.0705017462824
          ],
          [
            -77.9020982535573,
            39.0705005802854
          ],
          [
            -77.9020451655396,
            39.0704819662837
          ],
          [
            -77.901939532503,
            39.0704209092756
          ],
          [
            -77.9018489134719,
            39.0703719782693
          ],
          [
            -77.9017956894545,
            39.0703593222688
          ],
          [
            -77.9017417854389,
            39.0703764522744
          ],
          [
            -77.9016257914066,
            39.0704344352905
          ]
        ]
      },
      "properties": {
        "OBJECTID": 1792,
        "Reg_Acro": "MARO",
        "Acronym": "PATC",
        "Name": "Appalachian National Scenic Trail",
        "Alt_Name": "NA",
        "Status": "Official A.T. Route",
        "In_FMSS": "Yes",
        "FMSS_Name": "PATC AT Treadway",
        "FMSS_LocID": "77159",
        "Asset_ID": "1599675",
        "Surface": "Native Soil or Rock",
        "Shared_Use": "Single Trail Only",
        "Length_Ft": 4454.228198623212,
        "Year_Built": 1968,
        "Comments": " ",
        "FMSS_QTY": 4984179.640624,
        "Descriptio": "PATC AT Treadway",
        "FBMS_ID": "IB14001000208620000560",
        "OB": 1,
        "API": 100,
        "Hist_Stat": "3",
        "Region": "Mid-Atlantic",
        "Trail_Club": "Potomac Appalachain Trail Club",
        "Max_PDOP": 8,
        "Max_HDOP": 0,
        "Corr_Type": "Differential",
        "Rcvr_Type": "Pro XRS",
        "GPS_Date": 1025827200000,
        "GPS_Time": " ",
        "Update_Sta": "New",
        "Feat_Name": "AT",
        "Datafile": "E070506A.cor",
        "Unfilt_Pos": 0,
        "Filt_Pos": 0,
        "Data_Dicti": "AT Version 8d5",
        "GPS_Week": 0,
        "GNSS_Lengt": 0,
        "GNSS_3DLen": 0,
        "Avg_Vert_P": 3.1,
        "Avg_Horz_P": 2.4,
        "Worst_Vert": 4,
        "Worst_Horz": 3.3,
        "GFID": "{21729a05-a166-45ce-9d75-5b9292932bd3}",
        "Source": "2001-2003 GPS Survey using Trimble GPS Equipment",
        "Version": "June 2023",
        "Publish": "Yes",
        "Creator": "MROBINSON",
        "Create_Date": 1567004791000,
        "Editor": "MROBINSON",
        "Edit_Date": 1567023390000,
        "Shape__Length": 1754.8197851380003,
        "GlobalID": "dde60194-555d-491a-93ee-94b41ed2065d"
      }
    },
    {
      "type": "Feature",
      "id": 1793,
      "geometry": {
        "type": "LineString",
        "coordinates": [
          [
            -77.9192480565577,
            39.065469156618
          ],
          [
            -77.9191955055387,
            39.0654267206116
          ],
          [
            -77.9191420135221,
            39.0654259866135
          ],
          [
            -77.9191034015112,
            39.0654433346184
          ],
          [
            -77.9190564744996,
            39.0654903646297
          ],
          [
            -77.9190010994877,
            39.0655730336483
          ],
          [
            -77.9189765604846,
            39.0656442076635
          ],
          [
            -77.9189745424897,
            39.0657335686814
          ],
          [
            -77.9189349884812,
            39.0657926186948
          ],
          [
            -77.9188954344726,
            39.0658516677081
          ],
          [
            -77.9188548044668,
            39.065958376731
          ],
          [
            -77.9187925934505,
            39.0660051967428
          ],
          [
            -77.9186762174192,
            39.0660810697624
          ],
          [
            -77.9186209754069,
            39.0661577817798
          ],
          [
            -77.9186032704082,
            39.0662648048019
          ],
          [
            -77.918601790412,
            39.0663303358151
          ],
          [
            -77.9186276494332,
            39.0665392638558
          ],
          [
            -77.9186029744305,
            39.0666163948722
          ],
          [
            -77.9185710614244,
            39.0666755488852
          ],
          [
            -77.9184493823956,
            39.0668169009182
          ],
          [
            -77.9183781833803,
            39.0669231889421
          ],
          [
            -77.9183226713687,
            39.067011815962
          ],
          [
            -77.9181991893337,
            39.0670637539771
          ],
          [
            -77.9180667192997,
            39.0671751610045
          ],
          [
            -77.9179047582534,
            39.0672384880234
          ],
          [
            -77.9177484182147,
            39.06739128206
          ],
          [
            -77.9175763911721,
            39.0675617371007
          ],
          [
            -77.9173735251208,
            39.0677436871449
          ],
          [
            -77.9173176071102,
            39.0678501851683
          ],
          [
            -77.9172447900989,
            39.0680279622066
          ],
          [
            -77.9171957060927,
            39.068170309237
          ],
          [
            -77.9172001161031,
            39.0683133912654
          ],
          [
            -77.9171847481094,
            39.0684859973005
          ],
          [
            -77.9171447871019,
            39.0685629183173
          ],
          [
            -77.9171274821022,
            39.0686520693358
          ],
          [
            -77.9171325661109,
            39.0687653643583
          ],
          [
            -77.917184310132,
            39.0688435453719
          ],
          [
            -77.9172120511485,
            39.068969070396
          ],
          [
            -77.9171950161482,
            39.069046306412
          ],
          [
            -77.9171715511424,
            39.0690698204176
          ],
          [
            -77.9171256981281,
            39.0690691904192
          ],
          [
            -77.9170346660979,
            39.0690381444166
          ],
          [
            -77.9168818220504,
            39.0690360444221
          ],
          [
            -77.9166984109933,
            39.0690335244286
          ],
          [
            -77.9165380599431,
            39.0690253624332
          ],
          [
            -77.9164912639311,
            39.0690664334432
          ],
          [
            -77.9164738239318,
            39.0691615414629
          ],
          [
            -77.9164473949334,
            39.0693161184948
          ],
          [
            -77.9163968259309,
            39.0695239965383
          ],
          [
            -77.9163848729393,
            39.0697145275768
          ],
          [
            -77.9163829869441,
            39.0697979305936
          ],
          [
            -77.916435134964,
            39.0698582396036
          ],
          [
            -77.9164871489844,
            39.0699245056148
          ],
          [
            -77.9165159669983,
            39.0700023716293
          ],
          [
            -77.916521858005,
            39.0700799226445
          ],
          [
            -77.9165780970255,
            39.070128369652
          ],
          [
            -77.9166606800554,
            39.0701950556621
          ],
          [
            -77.9166744830639,
            39.0702607966747
          ],
          [
            -77.9166713850716,
            39.0703978167022
          ],
          [
            -77.9166165420584,
            39.0704566557161
          ],
          [
            -77.916547761037,
            39.0704557107186
          ],
          [
            -77.916448815005,
            39.0704364727186
          ],
          [
            -77.9163727959803,
            39.0704175507177
          ],
          [
            -77.916326537967,
            39.0704347927229
          ],
          [
            -77.9163030719612,
            39.0704583067285
          ],
          [
            -77.916262973954,
            39.0705411847467
          ],
          [
            -77.9162837449666,
            39.070636817765
          ],
          [
            -77.9163266349882,
            39.0707685107896
          ],
          [
            -77.9163775720113,
            39.0708824358104
          ],
          [
            -77.9163919130184,
            39.0709243478182
          ],
          [
            -77.916445006036,
            39.0709429548199
          ],
          [
            -77.9166202410921,
            39.0709691998184
          ],
          [
            -77.9167034991203,
            39.0710060988225
          ],
          [
            -77.9167329911324,
            39.071054177831
          ],
          [
            -77.9167777681494,
            39.0711024668389
          ],
          [
            -77.9168529791762,
            39.0711571338469
          ],
          [
            -77.9169428022095,
            39.0712417968604
          ],
          [
            -77.917078480257,
            39.0713270898722
          ],
          [
            -77.9171746002959,
            39.0714714318973
          ],
          [
            -77.9171953723085,
            39.0715670649156
          ],
          [
            -77.9171936223129,
            39.0716445109311
          ],
          [
            -77.9172524723376,
            39.0717466259492
          ],
          [
            -77.9172961723573,
            39.0718425739667
          ],
          [
            -77.9173030073617,
            39.0718784229736
          ],
          [
            -77.9172639863518,
            39.0719136419822
          ],
          [
            -77.9171876963277,
            39.0719066349837
          ],
          [
            -77.9171040333005,
            39.0718876079831
          ],
          [
            -77.9170031492627,
            39.0717849159665
          ],
          [
            -77.9169437612393,
            39.0717066299532
          ],
          [
            -77.9168761912149,
            39.0716520689449
          ],
          [
            -77.9167167771623,
            39.0716022049411
          ],
          [
            -77.91661796413,
            39.0715770099399
          ],
          [
            -77.9165415401062,
            39.0715759599426
          ],
          [
            -77.9164960900909,
            39.0715574579407
          ],
          [
            -77.9164360280692,
            39.0715089579333
          ],
          [
            -77.9163825310526,
            39.0715082229352
          ],
          [
            -77.9163213910336,
            39.0715073829374
          ],
          [
            -77.9162143980003,
            39.0715059129413
          ],
          [
            -77.9161072689673,
            39.0715103989463
          ],
          [
            -77.9160155599388,
            39.0715091389495
          ],
          [
            -77.9159092399039,
            39.0714778809474
          ],
          [
            -77.9157809358594,
            39.0714046069378
          ],
          [
            -77.915614015804,
            39.0713486789331
          ],
          [
            -77.9154918717657,
            39.0713410399362
          ],
          [
            -77.9153221207174,
            39.0714102169566
          ],
          [
            -77.9151448626664,
            39.071473329976
          ],
          [
            -77.9150382726322,
            39.0714539869763
          ],
          [
            -77.9149841016172,
            39.0714830379842
          ],
          [
            -77.9148758935869,
            39.0715351829988
          ],
          [
            -77.9145679034975,
            39.0716322520301
          ],
          [
            -77.9143830014442,
            39.0716952600498
          ],
          [
            -77.914229208399,
            39.0717348580636
          ],
          [
            -77.9140595893504,
            39.0717980760828
          ],
          [
            -77.9139659913266,
            39.0718802171028
          ],
          [
            -77.9138564322997,
            39.0719919341294
          ],
          [
            -77.9137169782616,
            39.0720734441511
          ],
          [
            -77.9135103611981,
            39.0720825181608
          ],
          [
            -77.9133030691363,
            39.0721213781766
          ],
          [
            -77.9131655050935,
            39.0721194841815
          ],
          [
            -77.9130519470551,
            39.0720702471761
          ],
          [
            -77.9129467080175,
            39.0719913271644
          ],
          [
            -77.9128638559883,
            39.0719365531566
          ],
          [
            -77.9127508389486,
            39.0718634861464
          ],
          [
            -77.9127056599326,
            39.0718330671421
          ],
          [
            -77.9126986929286,
            39.0718031751364
          ],
          [
            -77.9126757649214,
            39.0718028591372
          ],
          [
            -77.912652567915,
            39.0718144581404
          ],
          [
            -77.9126433049166,
            39.0718858411551
          ],
          [
            -77.9126583199221,
            39.0718979671569
          ],
          [
            -77.9126651519265,
            39.0719338161638
          ],
          [
            -77.9126565639264,
            39.0719754131725
          ],
          [
            -77.9126332309203,
            39.0719929691768
          ],
          [
            -77.9126324209223,
            39.072028713184
          ],
          [
            -77.9126313409251,
            39.0720763721936
          ],
          [
            -77.9126148399233,
            39.0721297782049
          ],
          [
            -77.9125683099107,
            39.0721589332125
          ],
          [
            -77.9125071698917,
            39.0721580912147
          ],
          [
            -77.912385970851,
            39.0721087472095
          ],
          [
            -77.9122649068099,
            39.0720534462031
          ],
          [
            -77.9121434377698,
            39.0720160172003
          ],
          [
            -77.9120973127563,
            39.0720273002044
          ],
          [
            -77.9120582897464,
            39.0720625182129
          ],
          [
            -77.9120038457321,
            39.0721034822232
          ]
        ]
      },
      "properties": {
        "OBJECTID": 1793,
        "Reg_Acro": "MARO",
        "Acronym": "PATC",
        "Name": "Appalachian National Scenic Trail",
        "Alt_Name": "NA",
        "Status": "Official A.T. Route",
        "In_FMSS": "Yes",
        "FMSS_Name": "PATC AT Treadway",
        "FMSS_LocID": "77159",
        "Asset_ID": "1599675",
        "Surface": "Native Soil or Rock",
        "Shared_Use": "Single Trail Only",
        "Length_Ft": 4898.502014028225,
        "Year_Built": 1968,
        "Comments": " ",
        "FMSS_QTY": 4984179.640624,
        "Descriptio": "PATC AT Treadway",
        "FBMS_ID": "IB14001000208620000560",
        "OB": 1,
        "API": 100,
        "Hist_Stat": "3",
        "Region": "Mid-Atlantic",
        "Trail_Club": "Potomac Appalachain Trail Club",
        "Max_PDOP": 8,
        "Max_HDOP": 0,
        "Corr_Type": "Differential",
        "Rcvr_Type": "Pro XRS",
        "GPS_Date": 1025827200000,
        "GPS_Time": " ",
        "Update_Sta": "New",
        "Feat_Name": "AT",
        "Datafile": "E070506A.cor",
        "Unfilt_Pos": 0,
        "Filt_Pos": 0,
        "Data_Dicti": "AT Version 8d5",
        "GPS_Week": 0,
        "GNSS_Lengt": 0,
        "GNSS_3DLen": 0,
        "Avg_Vert_P": 3.1,
        "Avg_Horz_P": 2.4,
        "Worst_Vert": 4,
        "Worst_Horz": 3.3,
        "GFID": "{18fc35f7-d9df-4907-96b4-bf4d299ce1c9}",
        "Source": "2001-2003 GPS Survey using Trimble GPS Equipment",
        "Version": "June 2023",
        "Publish": "Yes",
        "Creator": "MROBINSON",
        "Create_Date": 1567004791000,
        "Editor": "MROBINSON",
        "Edit_Date": 1567023390000,
        "Shape__Length": 1929.6023195072812,
        "GlobalID": "c7f46d3e-bbd3-4259-be35-107f9727798c"
      }
    },
    {
      "type": "Feature",
      "id": 1988,
      "geometry": {
        "type": "LineString",
        "coordinates": [
          [
            -77.9421909445028,
            39.0470421020498
          ],
          [
            -77.9421521154953,
            39.0471127740654
          ],
          [
            -77.94211239249,
            39.0472236070891
          ],
          [
            -77.9420266314683,
            39.0472999171077
          ],
          [
            -77.9419479804502,
            39.0474001601307
          ],
          [
            -77.9419155664455,
            39.0474831501486
          ],
          [
            -77.941876042437,
            39.0475422071619
          ],
          [
            -77.9417673614081,
            39.0476182071813
          ],
          [
            -77.9417582634094,
            39.0476836351947
          ],
          [
            -77.9417336214067,
            39.0477607712111
          ],
          [
            -77.9416710443914,
            39.0478254762264
          ],
          [
            -77.9416205663889,
            39.04803336527
          ],
          [
            -77.941609612395,
            39.0481821973001
          ],
          [
            -77.9415839093949,
            39.048306992326
          ],
          [
            -77.9415820533997,
            39.0483903963428
          ],
          [
            -77.9415185483867,
            39.0484968023665
          ],
          [
            -77.9413746903492,
            39.0486080813943
          ],
          [
            -77.9412577043196,
            39.0487137644199
          ],
          [
            -77.9411486232917,
            39.0488076354429
          ],
          [
            -77.9410852492785,
            39.0489080844654
          ],
          [
            -77.9409608882458,
            39.049001748489
          ],
          [
            -77.9409135892354,
            39.0490666595037
          ],
          [
            -77.9408737982275,
            39.0491376315195
          ],
          [
            -77.9408109542129,
            39.0492142505372
          ],
          [
            -77.9407864422098,
            39.0492854295524
          ],
          [
            -77.9408071082226,
            39.0493870155719
          ],
          [
            -77.9408289672325,
            39.0494349845806
          ],
          [
            -77.9408269782375,
            39.0495243455986
          ],
          [
            -77.940779281228,
            39.0496071286169
          ],
          [
            -77.9407386942222,
            39.0497138456399
          ],
          [
            -77.9407377652245,
            39.0497555466482
          ],
          [
            -77.9407814842442,
            39.0498514856657
          ],
          [
            -77.9408410142672,
            39.0499238026779
          ],
          [
            -77.9408399532699,
            39.0499714616875
          ],
          [
            -77.9408224182709,
            39.0500725307083
          ],
          [
            -77.9407980392675,
            39.0501377517223
          ],
          [
            -77.9408030272766,
            39.0502570037459
          ],
          [
            -77.9408056532809,
            39.0503106717566
          ],
          [
            -77.9407583542703,
            39.0503755827713
          ],
          [
            -77.9407416142693,
            39.050440907785
          ],
          [
            -77.9407470002774,
            39.0505422868051
          ],
          [
            -77.9407979623004,
            39.0506562008258
          ],
          [
            -77.940922275355,
            39.0509081698714
          ],
          [
            -77.9410044613859,
            39.0509927108851
          ],
          [
            -77.9410866484167,
            39.0510772518989
          ],
          [
            -77.941132091432,
            39.0510957449008
          ],
          [
            -77.9412848964795,
            39.0510978118954
          ],
          [
            -77.9413756515104,
            39.0511407549004
          ],
          [
            -77.9414799635504,
            39.0512613499205
          ],
          [
            -77.9415474005751,
            39.0513218539299
          ],
          [
            -77.9416681866168,
            39.0513890389387
          ],
          [
            -77.9417502416481,
            39.0514795369537
          ],
          [
            -77.9417491816508,
            39.0515271959632
          ],
          [
            -77.9417632696585,
            39.0515810199734
          ],
          [
            -77.9418010726714,
            39.0515994089756
          ],
          [
            -77.9418689076952,
            39.0516420409815
          ],
          [
            -77.9418679806976,
            39.0516837419899
          ],
          [
            -77.9418515066958,
            39.0517371520012
          ],
          [
            -77.9418047376839,
            39.0517782340112
          ],
          [
            -77.9417113306598,
            39.0518544400301
          ],
          [
            -77.9416636326503,
            39.0519372240485
          ],
          [
            -77.9416121156395,
            39.0520199560669
          ],
          [
            -77.9416408206538,
            39.0521037730826
          ],
          [
            -77.9416852046717,
            39.0521699240941
          ],
          [
            -77.9417426167002,
            39.0523375591254
          ],
          [
            -77.9418075367313,
            39.0525112531576
          ],
          [
            -77.9418501987537,
            39.0526548511846
          ],
          [
            -77.9418396427588,
            39.0527858112112
          ],
          [
            -77.9417907517523,
            39.0529222112404
          ],
          [
            -77.9417022007376,
            39.053123626284
          ],
          [
            -77.9416688547352,
            39.0532483183102
          ],
          [
            -77.9415807007195,
            39.0534318613503
          ],
          [
            -77.9414751676935,
            39.0535376993756
          ],
          [
            -77.9414032216802,
            39.0536797464067
          ],
          [
            -77.9413087516588,
            39.0538036124351
          ],
          [
            -77.9412287666441,
            39.0539634284702
          ],
          [
            -77.9411665806278,
            39.0540102604819
          ],
          [
            -77.9410414145973,
            39.0541396695126
          ],
          [
            -77.9409634175775,
            39.0542101245297
          ],
          [
            -77.9408788415527,
            39.0542328165375
          ],
          [
            -77.9407792485225,
            39.0542433865434
          ],
          [
            -77.9407243055096,
            39.0543081945585
          ],
          [
            -77.9405684424698,
            39.0544431465915
          ],
          [
            -77.9404669924444,
            39.0545371206142
          ],
          [
            -77.9403116594032,
            39.0546482426424
          ],
          [
            -77.9401884813676,
            39.0546882896552
          ],
          [
            -77.9401028423455,
            39.0547586406725
          ],
          [
            -77.9399929533196,
            39.0548882547027
          ],
          [
            -77.9399158842976,
            39.0549170077114
          ],
          [
            -77.9398215422758,
            39.0550349137386
          ],
          [
            -77.9397139092442,
            39.0550632517484
          ],
          [
            -77.9396747762347,
            39.0551044367582
          ],
          [
            -77.9396581682334,
            39.0551638037707
          ],
          [
            -77.939648536236,
            39.0552530607888
          ],
          [
            -77.9396014982248,
            39.0553060568013
          ],
          [
            -77.9395248252017,
            39.0553169368064
          ],
          [
            -77.9394718711837,
            39.0552923828036
          ],
          [
            -77.9394273551661,
            39.0552321877932
          ],
          [
            -77.9393360651366,
            39.055213073793
          ],
          [
            -77.9392748061179,
            39.0552182027963
          ],
          [
            -77.9391678370846,
            39.0552167538002
          ],
          [
            -77.9390985400646,
            39.0552396518075
          ],
          [
            -77.9389610070218,
            39.0552377888124
          ],
          [
            -77.938816497975,
            39.0552060338116
          ],
          [
            -77.9386805599282,
            39.0551326818022
          ],
          [
            -77.938596910901,
            39.0551136708017
          ],
          [
            -77.9384973158708,
            39.0551242388076
          ],
          [
            -77.9383132758154,
            39.0551515408202
          ],
          [
            -77.9382219857859,
            39.0551324258199
          ],
          [
            -77.9382154077808,
            39.0550846628106
          ],
          [
            -77.9382005577641,
            39.054893766773
          ],
          [
            -77.9381337847377,
            39.0548034737575
          ],
          [
            -77.9381123237268,
            39.0547376317452
          ],
          [
            -77.9380610977045,
            39.0546356307268
          ],
          [
            -77.9378797166424,
            39.0545437827155
          ],
          [
            -77.937758396602,
            39.0545004237115
          ],
          [
            -77.9376596005697,
            39.0544752467103
          ],
          [
            -77.9375378825304,
            39.0544497597099
          ],
          [
            -77.9374381555005,
            39.054466284717
          ],
          [
            -77.9373758344845,
            39.05451907173
          ],
          [
            -77.937266207458,
            39.0546367697578
          ],
          [
            -77.9371852814457,
            39.0548382848012
          ],
          [
            -77.9371359814402,
            39.0549925548339
          ],
          [
            -77.9370172504151,
            39.055175679875
          ],
          [
            -77.9369248973882,
            39.0552042228843
          ],
          [
            -77.9367942083498,
            39.0552382048962
          ],
          [
            -77.9366719573118,
            39.0552365459006
          ],
          [
            -77.9364517072395,
            39.0551739648965
          ],
          [
            -77.9362862731805,
            39.0550525358787
          ],
          [
            -77.9361955161497,
            39.0550095898736
          ],
          [
            -77.936036126097,
            39.0549597518698
          ],
          [
            -77.9359231130574,
            39.0548867078595
          ],
          [
            -77.9358395980299,
            39.0548617368578
          ],
          [
            -77.9357248549946,
            39.0548661378631
          ],
          [
            -77.935572042947,
            39.0548640628686
          ],
          [
            -77.9354196288985,
            39.0548441158705
          ],
          [
            -77.9353126598652,
            39.0548426628743
          ],
          [
            -77.9351653578254,
            39.0549360098987
          ],
          [
            -77.9350872218061,
            39.055012417917
          ],
          [
            -77.934992604785,
            39.0551422359466
          ],
          [
            -77.9348406827461,
            39.0552712739782
          ],
          [
            -77.9347695207307,
            39.0553775730022
          ],
          [
            -77.9346975587174,
            39.0555196170334
          ],
          [
            -77.934655626715,
            39.0556859050683
          ],
          [
            -77.9346224007122,
            39.0558046370932
          ],
          [
            -77.9345749587021,
            39.0558755031092
          ],
          [
            -77.9345185436928,
            39.0560058391375
          ],
          [
            -77.9344223266758,
            39.0562071451814
          ],
          [
            -77.9342806646434,
            39.0563899552234
          ],
          [
            -77.934170629618,
            39.0565255222548
          ],
          [
            -77.9340750775992,
            39.0566970402927
          ],
          [
            -77.9339815225754,
            39.0567791973127
          ],
          [
            -77.9339190635598,
            39.0568379403269
          ],
          [
            -77.9338789945526,
            39.056920825345
          ],
          [
            -77.9337893925297,
            39.0569970763637
          ],
          [
            -77.933719158512,
            39.0570616733793
          ],
          [
            -77.9336549675007,
            39.057197862409
          ],
          [
            -77.9336449285044,
            39.0573049914308
          ],
          [
            -77.9335666534854,
            39.0573873564503
          ],
          [
            -77.9335419984827,
            39.0574644904666
          ],
          [
            -77.9334385364622,
            39.0576478195073
          ],
          [
            -77.9333916244506,
            39.0576948555185
          ],
          [
            -77.9333148154279,
            39.0577116885248
          ],
          [
            -77.9331934923875,
            39.0576683245209
          ],
          [
            -77.933021616323,
            39.0574931694925
          ],
          [
            -77.9329241502874,
            39.0574084154793
          ],
          [
            -77.9328934532783,
            39.0574139564816
          ],
          [
            -77.9328763052782,
            39.0574971524989
          ],
          [
            -77.9328491172819,
            39.0576874775379
          ],
          [
            -77.9327834572744,
            39.0578891975808
          ],
          [
            -77.9326878992556,
            39.0580607146188
          ],
          [
            -77.9326484942468,
            39.0581138116309
          ],
          [
            -77.9326104232346,
            39.0581073346311
          ],
          [
            -77.9325801252244,
            39.0580950036298
          ],
          [
            -77.9325053151966,
            39.0580224756181
          ],
          [
            -77.9324099831556,
            39.0578424015859
          ],
          [
            -77.9323145181149,
            39.0576682855547
          ],
          [
            -77.9323158511115,
            39.0576087125428
          ],
          [
            -77.9323445081041,
            39.0573528554906
          ],
          [
            -77.9323146110929,
            39.0573226534857
          ],
          [
            -77.9323130410925,
            39.0573234384859
          ]
        ]
      },
      "properties": {
        "OBJECTID": 1988,
        "Reg_Acro": "MARO",
        "Acronym": "PATC",
        "Name": "Appalachian National Scenic Trail",
        "Alt_Name": "NA",
        "Status": "Official A.T. Route",
        "In_FMSS": "Yes",
        "FMSS_Name": "PATC AT Treadway",
        "FMSS_LocID": "77159",
        "Asset_ID": "1599675",
        "Surface": "Native Soil or Rock",
        "Shared_Use": "Single Trail Only",
        "Length_Ft": 7173.077655608346,
        "Year_Built": 1968,
        "Comments": " ",
        "FMSS_QTY": 4984179.640624,
        "Descriptio": "PATC AT Treadway",
        "FBMS_ID": "IB14001000208620000560",
        "OB": 1,
        "API": 100,
        "Hist_Stat": "3",
        "Region": "Mid-Atlantic",
        "Trail_Club": "Potomac Appalachain Trail Club",
        "Max_PDOP": 8,
        "Max_HDOP": 0,
        "Corr_Type": "Differential",
        "Rcvr_Type": "Pro XRS",
        "GPS_Date": 1025827200000,
        "GPS_Time": " ",
        "Update_Sta": "New",
        "Feat_Name": "AT",
        "Datafile": "E070506A.cor",
        "Unfilt_Pos": 0,
        "Filt_Pos": 0,
        "Data_Dicti": "AT Version 8d5",
        "GPS_Week": 0,
        "GNSS_Lengt": 0,
        "GNSS_3DLen": 0,
        "Avg_Vert_P": 3.1,
        "Avg_Horz_P": 2.4,
        "Worst_Vert": 4,
        "Worst_Horz": 3.3,
        "GFID": "{fb92bb23-2782-43a9-9314-6705e0bda1ca}",
        "Source": "2001-2003 GPS Survey using Trimble GPS Equipment",
        "Version": "June 2023",
        "Publish": "Yes",
        "Creator": "MROBINSON",
        "Create_Date": 1567004791000,
        "Editor": "MROBINSON",
        "Edit_Date": 1567023390000,
        "Shape__Length": 2824.5015056572815,
        "GlobalID": "c31397af-ef71-41f2-85c1-2e16c012d4bd"
      }
    },
    {
      "type": "Feature",
      "id": 1986,
      "geometry": {
        "type": "LineString",
        "coordinates": [
          [
            -77.9318037420164,
            39.0586109657629
          ],
          [
            -77.9317664400054,
            39.0586200987661
          ],
          [
            -77.9317046879861,
            39.0586194197684
          ],
          [
            -77.9316143289543,
            39.0585585977597
          ],
          [
            -77.931519931911,
            39.0583368217191
          ],
          [
            -77.9314857298889,
            39.0581575796846
          ],
          [
            -77.9314260698662,
            39.0580912166736
          ],
          [
            -77.9313799568526,
            39.0581025066776
          ],
          [
            -77.9313329098414,
            39.0581554986901
          ],
          [
            -77.9312924368352,
            39.0582562547117
          ],
          [
            -77.9312212658199,
            39.0583625517357
          ],
          [
            -77.9311181957985,
            39.0585280057727
          ],
          [
            -77.931078255791,
            39.0586049317897
          ],
          [
            -77.9310064167774,
            39.0587410158197
          ],
          [
            -77.930945020759,
            39.0587520978243
          ],
          [
            -77.9308591507266,
            39.0586615398095
          ],
          [
            -77.9307418326761,
            39.0584394517696
          ],
          [
            -77.9307058976585,
            39.0583376557507
          ],
          [
            -77.9306772016443,
            39.058253835735
          ],
          [
            -77.930632557627,
            39.0581995947259
          ],
          [
            -77.9305863106138,
            39.0582168417311
          ],
          [
            -77.9304660885923,
            39.0584654917854
          ],
          [
            -77.9303517705775,
            39.0587916908551
          ],
          [
            -77.9302801975632,
            39.0589158588826
          ],
          [
            -77.93018636754,
            39.059009927905
          ],
          [
            -77.9301328805234,
            39.059009199907
          ],
          [
            -77.9300578044963,
            39.0589485838978
          ],
          [
            -77.9299291084529,
            39.0588931978916
          ],
          [
            -77.9297158263847,
            39.0588604948933
          ],
          [
            -77.9296088513514,
            39.0588590368972
          ],
          [
            -77.929539280332,
            39.0588938439069
          ],
          [
            -77.9294459843075,
            39.0589640829245
          ],
          [
            -77.9293454472797,
            39.0590163449388
          ],
          [
            -77.9292067052399,
            39.0590680869545
          ],
          [
            -77.9290738672069,
            39.0591973779854
          ],
          [
            -77.9289648871787,
            39.0592852810072
          ],
          [
            -77.9288575101465,
            39.0593016940147
          ],
          [
            -77.9287742601183,
            39.0592648040105
          ],
          [
            -77.9286837700868,
            39.059209937003
          ],
          [
            -77.9286302820701,
            39.059209207005
          ],
          [
            -77.9285456950454,
            39.0592318900127
          ],
          [
            -77.9284018509968,
            39.059170336006
          ],
          [
            -77.928327846967,
            39.0590620609872
          ],
          [
            -77.9282460669351,
            39.0589596389699
          ],
          [
            -77.9282026279148,
            39.0588517799501
          ],
          [
            -77.9281570488998,
            39.0588392399493
          ],
          [
            -77.928065087872,
            39.058849903955
          ],
          [
            -77.9279574448404,
            39.0588782309648
          ],
          [
            -77.9278650838136,
            39.0589067669741
          ],
          [
            -77.9277573057823,
            39.0589410509851
          ],
          [
            -77.9275769377285,
            39.0589743449987
          ],
          [
            -77.9274686256986,
            39.0590324590145
          ],
          [
            -77.9273982506812,
            39.0591030090314
          ],
          [
            -77.927288866654,
            39.0592087820567
          ],
          [
            -77.9271578976164,
            39.0592546680709
          ],
          [
            -77.9270814865926,
            39.0592536250737
          ],
          [
            -77.927007350563,
            39.0591513060561
          ],
          [
            -77.9269767865536,
            39.0591508890571
          ],
          [
            -77.926929869542,
            39.0591979220684
          ],
          [
            -77.9268426055239,
            39.0593397521001
          ],
          [
            -77.926786441514,
            39.0594581691259
          ],
          [
            -77.9266935424886,
            39.0595105331399
          ],
          [
            -77.9266313434722,
            39.0595573581517
          ],
          [
            -77.9265861654563,
            39.0595269451474
          ],
          [
            -77.9265218124238,
            39.0593294121104
          ],
          [
            -77.9264569233926,
            39.0591557080782
          ],
          [
            -77.9263893583682,
            39.0591011530699
          ],
          [
            -77.9263439133529,
            39.059082654068
          ],
          [
            -77.9263129473444,
            39.0591001090726
          ],
          [
            -77.9262813123376,
            39.0591473510833
          ],
          [
            -77.9261799703118,
            39.0592353551048
          ],
          [
            -77.9261019522921,
            39.0593058001219
          ],
          [
            -77.9260558382785,
            39.0593170881259
          ],
          [
            -77.9260105272629,
            39.0592926321228
          ],
          [
            -77.9259579762439,
            39.0592502001164
          ],
          [
            -77.9259121302296,
            39.059249573118
          ],
          [
            -77.9258043511984,
            39.059283856129
          ],
          [
            -77.9257656101878,
            39.0593071641351
          ],
          [
            -77.9257493901854,
            39.0593486571441
          ],
          [
            -77.9256392001603,
            39.0594901721766
          ],
          [
            -77.9255152011266,
            39.0595659481965
          ],
          [
            -77.9254131871024,
            39.059683738224
          ],
          [
            -77.9253197520783,
            39.0597599312428
          ],
          [
            -77.9252407960609,
            39.0598720772683
          ],
          [
            -77.9251383790378,
            39.0600077392994
          ],
          [
            -77.9250377040103,
            39.0600659553149
          ],
          [
            -77.9247211989209,
            39.0602046493548
          ],
          [
            -77.9244811048553,
            39.060344388392
          ],
          [
            -77.9243879358305,
            39.0604086654085
          ],
          [
            -77.9243370618181,
            39.060461602421
          ],
          [
            -77.9242889358095,
            39.0605622514429
          ],
          [
            -77.9242798198108,
            39.0606276784564
          ],
          [
            -77.9243087768244,
            39.0606995844696
          ],
          [
            -77.9243589148495,
            39.0608492504976
          ],
          [
            -77.9243945748678,
            39.060962963519
          ],
          [
            -77.9244528908938,
            39.0610889045419
          ],
          [
            -77.9245409679315,
            39.0612510075709
          ],
          [
            -77.9245246129294,
            39.061298458581
          ],
          [
            -77.924499812927,
            39.0613815475985
          ],
          [
            -77.9244652269276,
            39.0615598516355
          ],
          [
            -77.924417501918,
            39.0616426286538
          ],
          [
            -77.9243471209007,
            39.0617131766707
          ],
          [
            -77.9242146708667,
            39.061824590698
          ],
          [
            -77.9240993798328,
            39.0618528097081
          ],
          [
            -77.9240521908218,
            39.0619117567217
          ],
          [
            -77.9239907918035,
            39.0619228347263
          ],
          [
            -77.9239604947933,
            39.0619105017251
          ],
          [
            -77.9239458817869,
            39.0618805057196
          ],
          [
            -77.9238638377557,
            39.0617899957047
          ],
          [
            -77.9238114207363,
            39.061741604697
          ],
          [
            -77.9237051117014,
            39.0617103546949
          ],
          [
            -77.9236297706749,
            39.0616616496881
          ],
          [
            -77.9235686396559,
            39.0616608136903
          ],
          [
            -77.923530030645,
            39.0616781626952
          ],
          [
            -77.9234068306094,
            39.061718191708
          ],
          [
            -77.9233514625975,
            39.0618008627267
          ],
          [
            -77.9232346965672,
            39.0618946127499
          ],
          [
            -77.9230716785237,
            39.0620056067784
          ],
          [
            -77.922948879487,
            39.0620277627876
          ],
          [
            -77.9228880164673,
            39.0620150117873
          ],
          [
            -77.9228114684439,
            39.0620199227913
          ],
          [
            -77.9227341144225,
            39.0620605788024
          ],
          [
            -77.9226731174031,
            39.0620537848034
          ],
          [
            -77.9226119863841,
            39.0620529478056
          ],
          [
            -77.9225615123707,
            39.0620880118145
          ],
          [
            -77.922499844353,
            39.0621110048215
          ],
          [
            -77.9224686073452,
            39.0621403728286
          ],
          [
            -77.922490458355,
            39.0621883458373
          ],
          [
            -77.9224891163584,
            39.0622479198493
          ],
          [
            -77.9224648503546,
            39.062307179862
          ],
          [
            -77.9223941983379,
            39.0623896418813
          ],
          [
            -77.9223090693145,
            39.0624361498939
          ],
          [
            -77.9222393562955,
            39.0624769099047
          ],
          [
            -77.9221536892733,
            39.0625472469221
          ],
          [
            -77.922020563241,
            39.0626884459554
          ],
          [
            -77.9219107632148,
            39.0628120849843
          ],
          [
            -77.9218326031954,
            39.0628884850026
          ],
          [
            -77.9217167721628,
            39.0629405310175
          ],
          [
            -77.9215470481146,
            39.0630097170379
          ],
          [
            -77.9214320230799,
            39.0630260190455
          ],
          [
            -77.9213771890666,
            39.0630848600595
          ],
          [
            -77.921313908053,
            39.0631793400808
          ],
          [
            -77.9212443290337,
            39.0632141420904
          ],
          [
            -77.9211591970102,
            39.063260650103
          ],
          [
            -77.9210818419888,
            39.0633013041141
          ],
          [
            -77.9210266049765,
            39.0633780171316
          ],
          [
            -77.9209539349649,
            39.0635498391687
          ],
          [
            -77.9208749669476,
            39.0636619821942
          ],
          [
            -77.9208646389519,
            39.0637810252183
          ],
          [
            -77.9207943869342,
            39.0638456132339
          ],
          [
            -77.9207896259354,
            39.0638872632424
          ],
          [
            -77.9207488649299,
            39.0639999292665
          ],
          [
            -77.9206788819115,
            39.0640526032798
          ],
          [
            -77.9206019278891,
            39.0640753852873
          ],
          [
            -77.9205472268755,
            39.0641282683
          ],
          [
            -77.9204598098578,
            39.0642760513329
          ],
          [
            -77.9203651538367,
            39.0644058563625
          ],
          [
            -77.9202548108118,
            39.0645533243962
          ],
          [
            -77.9201130947795,
            39.0647361174382
          ],
          [
            -77.9200259447611,
            39.0648719844687
          ],
          [
            -77.9199779437522,
            39.0649666734895
          ],
          [
            -77.9198929437284,
            39.0650072225008
          ],
          [
            -77.9198297937144,
            39.065095744521
          ],
          [
            -77.9197579257008,
            39.065231821551
          ],
          [
            -77.9196883436814,
            39.0652666225606
          ],
          [
            -77.9196324316708,
            39.065373121584
          ],
          [
            -77.9196147276721,
            39.0654801446061
          ],
          [
            -77.9195891136717,
            39.0655989786308
          ],
          [
            -77.9195338726595,
            39.0656756906483
          ],
          [
            -77.9194255436296,
            39.0657337966641
          ],
          [
            -77.9193330346031,
            39.0657682836745
          ],
          [
            -77.9193027365929,
            39.0657559496733
          ],
          [
            -77.9192877215875,
            39.0657438246714
          ],
          [
            -77.9192814245817,
            39.0656841456597
          ],
          [
            -77.919283307577,
            39.065600742643
          ],
          [
            -77.9192851905723,
            39.0655173396263
          ],
          [
            -77.9192480565577,
            39.065469156618
          ]
        ]
      },
      "properties": {
        "OBJECTID": 1986,
        "Reg_Acro": "MARO",
        "Acronym": "PATC",
        "Name": "Appalachian National Scenic Trail",
        "Alt_Name": "NA",
        "Status": "Official A.T. Route",
        "In_FMSS": "Yes",
        "FMSS_Name": "PATC AT Treadway",
        "FMSS_LocID": "77159",
        "Asset_ID": "1599675",
        "Surface": "Native Soil or Rock",
        "Shared_Use": "Single Trail Only",
        "Length_Ft": 6371.466627639161,
        "Year_Built": 1968,
        "Comments": " ",
        "FMSS_QTY": 4984179.640624,
        "Descriptio": "PATC AT Treadway",
        "FBMS_ID": "IB14001000208620000560",
        "OB": 1,
        "API": 100,
        "Hist_Stat": "3",
        "Region": "Mid-Atlantic",
        "Trail_Club": "Potomac Appalachain Trail Club",
        "Max_PDOP": 8,
        "Max_HDOP": 0,
        "Corr_Type": "Differential",
        "Rcvr_Type": "Pro XRS",
        "GPS_Date": 1025827200000,
        "GPS_Time": " ",
        "Update_Sta": "New",
        "Feat_Name": "AT",
        "Datafile": "E070506A.cor",
        "Unfilt_Pos": 0,
        "Filt_Pos": 0,
        "Data_Dicti": "AT Version 8d5",
        "GPS_Week": 0,
        "GNSS_Lengt": 0,
        "GNSS_3DLen": 0,
        "Avg_Vert_P": 3.1,
        "Avg_Horz_P": 2.4,
        "Worst_Vert": 4,
        "Worst_Horz": 3.3,
        "GFID": "{abbd4812-7389-49d2-a3ee-fcefbb56c686}",
        "Source": "2001-2003 GPS Survey using Trimble GPS Equipment",
        "Version": "June 2023",
        "Publish": "Yes",
        "Creator": "MROBINSON",
        "Create_Date": 1567004791000,
        "Editor": "MROBINSON",
        "Edit_Date": 1567023390000,
        "Shape__Length": 2509.3449221560736,
        "GlobalID": "d313e1c3-e8e2-4301-b3d5-6edce7a8f3f7"
      }
    }
  ]
}