{
  "type": "FeatureCollection",
  "features": [
    {
      "type": "Feature",
      "id": "us-cd:118:32:01",
      "properties": {
        "boundary_id": "us-cd:118:32:01",
        "boundary_type": "congressional_district",
        "name": "Congressional District 1",
        "stateFips": "32",
        "congress": 118,
        "district": "01",
        "bbox": [
          -115.216388,
          35.5883190084061,
          -114.653406,
          36.218208
        ]
      },
      "geometry": {
        "type": "Polygon",
        "coordinates": [
          [
            [
              -115.216388,
              35.897284
            ],
            [
              -115.183715,
              35.944528
            ],
            [
              -115.181592,
              35.961884
            ],
            [
              -115.154728,
              35.978156
            ],
            [
              -115.154829,
              35.992947
            ],
            [
              -115.145847,
              35.99375
            ],
            [
              -115.145625,
              35.984733
            ],
            [
              -115.136912,
              35.999104
            ],
            [
              -115.118898,
              36.003878
            ],
            [
              -115.118605,
              36.020481
            ],
            [
              -115.100624,
              36.020513
            ],
            [
              -115.100464,
              36.027787
            ],
            [
              -115.118383,
              36.033106
            ],
            [
              -115.118156,
              36.049539
            ],
            [
              -115.100301,
              36.053381
            ],
            [
              -115.0777,
              36.083657
            ],
            [
              -115.118813,
              36.086181
            ],
            [
              -115.118687,
              36.071567
            ],
            [
              -115.180542,
              36.076658
            ],
            [
              -115.179902,
              36.13322
            ],
            [
              -115.171144,
              36.144314
            ],
            [
              -115.157331,
              36.143719
            ],
            [
              -115.13395,
              36.188441
            ],
            [
              -115.070785,
              36.18848
            ],
            [
              -115.071175,
              36.203343
            ],
            [
              -115.043676,
              36.203544
            ],
            [
              -115.025324,
              36.218208
            ],
            [
              -115.026939,
              36.20251
            ],
            [
              -114.990476,
              36.201985
            ],
            [
              -114.991041,
              36.159074
            ],
            [
              -114.976813,
              36.159151
            ],
            [
              -114.97535,
              36.089831
            ],
            [
              -114.937708,
              36.102021
            ],
            [
              -114.939466,
              36.077592
            ],
            [
              -114.913404,
              36.087612
            ],
            [
              -114.903689,
              36.099385
            ],
            [
              -114.906387,
              36.12178
            ],
            [
              -114.875145,
              36.132441
            ],
            [
              -114.740554803334,
              36.0657913792102
            ],
            [
              -114.742105,
              36.039792
            ],
            [
              -114.722096,
              36.028952
            ],
            [
              -114.742779,
              36.009963
            ],
            [
              -114.740595,
              35.975656
            ],
            [
              -114.707526,
              35.92806
            ],
            [
              -114.708516,
              35.912313
            ],
            [
              -114.661636,
              35.871067
            ],
            [
              -114.706532,
              35.849027
            ],
            [
              -114.695249,
              35.832285
            ],
            [
              -114.71211,
              35.806185
            ],
            [
              -114.69891,
              35.790185
            ],
            [
              -114.695709,
              35.755986
            ],
            [
              -114.705409,
              35.708287
            ],
            [
              -114.680631,
              35.684046
            ],
            [
              -114.689001,
              35.65028
            ],
            [
              -114.653406,
              35.610789
            ],
            [
              -114.658827361667,
              35.5883190084061
            ],
            [
              -115.207278,
              35.590276
            ],
            [
              -115.212496,
              35.897305
            ],
            [
              -115.216388,
              35.897284
            ]
          ]
        ]
      }
    },
    {
      "type": "Feature",
      "id": "us-cd:118:32:02",
      "properties": {
        "boundary_id": "us-cd:118:32:02",
        "boundary_type": "congressional_district",
        "name": "Congressional District 2",
        "stateFips": "32",
        "congress": 118,
        "district": "02",
        "bbox": [
          -120.006455,
          38.5359450982061,
          -114.041477,
          42.002207
        ]
      },
      "geometry": {
        "type": "Polygon",
        "coordinates": [
          [
            [
              -120.006452848097,
              39.2728781076314
            ],
            [
              -119.996183,
              40.262461
            ],
            [
              -119.999234,
              41.994944
            ],
            [
              -114.831077,
              42.002207
            ],
            [
              -114.041477,
              41.993873
            ],
            [
              -114.049883347847,
              38.677365
            ],
            [
              -114.629524,
              38.6774
            ],
            [
              -114.647734,
              38.585961
            ],
            [
              -114.698231,
              38.597772
            ],
            [
              -114.756808,
              38.587596
            ],
            [
              -114.797615,
              38.625877
            ],
            [
              -114.802222,
              38.642257
            ],
            [
              -114.81703,
              38.645823
            ],
            [
              -114.836333,
              38.677335
            ],
            [
              -115.000846,
              38.677322
            ],
            [
              -115.907071,
              39.161848
            ],
            [
              -117.331857,
              39.16343
            ],
            [
              -117.865116,
              39.073654
            ],
            [
              -118.477505,
              39.073682
            ],
            [
              -118.477688,
              39.112762
            ],
            [
              -118.533211,
              39.112247
            ],
            [
              -118.533322,
              39.126938
            ],
            [
              -118.570333,
              39.127276
            ],
            [
              -118.570178,
              39.141941
            ],
            [
              -118.792738,
              39.141548
            ],
            [
              -118.792415,
              39.171397
            ],
            [
              -118.848091,
              39.17123
            ],
            [
              -118.848103,
              39.185314
            ],
            [
              -118.866737,
              39.185337
            ],
            [
              -118.866757,
              39.19821
            ],
            [
              -118.890831,
              39.198218
            ],
            [
              -118.890663,
              39.2272
            ],
            [
              -118.909031,
              39.227191
            ],
            [
              -118.909141,
              39.234601
            ],
            [
              -118.967398,
              39.226099
            ],
            [
              -118.979796,
              39.232187
            ],
            [
              -118.981626,
              39.245207
            ],
            [
              -119.039773,
              39.26794
            ],
            [
              -119.049022,
              39.240915
            ],
            [
              -119.049926,
              39.164904
            ],
            [
              -119.107275,
              39.165126
            ],
            [
              -119.102069,
              39.154297
            ],
            [
              -119.087902,
              39.153308
            ],
            [
              -119.112716,
              39.14095
            ],
            [
              -119.116695,
              39.127976
            ],
            [
              -119.013416,
              39.121951
            ],
            [
              -119.013576,
              39.1126
            ],
            [
              -118.995695,
              39.111399
            ],
            [
              -118.995627,
              39.083931
            ],
            [
              -118.948094,
              39.083929
            ],
            [
              -118.940089,
              39.069669
            ],
            [
              -118.923037,
              39.069408
            ],
            [
              -119.014858,
              38.94414
            ],
            [
              -119.014499,
              38.851951
            ],
            [
              -119.000196,
              38.85203
            ],
            [
              -119.032122,
              38.838438
            ],
            [
              -119.073636,
              38.846938
            ],
            [
              -119.144762,
              38.845021
            ],
            [
              -119.153736,
              38.830387
            ],
            [
              -119.176569,
              38.837801
            ],
            [
              -119.223463,
              38.807521
            ],
            [
              -119.347557,
              38.802048
            ],
            [
              -119.344949,
              38.781859
            ],
            [
              -119.328867,
              38.788256
            ],
            [
              -119.324639,
              38.72246
            ],
            [
              -119.264451,
              38.63393
            ],
            [
              -119.28142,
              38.612939
            ],
            [
              -119.288375,
              38.569758
            ],
            [
              -119.30383,
              38.583656
            ],
            [
              -119.329639,
              38.588066
            ],
            [
              -119.330063278439,
              38.5359450982061
            ],
            [
              -120.001014,
              38.999574
            ],
            [
              -120.006455,
              39.272194
            ],
            [
              -120.006452848097,
              39.2728781076314
            ]
          ]
        ]
      }
    },
    {
      "type": "Feature",
      "id": "us-cd:118:32:03",
      "properties": {
        "boundary_id": "us-cd:118:32:03",
        "boundary_type": "congressional_district",
        "name": "Congressional District 3",
        "stateFips": "32",
        "congress": 118,
        "district": "03",
        "bbox": [
          -115.845983929593,
          35.001857,
          -114.569238,
          36.323701
        ]
      },
      "geometry": {
        "type": "Polygon",
        "coordinates": [
          [
            [
              -115.845763,
              36.095583
            ],
            [
              -115.845803,
              36.122048
            ],
            [
              -115.782178,
              36.125028
            ],
            [
              -115.728476,
              36.147602
            ],
            [
              -115.681757,
              36.147778
            ],
            [
              -115.656145,
              36.165226
            ],
            [
              -115.578797,
              36.167085
            ],
            [
              -115.571423,
              36.155238
            ],
            [
              -115.573527,
              36.108873
            ],
            [
              -115.532717,
              36.130388
            ],
            [
              -115.52282,
              36.154086
            ],
            [
              -115.508489,
              36.162614
            ],
            [
              -115.426387,
              36.129249
            ],
            [
              -115.41281,
              36.133697
            ],
            [
              -115.387769,
              36.144966
            ],
            [
              -115.388284,
              36.153681
            ],
            [
              -115.413602,
              36.167806
            ],
            [
              -115.414406,
              36.188907
            ],
            [
              -115.423481,
              36.188509
            ],
            [
              -115.424034,
              36.293136
            ],
            [
              -115.346923,
              36.323701
            ],
            [
              -115.333467,
              36.320896
            ],
            [
              -115.330963,
              36.262584
            ],
            [
              -115.278733,
              36.262981
            ],
            [
              -115.278947,
              36.226191
            ],
            [
              -115.246972,
              36.22564
            ],
            [
              -115.243033,
              36.144227
            ],
            [
              -115.177451,
              36.137126
            ],
            [
              -115.180542,
              36.076658
            ],
            [
              -115.118687,
              36.071567
            ],
            [
              -115.118813,
              36.086181
            ],
            [
              -115.077618,
              36.085619
            ],
            [
              -115.100301,
              36.053381
            ],
            [
              -115.118156,
              36.049539
            ],
            [
              -115.118383,
              36.033106
            ],
            [
              -115.100464,
              36.027787
            ],
            [
              -115.100624,
              36.020513
            ],
            [
              -115.118605,
              36.020481
            ],
            [
              -115.118898,
              36.003878
            ],
            [
              -115.136912,
              35.999104
            ],
            [
              -115.145625,
              35.984733
            ],
            [
              -115.145847,
              35.99375
            ],
            [
              -115.154829,
              35.992947
            ],
            [
              -115.154728,
              35.978156
            ],
            [
              -115.181592,
              35.961884
            ],
            [
              -115.183715,
              35.944528
            ],
            [
              -115.216388,
              35.897284
            ],
            [
              -115.207049,
              35.897288
            ],
            [
              -115.207278,
              35.590276
            ],
            [
              -114.658827361667,
              35.5883190084061
            ],
            [
              -114.675751,
              35.579459
            ],
            [
              -114.663226,
              35.565164
            ],
            [
              -114.657163,
              35.532301
            ],
            [
              -114.677156,
              35.51287
            ],
            [
              -114.678715,
              35.49875
            ],
            [
              -114.663541,
              35.447797
            ],
            [
              -114.626765,
              35.409644
            ],
            [
              -114.605748,
              35.358454
            ],
            [
              -114.569238,
              35.18348
            ],
            [
              -114.578263,
              35.12881
            ],
            [
              -114.632282,
              35.117088
            ],
            [
              -114.646759,
              35.101872
            ],
            [
              -114.602908,
              35.068588
            ],
            [
              -114.636893,
              35.028367
            ],
            [
              -114.633487,
              35.001857
            ],
            [
              -115.845983929593,
              35.9642074573715
            ],
            [
              -115.845763,
              36.095583
            ]
          ]
        ]
      }
    },
    {
      "type": "Feature",
      "id": "us-cd:118:32:04",
      "properties": {
        "boundary_id": "us-cd:118:32:04",
        "boundary_type": "congressional_district",
        "name": "Congressional District 4",
        "stateFips": "32",
        "congress": 118,
        "district": "04",
        "bbox": [
          -119.347557,
          35.9642074573715,
          -114.043944,
          39.26794
        ]
      },
      "geometry": {
        "type": "Polygon",
        "coordinates": [
          [
            [
              -119.347557,
              38.802048
            ],
            [
              -119.223463,
              38.807521
            ],
            [
              -119.176569,
              38.837801
            ],
            [
              -119.153736,
              38.830387
            ],
            [
              -119.144762,
              38.845021
            ],
            [
              -119.073636,
              38.846938
            ],
            [
              -119.032122,
              38.838438
            ],
            [
              -119.000196,
              38.85203
            ],
            [
              -119.014499,
              38.851951
            ],
            [
              -119.014858,
              38.94414
            ],
            [
              -118.923037,
              39.069408
            ],
            [
              -118.940089,
              39.069669
            ],
            [
              -118.948094,
              39.083929
            ],
            [
              -118.995627,
              39.083931
            ],
            [
              -118.995695,
              39.111399
            ],
            [
              -119.013576,
              39.1126
            ],
            [
              -119.013416,
              39.121951
            ],
            [
              -119.116695,
              39.127976
            ],
            [
              -119.112716,
              39.14095
            ],
            [
              -119.087902,
              39.153308
            ],
            [
              -119.102069,
              39.154297
            ],
            [
              -119.107275,
              39.165126
            ],
            [
              -119.049926,
              39.164904
            ],
            [
              -119.049022,
              39.240915
            ],
            [
              -119.039773,
              39.26794
            ],
            [
              -118.981626,
              39.245207
            ],
            [
              -118.979796,
              39.232187
            ],
            [
              -118.967398,
              39.226099
            ],
            [
              -118.909141,
              39.234601
            ],
            [
              -118.909031,
              39.227191
            ],
            [
              -118.890663,
              39.2272
            ],
            [
              -118.890831,
              39.198218
            ],
            [
              -118.866757,
              39.19821
            ],
            [
              -118.866737,
              39.185337
            ],
            [
              -118.848103,
              39.185314
            ],
            [
              -118.848091,
              39.17123
            ],
            [
              -118.792415,
              39.171397
            ],
            [
              -118.792738,
              39.141548
            ],
            [
              -118.570178,
              39.141941
            ],
            [
              -118.570333,
              39.127276
            ],
            [
              -118.533322,
              39.126938
            ],
            [
              -118.533211,
              39.112247
            ],
            [
              -118.477688,
              39.112762
            ],
            [
              -118.477505,
              39.073682
            ],
            [
              -117.865116,
              39.073654
            ],
            [
              -117.331857,
              39.16343
            ],
            [
              -115.907071,
              39.161848
            ],
            [
              -115.000846,
              38.677322
            ],
            [
              -114.836333,
              38.677335
            ],
            [
              -114.81703,
              38.645823
            ],
            [
              -114.802222,
              38.642257
            ],
            [
              -114.797615,
              38.625877
            ],
            [
              -114.756808,
              38.587596
            ],
            [
              -114.698231,
              38.597772
            ],
            [
              -114.647734,
              38.585961
            ],
            [
              -114.629524,
              38.6774
            ],
            [
              -114.049883347847,
              38.677365
            ],
            [
              -114.052827,
              37.103961
            ],
            [
              -114.043944,
              36.19335
            ],
            [
              -114.068222,
              36.177687
            ],
            [
              -114.096994,
              36.120823
            ],
            [
              -114.121284,
              36.109519
            ],
            [
              -114.1119,
              36.095845
            ],
            [
              -114.145907,
              36.027229
            ],
            [
              -114.211932,
              36.014834
            ],
            [
              -114.242139,
              36.015187
            ],
            [
              -114.265001,
              36.028848
            ],
            [
              -114.270862,
              36.045523
            ],
            [
              -114.311904,
              36.057661
            ],
            [
              -114.304171,
              36.07558
            ],
            [
              -114.328777,
              36.105501
            ],
            [
              -114.370181,
              36.142624
            ],
            [
              -114.40914,
              36.147
            ],
            [
              -114.443736,
              36.125593
            ],
            [
              -114.463637,
              36.139695
            ],
            [
              -114.504715,
              36.127188
            ],
            [
              -114.500236,
              36.143226
            ],
            [
              -114.51428,
              36.150795
            ],
            [
              -114.57109,
              36.151099
            ],
            [
              -114.615455,
              36.129653
            ],
            [
              -114.630474,
              36.142218
            ],
            [
              -114.679775,
              36.109874
            ],
            [
              -114.747079,
              36.097005
            ],
            [
              -114.754798,
              36.084704
            ],
            [
              -114.741129,
              36.065454
            ],
            [
              -114.878742,
              36.132621
            ],
            [
              -114.906387,
              36.12178
            ],
            [
              -114.910965,
              36.088839
            ],
            [
              -114.939466,
              36.077592
            ],
            [
              -114.937708,
              36.102021
            ],
            [
              -114.97535,
              36.089831
            ],
            [
              -114.976813,
              36.159151
            ],
            [
              -114.991041,
              36.159074
            ],
            [
              -114.990476,
              36.201985
            ],
            [
              -115.026939,
              36.20251
            ],
            [
              -115.025324,
              36.218208
            ],
            [
              -115.043676,
              36.203544
            ],
            [
              -115.071175,
              36.203343
            ],
            [
              -115.070785,
              36.18848
            ],
            [
              -115.13395,
              36.188441
            ],
            [
              -115.157331,
              36.143719
            ],
            [
              -115.178719,
              36.136231
            ],
            [
              -115.243033,
              36.144227
            ],
            [
              -115.246972,
              36.22564
            ],
            [
              -115.278947,
              36.226191
            ],
            [
              -115.278733,
              36.262981
            ],
            [
              -115.330963,
              36.262584
            ],
            [
              -115.333467,
              36.320896
            ],
            [
              -115.346923,
              36.323701
            ],
            [
              -115.424034,
              36.293136
            ],
            [
              -115.423481,
              36.188509
            ],
            [
              -115.414406,
              36.188907
            ],
            [
              -115.413602,
              36.167806
            ],
            [
              -115.388284,
              36.153681
            ],
            [
              -115.387769,
              36.144966
            ],
            [
              -115.41281,
              36.133697
            ],
            [
              -115.426387,
              36.129249
            ],
            [
              -115.508489,
              36.162614
            ],
            [
              -115.52282,
              36.154086
            ],
            [
              -115.532717,
              36.130388
            ],
            [
              -115.573527,
              36.108873
            ],
            [
              -115.57396,
              36.162238
            ],
            [
              -115.604498,
              36.167539
            ],
            [
              -115.656145,
              36.165226
            ],
            [
              -115.681757,
              36.147778
            ],
            [
              -115.728476,
              36.147602
            ],
            [
              -115.782178,
              36.125028
            ],
            [
              -115.845803,
              36.122048
            ],
            [
              -115.845983929593,
              35.9642074573715
            ],
            [
              -117.500117,
              37.22038
            ],
            [
              -118.500958,
              37.949019
            ],
            [
              -119.330063278439,
              38.5359450982061
            ],
            [
              -119.329639,
              38.588066
            ],
            [
              -119.30383,
              38.583656
            ],
            [
              -119.288375,
              38.569758
            ],
            [
              -119.28142,
              38.612939
            ],
            [
              -119.264451,
              38.63393
            ],
            [
              -119.330179,
              38.733886
            ],
            [
              -119.328867,
              38.788256
            ],
            [
              -119.347502,
              38.786626
            ],
            [
              -119.347557,
              38.802048
            ]
          ]
        ]
      }
    }
  ]
}
