{
  "type": "FeatureCollection",
  "features": [
    {
      "type": "Feature",
      "id": "us-cd:119:35:01",
      "properties": {
        "boundary_id": "us-cd:119:35:01",
        "boundary_type": "congressional_district",
        "name": "1",
        "stateFips": "35",
        "congress": 119,
        "district": "01",
        "bbox": [
          -106.98097699993791,
          32.99232700030778,
          -103.71688500031878,
          35.46159799978109
        ]
      },
      "geometry": {
        "type": "Polygon",
        "coordinates": [
          [
            [
              -106.98097699993791,
              35.26034799994941
            ],
            [
              -106.96960500038078,
              35.25326299966877
            ],
            [
              -106.97490199999693,
              35.22984600030246
            ],
            [
              -106.9620380002625,
              35.2183919998108
            ],
            [
              -106.72899000017618,
              35.21797800034371
            ],
            [
              -106.71996600004069,
              35.212791999950845
            ],
            [
              -106.72772800015267,
              35.2119330000977
            ],
            [
              -106.7276539996345,
              35.19213599972993
            ],
            [
              -106.68093500044633,
              35.197421000132614
            ],
            [
              -106.69048400028835,
              35.18552799982898
            ],
            [
              -106.68698799974767,
              35.167007999650174
            ],
            [
              -106.70219300012934,
              35.172328000254716
            ],
            [
              -106.71839199984765,
              35.15951199982232
            ],
            [
              -106.70929999994013,
              35.13838499974581
            ],
            [
              -106.72661799956678,
              35.12399500016275
            ],
            [
              -106.69233899979048,
              35.106508999913736
            ],
            [
              -106.66736600018197,
              35.07499199986883
            ],
            [
              -106.65579399970999,
              35.08006599983954
            ],
            [
              -106.64315000008362,
              35.07065400035325
            ],
            [
              -106.65105100011273,
              35.06327299982158
            ],
            [
              -106.63928500037031,
              35.06297799979864
            ],
            [
              -106.63762499996353,
              35.047561999929385
            ],
            [
              -106.62882199976099,
              35.04538699977834
            ],
            [
              -106.66366700015003,
              34.94679199967174
            ],
            [
              -106.38042199987822,
              34.94736500029351
            ],
            [
              -106.37991800008807,
              34.905754000340124
            ],
            [
              -106.41335900016335,
              34.89018700009087
            ],
            [
              -106.41178199959724,
              34.87018600022131
            ],
            [
              -106.46386799962006,
              34.87019399986108
            ],
            [
              -106.46454700021074,
              34.81102599989886
            ],
            [
              -106.66764700038938,
              34.81121300014939
            ],
            [
              -106.66274800025818,
              34.844170000032186
            ],
            [
              -106.68445299982997,
              34.84845299983041
            ],
            [
              -106.68448899981499,
              34.87114499995093
            ],
            [
              -106.72009099971417,
              34.87214100014666
            ],
            [
              -106.71473899984646,
              34.814063999633206
            ],
            [
              -106.74088599961495,
              34.78194199991655
            ],
            [
              -106.7272179996164,
              34.778419999969614
            ],
            [
              -106.74091499992727,
              34.74826099970612
            ],
            [
              -106.73634499968405,
              34.724718999915204
            ],
            [
              -106.74835499982395,
              34.70808800013748
            ],
            [
              -106.74522700042762,
              34.6604499999898
            ],
            [
              -106.7379249997249,
              34.65284899974293
            ],
            [
              -106.7145940000815,
              34.65834800016857
            ],
            [
              -106.71426900039148,
              34.64471299986743
            ],
            [
              -106.72555300008507,
              34.63897899997536
            ],
            [
              -106.56464799978046,
              34.473893999785744
            ],
            [
              -106.4563139999206,
              34.43705400020565
            ],
            [
              -106.41692400030101,
              34.439687000093066
            ],
            [
              -106.41597199989886,
              34.25982199966959
            ],
            [
              -105.92596799959942,
              34.25998999994811
            ],
            [
              -105.92468499965952,
              33.825624000181186
            ],
            [
              -106.05266199989981,
              33.82560600032816
            ],
            [
              -106.05271799997631,
              33.6502969999225
            ],
            [
              -106.37365999984895,
              33.660503999820584
            ],
            [
              -106.37188499981447,
              33.390614999903825
            ],
            [
              -105.93163900020768,
              33.38989999963418
            ],
            [
              -105.92962999982146,
              33.218375000001835
            ],
            [
              -105.7883910003618,
              33.21539000030391
            ],
            [
              -105.74945699995348,
              33.22939399971711
            ],
            [
              -105.73264899996474,
              33.201154999989534
            ],
            [
              -105.70974199974556,
              33.19274199988673
            ],
            [
              -105.69425100003193,
              33.11719300001787
            ],
            [
              -105.67695900034452,
              33.12554000000555
            ],
            [
              -105.6503460004207,
              33.115548999677515
            ],
            [
              -105.57625000032922,
              33.06106099989709
            ],
            [
              -105.46049400011603,
              33.02448200029027
            ],
            [
              -105.48447400021287,
              33.0053360002493
            ],
            [
              -105.43620699987257,
              33.004328999718155
            ],
            [
              -105.41884999988781,
              32.99232700030778
            ],
            [
              -105.4130829999184,
              33.00384500032948
            ],
            [
              -105.31622400044613,
              33.00271899978223
            ],
            [
              -105.31696800043578,
              33.13230299963714
            ],
            [
              -104.90542399970839,
              33.138904000155954
            ],
            [
              -104.90383799981979,
              33.30590399976651
            ],
            [
              -104.88513000012306,
              33.30582700024619
            ],
            [
              -104.8851960002453,
              33.369244000191316
            ],
            [
              -104.82768100036185,
              33.36883399993704
            ],
            [
              -104.69602000015824,
              33.394150999674586
            ],
            [
              -104.59499200030072,
              33.3942599996341
            ],
            [
              -104.59519300014217,
              33.42259299972042
            ],
            [
              -104.55907499985896,
              33.423043000183824
            ],
            [
              -104.55914199980612,
              33.437599000082166
            ],
            [
              -104.51450300025097,
              33.43791300008802
            ],
            [
              -104.50985600001485,
              33.449810000099276
            ],
            [
              -104.48789699999983,
              33.43703799997188
            ],
            [
              -104.37904199973306,
              33.56558800036474
            ],
            [
              -104.34868100027182,
              33.588306000099685
            ],
            [
              -104.20617400004255,
              33.64365299993695
            ],
            [
              -104.02803999979972,
              33.66661100006738
            ],
            [
              -103.88425999967626,
              33.66990800000442
            ],
            [
              -103.78223900030707,
              33.712742999878834
            ],
            [
              -103.77058599964423,
              33.72838299983696
            ],
            [
              -103.71793399990698,
              33.703642000091094
            ],
            [
              -103.71688500031878,
              33.819558000124346
            ],
            [
              -103.84193299955776,
              33.81920000007618
            ],
            [
              -103.84169099970842,
              34.081909000327514
            ],
            [
              -103.946019000288,
              34.082462999703324
            ],
            [
              -103.94877799961337,
              34.60505800029682
            ],
            [
              -104.12888000023456,
              34.60520099986156
            ],
            [
              -104.12513599999679,
              35.21569600024917
            ],
            [
              -105.29116899992353,
              35.21648899989314
            ],
            [
              -105.29079099963177,
              35.04203000006227
            ],
            [
              -106.02952399970195,
              35.04067799968989
            ],
            [
              -105.97998000016783,
              35.14218699981087
            ],
            [
              -106.15610800039745,
              35.1420919999964
            ],
            [
              -106.15656199995888,
              35.22496900035633
            ],
            [
              -106.18936500034974,
              35.229892999882345
            ],
            [
              -106.22265999993687,
              35.24795400002227
            ],
            [
              -106.24516200010008,
              35.23866100025529
            ],
            [
              -106.24884799971323,
              35.44328200029056
            ],
            [
              -106.32515300020746,
              35.46159799978109
            ],
            [
              -106.3560540003422,
              35.448865000163934
            ],
            [
              -106.3551680000623,
              35.36563300028577
            ],
            [
              -106.399677999746,
              35.3652369997999
            ],
            [
              -106.39480299990429,
              35.34835699984809
            ],
            [
              -106.48089599971684,
              35.35798600028017
            ],
            [
              -106.50697800008632,
              35.33442499966359
            ],
            [
              -106.53928099998666,
              35.33433800015736
            ],
            [
              -106.53935999962938,
              35.32613499965616
            ],
            [
              -106.55845999986158,
              35.32412399967161
            ],
            [
              -106.55559199985794,
              35.33344200004656
            ],
            [
              -106.56668599958071,
              35.32735799994737
            ],
            [
              -106.63459999960106,
              35.37137400012443
            ],
            [
              -106.64670900037346,
              35.352719000003766
            ],
            [
              -106.67026099994979,
              35.351084999820635
            ],
            [
              -106.68623200006245,
              35.362831000201304
            ],
            [
              -106.69086099985688,
              35.35181999971233
            ],
            [
              -106.70232899967348,
              35.3508950002609
            ],
            [
              -106.6969729996078,
              35.32619099997781
            ],
            [
              -106.71801799975383,
              35.322312999641504
            ],
            [
              -106.72913699959098,
              35.33673400001497
            ],
            [
              -106.84230099998506,
              35.33361299989736
            ],
            [
              -106.86222999969742,
              35.35671899993387
            ],
            [
              -106.85638699956002,
              35.29340399964328
            ],
            [
              -106.9079550004473,
              35.300027000135415
            ],
            [
              -106.97305599981729,
              35.28641099967872
            ],
            [
              -106.98096400041744,
              35.260382000235914
            ],
            [
              -106.98097699993791,
              35.26034799994941
            ]
          ]
        ]
      }
    },
    {
      "type": "Feature",
      "id": "us-cd:119:35:02",
      "properties": {
        "boundary_id": "us-cd:119:35:02",
        "boundary_type": "congressional_district",
        "name": "2",
        "stateFips": "35",
        "congress": 119,
        "district": "02",
        "bbox": [
          -109.05043099993698,
          31.332348000358696,
          -103.06451000037502,
          35.3483139999884
        ]
      },
      "geometry": {
        "type": "Polygon",
        "coordinates": [
          [
            [
              -109.05043099993698,
              31.528406999618507
            ],
            [
              -109.05003299955374,
              31.332348000358696
            ],
            [
              -108.20846999982734,
              31.333373000228786
            ],
            [
              -108.20848400007104,
              31.783698000018727
            ],
            [
              -106.52794000039168,
              31.78389000021145
            ],
            [
              -106.54714000018298,
              31.807298999952252
            ],
            [
              -106.57724399972628,
              31.81040600033693
            ],
            [
              -106.60280600041207,
              31.825017999941274
            ],
            [
              -106.60169500000127,
              31.844370000111375
            ],
            [
              -106.63592000024921,
              31.866233000113574
            ],
            [
              -106.62919099983193,
              31.883699000327592
            ],
            [
              -106.64547800031208,
              31.898669000188356
            ],
            [
              -106.61286499989205,
              31.920372000351037
            ],
            [
              -106.62974200037605,
              31.9265669997117
            ],
            [
              -106.61432100008433,
              31.951614999811706
            ],
            [
              -106.62512299972906,
              31.954530000238233
            ],
            [
              -106.61956900019497,
              31.971576999918437
            ],
            [
              -106.6395360004405,
              31.98034299979525
            ],
            [
              -106.61848600027159,
              32.000495000289064
            ],
            [
              -103.06451000037502,
              32.000424000289115
            ],
            [
              -103.06467100003351,
              32.7269599998859
            ],
            [
              -103.09496100024795,
              32.725884000117425
            ],
            [
              -103.1105230001067,
              32.73732200037358
            ],
            [
              -103.1104529997865,
              32.7286900003614
            ],
            [
              -103.12110499964339,
              32.72917899968249
            ],
            [
              -103.11421100026797,
              32.71983100014079
            ],
            [
              -103.1232589997946,
              32.71531300035899
            ],
            [
              -103.1122970003163,
              32.71116900009575
            ],
            [
              -103.12393300036238,
              32.69656499992741
            ],
            [
              -103.35083299981447,
              32.69673599966838
            ],
            [
              -103.35101000026478,
              32.769364999671254
            ],
            [
              -103.81445599999368,
              32.770237000123274
            ],
            [
              -103.81450700004729,
              32.965113999812566
            ],
            [
              -104.10758499984328,
              32.9653810002892
            ],
            [
              -104.12503700026258,
              32.94931199991371
            ],
            [
              -104.12103100008397,
              32.92025099980766
            ],
            [
              -104.13391499990988,
              32.898974999824055
            ],
            [
              -104.15021400008558,
              32.80020999966262
            ],
            [
              -104.19616599971788,
              32.79621399976908
            ],
            [
              -104.20214299974958,
              32.786491999903355
            ],
            [
              -104.23290699961697,
              32.79136200023314
            ],
            [
              -104.32041499961392,
              32.76028600002486
            ],
            [
              -104.33342499983651,
              32.76791299971342
            ],
            [
              -104.32865399975185,
              32.77260100011221
            ],
            [
              -104.36106700015534,
              32.77567400025622
            ],
            [
              -104.36099799966006,
              32.785295999829
            ],
            [
              -104.39566099957591,
              32.7843810001058
            ],
            [
              -104.3957710000791,
              32.82821200001241
            ],
            [
              -104.41263000012144,
              32.82809099983314
            ],
            [
              -104.41269000039593,
              32.78452299993613
            ],
            [
              -104.47887799988725,
              32.78068100003849
            ],
            [
              -104.4818320001046,
              32.75597500027833
            ],
            [
              -104.53142300039269,
              32.75568799997232
            ],
            [
              -104.5189980001511,
              32.76478499963538
            ],
            [
              -104.51802700038071,
              32.7865719998624
            ],
            [
              -104.54380199970521,
              32.78169199984264
            ],
            [
              -104.57284199959169,
              32.79950899964934
            ],
            [
              -104.60879300036865,
              32.79926400021558
            ],
            [
              -104.61949799992901,
              32.828683999984534
            ],
            [
              -104.6314389995736,
              32.828165999944986
            ],
            [
              -104.61260299983037,
              32.84193999988089
            ],
            [
              -104.59345400009268,
              32.84294700030707
            ],
            [
              -104.59435200006813,
              32.88629699994358
            ],
            [
              -104.56250000025452,
              32.92101099966825
            ],
            [
              -104.5507210000933,
              32.96399700024222
            ],
            [
              -104.90516099994268,
              32.96289199989094
            ],
            [
              -104.90548200033304,
              33.138902999726945
            ],
            [
              -105.31696800043578,
              33.13230299963714
            ],
            [
              -105.31622400044613,
              33.00271899978223
            ],
            [
              -105.4130829999184,
              33.00384500032948
            ],
            [
              -105.41884999988781,
              32.99232700030778
            ],
            [
              -105.43620699987257,
              33.004328999718155
            ],
            [
              -105.48447400021287,
              33.0053360002493
            ],
            [
              -105.46049400011603,
              33.02448200029027
            ],
            [
              -105.57625000032922,
              33.06106099989709
            ],
            [
              -105.63421499957616,
              33.1086549997357
            ],
            [
              -105.67695900034452,
              33.12554000000555
            ],
            [
              -105.69425100003193,
              33.11719300001787
            ],
            [
              -105.70974199974556,
              33.19274199988673
            ],
            [
              -105.73264899996474,
              33.201154999989534
            ],
            [
              -105.74945699995348,
              33.22939399971711
            ],
            [
              -105.7883910003618,
              33.21539000030391
            ],
            [
              -105.92962999982146,
              33.218375000001835
            ],
            [
              -105.93163900020768,
              33.38989999963418
            ],
            [
              -106.37188499981447,
              33.390614999903825
            ],
            [
              -106.37365999984895,
              33.660503999820584
            ],
            [
              -106.05271799997631,
              33.6502969999225
            ],
            [
              -106.05266199989981,
              33.82560600032816
            ],
            [
              -105.92468499965952,
              33.825624000181186
            ],
            [
              -105.92488700022417,
              34.217098000009095
            ],
            [
              -105.92596799959942,
              34.25998999994811
            ],
            [
              -106.41597199989886,
              34.25982199966959
            ],
            [
              -106.41692400030101,
              34.439687000093066
            ],
            [
              -106.4563139999206,
              34.43705400020565
            ],
            [
              -106.56464799978046,
              34.473893999785744
            ],
            [
              -106.72555300008507,
              34.63897899997536
            ],
            [
              -106.71426900039148,
              34.64471299986743
            ],
            [
              -106.7145940000815,
              34.65834800016857
            ],
            [
              -106.7379249997249,
              34.65284899974293
            ],
            [
              -106.74522700042762,
              34.6604499999898
            ],
            [
              -106.74835499982395,
              34.70808800013748
            ],
            [
              -106.73634499968405,
              34.724718999915204
            ],
            [
              -106.74091499992727,
              34.74826099970612
            ],
            [
              -106.7272179996164,
              34.778419999969614
            ],
            [
              -106.74088599961495,
              34.78194199991655
            ],
            [
              -106.71473899984646,
              34.814063999633206
            ],
            [
              -106.72009099971417,
              34.87214100014666
            ],
            [
              -106.68448899981499,
              34.87114499995093
            ],
            [
              -106.68445299982997,
              34.84845299983041
            ],
            [
              -106.66274800025818,
              34.844170000032186
            ],
            [
              -106.66764700038938,
              34.81121300014939
            ],
            [
              -106.46454700021074,
              34.81102599989886
            ],
            [
              -106.46386799962006,
              34.87019399986108
            ],
            [
              -106.41178199959724,
              34.87018600022131
            ],
            [
              -106.41335900016335,
              34.89018700009087
            ],
            [
              -106.37991800008807,
              34.905754000340124
            ],
            [
              -106.38042199987822,
              34.94736500029351
            ],
            [
              -106.66366700015003,
              34.94679199967174
            ],
            [
              -106.62867299979807,
              35.04492799998676
            ],
            [
              -106.63762499996353,
              35.047561999929385
            ],
            [
              -106.63928500037031,
              35.06297799979864
            ],
            [
              -106.65105100011273,
              35.06327299982158
            ],
            [
              -106.64315000008362,
              35.07065400035325
            ],
            [
              -106.65579399970999,
              35.08006599983954
            ],
            [
              -106.66736600018197,
              35.07499199986883
            ],
            [
              -106.69233899979048,
              35.106508999913736
            ],
            [
              -106.72661799956678,
              35.12399500016275
            ],
            [
              -106.70929999994013,
              35.13838499974581
            ],
            [
              -106.71839199984765,
              35.15951199982232
            ],
            [
              -106.70219300012934,
              35.172328000254716
            ],
            [
              -106.68698799974767,
              35.167007999650174
            ],
            [
              -106.69048400028835,
              35.18552799982898
            ],
            [
              -106.67964800030843,
              35.19443600004463
            ],
            [
              -106.7276539996345,
              35.19213599972993
            ],
            [
              -106.72314700003881,
              35.215639000229935
            ],
            [
              -107.19724399979967,
              35.219458999897135
            ],
            [
              -107.2388899996777,
              35.30550700010803
            ],
            [
              -107.62878800038455,
              35.30433300029479
            ],
            [
              -107.6283130000084,
              35.3483139999884
            ],
            [
              -107.73424099982199,
              35.34814500004558
            ],
            [
              -107.73422400010355,
              35.30498700033793
            ],
            [
              -108.46871499999358,
              35.30665799983014
            ],
            [
              -108.46868300020654,
              35.29924300018812
            ],
            [
              -108.49210000006364,
              35.306005999980506
            ],
            [
              -108.52156900029551,
              35.30028699988089
            ],
            [
              -108.53913200014459,
              35.29180900001066
            ],
            [
              -108.5405620003976,
              35.254965000296416
            ],
            [
              -108.5304169998056,
              35.25943399988954
            ],
            [
              -108.5304169998056,
              35.25006600023445
            ],
            [
              -108.5412240003715,
              35.25013000029346
            ],
            [
              -108.53996900002068,
              35.122142000046935
            ],
            [
              -108.57039499977924,
              35.10561600023615
            ],
            [
              -108.63605599991419,
              35.12180100020652
            ],
            [
              -108.70578099995406,
              35.111901999872
            ],
            [
              -108.7363730002923,
              35.099411000280874
            ],
            [
              -108.7148779998845,
              35.06534100017558
            ],
            [
              -108.74115699989744,
              35.05706400029695
            ],
            [
              -108.76529600000293,
              35.05606799970845
            ],
            [
              -108.82553599977486,
              35.07519500021478
            ],
            [
              -108.80405499961076,
              35.10430399989899
            ],
            [
              -108.80739600034072,
              35.11920799968172
            ],
            [
              -108.85607600023457,
              35.10613600025731
            ],
            [
              -108.83852900027902,
              35.12504400008902
            ],
            [
              -108.83694300039042,
              35.165728999906555
            ],
            [
              -108.84760100009508,
              35.17662800017034
            ],
            [
              -109.04600899983177,
              35.17550799981924
            ],
            [
              -109.05036200034002,
              31.532083000273328
            ],
            [
              -109.05043099993698,
              31.528406999618507
            ]
          ]
        ]
      }
    },
    {
      "type": "Feature",
      "id": "us-cd:119:35:03",
      "properties": {
        "boundary_id": "us-cd:119:35:03",
        "boundary_type": "congressional_district",
        "name": "3",
        "stateFips": "35",
        "congress": 119,
        "district": "03",
        "bbox": [
          -109.0469539996629,
          32.69656499992741,
          -103.00228999963085,
          37.000149999736045
        ]
      },
      "geometry": {
        "type": "Polygon",
        "coordinates": [
          [
            [
              -109.0469539996629,
              35.393407000042274
            ],
            [
              -109.04600899983177,
              35.17550799981924
            ],
            [
              -108.84760100009508,
              35.17662800017034
            ],
            [
              -108.83694300039042,
              35.165728999906555
            ],
            [
              -108.83852900027902,
              35.12504400008902
            ],
            [
              -108.85607600023457,
              35.10613600025731
            ],
            [
              -108.80739600034072,
              35.11920799968172
            ],
            [
              -108.80405499961076,
              35.10430399989899
            ],
            [
              -108.82553599977486,
              35.07519500021478
            ],
            [
              -108.76324899998184,
              35.055667000118255
            ],
            [
              -108.7148779998845,
              35.06534100017558
            ],
            [
              -108.7363730002923,
              35.099411000280874
            ],
            [
              -108.70499599995652,
              35.112150000036564
            ],
            [
              -108.63605599991419,
              35.12180100020652
            ],
            [
              -108.57039499977924,
              35.10561600023615
            ],
            [
              -108.53996900002068,
              35.122142000046935
            ],
            [
              -108.5412240003715,
              35.25013000029346
            ],
            [
              -108.5304169998056,
              35.25006600023445
            ],
            [
              -108.5304169998056,
              35.25943399988954
            ],
            [
              -108.5405620003976,
              35.254965000296416
            ],
            [
              -108.53913200014459,
              35.29180900001066
            ],
            [
              -108.49210000006364,
              35.306005999980506
            ],
            [
              -108.46868300020654,
              35.29924300018812
            ],
            [
              -108.46871499999358,
              35.30665799983014
            ],
            [
              -107.73422400010355,
              35.30498700033793
            ],
            [
              -107.73424099982199,
              35.34814500004558
            ],
            [
              -107.6283130000084,
              35.3483139999884
            ],
            [
              -107.62878800038455,
              35.30433300029479
            ],
            [
              -107.2388899996777,
              35.30550700010803
            ],
            [
              -107.19724399979967,
              35.219458999897135
            ],
            [
              -106.9620380002625,
              35.2183919998108
            ],
            [
              -106.97490199999693,
              35.22984600030246
            ],
            [
              -106.96742699994016,
              35.241491999785346
            ],
            [
              -106.98099700002939,
              35.26024299968655
            ],
            [
              -106.97107400009357,
              35.27492400020948
            ],
            [
              -106.97617099969314,
              35.28389299991683
            ],
            [
              -106.9079550004473,
              35.300027000135415
            ],
            [
              -106.85638699956002,
              35.29340399964328
            ],
            [
              -106.86222999969742,
              35.35671899993387
            ],
            [
              -106.84230099998506,
              35.33361299989736
            ],
            [
              -106.72913699959098,
              35.33673400001497
            ],
            [
              -106.71801799975383,
              35.322312999641504
            ],
            [
              -106.6969729996078,
              35.32619099997781
            ],
            [
              -106.70232899967348,
              35.3508950002609
            ],
            [
              -106.69086099985688,
              35.35181999971233
            ],
            [
              -106.68623200006245,
              35.362831000201304
            ],
            [
              -106.67026099994979,
              35.351084999820635
            ],
            [
              -106.64670900037346,
              35.352719000003766
            ],
            [
              -106.63459999960106,
              35.37137400012443
            ],
            [
              -106.56668599958071,
              35.32735799994737
            ],
            [
              -106.55559199985794,
              35.33344200004656
            ],
            [
              -106.55845999986158,
              35.32412399967161
            ],
            [
              -106.53935999962938,
              35.32613499965616
            ],
            [
              -106.53928099998666,
              35.33433800015736
            ],
            [
              -106.50697800008632,
              35.33442499966359
            ],
            [
              -106.48089599971684,
              35.35798600028017
            ],
            [
              -106.39480299990429,
              35.34835699984809
            ],
            [
              -106.399677999746,
              35.3652369997999
            ],
            [
              -106.3551680000623,
              35.36563300028577
            ],
            [
              -106.3560540003422,
              35.448865000163934
            ],
            [
              -106.32515300020746,
              35.46159799978109
            ],
            [
              -106.24884799971323,
              35.44328200029056
            ],
            [
              -106.24516200010008,
              35.23866100025529
            ],
            [
              -106.22265999993687,
              35.24795400002227
            ],
            [
              -106.18936500034974,
              35.229892999882345
            ],
            [
              -106.15656199995888,
              35.22496900035633
            ],
            [
              -106.15610800039745,
              35.1420919999964
            ],
            [
              -105.97998000016783,
              35.14218699981087
            ],
            [
              -106.02952399970195,
              35.04067799968989
            ],
            [
              -105.29079099963177,
              35.04203000006227
            ],
            [
              -105.29116899992353,
              35.21648899989314
            ],
            [
              -104.12513599999679,
              35.21569600024917
            ],
            [
              -104.12888000023456,
              34.60520099986156
            ],
            [
              -103.94877799961337,
              34.60505800029682
            ],
            [
              -103.946019000288,
              34.082462999703324
            ],
            [
              -103.84169099970842,
              34.081909000327514
            ],
            [
              -103.84193299955776,
              33.81920000007618
            ],
            [
              -103.71688500031878,
              33.819558000124346
            ],
            [
              -103.71793399990698,
              33.703642000091094
            ],
            [
              -103.77058599964423,
              33.72838299983696
            ],
            [
              -103.78223900030707,
              33.712742999878834
            ],
            [
              -103.88425999967626,
              33.66990800000442
            ],
            [
              -104.02803999979972,
              33.66661100006738
            ],
            [
              -104.20617400004255,
              33.64365299993695
            ],
            [
              -104.34868100027182,
              33.588306000099685
            ],
            [
              -104.37904199973306,
              33.56558800036474
            ],
            [
              -104.48789699999983,
              33.43703799997188
            ],
            [
              -104.50985600001485,
              33.449810000099276
            ],
            [
              -104.51450300025097,
              33.43791300008802
            ],
            [
              -104.55914199980612,
              33.437599000082166
            ],
            [
              -104.55907499985896,
              33.423043000183824
            ],
            [
              -104.59519300014217,
              33.42259299972042
            ],
            [
              -104.59499200030072,
              33.3942599996341
            ],
            [
              -104.69602000015824,
              33.394150999674586
            ],
            [
              -104.82768100036185,
              33.36883399993704
            ],
            [
              -104.8851960002453,
              33.369244000191316
            ],
            [
              -104.88513000012306,
              33.30582700024619
            ],
            [
              -104.90383799981979,
              33.30590399976651
            ],
            [
              -104.90516099994268,
              32.96289199989094
            ],
            [
              -104.5507210000933,
              32.96399700024222
            ],
            [
              -104.56250000025452,
              32.92101099966825
            ],
            [
              -104.59435200006813,
              32.88629699994358
            ],
            [
              -104.59345400009268,
              32.84294700030707
            ],
            [
              -104.61260299983037,
              32.84193999988089
            ],
            [
              -104.6314389995736,
              32.828165999944986
            ],
            [
              -104.61949799992901,
              32.828683999984534
            ],
            [
              -104.60879300036865,
              32.79926400021558
            ],
            [
              -104.57284199959169,
              32.79950899964934
            ],
            [
              -104.54380199970521,
              32.78169199984264
            ],
            [
              -104.51802700038071,
              32.7865719998624
            ],
            [
              -104.5189980001511,
              32.76478499963538
            ],
            [
              -104.53142300039269,
              32.75568799997232
            ],
            [
              -104.4818320001046,
              32.75597500027833
            ],
            [
              -104.47887799988725,
              32.78068100003849
            ],
            [
              -104.41269000039593,
              32.78452299993613
            ],
            [
              -104.41263000012144,
              32.82809099983314
            ],
            [
              -104.3957710000791,
              32.82821200001241
            ],
            [
              -104.39566099957591,
              32.7843810001058
            ],
            [
              -104.36099799966006,
              32.785295999829
            ],
            [
              -104.36106700015534,
              32.77567400025622
            ],
            [
              -104.32865399975185,
              32.77260100011221
            ],
            [
              -104.33342499983651,
              32.76791299971342
            ],
            [
              -104.32041499961392,
              32.76028600002486
            ],
            [
              -104.23290699961697,
              32.79136200023314
            ],
            [
              -104.20214299974958,
              32.786491999903355
            ],
            [
              -104.19616599971788,
              32.79621399976908
            ],
            [
              -104.15021400008558,
              32.80020999966262
            ],
            [
              -104.13391499990988,
              32.898974999824055
            ],
            [
              -104.12103100008397,
              32.92025099980766
            ],
            [
              -104.12503700026258,
              32.94931199991371
            ],
            [
              -104.10758499984328,
              32.9653810002892
            ],
            [
              -103.81450700004729,
              32.965113999812566
            ],
            [
              -103.81445599999368,
              32.770237000123274
            ],
            [
              -103.35101000026478,
              32.769364999671254
            ],
            [
              -103.35083299981447,
              32.69673599966838
            ],
            [
              -103.12393300036238,
              32.69656499992741
            ],
            [
              -103.1122970003163,
              32.71116900009575
            ],
            [
              -103.1232589997946,
              32.71531300035899
            ],
            [
              -103.11421100026797,
              32.71983100014079
            ],
            [
              -103.12110499964339,
              32.72917899968249
            ],
            [
              -103.1104529997865,
              32.7286900003614
            ],
            [
              -103.1105230001067,
              32.73732200037358
            ],
            [
              -103.09496100024795,
              32.725884000117425
            ],
            [
              -103.06467100003351,
              32.7269599998859
            ],
            [
              -103.04365100000184,
              34.00363900005454
            ],
            [
              -103.04171699995868,
              36.50036000007623
            ],
            [
              -103.00228999963085,
              36.50088700035978
            ],
            [
              -103.0023289999889,
              37.000149999736045
            ],
            [
              -105.02922599971569,
              36.992726999829294
            ],
            [
              -109.04517199995568,
              36.9989769999816
            ],
            [
              -109.0469539996629,
              35.39342699992967
            ],
            [
              -109.0469539996629,
              35.393407000042274
            ]
          ]
        ]
      }
    }
  ]
}
