{
  "type": "FeatureCollection",
  "features": [
    {
      "type": "Feature",
      "id": "us-cd:119:16:01",
      "properties": {
        "boundary_id": "us-cd:119:16:01",
        "boundary_type": "congressional_district",
        "name": "1",
        "stateFips": "16",
        "congress": 119,
        "district": "01",
        "bbox": [
          -117.2430189995859,
          41.996279000057136,
          -114.32070499974807,
          49.000845999851144
        ]
      },
      "geometry": {
        "type": "Polygon",
        "coordinates": [
          [
            [
              -117.2430189995859,
              44.391003000152345
            ],
            [
              -117.23511699973186,
              44.37385299974037
            ],
            [
              -117.19007300012075,
              44.33738699969614
            ],
            [
              -117.22274000006917,
              44.29832599973725
            ],
            [
              -117.19814700040224,
              44.27382800004626
            ],
            [
              -117.17034100005189,
              44.258888999860055
            ],
            [
              -117.14621799983995,
              44.2580269998099
            ],
            [
              -117.10420700008892,
              44.279942000140686
            ],
            [
              -117.05143099960478,
              44.228747999898545
            ],
            [
              -117.03186199974253,
              44.24863500019108
            ],
            [
              -116.97598499962625,
              44.242875000229596
            ],
            [
              -116.97167499967401,
              44.19725599986633
            ],
            [
              -116.92539199960561,
              44.191544000146024
            ],
            [
              -116.90275200024844,
              44.17946699998021
            ],
            [
              -116.89420199976588,
              44.16231699976359
            ],
            [
              -116.93370100006375,
              44.100043000031036
            ],
            [
              -116.97735100030516,
              44.0853640001793
            ],
            [
              -116.97318500029299,
              44.04942500002274
            ],
            [
              -116.93613399987422,
              44.027140000157594
            ],
            [
              -116.94493999955145,
              44.002778999708724
            ],
            [
              -116.93530100019608,
              43.98861600012268
            ],
            [
              -116.9760449999007,
              43.97505799977024
            ],
            [
              -116.95920599994982,
              43.96635999992354
            ],
            [
              -116.97243100025757,
              43.957987000262186
            ],
            [
              -116.96047700019417,
              43.955102999815274
            ],
            [
              -116.96913899993137,
              43.93886499990066
            ],
            [
              -116.9615350000032,
              43.91838799972972
            ],
            [
              -116.98114499987334,
              43.91369300000871
            ],
            [
              -116.98293999999933,
              43.86771000001198
            ],
            [
              -117.02003499990073,
              43.8589559999596
            ],
            [
              -117.01158200040086,
              43.84104499990337
            ],
            [
              -117.02515599978976,
              43.841333999925006
            ],
            [
              -117.03257800014309,
              43.830180999805734
            ],
            [
              -117.02154999964422,
              43.81940200012634
            ],
            [
              -117.02620000025341,
              42.00019499967398
            ],
            [
              -115.03815699967068,
              41.996279000057136
            ],
            [
              -115.03769700026146,
              42.768414000239844
            ],
            [
              -115.4542239998873,
              42.76793600012982
            ],
            [
              -115.45423300010815,
              42.85113200021294
            ],
            [
              -115.44141399968125,
              42.85110499991646
            ],
            [
              -115.44152199963628,
              42.93112700025669
            ],
            [
              -115.49652500006655,
              42.92660900013206
            ],
            [
              -115.53509200005375,
              42.94294299977286
            ],
            [
              -115.56216899958476,
              42.93444100015392
            ],
            [
              -115.60306499962535,
              42.93727100016157
            ],
            [
              -115.62589300020183,
              42.95623600009528
            ],
            [
              -115.69447400021893,
              42.9393570001386
            ],
            [
              -115.77150500026119,
              42.9386640003052
            ],
            [
              -115.79677699962045,
              42.9494830000418
            ],
            [
              -115.7860710002352,
              42.96039500016453
            ],
            [
              -115.79181200026532,
              42.9723479996862
            ],
            [
              -115.84626599980129,
              42.96925800019337
            ],
            [
              -115.8792080001093,
              42.98914299988652
            ],
            [
              -115.90843700014166,
              42.98293599991837
            ],
            [
              -115.92898000014738,
              43.00185900011882
            ],
            [
              -115.96554899961899,
              42.983813000328304
            ],
            [
              -115.97210999980678,
              42.9704850001776
            ],
            [
              -115.96091300015183,
              42.95301800024994
            ],
            [
              -115.96496600018611,
              42.94367299997443
            ],
            [
              -116.01106000010863,
              42.949680999905915
            ],
            [
              -116.05145200035906,
              42.986342000112415
            ],
            [
              -116.09074300024446,
              42.98788299990667
            ],
            [
              -116.11878499969805,
              43.0126060002472
            ],
            [
              -116.148181000135,
              43.01479900005563
            ],
            [
              -116.1396840002542,
              43.03047799994245
            ],
            [
              -116.1471269996256,
              43.03763199982744
            ],
            [
              -116.20174000006855,
              43.04892999967928
            ],
            [
              -116.20809000036915,
              43.06764499992358
            ],
            [
              -116.19301499968381,
              43.0842250000493
            ],
            [
              -116.25524499957542,
              43.10067000022329
            ],
            [
              -116.26620699995205,
              43.11226899988029
            ],
            [
              -115.9786509999031,
              43.113432000314276
            ],
            [
              -115.97488099972604,
              43.36502000012145
            ],
            [
              -116.1390370003489,
              43.50341499995632
            ],
            [
              -116.16081600043886,
              43.542023000068895
            ],
            [
              -116.24136099966684,
              43.55614800027469
            ],
            [
              -116.24862800020945,
              43.57527900028367
            ],
            [
              -116.354412000083,
              43.57575700000238
            ],
            [
              -116.35406899995132,
              43.690939999869364
            ],
            [
              -116.32000799973491,
              43.6845690001178
            ],
            [
              -116.31955900019635,
              43.72061299981531
            ],
            [
              -116.28942700016566,
              43.751573999740664
            ],
            [
              -116.26582700001046,
              43.7620580001751
            ],
            [
              -116.26410700022753,
              43.795665999831414
            ],
            [
              -115.98017800024047,
              43.58587399995034
            ],
            [
              -115.95598800008138,
              43.58978899994698
            ],
            [
              -115.94483400008416,
              43.60877399967947
            ],
            [
              -115.92003499965459,
              43.592481999878444
            ],
            [
              -115.8970339997241,
              43.59884299979713
            ],
            [
              -115.8759269996538,
              43.59126500006248
            ],
            [
              -115.84721300018055,
              43.60799200012166
            ],
            [
              -115.82874499978502,
              43.60595499982699
            ],
            [
              -115.82300999960265,
              43.61935300031247
            ],
            [
              -115.80664000018014,
              43.62284400029695
            ],
            [
              -115.78202400004868,
              43.64836999973212
            ],
            [
              -115.74564399982464,
              43.645684999903466
            ],
            [
              -115.72750299966727,
              43.65664800016702
            ],
            [
              -115.73066100009912,
              43.66605899978829
            ],
            [
              -115.69828399968063,
              43.66502999974132
            ],
            [
              -115.66844299990309,
              43.69521200025347
            ],
            [
              -115.64486700003731,
              43.70094600013915
            ],
            [
              -115.63451499975606,
              43.723479999697524
            ],
            [
              -115.61478100003738,
              43.728322999878245
            ],
            [
              -115.63394499984365,
              43.74565199988292
            ],
            [
              -115.61659100023199,
              43.7621060001324
            ],
            [
              -115.61554900031649,
              43.780662000269785
            ],
            [
              -115.5927960000831,
              43.79828899991266
            ],
            [
              -115.54753800021174,
              43.792667000046016
            ],
            [
              -115.52962200018528,
              43.81665799986117
            ],
            [
              -115.53708499964817,
              43.85406200006143
            ],
            [
              -115.52287100002668,
              43.85845699978542
            ],
            [
              -115.50037399988634,
              43.88990199999618
            ],
            [
              -115.37856199999871,
              43.92398100029916
            ],
            [
              -115.33823199967253,
              43.92073099983862
            ],
            [
              -115.27815000008437,
              43.94191700023924
            ],
            [
              -115.26820000038433,
              43.973943999928274
            ],
            [
              -115.23424100027516,
              44.006820000031254
            ],
            [
              -115.19706699983274,
              44.0685520001827
            ],
            [
              -115.23052799999952,
              44.098766000268924
            ],
            [
              -115.17274000030463,
              44.08506800029435
            ],
            [
              -115.15065599971783,
              44.04765800014708
            ],
            [
              -115.148021000241,
              44.00188099987589
            ],
            [
              -115.13742100026263,
              43.984660999952126
            ],
            [
              -115.10591000003254,
              43.970247999980124
            ],
            [
              -115.08546999995903,
              43.97659300003744
            ],
            [
              -115.0924959995789,
              43.95841400006536
            ],
            [
              -115.07554600019824,
              43.95480799988531
            ],
            [
              -115.06742800043416,
              43.94041599974699
            ],
            [
              -115.0384529999467,
              43.95767499987263
            ],
            [
              -114.9907770003335,
              43.94972300014146
            ],
            [
              -114.96874399980035,
              43.973657000006284
            ],
            [
              -114.96734299985965,
              43.982088000269506
            ],
            [
              -114.98742700028103,
              43.99224000018018
            ],
            [
              -114.98255800028704,
              44.0111880002517
            ],
            [
              -114.99860100036975,
              44.02066200022388
            ],
            [
              -115.01762799990868,
              44.01252099993777
            ],
            [
              -115.04813499985812,
              44.03780299971041
            ],
            [
              -115.03598099977818,
              44.06872600013644
            ],
            [
              -114.99658899961044,
              44.09223699992784
            ],
            [
              -115.02052500022465,
              44.09838599980258
            ],
            [
              -115.04672499969656,
              44.11997099969353
            ],
            [
              -115.01849099972404,
              44.13878899983668
            ],
            [
              -115.026505999556,
              44.158226999689944
            ],
            [
              -115.06173500008458,
              44.160132999678275
            ],
            [
              -115.08236099993096,
              44.176159999913274
            ],
            [
              -115.10793100011438,
              44.17005999985616
            ],
            [
              -115.12749999997662,
              44.19166700008378
            ],
            [
              -115.1676839998146,
              44.202839999708715
            ],
            [
              -115.16276499959193,
              44.2137060000281
            ],
            [
              -115.17483099980831,
              44.23546400024255
            ],
            [
              -115.15661299965802,
              44.24694800009146
            ],
            [
              -115.16751399993527,
              44.2578290001557
            ],
            [
              -115.17524900028307,
              44.29298000029444
            ],
            [
              -115.20302799997091,
              44.28252899971296
            ],
            [
              -115.21311400011338,
              44.304510000069364
            ],
            [
              -115.23598500034755,
              44.30811400024636
            ],
            [
              -115.24346799990194,
              44.292244000287944
            ],
            [
              -115.24973399963864,
              44.31108700009686
            ],
            [
              -115.28893400018573,
              44.32585500014917
            ],
            [
              -115.2944729996512,
              44.34066700029404
            ],
            [
              -115.28428100010184,
              44.358222000100845
            ],
            [
              -115.26022999985993,
              44.370295000001704
            ],
            [
              -115.23136099967766,
              44.415346999681674
            ],
            [
              -115.23228100029273,
              44.458556000270214
            ],
            [
              -115.22364499959644,
              44.46344899996684
            ],
            [
              -115.2347710000046,
              44.46842299985929
            ],
            [
              -115.22704599970255,
              44.48624299981916
            ],
            [
              -115.23894799988743,
              44.51183400009443
            ],
            [
              -115.24976499960077,
              44.520843999840906
            ],
            [
              -115.28054799973472,
              44.518567999822686
            ],
            [
              -115.29469000028449,
              44.53232699971044
            ],
            [
              -115.29039600022581,
              44.543196999934054
            ],
            [
              -115.30499399998685,
              44.5798569999556
            ],
            [
              -115.27954199980422,
              44.612080000091204
            ],
            [
              -115.26021800016434,
              44.6062190000443
            ],
            [
              -115.24949000013949,
              44.6181420003125
            ],
            [
              -115.2224849996802,
              44.619428999749225
            ],
            [
              -115.22200000015661,
              44.63070399972208
            ],
            [
              -115.19896099969293,
              44.62418199975479
            ],
            [
              -115.18027999976039,
              44.6458840002319
            ],
            [
              -115.16842000030665,
              44.64720300001531
            ],
            [
              -115.1393689996512,
              44.71487499975981
            ],
            [
              -115.15193700000792,
              44.72859199976532
            ],
            [
              -115.11719499955105,
              44.75604799990656
            ],
            [
              -115.07637100037878,
              44.76946100029799
            ],
            [
              -115.03865499961306,
              44.750652000064655
            ],
            [
              -115.03281599967363,
              44.73497399988958
            ],
            [
              -115.01715500008068,
              44.74342199986056
            ],
            [
              -115.00961999974945,
              44.71336699985811
            ],
            [
              -114.99703700022242,
              44.72863300005952
            ],
            [
              -114.94741300032236,
              44.723038000303085
            ],
            [
              -114.91554800008996,
              44.74480599996794
            ],
            [
              -114.91362699956726,
              44.75754999972331
            ],
            [
              -114.81316699997232,
              44.80691400024681
            ],
            [
              -114.79309000012196,
              44.83611100025937
            ],
            [
              -114.76644899971073,
              44.84274199971357
            ],
            [
              -114.77130799965893,
              44.85069699977715
            ],
            [
              -114.76077700017588,
              44.85619399997949
            ],
            [
              -114.7689109998335,
              44.872443999912676
            ],
            [
              -114.73455099986636,
              44.8787460002268
            ],
            [
              -114.72329399993696,
              44.89117699978103
            ],
            [
              -114.7321110003832,
              44.893832000232834
            ],
            [
              -114.72663599959354,
              44.90244200030453
            ],
            [
              -114.7359900003402,
              44.92574300028298
            ],
            [
              -114.72327200019566,
              44.93438700017697
            ],
            [
              -114.73570099973689,
              44.94979299973665
            ],
            [
              -114.73599100016511,
              44.97486900019753
            ],
            [
              -114.72153099959802,
              45.00820499988606
            ],
            [
              -114.72873500039145,
              45.01339899987691
            ],
            [
              -114.72237300039528,
              45.04105800003356
            ],
            [
              -114.728935000408,
              45.072512000113946
            ],
            [
              -114.71930000035225,
              45.087486000099105
            ],
            [
              -114.73319099993354,
              45.0944900003158
            ],
            [
              -114.72148200009254,
              45.12102299970882
            ],
            [
              -114.73227000039188,
              45.15115499974051
            ],
            [
              -114.72205700002779,
              45.180055999826834
            ],
            [
              -114.69883900036231,
              45.18970100001328
            ],
            [
              -114.67487599998395,
              45.233660999835195
            ],
            [
              -114.59332499992716,
              45.297486000120564
            ],
            [
              -114.60478299969803,
              45.29610300005024
            ],
            [
              -114.64381800038872,
              45.32094299992322
            ],
            [
              -114.6743110000944,
              45.34827800000649
            ],
            [
              -114.67520499987192,
              45.36519999986461
            ],
            [
              -114.695480000089,
              45.36889800005032
            ],
            [
              -114.71623499980679,
              45.39547999973117
            ],
            [
              -114.73490999989154,
              45.39541500025647
            ],
            [
              -114.7616879996718,
              45.41288400001207
            ],
            [
              -114.76912699974356,
              45.43455699995512
            ],
            [
              -114.79320700029781,
              45.436334000259855
            ],
            [
              -114.78765799988828,
              45.45826199987664
            ],
            [
              -114.7980419999566,
              45.49679299986912
            ],
            [
              -114.78824600024235,
              45.51248900008578
            ],
            [
              -114.77437800022726,
              45.51360999991372
            ],
            [
              -114.73415000000836,
              45.489897000067664
            ],
            [
              -114.69052599970622,
              45.49077600018027
            ],
            [
              -114.6806110001663,
              45.47394899990476
            ],
            [
              -114.66372500035975,
              45.471005000080204
            ],
            [
              -114.63199599967146,
              45.519177000089535
            ],
            [
              -114.5715369996164,
              45.54960299994409
            ],
            [
              -114.55309099986049,
              45.57618299987434
            ],
            [
              -114.55849799997979,
              45.58446300004103
            ],
            [
              -114.53794400010345,
              45.606591999920596
            ],
            [
              -114.56398700011486,
              45.637621000304854
            ],
            [
              -114.50764600039142,
              45.657535000072905
            ],
            [
              -114.49902999978661,
              45.67887400008052
            ],
            [
              -114.5150860002881,
              45.684911000124075
            ],
            [
              -114.49514800035487,
              45.703970000147244
            ],
            [
              -114.50418199963778,
              45.7218139997893
            ],
            [
              -114.54785000032086,
              45.743264000221835
            ],
            [
              -114.54451100013902,
              45.75917800018186
            ],
            [
              -114.56646500013116,
              45.77331000009826
            ],
            [
              -114.54409100001448,
              45.79036100010573
            ],
            [
              -114.53101800004266,
              45.818898000307684
            ],
            [
              -114.51148299961729,
              45.829436000236896
            ],
            [
              -114.51737900035644,
              45.834947000075516
            ],
            [
              -114.50933199983915,
              45.84554799988199
            ],
            [
              -114.47489099968114,
              45.846584999715404
            ],
            [
              -114.43771499958888,
              45.86260799984929
            ],
            [
              -114.40965399986871,
              45.85157299978659
            ],
            [
              -114.40591700020195,
              45.870399999961776
            ],
            [
              -114.38855699984416,
              45.882188999920025
            ],
            [
              -114.3951430001463,
              45.901433000141225
            ],
            [
              -114.43139600014874,
              45.93604000000431
            ],
            [
              -114.40252399959344,
              45.957943999949435
            ],
            [
              -114.41175500031646,
              45.97787000016327
            ],
            [
              -114.45782599977446,
              45.997478000006346
            ],
            [
              -114.47999200037701,
              45.9929019998044
            ],
            [
              -114.48778299990296,
              46.00364600022553
            ],
            [
              -114.47306999961587,
              46.01415000001649
            ],
            [
              -114.48034700020423,
              46.03034899987261
            ],
            [
              -114.50750400010118,
              46.03146399974003
            ],
            [
              -114.49334900003093,
              46.052579999746136
            ],
            [
              -114.46828600001075,
              46.06278999988877
            ],
            [
              -114.47235199956549,
              46.07680599997166
            ],
            [
              -114.4620110000532,
              46.07858000026371
            ],
            [
              -114.46047500039327,
              46.09778999969773
            ],
            [
              -114.47445399983815,
              46.11310800015134
            ],
            [
              -114.52099600037262,
              46.12511200004068
            ],
            [
              -114.51769599965053,
              46.13558499992365
            ],
            [
              -114.5273590001937,
              46.145410999711025
            ],
            [
              -114.51436800023768,
              46.153972000133464
            ],
            [
              -114.51485799978414,
              46.16768000028368
            ],
            [
              -114.47595299968812,
              46.16060599995788
            ],
            [
              -114.44409099982876,
              46.16927299989956
            ],
            [
              -114.44798499985437,
              46.23156499991368
            ],
            [
              -114.46826699974416,
              46.24866300018618
            ],
            [
              -114.4707199996461,
              46.26604099976026
            ],
            [
              -114.42544099985834,
              46.28785600002286
            ],
            [
              -114.43343399994899,
              46.30554900007818
            ],
            [
              -114.41402200044557,
              46.335564000040605
            ],
            [
              -114.41024999972036,
              46.36105399971895
            ],
            [
              -114.42244700035633,
              46.38704599995513
            ],
            [
              -114.3848429997436,
              46.41135899986059
            ],
            [
              -114.38296099957896,
              46.432172000281184
            ],
            [
              -114.36841399987152,
              46.43711499988808
            ],
            [
              -114.38440000005282,
              46.447011999877276
            ],
            [
              -114.37943099960142,
              46.460289999775966
            ],
            [
              -114.40067199956601,
              46.47781299981692
            ],
            [
              -114.40318399991752,
              46.49881100023326
            ],
            [
              -114.35834000032295,
              46.505211999880586
            ],
            [
              -114.34264100019688,
              46.518431000045275
            ],
            [
              -114.34788799958429,
              46.55147100013036
            ],
            [
              -114.3296390003702,
              46.576198999876205
            ],
            [
              -114.34419699994827,
              46.5899690001629
            ],
            [
              -114.32253199966112,
              46.610889000284224
            ],
            [
              -114.32070499974807,
              46.64695000005036
            ],
            [
              -114.35822399997201,
              46.671137999737304
            ],
            [
              -114.42459599958634,
              46.66065999979004
            ],
            [
              -114.45347700036248,
              46.64920900011499
            ],
            [
              -114.4668340000164,
              46.63180100020664
            ],
            [
              -114.54182200023553,
              46.64999200024086
            ],
            [
              -114.58286700023903,
              46.63336700020135
            ],
            [
              -114.6057319997271,
              46.63589999973267
            ],
            [
              -114.61497500014572,
              46.639975000062
            ],
            [
              -114.61456400024196,
              46.655075000257305
            ],
            [
              -114.6357790002673,
              46.659475999820536
            ],
            [
              -114.63313999969422,
              46.671818000257936
            ],
            [
              -114.64256300003785,
              46.67291200024956
            ],
            [
              -114.62354300017161,
              46.690933000153095
            ],
            [
              -114.62078700032096,
              46.707261999969376
            ],
            [
              -114.6653759996474,
              46.739234000304165
            ],
            [
              -114.69859400013992,
              46.740451000002366
            ],
            [
              -114.71304399976295,
              46.71542599998148
            ],
            [
              -114.76678599999462,
              46.696902000098724
            ],
            [
              -114.78843000036537,
              46.71276999983677
            ],
            [
              -114.76523899956575,
              46.745390999862394
            ],
            [
              -114.76508999960282,
              46.758150000072554
            ],
            [
              -114.78363400016633,
              46.768666000148066
            ],
            [
              -114.78749999970454,
              46.782775999873195
            ],
            [
              -114.79874800031143,
              46.775832000154
            ],
            [
              -114.82910399974978,
              46.782625999991545
            ],
            [
              -114.86577900042492,
              46.81452899975286
            ],
            [
              -114.89518900020728,
              46.80163000013071
            ],
            [
              -114.89844800002318,
              46.82235400014132
            ],
            [
              -114.92073099990327,
              46.827082999897556
            ],
            [
              -114.92868299998601,
              46.854767000015265
            ],
            [
              -114.94826100006912,
              46.86000899990927
            ],
            [
              -114.93142100029331,
              46.876998000226514
            ],
            [
              -114.93674100037397,
              46.89727900022701
            ],
            [
              -114.92514299996273,
              46.918681000194496
            ],
            [
              -114.96059699972392,
              46.93000999975727
            ],
            [
              -115.0012740003797,
              46.97190100013062
            ],
            [
              -115.04878900033442,
              46.97003600006328
            ],
            [
              -115.06777499986548,
              46.9952120001215
            ],
            [
              -115.07167899993684,
              47.026360999759184
            ],
            [
              -115.08742599974352,
              47.04571599992198
            ],
            [
              -115.10579100020688,
              47.048412999835215
            ],
            [
              -115.13113399971122,
              47.06895599986578
            ],
            [
              -115.14412999969012,
              47.101910999895864
            ],
            [
              -115.17165200035836,
              47.10678199987104
            ],
            [
              -115.19904000023396,
              47.13988700015288
            ],
            [
              -115.24461899959736,
              47.15131199996578
            ],
            [
              -115.26182199959631,
              47.18143099993609
            ],
            [
              -115.3005769999045,
              47.18833400026231
            ],
            [
              -115.29152900037789,
              47.21085400009209
            ],
            [
              -115.32436899968035,
              47.24472399985836
            ],
            [
              -115.31978599991666,
              47.25668400000908
            ],
            [
              -115.41158499959926,
              47.26436900013302
            ],
            [
              -115.42596700034856,
              47.28027799985446
            ],
            [
              -115.45590799968525,
              47.27761799983318
            ],
            [
              -115.4658180001006,
              47.287476999794464
            ],
            [
              -115.48226399969109,
              47.281444000279244
            ],
            [
              -115.52850900012464,
              47.299243999962925
            ],
            [
              -115.55076299969245,
              47.34968600012644
            ],
            [
              -115.57512699992884,
              47.35590300011085
            ],
            [
              -115.57763900028031,
              47.36740400010802
            ],
            [
              -115.61724700035812,
              47.38251999987351
            ],
            [
              -115.64341099984503,
              47.377340000139384
            ],
            [
              -115.6574909995722,
              47.40045499984206
            ],
            [
              -115.71226100037397,
              47.41544200013539
            ],
            [
              -115.72111200025711,
              47.42569799970703
            ],
            [
              -115.75930400032559,
              47.423861999971415
            ],
            [
              -115.74743899995063,
              47.44204199998678
            ],
            [
              -115.71609400030022,
              47.452879999937565
            ],
            [
              -115.64646100032188,
              47.4568299999324
            ],
            [
              -115.62948799957836,
              47.47960999988296
            ],
            [
              -115.68626400039334,
              47.48493999985435
            ],
            [
              -115.69002600017446,
              47.50076199978147
            ],
            [
              -115.71139799966032,
              47.51677099991423
            ],
            [
              -115.69831399981787,
              47.531375000220784
            ],
            [
              -115.75562000036223,
              47.547932999896446
            ],
            [
              -115.68775800022044,
              47.5952999998225
            ],
            [
              -115.6984429996893,
              47.60657899970287
            ],
            [
              -115.69444400008169,
              47.62376100003449
            ],
            [
              -115.7365080004345,
              47.653810999888364
            ],
            [
              -115.72264799991699,
              47.695118000138976
            ],
            [
              -115.75302599999502,
              47.716950000296414
            ],
            [
              -115.77715099985677,
              47.720375999962684
            ],
            [
              -115.78100200022469,
              47.74318400019379
            ],
            [
              -115.79749800004387,
              47.75733399974378
            ],
            [
              -115.83090999980688,
              47.7550360000441
            ],
            [
              -115.8473529999226,
              47.785093999780564
            ],
            [
              -115.85231200032825,
              47.82785700015045
            ],
            [
              -115.88149600015481,
              47.84961199997192
            ],
            [
              -115.90140099957773,
              47.84309700008491
            ],
            [
              -115.91888499978405,
              47.853620000191306
            ],
            [
              -115.93800900030571,
              47.881093000148745
            ],
            [
              -115.96838900003351,
              47.89924999980392
            ],
            [
              -115.96686900026714,
              47.91259800028128
            ],
            [
              -115.99337500006084,
              47.92597699993057
            ],
            [
              -116.01877100016698,
              47.96289499997328
            ],
            [
              -116.04910800023706,
              47.976842000067556
            ],
            [
              -116.04908599959745,
              49.000845999851144
            ],
            [
              -117.03234499961629,
              48.99920099993449
            ],
            [
              -117.04230899956,
              47.96228899984336
            ],
            [
              -117.03462599998907,
              46.4178449998014
            ],
            [
              -117.0627879999916,
              46.353604999782505
            ],
            [
              -117.02430499966998,
              46.33627599986284
            ],
            [
              -117.020581000422,
              46.314789000100625
            ],
            [
              -116.98621600043197,
              46.29595000015552
            ],
            [
              -116.9911950000308,
              46.276960000305436
            ],
            [
              -116.96780499993784,
              46.258474999753666
            ],
            [
              -116.9554800001537,
              46.230984000092604
            ],
            [
              -116.96538399982298,
              46.2031220002537
            ],
            [
              -116.92234100020218,
              46.168773999762344
            ],
            [
              -116.9554240000772,
              46.10186100006185
            ],
            [
              -116.97884500013225,
              46.09584900030676
            ],
            [
              -116.98195199961218,
              46.08484700000677
            ],
            [
              -116.94279299997127,
              46.06111500030136
            ],
            [
              -116.91892400020254,
              45.99871299998241
            ],
            [
              -116.89360599991421,
              45.97758000019503
            ],
            [
              -116.89129799977724,
              45.96032700003777
            ],
            [
              -116.87598000031596,
              45.9547749998784
            ],
            [
              -116.85979499994306,
              45.90726399986756
            ],
            [
              -116.79645899966356,
              45.86122399976794
            ],
            [
              -116.78213899973684,
              45.82511600008036
            ],
            [
              -116.75978899990959,
              45.816166999972175
            ],
            [
              -116.70974999990783,
              45.825728000006045
            ],
            [
              -116.6652679998132,
              45.782058999816
            ],
            [
              -116.5942099996047,
              45.77908000010741
            ],
            [
              -116.54808999974291,
              45.752364000130505
            ],
            [
              -116.53569800001162,
              45.73423099978971
            ],
            [
              -116.53539599988781,
              45.69173400006181
            ],
            [
              -116.48881800026662,
              45.650799000234336
            ],
            [
              -116.46340700009188,
              45.60385700029854
            ],
            [
              -116.4824160000875,
              45.577449000213704
            ],
            [
              -116.52831900021428,
              45.55151299994704
            ],
            [
              -116.52343900034967,
              45.546555999959345
            ],
            [
              -116.53548200010152,
              45.525078999757376
            ],
            [
              -116.55746299985783,
              45.50417300022175
            ],
            [
              -116.55483000003085,
              45.46293000015876
            ],
            [
              -116.58819499993815,
              45.442919999748824
            ],
            [
              -116.59744699967928,
              45.41276999993726
            ],
            [
              -116.62338500010873,
              45.393962999916795
            ],
            [
              -116.67379300018139,
              45.321511000235624
            ],
            [
              -116.67449299979013,
              45.276348999875864
            ],
            [
              -116.70369699970816,
              45.24009900023846
            ],
            [
              -116.72960699965017,
              45.14209100023714
            ],
            [
              -116.75464299990618,
              45.11397199992441
            ],
            [
              -116.77484699997817,
              45.10553599990097
            ],
            [
              -116.7973290000499,
              45.06026700025609
            ],
            [
              -116.84794399981183,
              45.022601999931254
            ],
            [
              -116.84462499972149,
              45.001434999987694
            ],
            [
              -116.85798200027372,
              44.97732000022566
            ],
            [
              -116.84857399999869,
              44.9717160002237
            ],
            [
              -116.83974400003197,
              44.983063000225506
            ],
            [
              -116.82627100002709,
              44.98249300005889
            ],
            [
              -116.85098400024292,
              44.96155600011426
            ],
            [
              -116.83199000031595,
              44.933007000088516
            ],
            [
              -116.85242700001642,
              44.88757799993444
            ],
            [
              -116.8653379996065,
              44.870603000292085
            ],
            [
              -116.89861999967316,
              44.85374400021401
            ],
            [
              -116.90014600018561,
              44.83667199992655
            ],
            [
              -116.9310990001989,
              44.80478100007278
            ],
            [
              -116.93470000032153,
              44.78388099969065
            ],
            [
              -117.03826999976943,
              44.74817900027488
            ],
            [
              -117.06227300033078,
              44.72714299982913
            ],
            [
              -117.06179899977953,
              44.70665400013958
            ],
            [
              -117.09586800039186,
              44.664736999687776
            ],
            [
              -117.09822099983637,
              44.640688999918986
            ],
            [
              -117.12052200015816,
              44.61465799983327
            ],
            [
              -117.12475400029257,
              44.58383400014951
            ],
            [
              -117.14825499981525,
              44.56437099996441
            ],
            [
              -117.14924200037748,
              44.5361510000852
            ],
            [
              -117.18158299991266,
              44.52296000018904
            ],
            [
              -117.20023700008102,
              44.49202700030425
            ],
            [
              -117.22507599979522,
              44.48234600009955
            ],
            [
              -117.21507199966852,
              44.4271619999341
            ],
            [
              -117.24301100008827,
              44.391038999680035
            ],
            [
              -117.2430189995859,
              44.391003000152345
            ]
          ]
        ]
      }
    },
    {
      "type": "Feature",
      "id": "us-cd:119:16:02",
      "properties": {
        "boundary_id": "us-cd:119:16:02",
        "boundary_type": "congressional_district",
        "name": "2",
        "stateFips": "16",
        "congress": 119,
        "district": "02",
        "bbox": [
          -116.3548199996137,
          41.988181999870925,
          -111.04671399958423,
          45.705976999893316
        ]
      },
      "geometry": {
        "type": "Polygon",
        "coordinates": [
          [
            [
              -116.3548199996137,
              43.6078749999814
            ],
            [
              -116.354412000083,
              43.57575700000238
            ],
            [
              -116.24862800020945,
              43.57527900028367
            ],
            [
              -116.24136099966684,
              43.55614800027469
            ],
            [
              -116.16081600043886,
              43.542023000068895
            ],
            [
              -116.1390370003489,
              43.50341499995632
            ],
            [
              -115.97488099972604,
              43.36502000012145
            ],
            [
              -115.9786509999031,
              43.113432000314276
            ],
            [
              -116.26620699995205,
              43.11226899988029
            ],
            [
              -116.25524499957542,
              43.10067000022329
            ],
            [
              -116.19301499968381,
              43.0842250000493
            ],
            [
              -116.20809000036915,
              43.06764499992358
            ],
            [
              -116.20174000006855,
              43.04892999967928
            ],
            [
              -116.1471269996256,
              43.03763199982744
            ],
            [
              -116.1396840002542,
              43.03047799994245
            ],
            [
              -116.148181000135,
              43.01479900005563
            ],
            [
              -116.11878499969805,
              43.0126060002472
            ],
            [
              -116.09074300024446,
              42.98788299990667
            ],
            [
              -116.05145200035906,
              42.986342000112415
            ],
            [
              -116.01106000010863,
              42.949680999905915
            ],
            [
              -115.96496600018611,
              42.94367299997443
            ],
            [
              -115.96091300015183,
              42.95301800024994
            ],
            [
              -115.97210999980678,
              42.9704850001776
            ],
            [
              -115.96554899961899,
              42.983813000328304
            ],
            [
              -115.92898000014738,
              43.00185900011882
            ],
            [
              -115.90843700014166,
              42.98293599991837
            ],
            [
              -115.8792080001093,
              42.98914299988652
            ],
            [
              -115.84626599980129,
              42.96925800019337
            ],
            [
              -115.79181200026532,
              42.9723479996862
            ],
            [
              -115.7860710002352,
              42.96039500016453
            ],
            [
              -115.79677699962045,
              42.9494830000418
            ],
            [
              -115.77150500026119,
              42.9386640003052
            ],
            [
              -115.69447400021893,
              42.9393570001386
            ],
            [
              -115.62589300020183,
              42.95623600009528
            ],
            [
              -115.60306499962535,
              42.93727100016157
            ],
            [
              -115.56216899958476,
              42.93444100015392
            ],
            [
              -115.53509200005375,
              42.94294299977286
            ],
            [
              -115.49652500006655,
              42.92660900013206
            ],
            [
              -115.44152199963628,
              42.93112700025669
            ],
            [
              -115.44141399968125,
              42.85110499991646
            ],
            [
              -115.45423300010815,
              42.85113200021294
            ],
            [
              -115.4542239998873,
              42.76793600012982
            ],
            [
              -115.03769700026146,
              42.768414000239844
            ],
            [
              -115.03815699967068,
              41.996279000057136
            ],
            [
              -114.82349099976616,
              42.001841999931585
            ],
            [
              -113.87334899995753,
              41.988181999870925
            ],
            [
              -112.7056840001114,
              42.00015099970423
            ],
            [
              -111.04671399958423,
              42.00170199996529
            ],
            [
              -111.04897400004064,
              44.474071999739714
            ],
            [
              -111.12738299955905,
              44.497619999849285
            ],
            [
              -111.13861799974713,
              44.51685400026777
            ],
            [
              -111.13138200006496,
              44.532429000065896
            ],
            [
              -111.17864000010172,
              44.552477000205435
            ],
            [
              -111.18103000025448,
              44.56923100025996
            ],
            [
              -111.22763100034018,
              44.57668700012215
            ],
            [
              -111.24088900025991,
              44.61452499979548
            ],
            [
              -111.21931900040732,
              44.62252099972904
            ],
            [
              -111.25259700027601,
              44.65124999971405
            ],
            [
              -111.2784770000808,
              44.65126499971494
            ],
            [
              -111.26680400022481,
              44.66751200015023
            ],
            [
              -111.32248399979927,
              44.71877600018531
            ],
            [
              -111.3236260001722,
              44.729072000002645
            ],
            [
              -111.3529770004033,
              44.72617799981534
            ],
            [
              -111.38482400019407,
              44.7549540001584
            ],
            [
              -111.39784399956409,
              44.74638299983232
            ],
            [
              -111.39795800026522,
              44.72364399995963
            ],
            [
              -111.41427300033446,
              44.71073900029168
            ],
            [
              -111.43879800022931,
              44.72054499978127
            ],
            [
              -111.4887839996293,
              44.70564300021976
            ],
            [
              -111.48460300044684,
              44.687574000269656
            ],
            [
              -111.46850900031053,
              44.67917800019322
            ],
            [
              -111.47651099972367,
              44.673723999805496
            ],
            [
              -111.47248299980377,
              44.66619000008241
            ],
            [
              -111.49011400032322,
              44.64247099974995
            ],
            [
              -111.5009560001509,
              44.649638999913726
            ],
            [
              -111.51630999959718,
              44.64399700014537
            ],
            [
              -111.50249900038182,
              44.626508000073066
            ],
            [
              -111.52261300004211,
              44.614084000115994
            ],
            [
              -111.52361099957668,
              44.59221500005539
            ],
            [
              -111.50134000029047,
              44.572489999978295
            ],
            [
              -111.50776900023378,
              44.562297999890404
            ],
            [
              -111.46935500040745,
              44.557673999894455
            ],
            [
              -111.46800200014732,
              44.53895099998323
            ],
            [
              -111.51289099994773,
              44.53604100023345
            ],
            [
              -111.54705199972324,
              44.55717599968558
            ],
            [
              -111.58568700038083,
              44.562627999756025
            ],
            [
              -111.61389700006391,
              44.54867999971219
            ],
            [
              -111.70316400020188,
              44.56014800009425
            ],
            [
              -111.71564799999469,
              44.54336899998471
            ],
            [
              -111.74991400025051,
              44.53957999992236
            ],
            [
              -111.76272399955825,
              44.525800000259146
            ],
            [
              -111.80111900001633,
              44.52598500008109
            ],
            [
              -111.80797099955895,
              44.51016100024365
            ],
            [
              -111.82152999977755,
              44.508941000011305
            ],
            [
              -111.86931900026694,
              44.56662099985413
            ],
            [
              -111.94778200021203,
              44.557012999870025
            ],
            [
              -111.97772400027193,
              44.53574400017211
            ],
            [
              -112.03270699971239,
              44.54664199983381
            ],
            [
              -112.03279899977392,
              44.52840299973278
            ],
            [
              -112.06906799966987,
              44.5371510000919
            ],
            [
              -112.10640000029605,
              44.52056900024009
            ],
            [
              -112.13667200006884,
              44.5398600000468
            ],
            [
              -112.1836570002941,
              44.53295300002996
            ],
            [
              -112.22233300006125,
              44.54394299972187
            ],
            [
              -112.22922499978684,
              44.56408899991695
            ],
            [
              -112.28656800014117,
              44.5685589998986
            ],
            [
              -112.31374099993162,
              44.55304100011605
            ],
            [
              -112.31949399965733,
              44.538903999706825
            ],
            [
              -112.35250899976026,
              44.53802099970902
            ],
            [
              -112.35836600014136,
              44.48526100003112
            ],
            [
              -112.38652399994594,
              44.44730799984191
            ],
            [
              -112.40723600000602,
              44.45746500019951
            ],
            [
              -112.4340799999085,
              44.45434800020599
            ],
            [
              -112.44150899993453,
              44.46657499972041
            ],
            [
              -112.47268700007871,
              44.479296999688735
            ],
            [
              -112.50064200039198,
              44.462766000041846
            ],
            [
              -112.54171199961151,
              44.483770999870266
            ],
            [
              -112.66173400029433,
              44.48598999978849
            ],
            [
              -112.71793000025284,
              44.504272999693484
            ],
            [
              -112.74306199987,
              44.48833799968121
            ],
            [
              -112.78081000042279,
              44.4846599999338
            ],
            [
              -112.83989000027846,
              44.42471400010008
            ],
            [
              -112.81005600017359,
              44.39875999988768
            ],
            [
              -112.81220799977666,
              44.37714200022308
            ],
            [
              -112.85426700010656,
              44.35958799973558
            ],
            [
              -112.88158100036235,
              44.37925600028098
            ],
            [
              -112.88955699983622,
              44.405937999919495
            ],
            [
              -112.90187300029787,
              44.398861000291824
            ],
            [
              -112.94541600040915,
              44.414631999696006
            ],
            [
              -113.00450600031056,
              44.452826999858885
            ],
            [
              -113.00611700031355,
              44.47097999981911
            ],
            [
              -113.02682400035079,
              44.4955120001883
            ],
            [
              -113.00652999986711,
              44.52577599975797
            ],
            [
              -113.04535799997024,
              44.54432299989875
            ],
            [
              -113.03728500041197,
              44.564769000224516
            ],
            [
              -113.08829199981105,
              44.59966299975664
            ],
            [
              -113.05365400000954,
              44.62165700016749
            ],
            [
              -113.05072200043182,
              44.634542000131155
            ],
            [
              -113.06558899980638,
              44.64925299984911
            ],
            [
              -113.06776100039924,
              44.678786000192595
            ],
            [
              -113.09783300015549,
              44.69886800012242
            ],
            [
              -113.10161800040115,
              44.729464999859765
            ],
            [
              -113.11683600030331,
              44.73251700012065
            ],
            [
              -113.12026099980055,
              44.74595100016767
            ],
            [
              -113.13482400029982,
              44.75276300017742
            ],
            [
              -113.1314590001787,
              44.77275800024885
            ],
            [
              -113.16368799956089,
              44.778819000302235
            ],
            [
              -113.19311699960979,
              44.80165299987408
            ],
            [
              -113.24689400000155,
              44.822972999981594
            ],
            [
              -113.34127600018074,
              44.784664000242415
            ],
            [
              -113.35408300001377,
              44.79179799995556
            ],
            [
              -113.34609999996887,
              44.80061100021675
            ],
            [
              -113.35606200026278,
              44.81979800014241
            ],
            [
              -113.37756699981804,
              44.83523899977914
            ],
            [
              -113.42195199982827,
              44.837598999858365
            ],
            [
              -113.42907999955541,
              44.854858000044445
            ],
            [
              -113.45507099968829,
              44.86542399990664
            ],
            [
              -113.46120000005595,
              44.88675400008667
            ],
            [
              -113.47859499967552,
              44.895594999921684
            ],
            [
              -113.47178699961553,
              44.909837000102954
            ],
            [
              -113.4907449995575,
              44.92285199983314
            ],
            [
              -113.49881800001408,
              44.94220300008067
            ],
            [
              -113.44393900033069,
              44.95937999980374
            ],
            [
              -113.44686099986266,
              44.998276000259
            ],
            [
              -113.43788199993304,
              45.0073429997232
            ],
            [
              -113.4558029999824,
              45.03971199983311
            ],
            [
              -113.452043999676,
              45.059173999706786
            ],
            [
              -113.48553099978204,
              45.063623999925944
            ],
            [
              -113.48940600043939,
              45.07652599990133
            ],
            [
              -113.52218700019061,
              45.091388000235476
            ],
            [
              -113.50604899967338,
              45.10778400023414
            ],
            [
              -113.51124900010346,
              45.11612899970894
            ],
            [
              -113.5496629999298,
              45.1128790001355
            ],
            [
              -113.5698839997202,
              45.12385099994714
            ],
            [
              -113.57672500029048,
              45.1312369998618
            ],
            [
              -113.56569400031688,
              45.14960200026949
            ],
            [
              -113.59070700010838,
              45.15588600028112
            ],
            [
              -113.59213300016343,
              45.18477899977145
            ],
            [
              -113.636351999594,
              45.21184700026763
            ],
            [
              -113.65542500006202,
              45.240006000082786
            ],
            [
              -113.68502399999025,
              45.25350500030873
            ],
            [
              -113.69190800021823,
              45.27235599995187
            ],
            [
              -113.68027899984484,
              45.27888599988621
            ],
            [
              -113.73866099974163,
              45.32940899971406
            ],
            [
              -113.7403420000648,
              45.34543900006711
            ],
            [
              -113.72902999988382,
              45.35608599987874
            ],
            [
              -113.7388790001998,
              45.36812999994984
            ],
            [
              -113.73347499955524,
              45.39081100001666
            ],
            [
              -113.77585699992534,
              45.40783200002114
            ],
            [
              -113.77715999995675,
              45.41656300016765
            ],
            [
              -113.75973299965182,
              45.42711000025105
            ],
            [
              -113.77603400037566,
              45.433745999919985
            ],
            [
              -113.77442699967234,
              45.446509999703416
            ],
            [
              -113.78426400029278,
              45.45488600025418
            ],
            [
              -113.7599140003001,
              45.48040000006631
            ],
            [
              -113.77284300033183,
              45.51330700013062
            ],
            [
              -113.76602199985304,
              45.52062100007193
            ],
            [
              -113.83477799977236,
              45.52065700024487
            ],
            [
              -113.81740800026714,
              45.55703299999832
            ],
            [
              -113.82146899979901,
              45.56594800014727
            ],
            [
              -113.79674600043576,
              45.58157300007441
            ],
            [
              -113.80643099982193,
              45.601629999954284
            ],
            [
              -113.86158900006289,
              45.62382000010576
            ],
            [
              -113.9046910001332,
              45.62200699999975
            ],
            [
              -113.8952779998353,
              45.643847000310004
            ],
            [
              -113.91985600033192,
              45.65811699995162
            ],
            [
              -113.93759400008317,
              45.695612000246236
            ],
            [
              -113.96481600027744,
              45.69001900002355
            ],
            [
              -113.97076700036986,
              45.70292899985819
            ],
            [
              -113.98852600003751,
              45.705976999893316
            ],
            [
              -114.01548200009299,
              45.695901000038766
            ],
            [
              -114.01436599965935,
              45.68376900020912
            ],
            [
              -114.02830999984239,
              45.675237000011165
            ],
            [
              -114.01527000038088,
              45.65276600017458
            ],
            [
              -114.06673799991242,
              45.62816599998416
            ],
            [
              -114.08610199973526,
              45.59146400019747
            ],
            [
              -114.12126199976859,
              45.5845920000071
            ],
            [
              -114.13582100006988,
              45.55709800013053
            ],
            [
              -114.18027300002728,
              45.551238000140785
            ],
            [
              -114.19360799993989,
              45.53637200011297
            ],
            [
              -114.24844999981336,
              45.54581300007922
            ],
            [
              -114.24721000042945,
              45.52471900011208
            ],
            [
              -114.26989199961943,
              45.48455200004524
            ],
            [
              -114.33004699990087,
              45.45972200018597
            ],
            [
              -114.34566200036139,
              45.46065699983465
            ],
            [
              -114.36720100025182,
              45.491854000053834
            ],
            [
              -114.42468299962499,
              45.509911000132476
            ],
            [
              -114.43057400034127,
              45.52951000006324
            ],
            [
              -114.4639119995861,
              45.54502899981226
            ],
            [
              -114.45607699967921,
              45.5622400001432
            ],
            [
              -114.47194599968462,
              45.565222999999975
            ],
            [
              -114.49807999993263,
              45.55546100030212
            ],
            [
              -114.5272599995612,
              45.570855000153045
            ],
            [
              -114.56499899989312,
              45.55780300007276
            ],
            [
              -114.63199599967146,
              45.519177000089535
            ],
            [
              -114.66372500035975,
              45.471005000080204
            ],
            [
              -114.6806110001663,
              45.47394899990476
            ],
            [
              -114.69052599970622,
              45.49077600018027
            ],
            [
              -114.73415000000836,
              45.489897000067664
            ],
            [
              -114.77437800022726,
              45.51360999991372
            ],
            [
              -114.79377800003512,
              45.508309000060166
            ],
            [
              -114.79320700029781,
              45.436334000259855
            ],
            [
              -114.76912699974356,
              45.43455699995512
            ],
            [
              -114.7616879996718,
              45.41288400001207
            ],
            [
              -114.73490999989154,
              45.39541500025647
            ],
            [
              -114.71623499980679,
              45.39547999973117
            ],
            [
              -114.695480000089,
              45.36889800005032
            ],
            [
              -114.67520499987192,
              45.36519999986461
            ],
            [
              -114.6743110000944,
              45.34827800000649
            ],
            [
              -114.64381800038872,
              45.32094299992322
            ],
            [
              -114.60478299969803,
              45.29610300005024
            ],
            [
              -114.59332499992716,
              45.297486000120564
            ],
            [
              -114.67487599998395,
              45.233660999835195
            ],
            [
              -114.69883900036231,
              45.18970100001328
            ],
            [
              -114.72205700002779,
              45.180055999826834
            ],
            [
              -114.73227000039188,
              45.15115499974051
            ],
            [
              -114.72148200009254,
              45.12102299970882
            ],
            [
              -114.73319099993354,
              45.0944900003158
            ],
            [
              -114.71930000035225,
              45.087486000099105
            ],
            [
              -114.728935000408,
              45.072512000113946
            ],
            [
              -114.72237300039528,
              45.04105800003356
            ],
            [
              -114.72873500039145,
              45.01339899987691
            ],
            [
              -114.72153099959802,
              45.00820499988606
            ],
            [
              -114.73599100016511,
              44.97486900019753
            ],
            [
              -114.73570099973689,
              44.94979299973665
            ],
            [
              -114.72327200019566,
              44.93438700017697
            ],
            [
              -114.7359900003402,
              44.92574300028298
            ],
            [
              -114.72663599959354,
              44.90244200030453
            ],
            [
              -114.7321110003832,
              44.893832000232834
            ],
            [
              -114.72329399993696,
              44.89117699978103
            ],
            [
              -114.73455099986636,
              44.8787460002268
            ],
            [
              -114.7689109998335,
              44.872443999912676
            ],
            [
              -114.76077700017588,
              44.85619399997949
            ],
            [
              -114.77130799965893,
              44.85069699977715
            ],
            [
              -114.76644899971073,
              44.84274199971357
            ],
            [
              -114.79309000012196,
              44.83611100025937
            ],
            [
              -114.81316699997232,
              44.80691400024681
            ],
            [
              -114.91362699956726,
              44.75754999972331
            ],
            [
              -114.91554800008996,
              44.74480599996794
            ],
            [
              -114.94741300032236,
              44.723038000303085
            ],
            [
              -114.99703700022242,
              44.72863300005952
            ],
            [
              -115.00961999974945,
              44.71336699985811
            ],
            [
              -115.01715500008068,
              44.74342199986056
            ],
            [
              -115.03281599967363,
              44.73497399988958
            ],
            [
              -115.03865499961306,
              44.750652000064655
            ],
            [
              -115.07637100037878,
              44.76946100029799
            ],
            [
              -115.11719499955105,
              44.75604799990656
            ],
            [
              -115.15193700000792,
              44.72859199976532
            ],
            [
              -115.1393689996512,
              44.71487499975981
            ],
            [
              -115.16842000030665,
              44.64720300001531
            ],
            [
              -115.18027999976039,
              44.6458840002319
            ],
            [
              -115.19896099969293,
              44.62418199975479
            ],
            [
              -115.22200000015661,
              44.63070399972208
            ],
            [
              -115.2224849996802,
              44.619428999749225
            ],
            [
              -115.24949000013949,
              44.6181420003125
            ],
            [
              -115.26021800016434,
              44.6062190000443
            ],
            [
              -115.27954199980422,
              44.612080000091204
            ],
            [
              -115.30504199966742,
              44.57959200026249
            ],
            [
              -115.29039600022581,
              44.543196999934054
            ],
            [
              -115.29469000028449,
              44.53232699971044
            ],
            [
              -115.28054799973472,
              44.518567999822686
            ],
            [
              -115.24976499960077,
              44.520843999840906
            ],
            [
              -115.23894799988743,
              44.51183400009443
            ],
            [
              -115.22704599970255,
              44.48624299981916
            ],
            [
              -115.2347710000046,
              44.46842299985929
            ],
            [
              -115.22364499959644,
              44.46344899996684
            ],
            [
              -115.23228100029273,
              44.458556000270214
            ],
            [
              -115.23195200040476,
              44.414149999783916
            ],
            [
              -115.26022999985993,
              44.370295000001704
            ],
            [
              -115.28428100010184,
              44.358222000100845
            ],
            [
              -115.29340499979642,
              44.33455400020673
            ],
            [
              -115.27198700027981,
              44.31543600003892
            ],
            [
              -115.24973399963864,
              44.31108700009686
            ],
            [
              -115.24346799990194,
              44.292244000287944
            ],
            [
              -115.23598500034755,
              44.30811400024636
            ],
            [
              -115.21311400011338,
              44.304510000069364
            ],
            [
              -115.20302799997091,
              44.28252899971296
            ],
            [
              -115.17524900028307,
              44.29298000029444
            ],
            [
              -115.16751399993527,
              44.2578290001557
            ],
            [
              -115.15661299965802,
              44.24694800009146
            ],
            [
              -115.17483099980831,
              44.23546400024255
            ],
            [
              -115.16276499959193,
              44.2137060000281
            ],
            [
              -115.1676839998146,
              44.202839999708715
            ],
            [
              -115.12749999997662,
              44.19166700008378
            ],
            [
              -115.10793100011438,
              44.17005999985616
            ],
            [
              -115.08236099993096,
              44.176159999913274
            ],
            [
              -115.06173500008458,
              44.160132999678275
            ],
            [
              -115.05128400006913,
              44.165270999918675
            ],
            [
              -115.02418099970056,
              44.155477999784864
            ],
            [
              -115.01849099972404,
              44.13878899983668
            ],
            [
              -115.04672499969656,
              44.11997099969353
            ],
            [
              -115.02052500022465,
              44.09838599980258
            ],
            [
              -114.99803800013004,
              44.0982269997333
            ],
            [
              -114.99690300032812,
              44.0905510002124
            ],
            [
              -115.03529799988787,
              44.069437999744714
            ],
            [
              -115.04813499985812,
              44.03780299971041
            ],
            [
              -115.01762799990868,
              44.01252099993777
            ],
            [
              -114.99860100036975,
              44.02066200022388
            ],
            [
              -114.98255800028704,
              44.0111880002517
            ],
            [
              -114.98742700028103,
              43.99224000018018
            ],
            [
              -114.96734299985965,
              43.982088000269506
            ],
            [
              -114.9907770003335,
              43.94972300014146
            ],
            [
              -115.0384529999467,
              43.95767499987263
            ],
            [
              -115.07448099981822,
              43.944036000038125
            ],
            [
              -115.07554600019824,
              43.95480799988531
            ],
            [
              -115.0924959995789,
              43.95841400006536
            ],
            [
              -115.08546999995903,
              43.97659300003744
            ],
            [
              -115.10591000003254,
              43.970247999980124
            ],
            [
              -115.13742100026263,
              43.984660999952126
            ],
            [
              -115.148021000241,
              44.00188099987589
            ],
            [
              -115.15065599971783,
              44.04765800014708
            ],
            [
              -115.17274000030463,
              44.08506800029435
            ],
            [
              -115.23052799999952,
              44.098766000268924
            ],
            [
              -115.19706699983274,
              44.0685520001827
            ],
            [
              -115.23424100027516,
              44.006820000031254
            ],
            [
              -115.26820000038433,
              43.973943999928274
            ],
            [
              -115.27815000008437,
              43.94191700023924
            ],
            [
              -115.33823199967253,
              43.92073099983862
            ],
            [
              -115.3804840003463,
              43.92352699988948
            ],
            [
              -115.50872199980421,
              43.88485500030453
            ],
            [
              -115.52287100002668,
              43.85845699978542
            ],
            [
              -115.53708499964817,
              43.85406200006143
            ],
            [
              -115.52962200018528,
              43.81665799986117
            ],
            [
              -115.54753800021174,
              43.792667000046016
            ],
            [
              -115.5927960000831,
              43.79828899991266
            ],
            [
              -115.61554900031649,
              43.780662000269785
            ],
            [
              -115.61659100023199,
              43.7621060001324
            ],
            [
              -115.63394499984365,
              43.74565199988292
            ],
            [
              -115.61478100003738,
              43.728322999878245
            ],
            [
              -115.63451499975606,
              43.723479999697524
            ],
            [
              -115.64486700003731,
              43.70094600013915
            ],
            [
              -115.66844299990309,
              43.69521200025347
            ],
            [
              -115.69828399968063,
              43.66502999974132
            ],
            [
              -115.73066100009912,
              43.66605899978829
            ],
            [
              -115.72750299966727,
              43.65664800016702
            ],
            [
              -115.74564399982464,
              43.645684999903466
            ],
            [
              -115.78202400004868,
              43.64836999973212
            ],
            [
              -115.82931600042063,
              43.6056449998626
            ],
            [
              -115.84721300018055,
              43.60799200012166
            ],
            [
              -115.8759269996538,
              43.59126500006248
            ],
            [
              -115.8970339997241,
              43.59884299979713
            ],
            [
              -115.91764899969981,
              43.59214800005787
            ],
            [
              -115.94483400008416,
              43.60877399967947
            ],
            [
              -115.95598800008138,
              43.58978899994698
            ],
            [
              -115.98017800024047,
              43.58587399995034
            ],
            [
              -116.26410700022753,
              43.795665999831414
            ],
            [
              -116.26582700001046,
              43.7620580001751
            ],
            [
              -116.28942700016566,
              43.751573999740664
            ],
            [
              -116.31955900019635,
              43.72061299981531
            ],
            [
              -116.32000799973491,
              43.6845690001178
            ],
            [
              -116.35406899995132,
              43.690939999869364
            ],
            [
              -116.35480899974306,
              43.60824400015118
            ],
            [
              -116.3548199996137,
              43.6078749999814
            ]
          ]
        ]
      }
    }
  ]
}
