{
  "type": "FeatureCollection",
  "metadata": {
    "schemaVersion": 1,
    "status": "research-grade",
    "retrievedAt": "2026-08-20T19:03:00.306Z",
    "rule": "Natural endpoints only; no walkable window is emitted until an entry is editor-verified.",
    "sideTrailFeatureCount": 19
  },
  "features": [
    {
      "type": "Feature",
      "geometry": {
        "type": "Point",
        "coordinates": [
          -77.8542369293026,
          39.1113714902956
        ]
      },
      "properties": {
        "id": "endpoint-parking-74",
        "name": "Bears Den Upper Parking Area",
        "kind": "official-parking",
        "distanceToCenterlineMeters": 148,
        "rationale": "official parking within 300 m of authoritative support-envelope centerline",
        "durationTargetMinutes": [
          15,
          40
        ],
        "publishingState": "candidate",
        "reviewRequired": true
      }
    },
    {
      "type": "Feature",
      "geometry": {
        "type": "Point",
        "coordinates": [
          -77.8539994861581,
          39.1102580500824
        ]
      },
      "properties": {
        "id": "endpoint-parking-75",
        "name": "Bears Den Lower Parking Area",
        "kind": "official-parking",
        "distanceToCenterlineMeters": 210,
        "rationale": "official parking within 300 m of authoritative support-envelope centerline",
        "durationTargetMinutes": [
          15,
          40
        ],
        "publishingState": "candidate",
        "reviewRequired": true
      }
    },
    {
      "type": "Feature",
      "geometry": {
        "type": "Point",
        "coordinates": [
          -77.8523128570345,
          39.1165474744032
        ]
      },
      "properties": {
        "id": "endpoint-parking-72",
        "name": "Snickers Gap (VA Rte 679) Parking Area",
        "kind": "official-parking",
        "distanceToCenterlineMeters": 4,
        "rationale": "official parking within 300 m of authoritative support-envelope centerline",
        "durationTargetMinutes": [
          15,
          40
        ],
        "publishingState": "candidate",
        "reviewRequired": true
      }
    },
    {
      "type": "Feature",
      "geometry": {
        "type": "Point",
        "coordinates": [
          -77.9622197738149,
          39.0171402172985
        ]
      },
      "properties": {
        "id": "endpoint-parking-76",
        "name": "Ashby Gap (VA Rte 601) Parking Area",
        "kind": "official-parking",
        "distanceToCenterlineMeters": 68,
        "rationale": "official parking within 300 m of authoritative support-envelope centerline",
        "durationTargetMinutes": [
          15,
          40
        ],
        "publishingState": "candidate",
        "reviewRequired": true
      }
    },
    {
      "type": "Feature",
      "geometry": {
        "type": "Point",
        "coordinates": [
          -77.9995525993692,
          38.9853377664956
        ]
      },
      "properties": {
        "id": "endpoint-parking-78",
        "name": "PATC G. R. Thompson A.T. Parking Area",
        "kind": "official-parking",
        "distanceToCenterlineMeters": 82,
        "rationale": "official parking within 300 m of authoritative support-envelope centerline",
        "durationTargetMinutes": [
          15,
          40
        ],
        "publishingState": "candidate",
        "reviewRequired": true
      }
    },
    {
      "type": "Feature",
      "geometry": {
        "type": "Point",
        "coordinates": [
          -77.9946725982659,
          38.9917877679745
        ]
      },
      "properties": {
        "id": "endpoint-parking-77",
        "name": "G. R. Thompson - Orchard Parking Area",
        "kind": "official-parking",
        "distanceToCenterlineMeters": 100,
        "rationale": "official parking within 300 m of authoritative support-envelope centerline",
        "durationTargetMinutes": [
          15,
          40
        ],
        "publishingState": "candidate",
        "reviewRequired": true
      }
    },
    {
      "type": "Feature",
      "geometry": {
        "type": "Point",
        "coordinates": [
          -78.0270226058707,
          38.9536277590884
        ]
      },
      "properties": {
        "id": "endpoint-parking-80",
        "name": "G. R. Thompson - Trillium Trail Parking Area",
        "kind": "official-parking",
        "distanceToCenterlineMeters": 226,
        "rationale": "official parking within 300 m of authoritative support-envelope centerline",
        "durationTargetMinutes": [
          15,
          40
        ],
        "publishingState": "candidate",
        "reviewRequired": true
      }
    },
    {
      "type": "Feature",
      "geometry": {
        "type": "Point",
        "coordinates": [
          -78.0197656992291,
          38.9632014082851
        ]
      },
      "properties": {
        "id": "endpoint-parking-178",
        "name": "G. R. Thompson - VA Rte 638 (Blue Mtn Rd) Parking Area",
        "kind": "official-parking",
        "distanceToCenterlineMeters": 283,
        "rationale": "official parking within 300 m of authoritative support-envelope centerline",
        "durationTargetMinutes": [
          15,
          40
        ],
        "publishingState": "candidate",
        "reviewRequired": true
      }
    },
    {
      "type": "Feature",
      "geometry": {
        "type": "Point",
        "coordinates": [
          -77.902719999664,
          39.0691429999901
        ]
      },
      "properties": {
        "id": "endpoint-vista-1509",
        "name": "Reservoir Hollow Falls",
        "kind": "vista",
        "distanceToCenterlineMeters": 98,
        "rationale": "official vista within 200 m of centerline",
        "durationTargetMinutes": [
          15,
          40
        ],
        "publishingState": "candidate",
        "reviewRequired": true
      }
    },
    {
      "type": "Feature",
      "geometry": {
        "type": "Point",
        "coordinates": [
          -77.8379371000147,
          39.1392305104854
        ]
      },
      "properties": {
        "id": "endpoint-vista-1710",
        "name": "Crescent Rocks",
        "kind": "vista",
        "distanceToCenterlineMeters": 9,
        "rationale": "official vista within 200 m of centerline",
        "durationTargetMinutes": [
          15,
          40
        ],
        "publishingState": "candidate",
        "reviewRequired": true
      }
    },
    {
      "type": "Feature",
      "geometry": {
        "type": "Point",
        "coordinates": [
          -77.9165910000487,
          39.0704289997115
        ]
      },
      "properties": {
        "id": "endpoint-vista-1510",
        "name": "Morgans Mill Stream",
        "kind": "vista",
        "distanceToCenterlineMeters": 3,
        "rationale": "official vista within 200 m of centerline",
        "durationTargetMinutes": [
          15,
          40
        ],
        "publishingState": "candidate",
        "reviewRequired": true
      }
    },
    {
      "type": "Feature",
      "geometry": {
        "type": "Point",
        "coordinates": [
          -77.8562330159606,
          39.111975054339
        ]
      },
      "properties": {
        "id": "endpoint-vista-775",
        "name": "Bears Den Rocks Vista",
        "kind": "vista",
        "distanceToCenterlineMeters": 7,
        "rationale": "official vista within 200 m of centerline",
        "durationTargetMinutes": [
          15,
          40
        ],
        "publishingState": "candidate",
        "reviewRequired": true
      }
    },
    {
      "type": "Feature",
      "geometry": {
        "type": "Point",
        "coordinates": [
          -77.9790320701069,
          39.0026446497503
        ]
      },
      "properties": {
        "id": "endpoint-vista-1514",
        "name": "Ovoka Farm",
        "kind": "vista",
        "distanceToCenterlineMeters": 124,
        "rationale": "official vista within 200 m of centerline",
        "durationTargetMinutes": [
          15,
          40
        ],
        "publishingState": "candidate",
        "reviewRequired": true
      }
    },
    {
      "type": "Feature",
      "geometry": {
        "type": "Point",
        "coordinates": [
          -77.8562330159606,
          39.111975054339
        ]
      },
      "properties": {
        "id": "endpoint-vista-1508",
        "name": "Bears Den Rocks",
        "kind": "vista",
        "distanceToCenterlineMeters": 7,
        "rationale": "official vista within 200 m of centerline",
        "durationTargetMinutes": [
          15,
          40
        ],
        "publishingState": "candidate",
        "reviewRequired": true
      }
    },
    {
      "type": "Feature",
      "geometry": {
        "type": "Point",
        "coordinates": [
          -77.8865725710199,
          39.0906377919072
        ]
      },
      "properties": {
        "id": "endpoint-shelter-261",
        "name": "Sam Moore Shelter",
        "kind": "shelter",
        "distanceToCenterlineMeters": 109,
        "rationale": "official shelter within 200 m of centerline",
        "durationTargetMinutes": [
          15,
          40
        ],
        "publishingState": "candidate",
        "reviewRequired": true
      }
    },
    {
      "type": "Feature",
      "geometry": {
        "type": "Point",
        "coordinates": [
          -77.9443738762155,
          39.0476044510779
        ]
      },
      "properties": {
        "id": "endpoint-shelter-262",
        "name": "Rod Hollow Shelter",
        "kind": "shelter",
        "distanceToCenterlineMeters": 194,
        "rationale": "official shelter within 200 m of centerline",
        "durationTargetMinutes": [
          15,
          40
        ],
        "publishingState": "candidate",
        "reviewRequired": true
      }
    },
    {
      "type": "Feature",
      "geometry": {
        "type": "Point",
        "coordinates": [
          -77.9443738762155,
          39.0476044510779
        ]
      },
      "properties": {
        "id": "endpoint-campsite-216",
        "name": "Rod Hollow Shelter Campsite",
        "kind": "campsite",
        "distanceToCenterlineMeters": 194,
        "rationale": "official campsite within 200 m of centerline",
        "durationTargetMinutes": [
          15,
          40
        ],
        "publishingState": "candidate",
        "reviewRequired": true
      }
    }
  ]
}