{
  "type": "FeatureCollection",
  "features": [
    {
      "type": "Feature",
      "id": "us-cd:119:24:01",
      "properties": {
        "boundary_id": "us-cd:119:24:01",
        "boundary_type": "congressional_district",
        "name": "1",
        "stateFips": "24",
        "congress": 119,
        "district": "01",
        "bbox": [
          -76.69876299969482,
          37.886604999729734,
          -74.98628199981302,
          39.72219899970666
        ]
      },
      "geometry": {
        "type": "Polygon",
        "coordinates": [
          [
            [
              -76.69876299969482,
              39.718375000221805
            ],
            [
              -76.6671419998599,
              39.69283600009406
            ],
            [
              -76.67543200005143,
              39.66002999972419
            ],
            [
              -76.65564999975385,
              39.6473009996954
            ],
            [
              -76.65941300025821,
              39.614808000170925
            ],
            [
              -76.64949799981997,
              39.61782700001193
            ],
            [
              -76.62777800017957,
              39.60243399982792
            ],
            [
              -76.61111599978068,
              39.58469099970218
            ],
            [
              -76.62137799965025,
              39.58367299991798
            ],
            [
              -76.62307599969188,
              39.57314900001405
            ],
            [
              -76.59923899971018,
              39.555990999748275
            ],
            [
              -76.61585400025339,
              39.537260000161496
            ],
            [
              -76.61321100038066,
              39.505912999719996
            ],
            [
              -76.57381400019005,
              39.512428000063196
            ],
            [
              -76.56983700032377,
              39.49656899967405
            ],
            [
              -76.5384059995613,
              39.480198999692576
            ],
            [
              -76.55826800022484,
              39.43958799986923
            ],
            [
              -76.53723200029965,
              39.421601999995055
            ],
            [
              -76.51817999974803,
              39.431693000303305
            ],
            [
              -76.45566899964902,
              39.40735999976422
            ],
            [
              -76.46669499959974,
              39.39537300032637
            ],
            [
              -76.46236799992907,
              39.386013000192875
            ],
            [
              -76.43890099984324,
              39.38876999992565
            ],
            [
              -76.4061669999477,
              39.36770400009854
            ],
            [
              -76.43566999961645,
              39.353500999696784
            ],
            [
              -76.42813199981049,
              39.343815999770335
            ],
            [
              -76.40930100009011,
              39.34154699999126
            ],
            [
              -76.37314799964678,
              39.3581699998864
            ],
            [
              -76.36169300024898,
              39.350912999927466
            ],
            [
              -76.36234500017714,
              39.35871999999022
            ],
            [
              -76.35435000043668,
              39.3344860001132
            ],
            [
              -76.31557900023498,
              39.33280700032038
            ],
            [
              -76.30657900038895,
              39.31010699965403
            ],
            [
              -76.34427900036283,
              39.282506999991455
            ],
            [
              -76.28768900021902,
              39.254104000241114
            ],
            [
              -76.3323589997363,
              39.204357000336564
            ],
            [
              -76.3458400001371,
              39.17054299988328
            ],
            [
              -76.3548430003562,
              39.125110999833886
            ],
            [
              -76.35328900025462,
              39.04569399985599
            ],
            [
              -76.36748799980748,
              39.00011100006869
            ],
            [
              -76.41697799981326,
              38.908813000033945
            ],
            [
              -76.46394600032009,
              38.70969599975211
            ],
            [
              -76.42630400007252,
              38.50806400016107
            ],
            [
              -76.33633099957973,
              38.387965999696725
            ],
            [
              -76.31541400037854,
              38.29979699983864
            ],
            [
              -76.20147699968247,
              38.07730800023961
            ],
            [
              -76.23645799961562,
              37.886604999729734
            ],
            [
              -76.0520209998262,
              37.953577999979046
            ],
            [
              -75.94369299981409,
              37.946132999695166
            ],
            [
              -75.95267199974374,
              37.90682699975086
            ],
            [
              -75.8012400000115,
              37.912174000344
            ],
            [
              -75.76164199997943,
              37.941365999764386
            ],
            [
              -75.70463400025922,
              37.95469799995367
            ],
            [
              -75.64770000015882,
              37.94696300029594
            ],
            [
              -75.64822800023842,
              37.96677099985753
            ],
            [
              -75.63822199956357,
              37.97939499989824
            ],
            [
              -75.62953200023725,
              37.975962999979146
            ],
            [
              -75.63383200014373,
              37.984517000154504
            ],
            [
              -75.62444899998306,
              37.9941949998984
            ],
            [
              -75.1664349995895,
              38.027834000070314
            ],
            [
              -75.12462499967994,
              38.09390100000776
            ],
            [
              -75.04145699977242,
              38.28700899973378
            ],
            [
              -75.02080499998678,
              38.30975599977982
            ],
            [
              -74.98628199981302,
              38.45163199977536
            ],
            [
              -75.69367000023277,
              38.46007999979123
            ],
            [
              -75.7885960003851,
              39.72219899970666
            ],
            [
              -76.6987329995576,
              39.71852300023246
            ],
            [
              -76.69876299969482,
              39.718375000221805
            ]
          ]
        ]
      }
    },
    {
      "type": "Feature",
      "id": "us-cd:119:24:02",
      "properties": {
        "boundary_id": "us-cd:119:24:02",
        "boundary_type": "congressional_district",
        "name": "2",
        "stateFips": "24",
        "congress": 119,
        "district": "02",
        "bbox": [
          -77.31156200024614,
          39.22939500024895,
          -76.28768900021902,
          39.72108799976693
        ]
      },
      "geometry": {
        "type": "Polygon",
        "coordinates": [
          [
            [
              -77.31156200024614,
              39.63874899987551
            ],
            [
              -77.29951899959597,
              39.623859999899246
            ],
            [
              -77.3073769999674,
              39.61896499977299
            ],
            [
              -77.29042199966555,
              39.60443699972377
            ],
            [
              -77.27130499971493,
              39.606163000300725
            ],
            [
              -77.2605940003068,
              39.593960000340445
            ],
            [
              -77.25467900019937,
              39.60327699983998
            ],
            [
              -77.22071300041753,
              39.57562400033662
            ],
            [
              -77.20012500020599,
              39.57858799997776
            ],
            [
              -77.16944500000422,
              39.55411800022596
            ],
            [
              -77.17058300017918,
              39.53439600019687
            ],
            [
              -77.15233999991455,
              39.53249800004337
            ],
            [
              -77.15002699975469,
              39.52198800029156
            ],
            [
              -77.10999799972743,
              39.49748000000206
            ],
            [
              -77.1159670002615,
              39.45995500029155
            ],
            [
              -77.1341939997343,
              39.43169000012663
            ],
            [
              -77.07532399994092,
              39.40514600033039
            ],
            [
              -77.07142499989243,
              39.42494500025809
            ],
            [
              -77.04774100007162,
              39.44372000029495
            ],
            [
              -76.97615099958554,
              39.42148199973719
            ],
            [
              -76.98174900039886,
              39.41482600011253
            ],
            [
              -76.97260300006468,
              39.41083199992027
            ],
            [
              -76.99215299966035,
              39.359806000195015
            ],
            [
              -76.94642899963368,
              39.36103900029481
            ],
            [
              -76.90957700030484,
              39.34846300016543
            ],
            [
              -76.88902900027628,
              39.353804999869354
            ],
            [
              -76.85116799974558,
              39.315935000328345
            ],
            [
              -76.7946000002414,
              39.31423199982371
            ],
            [
              -76.79580000034065,
              39.30373399979943
            ],
            [
              -76.77845400022657,
              39.295304000070715
            ],
            [
              -76.79438799963098,
              39.26640400009885
            ],
            [
              -76.73952800021416,
              39.23216299989538
            ],
            [
              -76.72839099993537,
              39.22939500024895
            ],
            [
              -76.72337100032867,
              39.24977800007392
            ],
            [
              -76.74540300013862,
              39.28077999987575
            ],
            [
              -76.73884600014877,
              39.28633499970489
            ],
            [
              -76.75245899989574,
              39.31496700012437
            ],
            [
              -76.74543800029872,
              39.32492399993333
            ],
            [
              -76.79535900029968,
              39.35496999977632
            ],
            [
              -76.74456200006456,
              39.37708599982026
            ],
            [
              -76.71118600028659,
              39.35438300012274
            ],
            [
              -76.7113129996099,
              39.371932999732365
            ],
            [
              -76.67819100027513,
              39.371993999799805
            ],
            [
              -76.6622079995686,
              39.35503299984366
            ],
            [
              -76.6511609997015,
              39.360395999895076
            ],
            [
              -76.64009999959067,
              39.32991500000981
            ],
            [
              -76.62442800012708,
              39.331880000321064
            ],
            [
              -76.60980500025168,
              39.37220000006619
            ],
            [
              -76.52979300022788,
              39.3720579997791
            ],
            [
              -76.52968500027285,
              39.33028000030427
            ],
            [
              -76.52160699979339,
              39.32997199966354
            ],
            [
              -76.51467300023502,
              39.30891500015593
            ],
            [
              -76.44348199995711,
              39.280806000148054
            ],
            [
              -76.44618199973128,
              39.26400599987447
            ],
            [
              -76.43448200011107,
              39.244107000248675
            ],
            [
              -76.39378100006417,
              39.24670699980163
            ],
            [
              -76.39542999970197,
              39.23945000009983
            ],
            [
              -76.37482700032014,
              39.23158899983103
            ],
            [
              -76.28768900021902,
              39.254104000241114
            ],
            [
              -76.34427900036283,
              39.282506999991455
            ],
            [
              -76.30657900038895,
              39.31010699965403
            ],
            [
              -76.31557900023498,
              39.33280700032038
            ],
            [
              -76.35435000043668,
              39.3344860001132
            ],
            [
              -76.36234500017714,
              39.35871999999022
            ],
            [
              -76.36169300024898,
              39.350912999927466
            ],
            [
              -76.37314799964678,
              39.3581699998864
            ],
            [
              -76.40930100009011,
              39.34154699999126
            ],
            [
              -76.42813199981049,
              39.343815999770335
            ],
            [
              -76.43566999961645,
              39.353500999696784
            ],
            [
              -76.4061669999477,
              39.36770400009854
            ],
            [
              -76.43890099984324,
              39.38876999992565
            ],
            [
              -76.46236799992907,
              39.386013000192875
            ],
            [
              -76.46669499959974,
              39.39537300032637
            ],
            [
              -76.45566899964902,
              39.40735999976422
            ],
            [
              -76.51817999974803,
              39.431693000303305
            ],
            [
              -76.53723200029965,
              39.421601999995055
            ],
            [
              -76.55826800022484,
              39.43958799986923
            ],
            [
              -76.5384059995613,
              39.480198999692576
            ],
            [
              -76.56983700032377,
              39.49656899967405
            ],
            [
              -76.57381400019005,
              39.512428000063196
            ],
            [
              -76.61321100038066,
              39.505912999719996
            ],
            [
              -76.61585400025339,
              39.537260000161496
            ],
            [
              -76.59923899971018,
              39.555990999748275
            ],
            [
              -76.62307599969188,
              39.57314900001405
            ],
            [
              -76.62137799965025,
              39.58367299991798
            ],
            [
              -76.61111599978068,
              39.58469099970218
            ],
            [
              -76.62777800017957,
              39.60243399982792
            ],
            [
              -76.64949799981997,
              39.61782700001193
            ],
            [
              -76.65941300025821,
              39.614808000170925
            ],
            [
              -76.65564999975385,
              39.6473009996954
            ],
            [
              -76.67543200005143,
              39.66002999972419
            ],
            [
              -76.66704700032365,
              39.692578999779876
            ],
            [
              -76.69765800003015,
              39.72108799976693
            ],
            [
              -77.21702400043134,
              39.71986100019117
            ],
            [
              -77.22676599971889,
              39.70730599986143
            ],
            [
              -77.21626100017508,
              39.69741299995112
            ],
            [
              -77.2432680002842,
              39.69473100000752
            ],
            [
              -77.2345379998766,
              39.67743399996019
            ],
            [
              -77.26624300027544,
              39.662268999901755
            ],
            [
              -77.27597299986743,
              39.63192799995826
            ],
            [
              -77.31153600030689,
              39.638996999890686
            ],
            [
              -77.31156200024614,
              39.63874899987551
            ]
          ]
        ]
      }
    },
    {
      "type": "Feature",
      "id": "us-cd:119:24:03",
      "properties": {
        "boundary_id": "us-cd:119:24:03",
        "boundary_type": "congressional_district",
        "name": "3",
        "stateFips": "24",
        "congress": 119,
        "district": "03",
        "bbox": [
          -77.18711300033358,
          38.87951400028626,
          -76.3494789998946,
          39.44372000029495
        ]
      },
      "geometry": {
        "type": "Polygon",
        "coordinates": [
          [
            [
              -77.18711300033358,
              39.34059500000322
            ],
            [
              -77.17034700017763,
              39.31310900015879
            ],
            [
              -77.140058999613,
              39.29209500002215
            ],
            [
              -77.1336509995861,
              39.270542000119455
            ],
            [
              -77.07145599985458,
              39.25500799965965
            ],
            [
              -77.00942000013171,
              39.20673200004773
            ],
            [
              -77.00841800039917,
              39.18156999972718
            ],
            [
              -76.9988579997882,
              39.17772500001535
            ],
            [
              -77.00461300006204,
              39.174522999729554
            ],
            [
              -76.97334200003145,
              39.16207499979347
            ],
            [
              -76.97542500003755,
              39.14958100017305
            ],
            [
              -76.95169400036107,
              39.14620700010201
            ],
            [
              -76.95851699959137,
              39.13402300000064
            ],
            [
              -76.94674900019913,
              39.12940700016245
            ],
            [
              -76.92821200020664,
              39.13825300001457
            ],
            [
              -76.90673100004251,
              39.125403000030204
            ],
            [
              -76.88565599975927,
              39.13129199995621
            ],
            [
              -76.87010899996913,
              39.11271199985394
            ],
            [
              -76.84036199990291,
              39.10314200011771
            ],
            [
              -76.82195399978184,
              39.11905300011737
            ],
            [
              -76.79082500004148,
              39.12528600023051
            ],
            [
              -76.77696200004928,
              39.15088300011457
            ],
            [
              -76.76721499984052,
              39.15029700008917
            ],
            [
              -76.75544499990015,
              39.140055000335906
            ],
            [
              -76.75742199960102,
              39.12669199965224
            ],
            [
              -76.72070699964121,
              39.12309300028108
            ],
            [
              -76.71959799977857,
              39.11092199970283
            ],
            [
              -76.70469100022103,
              39.11195199984547
            ],
            [
              -76.68931299958699,
              39.09646500022052
            ],
            [
              -76.68554099976012,
              39.101980999901016
            ],
            [
              -76.67538600002068,
              39.07972000019077
            ],
            [
              -76.64880200040919,
              39.067216999725986
            ],
            [
              -76.66954200005839,
              39.04352599994593
            ],
            [
              -76.65452699964749,
              39.03661700006586
            ],
            [
              -76.65045699989479,
              39.027762000016494
            ],
            [
              -76.6580750000667,
              39.02327399996941
            ],
            [
              -76.62501599958283,
              38.98836500023214
            ],
            [
              -76.60886399972019,
              38.98608999968768
            ],
            [
              -76.59373100020684,
              38.96198300003787
            ],
            [
              -76.54427299998815,
              38.94729400005647
            ],
            [
              -76.4235780003591,
              38.87951400028626
            ],
            [
              -76.40357900032653,
              38.94521299981444
            ],
            [
              -76.36748799980748,
              39.00011100006869
            ],
            [
              -76.35328900025462,
              39.04569399985599
            ],
            [
              -76.3494789998946,
              39.15662300005969
            ],
            [
              -76.51448400008913,
              39.20240599968229
            ],
            [
              -76.52948600008122,
              39.21840799973261
            ],
            [
              -76.55008599998831,
              39.197207000187646
            ],
            [
              -76.56739600011738,
              39.20211699973283
            ],
            [
              -76.61861199975387,
              39.23739799991948
            ],
            [
              -76.63152700044023,
              39.22386099983494
            ],
            [
              -76.66364299984447,
              39.23084100010824
            ],
            [
              -76.70078600032477,
              39.21311200009886
            ],
            [
              -76.79438799963098,
              39.26640400009885
            ],
            [
              -76.77845400022657,
              39.295304000070715
            ],
            [
              -76.79580000034065,
              39.30373399979943
            ],
            [
              -76.7946000002414,
              39.31423199982371
            ],
            [
              -76.85116799974558,
              39.315935000328345
            ],
            [
              -76.88902900027628,
              39.353804999869354
            ],
            [
              -76.90957700030484,
              39.34846300016543
            ],
            [
              -76.94642899963368,
              39.36103900029481
            ],
            [
              -76.99215299966035,
              39.359806000195015
            ],
            [
              -76.97260300006468,
              39.41083199992027
            ],
            [
              -76.98174900039886,
              39.41482600011253
            ],
            [
              -76.97615099958554,
              39.42148199973719
            ],
            [
              -77.04774100007162,
              39.44372000029495
            ],
            [
              -77.07142499989243,
              39.42494500025809
            ],
            [
              -77.07532399994092,
              39.40514600033039
            ],
            [
              -77.1341939997343,
              39.43169000012663
            ],
            [
              -77.14803699963502,
              39.417755000113644
            ],
            [
              -77.16808000004852,
              39.35395700015418
            ],
            [
              -77.1868689999361,
              39.34094400013225
            ],
            [
              -77.18711300033358,
              39.34059500000322
            ]
          ]
        ]
      }
    },
    {
      "type": "Feature",
      "id": "us-cd:119:24:04",
      "properties": {
        "boundary_id": "us-cd:119:24:04",
        "boundary_type": "congressional_district",
        "name": "4",
        "stateFips": "24",
        "congress": 119,
        "district": "04",
        "bbox": [
          -77.04339799960913,
          38.68529699996895,
          -76.75125799997157,
          39.1462900000874
        ]
      },
      "geometry": {
        "type": "Polygon",
        "coordinates": [
          [
            [
              -77.03981300027833,
              38.7098699996813
            ],
            [
              -77.04339799960913,
              38.70361399996327
            ],
            [
              -77.029096999949,
              38.69811400002511
            ],
            [
              -76.99371599998275,
              38.697990999804254
            ],
            [
              -77.00276600005749,
              38.692907999891396
            ],
            [
              -76.99513199999207,
              38.68529699996895
            ],
            [
              -76.97153900040786,
              38.70672600012343
            ],
            [
              -76.95000899983992,
              38.70580200012603
            ],
            [
              -76.88151099966348,
              38.73124899966714
            ],
            [
              -76.8793570004106,
              38.758173999800874
            ],
            [
              -76.90578899968614,
              38.80496099985479
            ],
            [
              -76.87233599991526,
              38.82860300030783
            ],
            [
              -76.87559999975403,
              38.83897099994345
            ],
            [
              -76.84443900022663,
              38.869338999677424
            ],
            [
              -76.84734400004018,
              38.89216400010024
            ],
            [
              -76.8316669996554,
              38.89845299991825
            ],
            [
              -76.84489699998602,
              38.916244999982
            ],
            [
              -76.8304699999292,
              38.93360700005287
            ],
            [
              -76.83960899969242,
              38.946059000115866
            ],
            [
              -76.77020199966985,
              38.9454049996536
            ],
            [
              -76.77352800033121,
              38.972262999820515
            ],
            [
              -76.78684099960418,
              38.972938000228496
            ],
            [
              -76.80145500015708,
              38.99692400034626
            ],
            [
              -76.78188499957159,
              39.01070900034463
            ],
            [
              -76.78480700000192,
              39.01949299980919
            ],
            [
              -76.77381100018843,
              39.02720399987689
            ],
            [
              -76.76610199977992,
              39.01853500032835
            ],
            [
              -76.75125799997157,
              39.03471399970792
            ],
            [
              -76.79235499985361,
              39.04599500030569
            ],
            [
              -76.80422899955107,
              39.06263199995265
            ],
            [
              -76.83584100006351,
              39.06796599981046
            ],
            [
              -76.82783799992711,
              39.0946259997878
            ],
            [
              -76.87022899961973,
              39.112788000240435
            ],
            [
              -76.88565599975927,
              39.13129199995621
            ],
            [
              -76.9150019999675,
              39.12669699969676
            ],
            [
              -76.92910199978617,
              39.138391999901245
            ],
            [
              -76.94857899958693,
              39.129596999855146
            ],
            [
              -76.95873300039976,
              39.134315000179505
            ],
            [
              -76.95211500031056,
              39.1462900000874
            ],
            [
              -76.99600200037844,
              39.13962999995321
            ],
            [
              -76.98885600020962,
              39.12114900031666
            ],
            [
              -76.96214899967616,
              39.11608400024694
            ],
            [
              -76.96923000044596,
              39.095218000111224
            ],
            [
              -76.94824700022421,
              39.082968000211295
            ],
            [
              -76.96269600002233,
              39.06262400028229
            ],
            [
              -76.94564000033648,
              39.054575999704355
            ],
            [
              -76.99109800022437,
              38.992405000133886
            ],
            [
              -76.98675099956391,
              38.977149000273634
            ],
            [
              -77.00355500025302,
              38.96654799986872
            ],
            [
              -76.90939300018182,
              38.89285200026212
            ],
            [
              -77.04046500020648,
              38.79040499975551
            ],
            [
              -77.03399699990511,
              38.7255669997954
            ],
            [
              -77.03981300027833,
              38.7098699996813
            ]
          ]
        ]
      }
    },
    {
      "type": "Feature",
      "id": "us-cd:119:24:05",
      "properties": {
        "boundary_id": "us-cd:119:24:05",
        "boundary_type": "congressional_district",
        "name": "5",
        "stateFips": "24",
        "congress": 119,
        "district": "05",
        "bbox": [
          -77.32300900014634,
          37.88846800014155,
          -76.20147699968247,
          39.15088300011457
        ]
      },
      "geometry": {
        "type": "Polygon",
        "coordinates": [
          [
            [
              -77.32300900014634,
              38.43345399987089
            ],
            [
              -77.30493800030916,
              38.37527100022615
            ],
            [
              -77.28379600007875,
              38.342855000262475
            ],
            [
              -77.26529500007126,
              38.333163999740115
            ],
            [
              -77.16321899955217,
              38.34582299982208
            ],
            [
              -77.13773399975759,
              38.368022999984014
            ],
            [
              -77.08667799995469,
              38.36792799978596
            ],
            [
              -77.04150499957385,
              38.400691999771816
            ],
            [
              -77.01146399977974,
              38.37442499965466
            ],
            [
              -77.01452699977706,
              38.332633999875824
            ],
            [
              -77.0281310002015,
              38.305316999818544
            ],
            [
              -76.96208599992697,
              38.25696400011916
            ],
            [
              -76.96225099978344,
              38.229888000156826
            ],
            [
              -76.9490199996279,
              38.20841799971564
            ],
            [
              -76.83936799966799,
              38.163608999821626
            ],
            [
              -76.76397299974307,
              38.16779099984873
            ],
            [
              -76.60543000000213,
              38.148933000097145
            ],
            [
              -76.59615599962139,
              38.106676000249685
            ],
            [
              -76.53645700034784,
              38.07490300014254
            ],
            [
              -76.51616000038943,
              38.044919999813416
            ],
            [
              -76.516608999928,
              38.026782999900526
            ],
            [
              -76.46500800032709,
              38.01322000030328
            ],
            [
              -76.4129339999998,
              37.96633199995898
            ],
            [
              -76.33861699997541,
              37.945285999925474
            ],
            [
              -76.23614100032154,
              37.88846800014155
            ],
            [
              -76.20147699968247,
              38.07730800023961
            ],
            [
              -76.31541400037854,
              38.29979699983864
            ],
            [
              -76.33633099957973,
              38.387965999696725
            ],
            [
              -76.42630400007252,
              38.50806400016107
            ],
            [
              -76.4486770003643,
              38.62511899993368
            ],
            [
              -76.46394600032009,
              38.70969599975211
            ],
            [
              -76.4235780003591,
              38.87951400028626
            ],
            [
              -76.54427299998815,
              38.94729400005647
            ],
            [
              -76.59373100020684,
              38.96198300003787
            ],
            [
              -76.60886399972019,
              38.98608999968768
            ],
            [
              -76.62501599958283,
              38.98836500023214
            ],
            [
              -76.6580750000667,
              39.02327399996941
            ],
            [
              -76.65045699989479,
              39.027762000016494
            ],
            [
              -76.65452699964749,
              39.03661700006586
            ],
            [
              -76.66954200005839,
              39.04352599994593
            ],
            [
              -76.64880200040919,
              39.067216999725986
            ],
            [
              -76.67538600002068,
              39.07972000019077
            ],
            [
              -76.68554099976012,
              39.101980999901016
            ],
            [
              -76.68931299958699,
              39.09646500022052
            ],
            [
              -76.70469100022103,
              39.11195199984547
            ],
            [
              -76.71959799977857,
              39.11092199970283
            ],
            [
              -76.72070699964121,
              39.12309300028108
            ],
            [
              -76.75742199960102,
              39.12669199965224
            ],
            [
              -76.75544499990015,
              39.140055000335906
            ],
            [
              -76.76721499984052,
              39.15029700008917
            ],
            [
              -76.77696200004928,
              39.15088300011457
            ],
            [
              -76.79082500004148,
              39.12528600023051
            ],
            [
              -76.82195399978184,
              39.11905300011737
            ],
            [
              -76.84036199990291,
              39.10314200011771
            ],
            [
              -76.82739199986328,
              39.093268999836
            ],
            [
              -76.83645799983157,
              39.06843700014727
            ],
            [
              -76.80422899955107,
              39.06263199995265
            ],
            [
              -76.79235499985361,
              39.04599500030569
            ],
            [
              -76.75125799997157,
              39.03471399970792
            ],
            [
              -76.76610199977992,
              39.01853500032835
            ],
            [
              -76.77381100018843,
              39.02720399987689
            ],
            [
              -76.78480700000192,
              39.01949299980919
            ],
            [
              -76.78188499957159,
              39.01070900034463
            ],
            [
              -76.80145500015708,
              38.99692400034626
            ],
            [
              -76.78684099960418,
              38.972938000228496
            ],
            [
              -76.77352800033121,
              38.972262999820515
            ],
            [
              -76.77020199966985,
              38.9454049996536
            ],
            [
              -76.83907599958994,
              38.94686400006917
            ],
            [
              -76.8304699999292,
              38.93360700005287
            ],
            [
              -76.84489699998602,
              38.916244999982
            ],
            [
              -76.8316669996554,
              38.89845299991825
            ],
            [
              -76.84734400004018,
              38.89216400010024
            ],
            [
              -76.84443900022663,
              38.869338999677424
            ],
            [
              -76.87559999975403,
              38.83897099994345
            ],
            [
              -76.87233599991526,
              38.82860300030783
            ],
            [
              -76.90578899968614,
              38.80496099985479
            ],
            [
              -76.8793570004106,
              38.758173999800874
            ],
            [
              -76.88151099966348,
              38.73124899966714
            ],
            [
              -76.95000899983992,
              38.70580200012603
            ],
            [
              -76.97153900040786,
              38.70672600012343
            ],
            [
              -76.99549299966709,
              38.685318999937444
            ],
            [
              -77.00276600005749,
              38.692907999891396
            ],
            [
              -76.99371599998275,
              38.697990999804254
            ],
            [
              -77.04339799960913,
              38.70361399996327
            ],
            [
              -77.03399699990511,
              38.7255669997954
            ],
            [
              -77.03352699955182,
              38.7465380001926
            ],
            [
              -77.04202199978279,
              38.746721000189105
            ],
            [
              -77.04619600019089,
              38.71443099995305
            ],
            [
              -77.07923200021024,
              38.713052000087686
            ],
            [
              -77.13243899979128,
              38.674142999824205
            ],
            [
              -77.12968200011572,
              38.634703999859774
            ],
            [
              -77.20369600019141,
              38.61817200014346
            ],
            [
              -77.24636200024364,
              38.59344100015755
            ],
            [
              -77.25645400023389,
              38.56058699979966
            ],
            [
              -77.27403299997648,
              38.55015200024178
            ],
            [
              -77.28530900017245,
              38.51969499973143
            ],
            [
              -77.31055799996548,
              38.49399300031637
            ],
            [
              -77.322871999879,
              38.43417099975133
            ],
            [
              -77.32300900014634,
              38.43345399987089
            ]
          ]
        ]
      }
    },
    {
      "type": "Feature",
      "id": "us-cd:119:24:06",
      "properties": {
        "boundary_id": "us-cd:119:24:06",
        "boundary_type": "congressional_district",
        "name": "6",
        "stateFips": "24",
        "congress": 119,
        "district": "06",
        "bbox": [
          -79.48765000041367,
          39.06292599993935,
          -77.10672399984291,
          39.72107800030686
        ]
      },
      "geometry": {
        "type": "Polygon",
        "coordinates": [
          [
            [
              -79.48765000041367,
              39.2799540001611
            ],
            [
              -79.48687499956353,
              39.20589600010885
            ],
            [
              -79.47299700040102,
              39.20212399995044
            ],
            [
              -79.42571300042502,
              39.22531400027896
            ],
            [
              -79.3873380000584,
              39.267820000145136
            ],
            [
              -79.34491499968044,
              39.28496900030365
            ],
            [
              -79.3460110000226,
              39.29395999973075
            ],
            [
              -79.31394400012383,
              39.304706000031686
            ],
            [
              -79.29039500002223,
              39.299452000328316
            ],
            [
              -79.28213199959487,
              39.323273000335035
            ],
            [
              -79.25384999994176,
              39.337143999743866
            ],
            [
              -79.25630799986655,
              39.357227000321664
            ],
            [
              -79.21428000039711,
              39.36348200001514
            ],
            [
              -79.19769099979317,
              39.38837299986582
            ],
            [
              -79.17695899964158,
              39.389027999946336
            ],
            [
              -79.17918399993789,
              39.396494999897826
            ],
            [
              -79.16227100036716,
              39.38812900028754
            ],
            [
              -79.15946600011272,
              39.417036000182364
            ],
            [
              -79.1437510000931,
              39.405202000179884
            ],
            [
              -79.1418429999892,
              39.417097999727346
            ],
            [
              -79.12744199987165,
              39.41817700005865
            ],
            [
              -79.12904700002686,
              39.42954200006776
            ],
            [
              -79.11082100037898,
              39.43185400011195
            ],
            [
              -79.11686000033494,
              39.438857999958486
            ],
            [
              -79.10281599969446,
              39.450482000043586
            ],
            [
              -79.10787899985716,
              39.4612209997106
            ],
            [
              -79.09454200029475,
              39.46484900005493
            ],
            [
              -79.1023830000494,
              39.47639400030024
            ],
            [
              -79.08301699967843,
              39.47147299973415
            ],
            [
              -79.06634199975908,
              39.47997099980588
            ],
            [
              -79.05690400024514,
              39.47067199985062
            ],
            [
              -79.04702499979189,
              39.483346000296066
            ],
            [
              -79.03087600030231,
              39.46525399982047
            ],
            [
              -79.01803099993619,
              39.46765600010618
            ],
            [
              -78.95657299962332,
              39.44033100007154
            ],
            [
              -78.9589100000726,
              39.46283800020067
            ],
            [
              -78.94249200007121,
              39.46894999983648
            ],
            [
              -78.93429800013912,
              39.486283999742994
            ],
            [
              -78.91672000022145,
              39.48631999997363
            ],
            [
              -78.90551299962245,
              39.51154500002729
            ],
            [
              -78.89239100014518,
              39.51327900001862
            ],
            [
              -78.89310199962458,
              39.523995999687614
            ],
            [
              -78.87514899978817,
              39.52266500005218
            ],
            [
              -78.87068700039829,
              39.538766999727194
            ],
            [
              -78.83924200029045,
              39.56700799997734
            ],
            [
              -78.81584600034974,
              39.56288099999057
            ],
            [
              -78.82572200042992,
              39.58917700016022
            ],
            [
              -78.809028000244,
              39.60818199985541
            ],
            [
              -78.79646200043541,
              39.60590199975409
            ],
            [
              -78.80140199967616,
              39.62838499986833
            ],
            [
              -78.77527900019712,
              39.64565699973579
            ],
            [
              -78.76465800030235,
              39.64589199997858
            ],
            [
              -78.7776219995959,
              39.62200000010254
            ],
            [
              -78.74676700039024,
              39.62672199980037
            ],
            [
              -78.73318700025524,
              39.61529499973999
            ],
            [
              -78.77680499981129,
              39.60413199999344
            ],
            [
              -78.76706099997558,
              39.58751099993428
            ],
            [
              -78.74633200019706,
              39.57977800019539
            ],
            [
              -78.73338999974652,
              39.58645800017369
            ],
            [
              -78.72458900009211,
              39.56391899984586
            ],
            [
              -78.68955799993023,
              39.54582399987814
            ],
            [
              -78.65469699964764,
              39.53460499982107
            ],
            [
              -78.59093799976884,
              39.53674799982372
            ],
            [
              -78.56611499994816,
              39.51937099974889
            ],
            [
              -78.52308599967274,
              39.52485399979448
            ],
            [
              -78.47194200000631,
              39.51593800017208
            ],
            [
              -78.46178800009179,
              39.52225399974402
            ],
            [
              -78.46236700022502,
              39.53636200009785
            ],
            [
              -78.44864200032505,
              39.53995999994948
            ],
            [
              -78.46111699989704,
              39.55083299987809
            ],
            [
              -78.43785800022368,
              39.538515999824334
            ],
            [
              -78.43771699975836,
              39.5533659996695
            ],
            [
              -78.41701899994199,
              39.54856000023078
            ],
            [
              -78.45427899969982,
              39.57408200027977
            ],
            [
              -78.45677199978473,
              39.58760799988636
            ],
            [
              -78.44349799997148,
              39.59133099999927
            ],
            [
              -78.40738300006132,
              39.578607000205736
            ],
            [
              -78.3948440000169,
              39.58515200015276
            ],
            [
              -78.42548599968553,
              39.60767199994947
            ],
            [
              -78.43013899976943,
              39.623415999691424
            ],
            [
              -78.37561099971532,
              39.60830700014121
            ],
            [
              -78.38236299969883,
              39.6277929998477
            ],
            [
              -78.35550600027584,
              39.62611099974077
            ],
            [
              -78.35532299997774,
              39.64066299973503
            ],
            [
              -78.26608799962685,
              39.61905499996139
            ],
            [
              -78.25406699961631,
              39.64018399974972
            ],
            [
              -78.22382499998075,
              39.66053899965787
            ],
            [
              -78.23256799990882,
              39.67358299995763
            ],
            [
              -78.20311299992065,
              39.67651000034557
            ],
            [
              -78.17174800017875,
              39.695665000196605
            ],
            [
              -78.08055600021845,
              39.670501999873274
            ],
            [
              -78.01010899993022,
              39.603043999751975
            ],
            [
              -77.97761199986114,
              39.59960800028142
            ],
            [
              -77.95504000027603,
              39.60807799991626
            ],
            [
              -77.94610200035427,
              39.58479200034106
            ],
            [
              -77.93603700012821,
              39.59674700011921
            ],
            [
              -77.9410850002223,
              39.61903499985276
            ],
            [
              -77.89197299961,
              39.59775599974852
            ],
            [
              -77.8811509998738,
              39.60097900003948
            ],
            [
              -77.88491600002797,
              39.61583300017158
            ],
            [
              -77.83414499973213,
              39.603371000173375
            ],
            [
              -77.83608700017122,
              39.566662000313634
            ],
            [
              -77.88873600043374,
              39.555409999993906
            ],
            [
              -77.8652750001957,
              39.53841199992982
            ],
            [
              -77.86117600013068,
              39.514292999731055
            ],
            [
              -77.84194500037722,
              39.51842799983581
            ],
            [
              -77.83696099985721,
              39.53211200024192
            ],
            [
              -77.82473900000524,
              39.52848400009766
            ],
            [
              -77.8453780002704,
              39.49810900015331
            ],
            [
              -77.8028910003183,
              39.48946000029831
            ],
            [
              -77.76634000039003,
              39.49623799969786
            ],
            [
              -77.79719600031889,
              39.48013899979483
            ],
            [
              -77.77760499981703,
              39.46225300020315
            ],
            [
              -77.7980060004308,
              39.46076900004981
            ],
            [
              -77.78526499982173,
              39.44540300004472
            ],
            [
              -77.80326899971176,
              39.43798999965949
            ],
            [
              -77.75418799995991,
              39.424242999824834
            ],
            [
              -77.73840699981807,
              39.39897599970949
            ],
            [
              -77.73660900021733,
              39.38714800013626
            ],
            [
              -77.75297699999001,
              39.38167899989774
            ],
            [
              -77.74338399976703,
              39.36113900025396
            ],
            [
              -77.75819400013853,
              39.33552999977613
            ],
            [
              -77.72484000010185,
              39.32143200028042
            ],
            [
              -77.67546700027195,
              39.32436000032254
            ],
            [
              -77.61591000039031,
              39.30254799983351
            ],
            [
              -77.5649800000858,
              39.30517399996323
            ],
            [
              -77.54308600036812,
              39.266915999716296
            ],
            [
              -77.48664600001214,
              39.24728100001269
            ],
            [
              -77.45770999988274,
              39.22497899979613
            ],
            [
              -77.47867200018808,
              39.18967100033515
            ],
            [
              -77.51762199959161,
              39.16941700034421
            ],
            [
              -77.527680000145,
              39.144657999976864
            ],
            [
              -77.52066799987048,
              39.12143499970913
            ],
            [
              -77.48540099970704,
              39.10930999982106
            ],
            [
              -77.45697099991594,
              39.07339900020049
            ],
            [
              -77.3421079996553,
              39.06292599993935
            ],
            [
              -77.34146800032104,
              39.078067000202594
            ],
            [
              -77.32937600016537,
              39.08775299981692
            ],
            [
              -77.34352399966464,
              39.099999000186706
            ],
            [
              -77.33207500011461,
              39.11049300029375
            ],
            [
              -77.33453300003943,
              39.13424300032422
            ],
            [
              -77.31438400021904,
              39.14696800020588
            ],
            [
              -77.26386900001621,
              39.1162340003194
            ],
            [
              -77.25540399992248,
              39.12101200002579
            ],
            [
              -77.21442300039139,
              39.100645999947595
            ],
            [
              -77.17200099983832,
              39.12514999965328
            ],
            [
              -77.18028900038004,
              39.138405999789406
            ],
            [
              -77.17210299994557,
              39.1518780001058
            ],
            [
              -77.1967740003286,
              39.16050999984811
            ],
            [
              -77.1906430003111,
              39.16944500031136
            ],
            [
              -77.21002200020258,
              39.17630600032892
            ],
            [
              -77.21096799985861,
              39.18432599989212
            ],
            [
              -77.19195700021316,
              39.19061699984044
            ],
            [
              -77.21045599967253,
              39.217018000162795
            ],
            [
              -77.16400899957259,
              39.253501000084555
            ],
            [
              -77.16282000024232,
              39.265575000233895
            ],
            [
              -77.17652800042382,
              39.27487099994832
            ],
            [
              -77.17237800030517,
              39.284628999714
            ],
            [
              -77.1446690000392,
              39.29470700014826
            ],
            [
              -77.17034700017763,
              39.31310900015879
            ],
            [
              -77.18711300033358,
              39.34059500000322
            ],
            [
              -77.16808000004852,
              39.35395700015418
            ],
            [
              -77.14803699963502,
              39.417755000113644
            ],
            [
              -77.11602199961479,
              39.45984499998776
            ],
            [
              -77.11768600021952,
              39.478618999682936
            ],
            [
              -77.10672399984291,
              39.49200999987977
            ],
            [
              -77.15002699975469,
              39.52198800029156
            ],
            [
              -77.15233999991455,
              39.53249800004337
            ],
            [
              -77.17058300017918,
              39.53439600019687
            ],
            [
              -77.16944500000422,
              39.55411800022596
            ],
            [
              -77.19993299968705,
              39.5784730000901
            ],
            [
              -77.22023700021647,
              39.57543199966116
            ],
            [
              -77.25165600038505,
              39.602100000186866
            ],
            [
              -77.26275900032864,
              39.594059999665774
            ],
            [
              -77.27098099984983,
              39.606022000246924
            ],
            [
              -77.28999900006626,
              39.60421999985607
            ],
            [
              -77.3074120001275,
              39.619031000245506
            ],
            [
              -77.29951899959597,
              39.623859999899246
            ],
            [
              -77.31129000025958,
              39.63964099968246
            ],
            [
              -77.27597299986743,
              39.63192799995826
            ],
            [
              -77.26624300027544,
              39.662268999901755
            ],
            [
              -77.2345379998766,
              39.67743399996019
            ],
            [
              -77.2432680002842,
              39.69473100000752
            ],
            [
              -77.21626100017508,
              39.69741299995112
            ],
            [
              -77.22676599971889,
              39.70730599986143
            ],
            [
              -77.21702400043134,
              39.71986100019117
            ],
            [
              -79.47666200009778,
              39.72107800030686
            ],
            [
              -79.48757699972042,
              39.281386999972185
            ],
            [
              -79.48765000041367,
              39.2799540001611
            ]
          ]
        ]
      }
    },
    {
      "type": "Feature",
      "id": "us-cd:119:24:07",
      "properties": {
        "boundary_id": "us-cd:119:24:07",
        "boundary_type": "congressional_district",
        "name": "7",
        "stateFips": "24",
        "congress": 119,
        "district": "07",
        "bbox": [
          -76.79489099959623,
          39.15662300005969,
          -76.2915799998716,
          39.37708599982026
        ]
      },
      "geometry": {
        "type": "Polygon",
        "coordinates": [
          [
            [
              -76.79489099959623,
              39.35643300034226
            ],
            [
              -76.74597100040118,
              39.32593799991832
            ],
            [
              -76.75237500023016,
              39.31300400028245
            ],
            [
              -76.74475100021044,
              39.312537000035654
            ],
            [
              -76.73884600014877,
              39.28633499970489
            ],
            [
              -76.74536799997851,
              39.28070099979134
            ],
            [
              -76.72337100032867,
              39.24977800007392
            ],
            [
              -76.72839099993537,
              39.22939500024895
            ],
            [
              -76.70042499975143,
              39.21301499996692
            ],
            [
              -76.66364299984447,
              39.23084100010824
            ],
            [
              -76.63152700044023,
              39.22386099983494
            ],
            [
              -76.61861199975387,
              39.23739799991948
            ],
            [
              -76.56739600011738,
              39.20211699973283
            ],
            [
              -76.55008599998831,
              39.197207000187646
            ],
            [
              -76.52948600008122,
              39.21840799973261
            ],
            [
              -76.51448400008913,
              39.20240599968229
            ],
            [
              -76.3494789998946,
              39.15662300005969
            ],
            [
              -76.3323589997363,
              39.204357000336564
            ],
            [
              -76.2915799998716,
              39.250102000146846
            ],
            [
              -76.37482700032014,
              39.23158899983103
            ],
            [
              -76.39542999970197,
              39.23945000009983
            ],
            [
              -76.39378100006417,
              39.24670699980163
            ],
            [
              -76.43448200011107,
              39.244107000248675
            ],
            [
              -76.44618199973128,
              39.26400599987447
            ],
            [
              -76.44348199995711,
              39.280806000148054
            ],
            [
              -76.51467300023502,
              39.30891500015593
            ],
            [
              -76.52160699979339,
              39.32997199966354
            ],
            [
              -76.52968500027285,
              39.33028000030427
            ],
            [
              -76.52979300022788,
              39.3720579997791
            ],
            [
              -76.60980500025168,
              39.37220000006619
            ],
            [
              -76.62442800012708,
              39.331880000321064
            ],
            [
              -76.64009999959067,
              39.32991500000981
            ],
            [
              -76.6511609997015,
              39.360395999895076
            ],
            [
              -76.6634889998587,
              39.355404000245606
            ],
            [
              -76.6787729998831,
              39.37215000003717
            ],
            [
              -76.7113129996099,
              39.371932999732365
            ],
            [
              -76.71118600028659,
              39.35438300012274
            ],
            [
              -76.74456200006456,
              39.37708599982026
            ],
            [
              -76.79480399955759,
              39.35653899982396
            ],
            [
              -76.79489099959623,
              39.35643300034226
            ]
          ]
        ]
      }
    },
    {
      "type": "Feature",
      "id": "us-cd:119:24:08",
      "properties": {
        "boundary_id": "us-cd:119:24:08",
        "boundary_type": "congressional_district",
        "name": "8",
        "stateFips": "24",
        "congress": 119,
        "district": "08",
        "bbox": [
          -77.34377800010783,
          38.934343000278616,
          -76.94564000033648,
          39.29470700014826
        ]
      },
      "geometry": {
        "type": "Polygon",
        "coordinates": [
          [
            [
              -77.34377800010783,
              39.10237099967469
            ],
            [
              -77.3361509997151,
              39.08839600026749
            ],
            [
              -77.32917000030106,
              39.0911099998376
            ],
            [
              -77.3421079996553,
              39.06292599993935
            ],
            [
              -77.2463170000378,
              39.0246809998502
            ],
            [
              -77.2557649995975,
              39.001883000261635
            ],
            [
              -77.24502999989993,
              38.98268400010231
            ],
            [
              -77.20069199974535,
              38.96726099987188
            ],
            [
              -77.14730299969109,
              38.96448599974185
            ],
            [
              -77.11975900017987,
              38.934343000278616
            ],
            [
              -77.04088199995799,
              38.99584500030949
            ],
            [
              -77.00355500025302,
              38.96654799986872
            ],
            [
              -76.98675099956391,
              38.977149000273634
            ],
            [
              -76.99109800022437,
              38.992405000133886
            ],
            [
              -76.94564000033648,
              39.054575999704355
            ],
            [
              -76.96269600002233,
              39.06262400028229
            ],
            [
              -76.94824700022421,
              39.082968000211295
            ],
            [
              -76.96923000044596,
              39.095218000111224
            ],
            [
              -76.96214899967616,
              39.11608400024694
            ],
            [
              -76.98885600020962,
              39.12114900031666
            ],
            [
              -76.99600200037844,
              39.13962999995321
            ],
            [
              -76.96297300003178,
              39.145840000034234
            ],
            [
              -76.97560599978752,
              39.14974699975147
            ],
            [
              -76.97347000007798,
              39.1621569996683
            ],
            [
              -77.00126899985734,
              39.16985799992459
            ],
            [
              -77.00942000013171,
              39.20673200004773
            ],
            [
              -77.07145599985458,
              39.25500799965965
            ],
            [
              -77.13058699976385,
              39.26841200005282
            ],
            [
              -77.1446690000392,
              39.29470700014826
            ],
            [
              -77.17237800030517,
              39.284628999714
            ],
            [
              -77.17652800042382,
              39.27487099994832
            ],
            [
              -77.16282000024232,
              39.265575000233895
            ],
            [
              -77.16400899957259,
              39.253501000084555
            ],
            [
              -77.21045599967253,
              39.217018000162795
            ],
            [
              -77.19195700021316,
              39.19061699984044
            ],
            [
              -77.21096799985861,
              39.18432599989212
            ],
            [
              -77.21002200020258,
              39.17630600032892
            ],
            [
              -77.1906430003111,
              39.16944500031136
            ],
            [
              -77.1967740003286,
              39.16050999984811
            ],
            [
              -77.17210299994557,
              39.1518780001058
            ],
            [
              -77.18027400031144,
              39.1391179997868
            ],
            [
              -77.1738169998807,
              39.12308900004083
            ],
            [
              -77.21442300039139,
              39.100645999947595
            ],
            [
              -77.25540399992248,
              39.12101200002579
            ],
            [
              -77.26386900001621,
              39.1162340003194
            ],
            [
              -77.31438400021904,
              39.14696800020588
            ],
            [
              -77.33453300003943,
              39.13424300032422
            ],
            [
              -77.33207500011461,
              39.11049300029375
            ],
            [
              -77.34343599980107,
              39.10330900007276
            ],
            [
              -77.34377800010783,
              39.10237099967469
            ]
          ]
        ]
      }
    }
  ]
}
