{
  "type": "FeatureCollection",
  "features": [
    {
      "type": "Feature",
      "id": "us-cd:118:16:01",
      "properties": {
        "boundary_id": "us-cd:118:16:01",
        "boundary_type": "congressional_district",
        "name": "Congressional District 1",
        "stateFips": "16",
        "congress": 118,
        "district": "01",
        "bbox": [
          -117.243027,
          41.9960123074291,
          -114.321118,
          49.000846
        ]
      },
      "geometry": {
        "type": "Polygon",
        "coordinates": [
          [
            [
              -117.242675,
              44.396548
            ],
            [
              -117.215072,
              44.427162
            ],
            [
              -117.225076,
              44.482346
            ],
            [
              -117.200237,
              44.492027
            ],
            [
              -117.181583,
              44.52296
            ],
            [
              -117.149242,
              44.536151
            ],
            [
              -117.148255,
              44.564371
            ],
            [
              -117.124754,
              44.583834
            ],
            [
              -117.120522,
              44.614658
            ],
            [
              -117.098221,
              44.640689
            ],
            [
              -117.095868,
              44.664737
            ],
            [
              -117.061799,
              44.706654
            ],
            [
              -117.062273,
              44.727143
            ],
            [
              -117.03827,
              44.748179
            ],
            [
              -116.9347,
              44.783881
            ],
            [
              -116.931099,
              44.804781
            ],
            [
              -116.900146,
              44.836672
            ],
            [
              -116.898153,
              44.854319
            ],
            [
              -116.865338,
              44.870599
            ],
            [
              -116.852427,
              44.887577
            ],
            [
              -116.832176,
              44.931373
            ],
            [
              -116.850737,
              44.958113
            ],
            [
              -116.826271,
              44.982493
            ],
            [
              -116.856964,
              44.975173
            ],
            [
              -116.844625,
              45.001435
            ],
            [
              -116.847944,
              45.022602
            ],
            [
              -116.797329,
              45.060267
            ],
            [
              -116.774847,
              45.105536
            ],
            [
              -116.754643,
              45.113972
            ],
            [
              -116.729607,
              45.142091
            ],
            [
              -116.703181,
              45.2408
            ],
            [
              -116.674493,
              45.276349
            ],
            [
              -116.673793,
              45.321511
            ],
            [
              -116.619057,
              45.39821
            ],
            [
              -116.597447,
              45.41277
            ],
            [
              -116.588195,
              45.44292
            ],
            [
              -116.554829,
              45.46293
            ],
            [
              -116.557587,
              45.503217
            ],
            [
              -116.535482,
              45.525079
            ],
            [
              -116.528558,
              45.551078
            ],
            [
              -116.48297,
              45.577008
            ],
            [
              -116.463635,
              45.602785
            ],
            [
              -116.463504,
              45.615785
            ],
            [
              -116.487894,
              45.649769
            ],
            [
              -116.535396,
              45.691734
            ],
            [
              -116.535698,
              45.734231
            ],
            [
              -116.546643,
              45.750972
            ],
            [
              -116.593004,
              45.778541
            ],
            [
              -116.665344,
              45.781998
            ],
            [
              -116.711822,
              45.826267
            ],
            [
              -116.759787,
              45.816167
            ],
            [
              -116.782676,
              45.825376
            ],
            [
              -116.796051,
              45.858473
            ],
            [
              -116.859795,
              45.907264
            ],
            [
              -116.87598,
              45.95441
            ],
            [
              -116.89091,
              45.96001
            ],
            [
              -116.892861,
              45.976373
            ],
            [
              -116.91718,
              45.996575
            ],
            [
              -116.942656,
              46.061
            ],
            [
              -116.981962,
              46.084915
            ],
            [
              -116.978823,
              46.095731
            ],
            [
              -116.955263,
              46.102237
            ],
            [
              -116.92187,
              46.167808
            ],
            [
              -116.965841,
              46.203417
            ],
            [
              -116.955264,
              46.23088
            ],
            [
              -116.966742,
              46.256923
            ],
            [
              -116.991134,
              46.276342
            ],
            [
              -116.986688,
              46.296662
            ],
            [
              -117.020663,
              46.314793
            ],
            [
              -117.023844,
              46.335976
            ],
            [
              -117.06263,
              46.352522
            ],
            [
              -117.034696,
              46.418318
            ],
            [
              -117.042657,
              47.760857
            ],
            [
              -117.032351,
              48.999188
            ],
            [
              -116.049086,
              49.000846
            ],
            [
              -116.049108,
              47.976842
            ],
            [
              -116.019758,
              47.96324
            ],
            [
              -115.918772,
              47.853656
            ],
            [
              -115.901401,
              47.843097
            ],
            [
              -115.88123,
              47.84935
            ],
            [
              -115.852312,
              47.827857
            ],
            [
              -115.847487,
              47.785227
            ],
            [
              -115.831944,
              47.755983
            ],
            [
              -115.797332,
              47.757128
            ],
            [
              -115.780853,
              47.742472
            ],
            [
              -115.784258,
              47.729963
            ],
            [
              -115.773957,
              47.717904
            ],
            [
              -115.753026,
              47.71695
            ],
            [
              -115.722789,
              47.694725
            ],
            [
              -115.736497,
              47.654738
            ],
            [
              -115.730393,
              47.642331
            ],
            [
              -115.694444,
              47.623761
            ],
            [
              -115.697217,
              47.603741
            ],
            [
              -115.68855,
              47.594333
            ],
            [
              -115.755663,
              47.5483
            ],
            [
              -115.698724,
              47.531653
            ],
            [
              -115.711398,
              47.516771
            ],
            [
              -115.690064,
              47.500794
            ],
            [
              -115.686264,
              47.48494
            ],
            [
              -115.629974,
              47.479633
            ],
            [
              -115.640133,
              47.459714
            ],
            [
              -115.717039,
              47.452575
            ],
            [
              -115.747933,
              47.441675
            ],
            [
              -115.759304,
              47.423862
            ],
            [
              -115.721435,
              47.425714
            ],
            [
              -115.712021,
              47.415406
            ],
            [
              -115.657304,
              47.400208
            ],
            [
              -115.642921,
              47.377367
            ],
            [
              -115.615401,
              47.381943
            ],
            [
              -115.577639,
              47.367404
            ],
            [
              -115.575047,
              47.355875
            ],
            [
              -115.549074,
              47.347205
            ],
            [
              -115.550179,
              47.333741
            ],
            [
              -115.538835,
              47.329059
            ],
            [
              -115.528511,
              47.299314
            ],
            [
              -115.483637,
              47.282134
            ],
            [
              -115.466691,
              47.287173
            ],
            [
              -115.453683,
              47.277391
            ],
            [
              -115.425967,
              47.280278
            ],
            [
              -115.412079,
              47.264602
            ],
            [
              -115.320147,
              47.2567
            ],
            [
              -115.324369,
              47.244724
            ],
            [
              -115.291579,
              47.210001
            ],
            [
              -115.300504,
              47.188139
            ],
            [
              -115.262422,
              47.181687
            ],
            [
              -115.245265,
              47.151751
            ],
            [
              -115.199059,
              47.139622
            ],
            [
              -115.172175,
              47.107151
            ],
            [
              -115.144341,
              47.101977
            ],
            [
              -115.131134,
              47.068956
            ],
            [
              -115.087602,
              47.045789
            ],
            [
              -115.071728,
              47.025855
            ],
            [
              -115.067301,
              46.994989
            ],
            [
              -115.048383,
              46.969819
            ],
            [
              -115.001274,
              46.971901
            ],
            [
              -114.960964,
              46.930408
            ],
            [
              -114.925295,
              46.918749
            ],
            [
              -114.936724,
              46.897329
            ],
            [
              -114.931608,
              46.876799
            ],
            [
              -114.948039,
              46.85964
            ],
            [
              -114.928853,
              46.854935
            ],
            [
              -114.920731,
              46.827083
            ],
            [
              -114.898236,
              46.822001
            ],
            [
              -114.895189,
              46.80163
            ],
            [
              -114.865779,
              46.814529
            ],
            [
              -114.829613,
              46.782967
            ],
            [
              -114.784838,
              46.780019
            ],
            [
              -114.783634,
              46.768666
            ],
            [
              -114.76519,
              46.758254
            ],
            [
              -114.765578,
              46.745623
            ],
            [
              -114.788555,
              46.713661
            ],
            [
              -114.767272,
              46.697195
            ],
            [
              -114.713923,
              46.715061
            ],
            [
              -114.698594,
              46.740451
            ],
            [
              -114.664572,
              46.739084
            ],
            [
              -114.621526,
              46.707879
            ],
            [
              -114.623169,
              46.691638
            ],
            [
              -114.642246,
              46.673618
            ],
            [
              -114.633468,
              46.672354
            ],
            [
              -114.635779,
              46.659476
            ],
            [
              -114.614464,
              46.654677
            ],
            [
              -114.61415,
              46.639059
            ],
            [
              -114.605269,
              46.635822
            ],
            [
              -114.583385,
              46.633227
            ],
            [
              -114.541304,
              46.649656
            ],
            [
              -114.467095,
              46.631764
            ],
            [
              -114.453477,
              46.649209
            ],
            [
              -114.424424,
              46.660648
            ],
            [
              -114.358528,
              46.670697
            ],
            [
              -114.321118,
              46.647514
            ],
            [
              -114.322537,
              46.611284
            ],
            [
              -114.343733,
              46.590456
            ],
            [
              -114.329788,
              46.57722
            ],
            [
              -114.347221,
              46.552421
            ],
            [
              -114.342794,
              46.518257
            ],
            [
              -114.359683,
              46.504925
            ],
            [
              -114.40255,
              46.500207
            ],
            [
              -114.400672,
              46.477813
            ],
            [
              -114.379799,
              46.460719
            ],
            [
              -114.384052,
              46.446517
            ],
            [
              -114.368541,
              46.437959
            ],
            [
              -114.381377,
              46.433879
            ],
            [
              -114.38503,
              46.411229
            ],
            [
              -114.422212,
              46.387331
            ],
            [
              -114.410493,
              46.365143
            ],
            [
              -114.414259,
              46.335483
            ],
            [
              -114.432796,
              46.3061
            ],
            [
              -114.425441,
              46.287856
            ],
            [
              -114.47072,
              46.266041
            ],
            [
              -114.468254,
              46.248796
            ],
            [
              -114.448564,
              46.232964
            ],
            [
              -114.444091,
              46.169273
            ],
            [
              -114.475953,
              46.160606
            ],
            [
              -114.514977,
              46.167415
            ],
            [
              -114.514676,
              46.153581
            ],
            [
              -114.527096,
              46.146218
            ],
            [
              -114.520513,
              46.12491
            ],
            [
              -114.475178,
              46.113179
            ],
            [
              -114.460475,
              46.09779
            ],
            [
              -114.469438,
              46.06183
            ],
            [
              -114.493475,
              46.052402
            ],
            [
              -114.507419,
              46.031861
            ],
            [
              -114.480505,
              46.030424
            ],
            [
              -114.473474,
              46.013057
            ],
            [
              -114.487783,
              46.003646
            ],
            [
              -114.479992,
              45.992902
            ],
            [
              -114.457496,
              45.997369
            ],
            [
              -114.411755,
              45.97787
            ],
            [
              -114.402524,
              45.957944
            ],
            [
              -114.431396,
              45.93604
            ],
            [
              -114.395088,
              45.900783
            ],
            [
              -114.388557,
              45.882189
            ],
            [
              -114.406231,
              45.869319
            ],
            [
              -114.410706,
              45.851824
            ],
            [
              -114.438348,
              45.862555
            ],
            [
              -114.474891,
              45.846585
            ],
            [
              -114.509303,
              45.845531
            ],
            [
              -114.5144,
              45.827131
            ],
            [
              -114.566465,
              45.77331
            ],
            [
              -114.5441,
              45.758447
            ],
            [
              -114.546527,
              45.742991
            ],
            [
              -114.504175,
              45.721659
            ],
            [
              -114.495385,
              45.703055
            ],
            [
              -114.514993,
              45.685032
            ],
            [
              -114.499049,
              45.67874
            ],
            [
              -114.509065,
              45.656806
            ],
            [
              -114.563987,
              45.637621
            ],
            [
              -114.538471,
              45.605764
            ],
            [
              -114.558325,
              45.584278
            ],
            [
              -114.552956,
              45.576603
            ],
            [
              -114.571537,
              45.549603
            ],
            [
              -114.631996,
              45.519177
            ],
            [
              -114.663725,
              45.471005
            ],
            [
              -114.680611,
              45.473949
            ],
            [
              -114.690526,
              45.490776
            ],
            [
              -114.73415,
              45.489897
            ],
            [
              -114.774378,
              45.51361
            ],
            [
              -114.788246,
              45.512489
            ],
            [
              -114.798042,
              45.496793
            ],
            [
              -114.787658,
              45.458262
            ],
            [
              -114.793207,
              45.436334
            ],
            [
              -114.769127,
              45.434557
            ],
            [
              -114.763189,
              45.41409
            ],
            [
              -114.734496,
              45.395371
            ],
            [
              -114.716235,
              45.39548
            ],
            [
              -114.69548,
              45.368898
            ],
            [
              -114.675205,
              45.3652
            ],
            [
              -114.676374,
              45.351962
            ],
            [
              -114.66347,
              45.336687
            ],
            [
              -114.60394,
              45.295826
            ],
            [
              -114.593325,
              45.297415
            ],
            [
              -114.675715,
              45.232729
            ],
            [
              -114.698839,
              45.189701
            ],
            [
              -114.722057,
              45.180056
            ],
            [
              -114.73227,
              45.151155
            ],
            [
              -114.721482,
              45.121023
            ],
            [
              -114.733191,
              45.09449
            ],
            [
              -114.719485,
              45.087967
            ],
            [
              -114.728858,
              45.071943
            ],
            [
              -114.722527,
              45.041704
            ],
            [
              -114.728735,
              45.013399
            ],
            [
              -114.721531,
              45.008205
            ],
            [
              -114.735991,
              44.974869
            ],
            [
              -114.735701,
              44.949793
            ],
            [
              -114.723272,
              44.934387
            ],
            [
              -114.735905,
              44.925044
            ],
            [
              -114.726875,
              44.903033
            ],
            [
              -114.732111,
              44.893832
            ],
            [
              -114.723294,
              44.891177
            ],
            [
              -114.734551,
              44.878746
            ],
            [
              -114.768911,
              44.872444
            ],
            [
              -114.760777,
              44.856194
            ],
            [
              -114.770946,
              44.851551
            ],
            [
              -114.766449,
              44.842742
            ],
            [
              -114.79309,
              44.836111
            ],
            [
              -114.813167,
              44.806914
            ],
            [
              -114.913627,
              44.75755
            ],
            [
              -114.915548,
              44.744806
            ],
            [
              -114.947413,
              44.723038
            ],
            [
              -114.995963,
              44.728718
            ],
            [
              -115.00962,
              44.713367
            ],
            [
              -115.017155,
              44.743422
            ],
            [
              -115.032816,
              44.734974
            ],
            [
              -115.038655,
              44.750652
            ],
            [
              -115.086232,
              44.771457
            ],
            [
              -115.11785,
              44.75566
            ],
            [
              -115.151937,
              44.728592
            ],
            [
              -115.139369,
              44.714875
            ],
            [
              -115.167998,
              44.647618
            ],
            [
              -115.18028,
              44.645884
            ],
            [
              -115.198961,
              44.624182
            ],
            [
              -115.222,
              44.630704
            ],
            [
              -115.222485,
              44.619429
            ],
            [
              -115.24949,
              44.618142
            ],
            [
              -115.260218,
              44.606219
            ],
            [
              -115.279542,
              44.61208
            ],
            [
              -115.305042,
              44.579592
            ],
            [
              -115.29036,
              44.542716
            ],
            [
              -115.294503,
              44.532124
            ],
            [
              -115.280548,
              44.518568
            ],
            [
              -115.247135,
              44.519717
            ],
            [
              -115.227553,
              44.489343
            ],
            [
              -115.226432,
              44.475418
            ],
            [
              -115.235211,
              44.470045
            ],
            [
              -115.223645,
              44.463449
            ],
            [
              -115.232281,
              44.458556
            ],
            [
              -115.231361,
              44.415347
            ],
            [
              -115.26023,
              44.370295
            ],
            [
              -115.284281,
              44.358222
            ],
            [
              -115.294614,
              44.339445
            ],
            [
              -115.288934,
              44.325855
            ],
            [
              -115.249734,
              44.311087
            ],
            [
              -115.243468,
              44.292244
            ],
            [
              -115.236791,
              44.30793
            ],
            [
              -115.213114,
              44.30451
            ],
            [
              -115.201221,
              44.282399
            ],
            [
              -115.175249,
              44.29298
            ],
            [
              -115.167514,
              44.257829
            ],
            [
              -115.156613,
              44.246948
            ],
            [
              -115.174831,
              44.235464
            ],
            [
              -115.162765,
              44.213706
            ],
            [
              -115.167684,
              44.20284
            ],
            [
              -115.1275,
              44.191667
            ],
            [
              -115.107931,
              44.17006
            ],
            [
              -115.082361,
              44.17616
            ],
            [
              -115.061735,
              44.160133
            ],
            [
              -115.026506,
              44.158227
            ],
            [
              -115.018491,
              44.138789
            ],
            [
              -115.046725,
              44.119971
            ],
            [
              -115.020525,
              44.098386
            ],
            [
              -114.998038,
              44.098227
            ],
            [
              -114.996903,
              44.090551
            ],
            [
              -115.035298,
              44.069438
            ],
            [
              -115.048135,
              44.037803
            ],
            [
              -115.017628,
              44.012521
            ],
            [
              -114.998601,
              44.020662
            ],
            [
              -114.982558,
              44.011188
            ],
            [
              -114.987427,
              43.99224
            ],
            [
              -114.967343,
              43.982088
            ],
            [
              -114.968744,
              43.973657
            ],
            [
              -114.990777,
              43.949723
            ],
            [
              -115.038453,
              43.957675
            ],
            [
              -115.074481,
              43.944036
            ],
            [
              -115.075546,
              43.954808
            ],
            [
              -115.092496,
              43.958414
            ],
            [
              -115.085703,
              43.976454
            ],
            [
              -115.10591,
              43.970248
            ],
            [
              -115.137421,
              43.984661
            ],
            [
              -115.166269,
              44.077923
            ],
            [
              -115.182283,
              44.091858
            ],
            [
              -115.230528,
              44.098766
            ],
            [
              -115.197067,
              44.068552
            ],
            [
              -115.234241,
              44.00682
            ],
            [
              -115.268385,
              43.97356
            ],
            [
              -115.278334,
              43.941881
            ],
            [
              -115.337786,
              43.921
            ],
            [
              -115.378562,
              43.923981
            ],
            [
              -115.500374,
              43.889902
            ],
            [
              -115.522871,
              43.858457
            ],
            [
              -115.537085,
              43.854062
            ],
            [
              -115.529667,
              43.816504
            ],
            [
              -115.547538,
              43.792667
            ],
            [
              -115.592796,
              43.798289
            ],
            [
              -115.615549,
              43.780662
            ],
            [
              -115.616591,
              43.762106
            ],
            [
              -115.633945,
              43.745652
            ],
            [
              -115.614684,
              43.728792
            ],
            [
              -115.634515,
              43.72348
            ],
            [
              -115.645802,
              43.70026
            ],
            [
              -115.668443,
              43.695212
            ],
            [
              -115.697508,
              43.665373
            ],
            [
              -115.730661,
              43.666059
            ],
            [
              -115.728404,
              43.655449
            ],
            [
              -115.745644,
              43.645685
            ],
            [
              -115.782024,
              43.64837
            ],
            [
              -115.829316,
              43.605645
            ],
            [
              -115.847213,
              43.607992
            ],
            [
              -115.875927,
              43.591265
            ],
            [
              -115.897201,
              43.598803
            ],
            [
              -115.919047,
              43.592254
            ],
            [
              -115.944834,
              43.608774
            ],
            [
              -115.956502,
              43.589547
            ],
            [
              -115.980277,
              43.585946
            ],
            [
              -116.263384,
              43.793792
            ],
            [
              -116.266798,
              43.761269
            ],
            [
              -116.289427,
              43.751574
            ],
            [
              -116.319489,
              43.720741
            ],
            [
              -116.320008,
              43.684569
            ],
            [
              -116.354069,
              43.69094
            ],
            [
              -116.354412,
              43.575757
            ],
            [
              -116.247842,
              43.575045
            ],
            [
              -116.240465,
              43.555914
            ],
            [
              -116.160816,
              43.542023
            ],
            [
              -116.139037,
              43.503415
            ],
            [
              -115.974881,
              43.36502
            ],
            [
              -115.978714,
              43.113432
            ],
            [
              -116.266207,
              43.112269
            ],
            [
              -116.255245,
              43.10067
            ],
            [
              -116.194137,
              43.085161
            ],
            [
              -116.20809,
              43.067645
            ],
            [
              -116.20174,
              43.04893
            ],
            [
              -116.147127,
              43.037632
            ],
            [
              -116.139684,
              43.030478
            ],
            [
              -116.145817,
              43.013416
            ],
            [
              -116.118785,
              43.012606
            ],
            [
              -116.090743,
              42.987883
            ],
            [
              -116.051452,
              42.986342
            ],
            [
              -116.008766,
              42.94934
            ],
            [
              -115.964966,
              42.943673
            ],
            [
              -115.961853,
              42.956304
            ],
            [
              -115.97211,
              42.970485
            ],
            [
              -115.964482,
              42.985462
            ],
            [
              -115.92898,
              43.001859
            ],
            [
              -115.906719,
              42.982283
            ],
            [
              -115.880118,
              42.989122
            ],
            [
              -115.846266,
              42.969258
            ],
            [
              -115.790867,
              42.971924
            ],
            [
              -115.786071,
              42.960395
            ],
            [
              -115.79631,
              42.948712
            ],
            [
              -115.771505,
              42.938664
            ],
            [
              -115.694474,
              42.939357
            ],
            [
              -115.625893,
              42.956236
            ],
            [
              -115.603065,
              42.937271
            ],
            [
              -115.56063,
              42.934684
            ],
            [
              -115.536425,
              42.942926
            ],
            [
              -115.49493,
              42.926429
            ],
            [
              -115.441522,
              42.931127
            ],
            [
              -115.441414,
              42.851105
            ],
            [
              -115.454053,
              42.85111
            ],
            [
              -115.454224,
              42.767936
            ],
            [
              -115.037697,
              42.768414
            ],
            [
              -115.038157180221,
              41.9960123074291
            ],
            [
              -117.026197,
              41.99989
            ],
            [
              -117.02155,
              43.819402
            ],
            [
              -117.032881,
              43.830025
            ],
            [
              -117.010383,
              43.844803
            ],
            [
              -117.020035,
              43.858956
            ],
            [
              -116.98294,
              43.86771
            ],
            [
              -116.976114,
              43.894759
            ],
            [
              -116.981919,
              43.912478
            ],
            [
              -116.958752,
              43.923246
            ],
            [
              -116.968931,
              43.937007
            ],
            [
              -116.960415,
              43.954564
            ],
            [
              -116.972331,
              43.958357
            ],
            [
              -116.959206,
              43.96636
            ],
            [
              -116.97618,
              43.974719
            ],
            [
              -116.935584,
              43.986874
            ],
            [
              -116.943742,
              44.003189
            ],
            [
              -116.937342,
              44.029376
            ],
            [
              -116.973185,
              44.049425
            ],
            [
              -116.977351,
              44.085364
            ],
            [
              -116.933704,
              44.100039
            ],
            [
              -116.894083,
              44.160191
            ],
            [
              -116.900103,
              44.176851
            ],
            [
              -116.925392,
              44.191544
            ],
            [
              -116.971675,
              44.197256
            ],
            [
              -116.975905,
              44.242844
            ],
            [
              -117.031862,
              44.248635
            ],
            [
              -117.05303,
              44.229076
            ],
            [
              -117.104208,
              44.27994
            ],
            [
              -117.121037,
              44.277585
            ],
            [
              -117.143394,
              44.258262
            ],
            [
              -117.170342,
              44.25889
            ],
            [
              -117.198147,
              44.273828
            ],
            [
              -117.222647,
              44.297578
            ],
            [
              -117.189769,
              44.336585
            ],
            [
              -117.235117,
              44.373853
            ],
            [
              -117.243027,
              44.390974
            ],
            [
              -117.242675,
              44.396548
            ]
          ]
        ]
      }
    },
    {
      "type": "Feature",
      "id": "us-cd:118:16:02",
      "properties": {
        "boundary_id": "us-cd:118:16:02",
        "boundary_type": "congressional_district",
        "name": "Congressional District 2",
        "stateFips": "16",
        "congress": 118,
        "district": "02",
        "bbox": [
          -116.354874,
          41.988209,
          -111.046714,
          45.705721
        ]
      },
      "geometry": {
        "type": "Polygon",
        "coordinates": [
          [
            [
              -116.354776,
              43.604956
            ],
            [
              -116.354069,
              43.69094
            ],
            [
              -116.320008,
              43.684569
            ],
            [
              -116.319489,
              43.720741
            ],
            [
              -116.289427,
              43.751574
            ],
            [
              -116.266798,
              43.761269
            ],
            [
              -116.263384,
              43.793792
            ],
            [
              -115.980277,
              43.585946
            ],
            [
              -115.956502,
              43.589547
            ],
            [
              -115.944834,
              43.608774
            ],
            [
              -115.919047,
              43.592254
            ],
            [
              -115.897201,
              43.598803
            ],
            [
              -115.875927,
              43.591265
            ],
            [
              -115.847213,
              43.607992
            ],
            [
              -115.829316,
              43.605645
            ],
            [
              -115.782024,
              43.64837
            ],
            [
              -115.758763,
              43.650414
            ],
            [
              -115.753289,
              43.643088
            ],
            [
              -115.728404,
              43.655449
            ],
            [
              -115.726387,
              43.667988
            ],
            [
              -115.697508,
              43.665373
            ],
            [
              -115.668443,
              43.695212
            ],
            [
              -115.644014,
              43.701827
            ],
            [
              -115.629357,
              43.727567
            ],
            [
              -115.616364,
              43.725785
            ],
            [
              -115.633945,
              43.745652
            ],
            [
              -115.616591,
              43.762106
            ],
            [
              -115.615549,
              43.780662
            ],
            [
              -115.592796,
              43.798289
            ],
            [
              -115.547538,
              43.792667
            ],
            [
              -115.529667,
              43.816504
            ],
            [
              -115.537085,
              43.854062
            ],
            [
              -115.522871,
              43.858457
            ],
            [
              -115.508722,
              43.884855
            ],
            [
              -115.378562,
              43.923981
            ],
            [
              -115.337786,
              43.921
            ],
            [
              -115.278334,
              43.941881
            ],
            [
              -115.268385,
              43.97356
            ],
            [
              -115.234241,
              44.00682
            ],
            [
              -115.197067,
              44.068552
            ],
            [
              -115.230528,
              44.098766
            ],
            [
              -115.182283,
              44.091858
            ],
            [
              -115.166269,
              44.077923
            ],
            [
              -115.137421,
              43.984661
            ],
            [
              -115.10591,
              43.970248
            ],
            [
              -115.085703,
              43.976454
            ],
            [
              -115.092496,
              43.958414
            ],
            [
              -115.075546,
              43.954808
            ],
            [
              -115.074481,
              43.944036
            ],
            [
              -115.038453,
              43.957675
            ],
            [
              -114.990777,
              43.949723
            ],
            [
              -114.967343,
              43.982088
            ],
            [
              -114.987427,
              43.99224
            ],
            [
              -114.982558,
              44.011188
            ],
            [
              -114.998601,
              44.020662
            ],
            [
              -115.017628,
              44.012521
            ],
            [
              -115.048135,
              44.037803
            ],
            [
              -115.035298,
              44.069438
            ],
            [
              -114.996903,
              44.090551
            ],
            [
              -114.998038,
              44.098227
            ],
            [
              -115.020525,
              44.098386
            ],
            [
              -115.046725,
              44.119971
            ],
            [
              -115.018491,
              44.138789
            ],
            [
              -115.024181,
              44.155478
            ],
            [
              -115.051284,
              44.165271
            ],
            [
              -115.061735,
              44.160133
            ],
            [
              -115.082361,
              44.17616
            ],
            [
              -115.107931,
              44.17006
            ],
            [
              -115.1275,
              44.191667
            ],
            [
              -115.167684,
              44.20284
            ],
            [
              -115.162765,
              44.213706
            ],
            [
              -115.174831,
              44.235464
            ],
            [
              -115.156613,
              44.246948
            ],
            [
              -115.167514,
              44.257829
            ],
            [
              -115.175249,
              44.29298
            ],
            [
              -115.201221,
              44.282399
            ],
            [
              -115.213114,
              44.30451
            ],
            [
              -115.236791,
              44.30793
            ],
            [
              -115.243468,
              44.292244
            ],
            [
              -115.249734,
              44.311087
            ],
            [
              -115.271407,
              44.315215
            ],
            [
              -115.293405,
              44.334554
            ],
            [
              -115.284281,
              44.358222
            ],
            [
              -115.26023,
              44.370295
            ],
            [
              -115.231952,
              44.41415
            ],
            [
              -115.232281,
              44.458556
            ],
            [
              -115.223645,
              44.463449
            ],
            [
              -115.235211,
              44.470045
            ],
            [
              -115.226432,
              44.475418
            ],
            [
              -115.227553,
              44.489343
            ],
            [
              -115.247135,
              44.519717
            ],
            [
              -115.280548,
              44.518568
            ],
            [
              -115.294503,
              44.532124
            ],
            [
              -115.29036,
              44.542716
            ],
            [
              -115.305042,
              44.579592
            ],
            [
              -115.279542,
              44.61208
            ],
            [
              -115.260218,
              44.606219
            ],
            [
              -115.24949,
              44.618142
            ],
            [
              -115.222485,
              44.619429
            ],
            [
              -115.222,
              44.630704
            ],
            [
              -115.198961,
              44.624182
            ],
            [
              -115.18028,
              44.645884
            ],
            [
              -115.167998,
              44.647618
            ],
            [
              -115.139369,
              44.714875
            ],
            [
              -115.151937,
              44.728592
            ],
            [
              -115.11785,
              44.75566
            ],
            [
              -115.086232,
              44.771457
            ],
            [
              -115.038655,
              44.750652
            ],
            [
              -115.032816,
              44.734974
            ],
            [
              -115.017155,
              44.743422
            ],
            [
              -115.00962,
              44.713367
            ],
            [
              -114.995963,
              44.728718
            ],
            [
              -114.947413,
              44.723038
            ],
            [
              -114.915548,
              44.744806
            ],
            [
              -114.913627,
              44.75755
            ],
            [
              -114.813167,
              44.806914
            ],
            [
              -114.79309,
              44.836111
            ],
            [
              -114.766449,
              44.842742
            ],
            [
              -114.770946,
              44.851551
            ],
            [
              -114.760777,
              44.856194
            ],
            [
              -114.768911,
              44.872444
            ],
            [
              -114.734551,
              44.878746
            ],
            [
              -114.723294,
              44.891177
            ],
            [
              -114.732111,
              44.893832
            ],
            [
              -114.726875,
              44.903033
            ],
            [
              -114.735905,
              44.925044
            ],
            [
              -114.723272,
              44.934387
            ],
            [
              -114.735701,
              44.949793
            ],
            [
              -114.735991,
              44.974869
            ],
            [
              -114.721531,
              45.008205
            ],
            [
              -114.728735,
              45.013399
            ],
            [
              -114.722527,
              45.041704
            ],
            [
              -114.728858,
              45.071943
            ],
            [
              -114.719485,
              45.087967
            ],
            [
              -114.733191,
              45.09449
            ],
            [
              -114.721482,
              45.121023
            ],
            [
              -114.73227,
              45.151155
            ],
            [
              -114.722057,
              45.180056
            ],
            [
              -114.698839,
              45.189701
            ],
            [
              -114.675715,
              45.232729
            ],
            [
              -114.593325,
              45.297415
            ],
            [
              -114.60394,
              45.295826
            ],
            [
              -114.66347,
              45.336687
            ],
            [
              -114.676374,
              45.351962
            ],
            [
              -114.675205,
              45.3652
            ],
            [
              -114.69548,
              45.368898
            ],
            [
              -114.716235,
              45.39548
            ],
            [
              -114.734496,
              45.395371
            ],
            [
              -114.763189,
              45.41409
            ],
            [
              -114.769127,
              45.434557
            ],
            [
              -114.793207,
              45.436334
            ],
            [
              -114.793778,
              45.508309
            ],
            [
              -114.774378,
              45.51361
            ],
            [
              -114.73415,
              45.489897
            ],
            [
              -114.690526,
              45.490776
            ],
            [
              -114.680611,
              45.473949
            ],
            [
              -114.663725,
              45.471005
            ],
            [
              -114.631996,
              45.519177
            ],
            [
              -114.564974,
              45.557807
            ],
            [
              -114.52756,
              45.570824
            ],
            [
              -114.49826,
              45.555488
            ],
            [
              -114.471946,
              45.565223
            ],
            [
              -114.456349,
              45.560989
            ],
            [
              -114.463942,
              45.545365
            ],
            [
              -114.430574,
              45.52951
            ],
            [
              -114.424683,
              45.509911
            ],
            [
              -114.366138,
              45.490982
            ],
            [
              -114.344184,
              45.459683
            ],
            [
              -114.329578,
              45.459973
            ],
            [
              -114.270449,
              45.484423
            ],
            [
              -114.247064,
              45.525156
            ],
            [
              -114.248354,
              45.545408
            ],
            [
              -114.192226,
              45.537081
            ],
            [
              -114.180652,
              45.550695
            ],
            [
              -114.136182,
              45.557019
            ],
            [
              -114.121607,
              45.584319
            ],
            [
              -114.086584,
              45.59118
            ],
            [
              -114.066962,
              45.627967
            ],
            [
              -114.018783,
              45.648496
            ],
            [
              -114.015327,
              45.663421
            ],
            [
              -114.027399,
              45.675753
            ],
            [
              -114.014824,
              45.683508
            ],
            [
              -114.015482,
              45.695901
            ],
            [
              -113.988075,
              45.705721
            ],
            [
              -113.971507,
              45.702712
            ],
            [
              -113.96188,
              45.689718
            ],
            [
              -113.939105,
              45.69578
            ],
            [
              -113.91948,
              45.65786
            ],
            [
              -113.895237,
              45.643391
            ],
            [
              -113.903684,
              45.621591
            ],
            [
              -113.861232,
              45.623589
            ],
            [
              -113.807405,
              45.602783
            ],
            [
              -113.797133,
              45.582115
            ],
            [
              -113.820873,
              45.56606
            ],
            [
              -113.834459,
              45.521092
            ],
            [
              -113.766555,
              45.520906
            ],
            [
              -113.772669,
              45.514255
            ],
            [
              -113.759986,
              45.480735
            ],
            [
              -113.776364,
              45.47042
            ],
            [
              -113.783541,
              45.451978
            ],
            [
              -113.774777,
              45.447178
            ],
            [
              -113.776809,
              45.435049
            ],
            [
              -113.760146,
              45.427436
            ],
            [
              -113.776043,
              45.408477
            ],
            [
              -113.734402,
              45.392353
            ],
            [
              -113.738879,
              45.36813
            ],
            [
              -113.729651,
              45.355717
            ],
            [
              -113.740172,
              45.343993
            ],
            [
              -113.738056,
              45.328372
            ],
            [
              -113.680834,
              45.279304
            ],
            [
              -113.692485,
              45.26344
            ],
            [
              -113.591911,
              45.184187
            ],
            [
              -113.590707,
              45.155886
            ],
            [
              -113.565407,
              45.148743
            ],
            [
              -113.576632,
              45.131518
            ],
            [
              -113.569821,
              45.124299
            ],
            [
              -113.550071,
              45.113043
            ],
            [
              -113.510262,
              45.115476
            ],
            [
              -113.506908,
              45.106918
            ],
            [
              -113.522502,
              45.091736
            ],
            [
              -113.487097,
              45.074652
            ],
            [
              -113.485308,
              45.063547
            ],
            [
              -113.452044,
              45.059174
            ],
            [
              -113.45579,
              45.040169
            ],
            [
              -113.437882,
              45.007343
            ],
            [
              -113.44663,
              44.99782
            ],
            [
              -113.444388,
              44.958745
            ],
            [
              -113.498373,
              44.941685
            ],
            [
              -113.471948,
              44.909456
            ],
            [
              -113.477988,
              44.895222
            ],
            [
              -113.4612,
              44.886754
            ],
            [
              -113.455071,
              44.865424
            ],
            [
              -113.42875,
              44.854213
            ],
            [
              -113.421579,
              44.837554
            ],
            [
              -113.377115,
              44.834829
            ],
            [
              -113.356062,
              44.819798
            ],
            [
              -113.3461,
              44.800611
            ],
            [
              -113.354435,
              44.793032
            ],
            [
              -113.341822,
              44.784944
            ],
            [
              -113.247603,
              44.822861
            ],
            [
              -113.190334,
              44.79979
            ],
            [
              -113.163409,
              44.778779
            ],
            [
              -113.131831,
              44.773038
            ],
            [
              -113.13428,
              44.752267
            ],
            [
              -113.101597,
              44.729388
            ],
            [
              -113.097833,
              44.698868
            ],
            [
              -113.067761,
              44.678786
            ],
            [
              -113.065589,
              44.649253
            ],
            [
              -113.049808,
              44.629066
            ],
            [
              -113.087542,
              44.59951
            ],
            [
              -113.037792,
              44.565083
            ],
            [
              -113.04422,
              44.54337
            ],
            [
              -113.007952,
              44.52718
            ],
            [
              -113.0265,
              44.494593
            ],
            [
              -113.006702,
              44.471651
            ],
            [
              -113.005059,
              44.45372
            ],
            [
              -112.93958,
              44.412502
            ],
            [
              -112.902662,
              44.399101
            ],
            [
              -112.889154,
              44.405205
            ],
            [
              -112.88152,
              44.379629
            ],
            [
              -112.855086,
              44.35997
            ],
            [
              -112.813153,
              44.376697
            ],
            [
              -112.811106,
              44.398878
            ],
            [
              -112.839427,
              44.425119
            ],
            [
              -112.779844,
              44.484613
            ],
            [
              -112.744163,
              44.488241
            ],
            [
              -112.71911,
              44.504344
            ],
            [
              -112.66357,
              44.486249
            ],
            [
              -112.541712,
              44.483771
            ],
            [
              -112.500189,
              44.462963
            ],
            [
              -112.472041,
              44.4791
            ],
            [
              -112.432982,
              44.454452
            ],
            [
              -112.406709,
              44.457251
            ],
            [
              -112.387339,
              44.447597
            ],
            [
              -112.358483,
              44.485736
            ],
            [
              -112.35421,
              44.535638
            ],
            [
              -112.319198,
              44.53911
            ],
            [
              -112.312899,
              44.553536
            ],
            [
              -112.286041,
              44.568605
            ],
            [
              -112.242785,
              44.568091
            ],
            [
              -112.229342,
              44.564108
            ],
            [
              -112.221698,
              44.543519
            ],
            [
              -112.183937,
              44.533067
            ],
            [
              -112.137075,
              44.539767
            ],
            [
              -112.106755,
              44.520829
            ],
            [
              -112.069583,
              44.536901
            ],
            [
              -112.032386,
              44.528725
            ],
            [
              -112.032707,
              44.546642
            ],
            [
              -111.977455,
              44.535837
            ],
            [
              -111.947047,
              44.556978
            ],
            [
              -111.868756,
              44.565834
            ],
            [
              -111.82153,
              44.508941
            ],
            [
              -111.808102,
              44.511177
            ],
            [
              -111.801119,
              44.525985
            ],
            [
              -111.761601,
              44.5268
            ],
            [
              -111.746401,
              44.540766
            ],
            [
              -111.715648,
              44.543369
            ],
            [
              -111.701745,
              44.559952
            ],
            [
              -111.612669,
              44.548768
            ],
            [
              -111.586507,
              44.562657
            ],
            [
              -111.547052,
              44.557176
            ],
            [
              -111.51527,
              44.537016
            ],
            [
              -111.468269,
              44.538976
            ],
            [
              -111.469318,
              44.557552
            ],
            [
              -111.507408,
              44.562079
            ],
            [
              -111.50134,
              44.57249
            ],
            [
              -111.522646,
              44.59025
            ],
            [
              -111.521585,
              44.615021
            ],
            [
              -111.502489,
              44.62682
            ],
            [
              -111.516167,
              44.644059
            ],
            [
              -111.491934,
              44.643134
            ],
            [
              -111.472255,
              44.666896
            ],
            [
              -111.476511,
              44.673724
            ],
            [
              -111.468514,
              44.678733
            ],
            [
              -111.484898,
              44.687578
            ],
            [
              -111.488784,
              44.705643
            ],
            [
              -111.442733,
              44.720232
            ],
            [
              -111.414273,
              44.710739
            ],
            [
              -111.397759,
              44.724077
            ],
            [
              -111.397362,
              44.746847
            ],
            [
              -111.385106,
              44.754898
            ],
            [
              -111.355153,
              44.727195
            ],
            [
              -111.323052,
              44.728555
            ],
            [
              -111.322484,
              44.718776
            ],
            [
              -111.266804,
              44.667512
            ],
            [
              -111.278477,
              44.651265
            ],
            [
              -111.253183,
              44.651173
            ],
            [
              -111.220145,
              44.622996
            ],
            [
              -111.240332,
              44.613687
            ],
            [
              -111.227504,
              44.577172
            ],
            [
              -111.18103,
              44.569231
            ],
            [
              -111.173755,
              44.549333
            ],
            [
              -111.131382,
              44.532429
            ],
            [
              -111.138618,
              44.516854
            ],
            [
              -111.127383,
              44.49762
            ],
            [
              -111.048974,
              44.474072
            ],
            [
              -111.046714,
              42.001702
            ],
            [
              -112.775055,
              41.999806
            ],
            [
              -113.867726,
              41.988209
            ],
            [
              -114.831077,
              42.002207
            ],
            [
              -115.038157180221,
              41.9960123074291
            ],
            [
              -115.037697,
              42.768414
            ],
            [
              -115.454224,
              42.767936
            ],
            [
              -115.454053,
              42.85111
            ],
            [
              -115.441414,
              42.851105
            ],
            [
              -115.441522,
              42.931127
            ],
            [
              -115.49493,
              42.926429
            ],
            [
              -115.536425,
              42.942926
            ],
            [
              -115.56063,
              42.934684
            ],
            [
              -115.603065,
              42.937271
            ],
            [
              -115.625893,
              42.956236
            ],
            [
              -115.694474,
              42.939357
            ],
            [
              -115.771505,
              42.938664
            ],
            [
              -115.79631,
              42.948712
            ],
            [
              -115.786071,
              42.960395
            ],
            [
              -115.790867,
              42.971924
            ],
            [
              -115.846266,
              42.969258
            ],
            [
              -115.880118,
              42.989122
            ],
            [
              -115.906719,
              42.982283
            ],
            [
              -115.92898,
              43.001859
            ],
            [
              -115.964482,
              42.985462
            ],
            [
              -115.97211,
              42.970485
            ],
            [
              -115.961853,
              42.956304
            ],
            [
              -115.965575,
              42.94352
            ],
            [
              -116.012826,
              42.950206
            ],
            [
              -116.051452,
              42.986342
            ],
            [
              -116.090743,
              42.987883
            ],
            [
              -116.118785,
              43.012606
            ],
            [
              -116.145817,
              43.013416
            ],
            [
              -116.141584,
              43.034124
            ],
            [
              -116.205042,
              43.051755
            ],
            [
              -116.20809,
              43.067645
            ],
            [
              -116.194137,
              43.085161
            ],
            [
              -116.255245,
              43.10067
            ],
            [
              -116.266207,
              43.112269
            ],
            [
              -115.978714,
              43.113432
            ],
            [
              -115.974881,
              43.36502
            ],
            [
              -116.139037,
              43.503415
            ],
            [
              -116.160816,
              43.542023
            ],
            [
              -116.240465,
              43.555914
            ],
            [
              -116.247842,
              43.575045
            ],
            [
              -116.354412,
              43.575757
            ],
            [
              -116.354874,
              43.603698
            ],
            [
              -116.354776,
              43.604956
            ]
          ]
        ]
      }
    }
  ]
}
